01/06/2023 16:51->METAR KJFK 011651Z 19007KT 10SM CLR 23/15 A3010 RMK AO2 SLP192 T02330150=
26/08/2023 00:51->METAR KJFK 260051Z 18007KT 10SM SCT060 22/22 A2984 RMK AO2 SLP103 T02220217 $=
26/08/2023 02:51->METAR KJFK 260251Z 19003KT 10SM FEW080 SCT200 22/22 A2984 RMK AO2 SLP105 T02170217 53003 $=
26/08/2023 01:51->METAR KJFK 260151Z 18003KT 10SM FEW065 22/22 A2984 RMK AO2 SLP103 T02220217 $=
02/07/2023 03:51->METAR KJFK 020351Z 15008KT 10SM SCT011 BKN050 BKN060 OVC250 22/20 A2997 RMK AO2 SLP150 T02170200 $=
02/07/2023 02:51->METAR KJFK 020251Z 17007KT 10SM BKN046 BKN055 OVC250 22/19 A2998 RMK AO2 SLP152 T02170194 56006 $=
26/08/2023 04:51->METAR KJFK 260451Z 21003KT 10SM SCT050 BKN150 22/22 A2984 RMK AO2 SLP103 T02220217 402500211 $=
26/08/2023 03:51->METAR KJFK 260351Z 23004KT 10SM FEW075 SCT200 22/22 A2984 RMK AO2 SLP104 T02220217 $=
25/08/2023 22:51->METAR KJFK 252251Z 19013KT 10SM FEW020 FEW033 BKN060 23/22 A2983 RMK AO2 SLP102 T02330217 $=
25/08/2023 20:51->METAR KJFK 252051Z 19015KT 10SM FEW029 SCT037 BKN060 24/22 A2985 RMK AO2 SLP107 T02390222 56003 $=
25/08/2023 23:51->METAR KJFK 252351Z 19011KT 10SM FEW020 FEW033 SCT060 23/22 A2983 RMK AO2 SLP102 T02280217 10250 20228 57005 $=
01/06/2023 13:51->METAR KJFK 011351Z 21005KT 10SM FEW250 22/14 A3013 RMK AO2 SLP202 T02170144=
01/06/2023 14:51->METAR KJFK 011451Z 21008KT 10SM FEW250 22/15 A3012 RMK AO2 SLP200 T02220150 58005=
01/06/2023 12:51->METAR KJFK 011251Z 00000KT 10SM FEW250 FEW300 21/14 A3014 RMK AO2 SLP205 FU FEW300 T02110144=
01/06/2023 11:51->METAR KJFK 011151Z 00000KT 10SM FEW300 19/14 A3014 RMK AO2 SLP204 FU FEW300 T01890139 10189 20139 53006=
01/07/2023 21:51->METAR KJFK 012151Z 18009KT 9SM BKN250 24/18 A3000 RMK AO2 SLP160 T02440178 $=
01/07/2023 20:51->METAR KJFK 012051Z 15010KT 9SM FEW075 BKN250 25/18 A3002 RMK AO2 SLP166 T02500178 56015 $=
25/08/2023 16:51->METAR KJFK 251651Z 18013KT 10SM FEW009 SCT049 BKN065 BKN140 23/23 A2987 RMK AO2 RAE18 SLP116 P0000 T02330228=
01/06/2023 08:51->METAR KJFK 010851Z 01004KT 10SM FEW300 14/12 A3012 RMK AO2 SLP199 FU FEW300 T01440122 56010=
01/06/2023 07:51->METAR KJFK 010751Z 03003KT 10SM FEW300 14/12 A3012 RMK AO2 SLP199 FU FEW300 T01440122=
01/06/2023 06:51->METAR KJFK 010651Z 01004KT 10SM FEW300 15/12 A3014 RMK AO2 SLP206 FU FEW300 T01500122=
01/07/2023 18:51->METAR KJFK 011851Z 18012KT 10SM FEW075 BKN250 26/17 A3004 RMK AO2 SLP173 T02560172 $=
01/06/2023 05:51->METAR KJFK 010551Z 00000KT 10SM FEW300 15/12 A3015 RMK AO2 SLP209 FU FEW300 T01500122 10167 20144 58002=
01/06/2023 03:51->METAR KJFK 010351Z 00000KT 10SM FEW300 16/13 A3016 RMK AO2 SLP213 FU FEW300 T01560128=
01/06/2023 10:51->METAR KJFK 011051Z 04003KT 10SM FEW300 17/13 A3013 RMK AO2 SLP202 FU FEW300 T01670133=
02/07/2023 01:51->METAR KJFK 020151Z 15008KT 10SM BKN049 OVC200 22/19 A2999 RMK AO2 SLP155 T02170194 $=
01/07/2023 22:51->METAR KJFK 012251Z 17009KT 9SM FEW100 BKN250 23/18 A2999 RMK AO2 SLP155 T02280183 $=
02/07/2023 00:51->METAR KJFK 020051Z 16008KT 10SM SCT100 BKN250 22/18 A2999 RMK AO2 SLP154 T02170183 $=
01/07/2023 23:51->METAR KJFK 012351Z 16009KT 10SM FEW070 FEW100 BKN250 22/19 A3000 RMK AO2 SLP157 T02220189 10261 20222 55008 $=
25/08/2023 21:51->METAR KJFK 252151Z 20015KT 10SM FEW016 FEW033 BKN060 24/22 A2985 RMK AO2 SLP106 T02390222 $=
01/06/2023 15:51->METAR KJFK 011551Z 21008KT 10SM FEW300 23/14 A3012 RMK AO2 SLP197 FU FEW300 T02280144=
01/06/2023 00:51->METAR KJFK 010051Z 13004KT 10SM FEW250 FEW300 16/13 A3016 RMK AO2 SLP213 FU FEW300 T01560128=
31/05/2023 23:51->METAR KJFK 312351Z 13005KT 10SM FEW250 FEW300 17/13 A3016 RMK AO2 SLP212 FU FEW300 T01670128 10211 20167 56004=
25/08/2023 18:51->METAR KJFK 251851Z 19014KT 10SM SCT009 BKN027 OVC035 24/22 A2986 RMK AO2 SLP110 T02390222 $=
25/08/2023 19:51->METAR KJFK 251951Z 19016KT 10SM FEW009 BKN027 OVC060 24/22 A2985 RMK AO2 SLP107 T02390222 $=
25/08/2023 17:51->METAR KJFK 251751Z 18015KT 10SM SCT009 BKN018 BKN055 BKN140 24/22 A2987 RMK AO2 SLP115 60018 T02440222 10250 20211 56012 $=
01/06/2023 09:51->METAR KJFK 010951Z 00000KT 10SM FEW300 14/12 A3013 RMK AO2 SLP201 FU FEW300 T01440122=
25/08/2023 15:51->METAR KJFK 251551Z 20011KT 7SM -RA SCT008 BKN028 BKN055 OVC140 22/22 A2990 RMK AO2 RAB04 SLP123 P0003 T02220222=
31/05/2023 22:51->METAR KJFK 312251Z 13008KT 10SM FEW250 SCT300 18/13 A3016 RMK AO2 SLP213 FU SCT300 T01830133=
01/07/2023 19:51->METAR KJFK 011951Z 17011KT 8SM FEW075 BKN250 25/17 A3003 RMK AO2 SLP168 T02500172 $=
25/08/2023 11:51->METAR KJFK 251151Z 18012KT 2SM R04R/4000VP6000FT +RA BR FEW007 BKN019CB OVC041 21/21 A2991 RMK AO2 SFC VIS 3 LTG DSNT S TSB1058E33 SLP128 OCNL LTGIC SE-S CB SE-S MOV E P0023 60023 70025 T02110211 10228 20211 56008=
25/08/2023 14:51->METAR KJFK 251451Z 20017KT 10SM FEW007 SCT019 BKN110 OVC140 22/22 A2990 RMK AO2 RAE1357B16E48 SLP126 P0000 60015 T02220217 55002=
31/05/2023 20:51->METAR KJFK 312051Z 15010KT 10SM FEW250 SCT300 19/14 A3017 RMK AO2 SLP216 FU SCT300 T01890139 56013=
25/08/2023 09:51->METAR KJFK 250951Z 18013KT 10SM SCT018 OVC044 23/21 A2992 RMK AO2 SLP130 T02280206=
31/05/2023 19:51->METAR KJFK 311951Z 17005KT 10SM FEW250 SCT300 20/14 A3018 RMK AO2 SLP219 FU SCT300 T02000139=
01/06/2023 04:51->METAR KJFK 010451Z 03003KT 10SM FEW300 16/13 A3015 RMK AO2 SLP210 FU FEW300 T01560128 402110089=
01/07/2023 17:51->METAR KJFK 011751Z 17012KT 10SM BKN250 26/18 A3007 RMK AO2 SLP181 T02610183 10267 20217 56007 $=
25/08/2023 07:51->METAR KJFK 250751Z 18010KT 10SM -RA FEW020 OVC043 22/20 A2995 RMK AO2 RAB32 SLP142 P0000 T02170200=
01/06/2023 02:51->METAR KJFK 010251Z 00000KT 10SM FEW300 15/12 A3016 RMK AO2 SLP211 FU FEW300 T01500122 58001=
01/06/2023 01:51->METAR KJFK 010151Z 07003KT 10SM FEW250 FEW300 16/13 A3016 RMK AO2 SLP212 FU FEW300 T01560128=
31/05/2023 16:51->METAR KJFK 311651Z 18008KT 10SM FEW250 SCT300 19/13 A3022 RMK AO2 SLP231 FU SCT300 T01940133=
31/05/2023 17:51->METAR KJFK 311751Z 19007KT 10SM FEW250 FEW300 20/14 A3021 RMK AO2 SLP229 FU FEW300 T02000139 10206 20117 58005=
31/05/2023 15:51->METAR KJFK 311551Z 18009KT 10SM FEW250 19/13 A3022 RMK AO2 SLP234 T01940128=
31/05/2023 13:51->METAR KJFK 311351Z 00000KT 10SM FEW018 FEW250 17/09 A3024 RMK AO2 SLP240 T01720089=
31/05/2023 11:51->METAR KJFK 311151Z 06003KT 8SM FEW006 SCT250 12/09 A3024 RMK AO2 SLP240 T01170089 10117 20089 50015=
31/05/2023 10:51->METAR KJFK 311051Z 00000KT 6SM BR BKN006 10/09 A3024 RMK AO2 SLP240 T01000094=
25/08/2023 13:51->METAR KJFK 251351Z 18014KT 10SM -RA FEW008 SCT013 BKN026 OVC140 22/22 A2990 RMK AO2 SLP123 P0001 T02220217=
31/05/2023 08:51->METAR KJFK 310851Z 05004KT 10SM FEW009 FEW300 09/08 A3020 RMK AO2 SLP225 FU FEW300 T00890078 56005=
31/05/2023 21:51->METAR KJFK 312151Z 15009KT 10SM FEW250 SCT300 19/14 A3017 RMK AO2 SLP214 FU SCT300 T01940139=
31/05/2023 07:51->METAR KJFK 310751Z 06004KT 10SM FEW009 FEW300 10/09 A3020 RMK AO2 SLP226 FU FEW300 T01000089=
25/08/2023 12:51->METAR KJFK 251251Z 19015KT 8SM -RA SCT026 BKN050 BKN095 OVC140 22/22 A2990 RMK AO2 LTG DSNT SW SLP126 P0014 T02170217=
31/05/2023 06:51->METAR KJFK 310651Z 04005KT 10SM FEW300 10/08 A3020 RMK AO2 SLP227 FU FEW300 T01000083=
25/08/2023 03:51->METAR KJFK 250351Z 16014KT 10SM BKN028 BKN035 OVC055 22/19 A2999 RMK AO2 SLP154 T02170194=
25/08/2023 10:51->METAR KJFK 251051Z 20014KT 8SM -RA BKN026 BKN047 OVC100 22/21 A2993 RMK AO2 LTG DSNT SW AND W RAB31 SLP133 OCNL LTGIC DSNT SW-W CB DSNT SW-W MOV E P0000 T02220211=
25/08/2023 08:51->METAR KJFK 250851Z 18011KT 10SM FEW018 OVC044 22/20 A2993 RMK AO2 RAE0754B14E23 SLP136 P0000 60000 T02170200 58015=
31/05/2023 04:51->METAR KJFK 310451Z 05004KT 10SM FEW300 11/09 A3022 RMK AO2 SLP231 FU FEW300 T01110089 401890100=
31/05/2023 18:51->METAR KJFK 311851Z 18009KT 10SM FEW250 FEW300 21/14 A3020 RMK AO2 SLP226 FU FEW300 T02060139=
25/08/2023 01:51->METAR KJFK 250151Z 17010KT 10SM FEW015 OVC055 22/18 A3003 RMK AO2 RAE0053 SLP169 P0000 T02170178=
25/08/2023 06:51->METAR KJFK 250651Z 19013KT 10SM OVC045 22/19 A2997 RMK AO2 SLP147 T02220189=
25/08/2023 05:51->METAR KJFK 250551Z 18014KT 10SM FEW024 SCT032 OVC045 22/20 A2998 RMK AO2 SLP151 60000 T02170200 10217 20211 55005=
31/05/2023 03:51->METAR KJFK 310351Z 05004KT 10SM FEW300 11/09 A3022 RMK AO2 SLP234 FU FEW300 T01110094=
31/05/2023 02:51->METAR KJFK 310251Z 11007KT 10SM FEW300 12/10 A3022 RMK AO2 SLP234 FU FEW300 T01220100 53009=
31/05/2023 14:51->METAR KJFK 311451Z 00000KT 9SM FEW250 19/10 A3023 RMK AO2 SLP235 T01890100 58004=
31/05/2023 12:51->METAR KJFK 311251Z 01003KT 10SM FEW012 SCT250 14/08 A3024 RMK AO2 SLP241 T01440083=
24/08/2023 22:51->METAR KJFK 242251Z 15013KT 10SM FEW017 SCT039 OVC060 22/17 A3004 RMK AO2 SLP171 T02170172=
31/05/2023 01:51->METAR KJFK 310151Z 10008KT 10SM FEW300 13/09 A3021 RMK AO2 SLP231 FU FEW300 T01280094=
31/05/2023 09:51->METAR KJFK 310951Z 05005KT 2 1/2SM OVC006 10/09 A3022 RMK AO2 SFC VIS 7 SLP233 T01000094=
30/05/2023 23:51->METAR KJFK 302351Z 11012KT 10SM FEW300 15/07 A3020 RMK AO2 SLP225 FU FEW300 T01500072 10189 20150 53003=
24/08/2023 20:51->METAR KJFK 242051Z 16013KT 10SM SCT016 BKN036 OVC065 22/17 A3004 RMK AO2 SLP173 60002 T02170172 57011=
25/08/2023 04:51->METAR KJFK 250451Z 17018KT 10SM SCT025 OVC055 22/20 A2997 RMK AO2 SLP149 T02170200 402280200=
30/05/2023 21:51->METAR KJFK 302151Z 13011KT 10SM FEW250 SCT300 17/09 A3019 RMK AO2 SLP222 FU SCT300 T01670094=
30/05/2023 19:51->METAR KJFK 301951Z 12008KT 9SM FEW250 BKN300 18/09 A3020 RMK AO2 SLP227 FU BKN300 T01780089=
24/08/2023 19:51->METAR KJFK 241951Z 15014KT 10SM SCT017 SCT028CB OVC050 21/18 A3005 RMK AO2 RAE48 SLP176 CB W-NW MOV N VCSH W-NW P0002 T02110183=
31/05/2023 05:51->METAR KJFK 310551Z 06003KT 10SM FEW300 11/09 A3021 RMK AO2 SLP230 FU FEW300 T01060089 10150 20106 58004=
30/05/2023 18:51->METAR KJFK 301851Z 11011KT 9SM FEW250 BKN300 18/07 A3022 RMK AO2 SLP234 FU BKN300 T01830072=
30/05/2023 17:51->METAR KJFK 301751Z 14014KT 9SM FEW250 BKN300 18/07 A3024 RMK AO2 SLP239 FU BKN300 T01780067 10189 20144 55000=
24/08/2023 17:51->METAR KJFK 241751Z 16011KT 10SM -RA FEW021 BKN050 OVC075 21/17 A3008 RMK AO2 RAB51 SLP184 VCSH SE-S P0000 60000 T02060167 10228 20206 56006=
30/05/2023 15:51->METAR KJFK 301551Z 14012KT 10SM FEW250 BKN300 18/08 A3024 RMK AO2 SLP239 FU BKN300 T01780078=
25/08/2023 02:51->METAR KJFK 250251Z 16014KT 10SM FEW022 OVC055 21/19 A2999 RMK AO2 SLP156 60000 T02110194 58016=
24/08/2023 16:51->METAR KJFK 241651Z 17010KT 10SM SCT021 BKN044 OVC070 22/18 A3008 RMK AO2 RAB1554E12 SLP185 VCSH S-W P0000 T02170183=
25/08/2023 00:51->METAR KJFK 250051Z 18011KT 10SM -RA FEW017 OVC042 21/18 A3005 RMK AO2 RAB42 SLP176 P0000 T02110183=
24/08/2023 15:51->METAR KJFK 241551Z 15013G19KT 10SM SCT023 BKN032 OVC070 22/18 A3008 RMK AO2 SLP186 T02220178=
24/08/2023 14:51->METAR KJFK 241451Z 16013KT 10SM BKN030 BKN041 OVC080 22/18 A3009 RMK AO2 SLP190 T02220178 53009=
24/08/2023 23:51->METAR KJFK 242351Z 16011KT 10SM FEW017 SCT038 OVC055 22/17 A3004 RMK AO2 RAB32E42 SLP172 P0000 60002 T02170172 10222 20200 55001=
24/08/2023 12:51->METAR KJFK 241251Z 15010KT 10SM FEW028 BKN085 OVC140 22/17 A3008 RMK AO2 SLP184 T02170172=
24/08/2023 21:51->METAR KJFK 242151Z 15011KT 10SM FEW016 BKN039 OVC060 22/17 A3004 RMK AO2 SLP171 T02170172=
24/08/2023 11:51->METAR KJFK 241151Z 16009KT 10SM FEW025 BKN090 BKN140 22/18 A3007 RMK AO2 SLP182 T02170178 10217 20206 53001=
31/05/2023 00:51->METAR KJFK 310051Z 11010KT 10SM FEW300 13/09 A3020 RMK AO2 SLP226 FU FEW300 T01330089=
24/08/2023 09:51->METAR KJFK 240951Z 13006KT 10SM FEW034 OVC100 21/17 A3006 RMK AO2 SLP179 T02110172=
30/05/2023 22:51->METAR KJFK 302251Z 11010KT 10SM SCT300 16/09 A3019 RMK AO2 SLP223 FU SCT300 T01560089=
24/08/2023 07:51->METAR KJFK 240751Z 16005KT 10SM OVC110 21/17 A3007 RMK AO2 SLP182 T02060172=
24/08/2023 06:51->METAR KJFK 240651Z 15007KT 10SM OVC110 21/17 A3007 RMK AO2 SLP181 T02060167=
24/08/2023 05:51->METAR KJFK 240551Z 14006KT 10SM BKN120 21/16 A3006 RMK AO2 SLP180 T02060161 10211 20206 58009=
30/05/2023 20:51->METAR KJFK 302051Z 12011KT 10SM FEW250 BKN300 18/10 A3019 RMK AO2 SLP222 FU BKN300 T01830100 56017=
24/08/2023 04:51->METAR KJFK 240451Z 15005KT 10SM BKN120 OVC150 21/15 A3009 RMK AO2 SLP188 T02060150 402500172=
24/08/2023 18:51->METAR KJFK 241851Z 17004KT 4SM R04R/5000VP6000FT -RA BR FEW017 BKN036 OVC046 20/19 A3007 RMK AO2 SLP182 P0000 T02000189=
30/05/2023 10:51->METAR KJFK 301051Z 05007KT 10SM FEW027 FEW250 12/08 A3019 RMK AO2 SLP224 T01220078=
24/08/2023 01:51->METAR KJFK 240151Z 16005KT 10SM OVC140 21/15 A3010 RMK AO2 SLP194 T02060150=
30/05/2023 16:51->METAR KJFK 301651Z 13011KT 10SM FEW047 FEW250 BKN300 18/06 A3024 RMK AO2 SLP238 FU BKN300 T01830061=
30/05/2023 09:51->METAR KJFK 300951Z 04008KT 10SM FEW250 11/07 A3019 RMK AO2 SLP222 T01060072=
30/05/2023 14:51->METAR KJFK 301451Z 14008KT 10SM FEW045 FEW250 SCT300 18/08 A3024 RMK AO2 SLP239 FU SCT300 T01780083 51013=
30/05/2023 13:51->METAR KJFK 301351Z 09009KT 060V130 10SM FEW040 FEW250 SCT300 17/07 A3023 RMK AO2 SLP236 FU SCT300 T01670067=
30/05/2023 08:51->METAR KJFK 300851Z 04009KT 10SM CLR 11/07 A3019 RMK AO2 SLP224 T01060072 55000=
30/05/2023 06:51->METAR KJFK 300651Z 05007KT 10SM CLR 11/08 A3020 RMK AO2 SLP225 T01110078=
24/08/2023 13:51->METAR KJFK 241351Z 16013KT 10SM SCT029 OVC080 22/18 A3008 RMK AO2 SLP186 T02170178=
30/05/2023 04:51->METAR KJFK 300451Z 06007KT 10SM CLR 13/09 A3019 RMK AO2 SLP221 T01330089 402390133=
24/08/2023 10:51->METAR KJFK 241051Z 15009KT 10SM FEW026 BKN095 OVC140 21/18 A3006 RMK AO2 SLP180 T02110178=
30/05/2023 07:51->METAR KJFK 300751Z 03007KT 10SM CLR 11/08 A3019 RMK AO2 SLP223 T01110078=
24/08/2023 08:51->METAR KJFK 240851Z 14006KT 10SM FEW032 OVC110 21/17 A3006 RMK AO2 SLP180 T02110167 50001=
30/05/2023 05:51->METAR KJFK 300551Z 05007KT 10SM CLR 12/09 A3019 RMK AO2 SLP224 T01220089 10167 20122 53004=
30/05/2023 12:51->METAR KJFK 301251Z 05012KT 10SM FEW040 FEW250 SCT300 16/07 A3021 RMK AO2 SLP229 FU SCT300 T01610072=
23/08/2023 22:51->METAR KJFK 232251Z 13010KT 10SM FEW055 BKN140 BKN250 21/15 A3007 RMK AO2 SLP183 T02110150=
30/05/2023 03:51->METAR KJFK 300351Z 09009KT 10SM FEW250 14/09 A3018 RMK AO2 SLP220 T01390094=
23/08/2023 23:51->METAR KJFK 232351Z 13011KT 10SM BKN150 BKN250 21/16 A3007 RMK AO2 SLP183 T02060156 10244 20206 56010=
30/05/2023 11:51->METAR KJFK 301151Z 06014KT 10SM FEW034 FEW250 14/07 A3020 RMK AO2 SLP226 T01440072 10144 20100 53002=
23/08/2023 21:51->METAR KJFK 232151Z 15008KT 10SM FEW055 SCT150 SCT250 21/15 A3009 RMK AO2 SLP190 T02110150=
30/05/2023 02:51->METAR KJFK 300251Z 10009KT 10SM FEW250 14/09 A3018 RMK AO2 SLP220 T01440094 51025=
29/05/2023 23:51->METAR KJFK 292351Z 11019G26KT 10SM SCT250 17/09 A3011 RMK AO2 PK WND 12028/2314 SLP194 T01670089 10228 20167 53016=
29/05/2023 22:51->METAR KJFK 292251Z 11017G24KT 10SM SCT250 18/08 A3008 RMK AO2 PK WND 11027/2159 SLP187 T01830083=
24/08/2023 03:51->METAR KJFK 240351Z 16006KT 10SM OVC130 21/15 A3009 RMK AO2 SLP189 T02060150=
30/05/2023 01:51->METAR KJFK 300151Z 08014G21KT 10SM FEW250 15/09 A3017 RMK AO2 SLP214 T01500089=
23/08/2023 19:51->METAR KJFK 231951Z 18009KT 10SM FEW055 SCT160 SCT250 23/16 A3011 RMK AO2 SLP197 T02330156=
23/08/2023 18:51->METAR KJFK 231851Z 19008KT 10SM FEW055 FEW170 SCT250 24/16 A3012 RMK AO2 SLP198 T02390156=
24/08/2023 02:51->METAR KJFK 240251Z 15008KT 10SM BKN140 BKN250 21/15 A3009 RMK AO2 SLP189 T02060150 50006=
29/05/2023 19:51->METAR KJFK 291951Z 11021G26KT 10SM SCT250 22/09 A3006 RMK AO2 PK WND 10026/1920 SLP179 T02170089=
29/05/2023 18:51->METAR KJFK 291851Z 10016G22KT 10SM SCT250 22/09 A3006 RMK AO2 PK WND 11027/1834 SLP178 T02220089=
30/05/2023 00:51->METAR KJFK 300051Z 09013KT 10SM SCT250 16/09 A3014 RMK AO2 PK WND 10029/0029 SLP204 T01560094=
23/08/2023 20:51->METAR KJFK 232051Z 16008KT 10SM FEW055 SCT160 SCT250 22/16 A3010 RMK AO2 SLP193 T02220156 58008=
23/08/2023 16:51->METAR KJFK 231651Z 18010KT 10SM FEW060 SCT170 SCT250 24/14 A3012 RMK AO2 SLP199 T02390139=
29/05/2023 17:51->METAR KJFK 291751Z 11018KT 10SM FEW250 22/09 A3006 RMK AO2 PK WND 11027/1701 SLP179 T02220089 10239 20183 53006=
23/08/2023 15:51->METAR KJFK 231551Z 05005KT 10SM FEW060 SCT170 SCT250 24/12 A3014 RMK AO2 SLP206 T02390122=
29/05/2023 21:51->METAR KJFK 292151Z 12016G25KT 10SM SCT250 19/08 A3007 RMK AO2 PK WND 11026/2053 SLP181 T01940083=
24/08/2023 00:51->METAR KJFK 240051Z 13006KT 10SM OVC140 21/16 A3009 RMK AO2 SLP189 T02060156=
23/08/2023 14:51->METAR KJFK 231451Z 00000KT 10SM FEW060 BKN170 BKN250 23/13 A3016 RMK AO2 SLP214 T02330128 50001=
29/05/2023 20:51->METAR KJFK 292051Z 11021G26KT 10SM SCT250 21/07 A3006 RMK AO2 PK WND 10027/2004 SLP178 T02110072 50000=
29/05/2023 15:51->METAR KJFK 291551Z 12021G25KT 10SM SCT250 23/08 A3004 RMK AO2 PK WND 10026/1457 SLP173 T02330078=
23/08/2023 17:51->METAR KJFK 231751Z 18009KT 10SM FEW060 FEW170 SCT250 24/14 A3013 RMK AO2 SLP201 T02390144 10250 20189 55013=
29/05/2023 13:51->METAR KJFK 291351Z 07012KT 10SM FEW200 SCT250 23/11 A3003 RMK AO2 SLP167 T02280111=
23/08/2023 11:51->METAR KJFK 231151Z 03010KT 10SM FEW060 BKN180 BKN250 19/11 A3016 RMK AO2 SLP213 T01940106 10200 20172 51011=
29/05/2023 16:51->METAR KJFK 291651Z 11018G24KT 10SM SCT250 23/09 A3005 RMK AO2 PK WND 11027/1600 SLP175 T02280094=
23/08/2023 09:51->METAR KJFK 230951Z 03008KT 10SM FEW060 SCT250 17/11 A3014 RMK AO2 SLP206 T01720106=
29/05/2023 14:51->METAR KJFK 291451Z 09014G22KT 10SM SCT250 23/12 A3004 RMK AO2 SLP172 T02280122 51017=
29/05/2023 09:51->METAR KJFK 290951Z 26003KT 10SM SCT250 15/12 A2997 RMK AO2 SLP147 T01500117=
23/08/2023 13:51->METAR KJFK 231351Z 05008KT 10SM BKN170 BKN250 21/12 A3017 RMK AO2 SLP214 T02110122=
23/08/2023 07:51->METAR KJFK 230751Z 02009KT 10SM SCT070 SCT250 19/11 A3012 RMK AO2 SLP199 T01890111=
23/08/2023 12:51->METAR KJFK 231251Z 03009KT 10SM BKN170 BKN250 20/12 A3016 RMK AO2 SLP214 T02000117=
23/08/2023 06:51->METAR KJFK 230651Z 02011KT 10SM SCT065 BKN250 19/12 A3012 RMK AO2 SLP199 T01940117=
29/05/2023 12:51->METAR KJFK 291251Z 03010KT 10SM FEW160 FEW200 BKN250 22/12 A3001 RMK AO2 SLP161 T02170117=
29/05/2023 11:51->METAR KJFK 291151Z 27003KT 10SM FEW160 FEW200 BKN250 18/13 A2999 RMK AO2 SLP155 T01830133 10189 20139 53013=
23/08/2023 10:51->METAR KJFK 231051Z 01007KT 10SM FEW060 BKN180 BKN250 18/11 A3016 RMK AO2 SLP212 T01780106=
29/05/2023 10:51->METAR KJFK 291051Z 26003KT 10SM FEW200 BKN250 18/13 A2998 RMK AO2 SLP151 T01780128=
23/08/2023 08:51->METAR KJFK 230851Z 03009KT 10SM FEW065 SCT250 18/11 A3013 RMK AO2 SLP202 T01780111 53007=
23/08/2023 05:51->METAR KJFK 230551Z 04007KT 10SM SCT060 SCT250 19/13 A3011 RMK AO2 SLP196 T01940133 10233 20183 52001=
29/05/2023 08:51->METAR KJFK 290851Z 20005KT 10SM FEW250 14/12 A2995 RMK AO2 SLP143 T01440117 56008=
29/05/2023 07:51->METAR KJFK 290751Z 20008KT 10SM FEW250 14/12 A2996 RMK AO2 SLP143 T01440122=
23/08/2023 03:51->METAR KJFK 230351Z 36008KT 10SM FEW070 SCT250 21/12 A3011 RMK AO2 SLP196 T02110122=
29/05/2023 06:51->METAR KJFK 290651Z 23005KT 10SM FEW250 16/11 A2996 RMK AO2 SLP146 T01560111=
23/08/2023 02:51->METAR KJFK 230251Z 36007KT 10SM FEW065 BKN250 22/13 A3011 RMK AO2 SLP195 T02170128 51009=
23/08/2023 04:51->METAR KJFK 230451Z 06004KT 10SM FEW065 SCT250 19/13 A3011 RMK AO2 SLP195 T01890128 402610189=
23/08/2023 01:51->METAR KJFK 230151Z 35007KT 10SM FEW060 SCT250 22/13 A3010 RMK AO2 SLP194 T02220133=
23/08/2023 00:51->METAR KJFK 230051Z 02005KT 10SM SCT250 23/11 A3010 RMK AO2 SLP192 T02280111=
22/08/2023 23:51->METAR KJFK 222351Z 04005KT 10SM FEW060 BKN250 23/12 A3008 RMK AO2 SLP186 T02330117 10261 20228 51006=
29/05/2023 05:51->METAR KJFK 290551Z 23004KT 10SM FEW250 15/12 A2998 RMK AO2 SLP151 T01500117 10167 20144 58016=
22/08/2023 22:51->METAR KJFK 222251Z 36009KT 10SM FEW060 BKN250 24/13 A3008 RMK AO2 SLP186 T02440128=
29/05/2023 03:51->METAR KJFK 290351Z 23006KT 10SM SCT250 15/12 A3000 RMK AO2 SLP160 T01500117=
29/05/2023 00:51->METAR KJFK 290051Z 19008KT 10SM FEW150 FEW200 BKN250 16/12 A3002 RMK AO2 SLP166 T01610122=
29/05/2023 04:51->METAR KJFK 290451Z 23006KT 10SM SCT250 14/11 A3000 RMK AO2 SLP159 T01440111 402170128=
22/08/2023 20:51->METAR KJFK 222051Z 02012G18KT 10SM FEW055 BKN250 26/13 A3006 RMK AO2 SLP180 T02560128 56007=
29/05/2023 02:51->METAR KJFK 290251Z 22007KT 10SM FEW180 SCT250 16/13 A3003 RMK AO2 SLP167 T01560128 50003=
22/08/2023 18:51->METAR KJFK 221851Z 01009G17KT 10SM FEW050 BKN250 26/13 A3008 RMK AO2 SLP185 T02560128=
29/05/2023 01:51->METAR KJFK 290151Z 20009KT 10SM FEW180 BKN250 16/12 A3003 RMK AO2 SLP168 T01610122=
22/08/2023 17:51->METAR KJFK 221751Z 01013KT 10SM SCT050 BKN250 24/13 A3009 RMK AO2 SLP188 T02440128 10250 20194 58004=
28/05/2023 23:51->METAR KJFK 282351Z 19008KT 10SM FEW150 FEW200 BKN250 17/12 A3002 RMK AO2 SLP164 T01670122 10217 20167 56014=
22/08/2023 21:51->METAR KJFK 222151Z 01009KT 10SM FEW055 BKN250 26/13 A3007 RMK AO2 SLP182 T02560128=
22/08/2023 16:51->METAR KJFK 221651Z 02008G17KT 350V050 10SM FEW050 BKN250 24/13 A3009 RMK AO2 SLP189 T02390133=
22/08/2023 19:51->METAR KJFK 221951Z 01008G16KT 10SM FEW055 BKN250 26/13 A3006 RMK AO2 SLP180 T02560128=
28/05/2023 20:51->METAR KJFK 282051Z 17011KT 10SM FEW070 FEW150 SCT200 BKN250 21/09 A3006 RMK AO2 SLP179 T02060094 58023=
22/08/2023 15:51->METAR KJFK 221551Z 02012KT 10SM FEW050 BKN250 23/13 A3010 RMK AO2 SLP193 T02330133=
22/08/2023 14:51->METAR KJFK 221451Z 03012G19KT 10SM FEW043 BKN250 22/12 A3010 RMK AO2 SLP192 T02170122 53007=
22/08/2023 13:51->METAR KJFK 221351Z 02014KT 10SM FEW170 BKN250 21/12 A3009 RMK AO2 SLP188 T02110117=
28/05/2023 22:51->METAR KJFK 282251Z 18009KT 10SM FEW150 FEW200 BKN250 17/12 A3003 RMK AO2 SLP168 T01720122=
28/05/2023 21:51->METAR KJFK 282151Z 17011KT 10SM FEW070 FEW150 SCT200 BKN250 19/11 A3004 RMK AO2 SLP171 T01940106=
28/05/2023 19:51->METAR KJFK 281951Z 17012KT 10SM FEW070 FEW150 FEW200 BKN250 21/07 A3008 RMK AO2 SLP187 T02110067=
28/05/2023 18:51->METAR KJFK 281851Z 19009KT 10SM FEW070 FEW150 FEW200 BKN250 21/04 A3011 RMK AO2 SLP195 T02110039=
28/05/2023 14:51->METAR KJFK 281451Z 19008KT 10SM FEW200 BKN250 19/08 A3018 RMK AO2 SLP219 T01940083 58011=
22/08/2023 09:51->METAR KJFK 220951Z 02009KT 10SM SCT120 BKN150 BKN250 21/13 A3003 RMK AO2 SLP169 T02110128=
22/08/2023 10:51->METAR KJFK 221051Z 01015KT 10SM SCT120 BKN250 21/12 A3006 RMK AO2 SLP178 T02060117=
22/08/2023 07:51->METAR KJFK 220751Z 36013KT 10SM SCT065 BKN250 22/16 A3001 RMK AO2 SLP162 T02220161=
22/08/2023 12:51->METAR KJFK 221251Z 02014KT 10SM FEW120 SCT170 BKN250 20/11 A3008 RMK AO2 SLP186 T02000111=
28/05/2023 17:51->METAR KJFK 281751Z 21008KT 10SM FEW200 BKN250 21/07 A3013 RMK AO2 SLP202 T02110067 10217 20178 58017=
22/08/2023 11:51->METAR KJFK 221151Z 01014KT 10SM SCT120 SCT170 BKN250 19/12 A3008 RMK AO2 SLP185 T01940117 10239 20194 53020=
28/05/2023 13:51->METAR KJFK 281351Z 20005KT 10SM FEW200 BKN250 19/06 A3019 RMK AO2 SLP223 T01890061=
28/05/2023 16:51->METAR KJFK 281651Z 19006KT 10SM FEW200 BKN250 21/07 A3015 RMK AO2 SLP209 T02110067=
22/08/2023 08:51->METAR KJFK 220851Z 36012KT 10SM FEW070 BKN140 BKN250 22/15 A3002 RMK AO2 SLP165 T02170150 55001=
28/05/2023 15:51->METAR KJFK 281551Z 19009KT 10SM FEW200 BKN250 20/10 A3017 RMK AO2 SLP216 T02000100=
22/08/2023 02:51->METAR KJFK 220251Z 33011KT 10SM BKN250 27/18 A3000 RMK AO2 SLP159 T02720183 50002=
22/08/2023 05:51->METAR KJFK 220551Z 01013G19KT 10SM FEW033 BKN075 BKN250 24/18 A3002 RMK AO2 SLP166 T02390178 10289 20239 52006=
22/08/2023 03:51->METAR KJFK 220351Z 36007KT 10SM BKN250 26/19 A3001 RMK AO2 SLP162 T02610189=
28/05/2023 12:51->METAR KJFK 281251Z 20007KT 10SM FEW200 BKN250 18/07 A3021 RMK AO2 SLP228 T01830067=
28/05/2023 10:51->METAR KJFK 281051Z 23005KT 10SM FEW200 BKN250 16/08 A3022 RMK AO2 SLP231 T01560083=
22/08/2023 04:51->METAR KJFK 220451Z 02008KT 10SM BKN250 25/19 A3001 RMK AO2 SLP163 T02500194 403110144=
28/05/2023 08:51->METAR KJFK 280851Z 21004KT 10SM SCT250 14/09 A3022 RMK AO2 SLP231 T01390094 58008=
22/08/2023 06:51->METAR KJFK 220651Z 35013KT 10SM SCT033 BKN060 BKN250 23/17 A3001 RMK AO2 SLP161 T02280167=
21/08/2023 23:51->METAR KJFK 212351Z 35008KT 10SM FEW055 BKN250 29/19 A3000 RMK AO2 SLP157 T02890189 10311 20289 53003=
28/05/2023 11:51->METAR KJFK 281151Z 24004KT 10SM FEW200 BKN250 18/08 A3021 RMK AO2 SLP230 T01780083 10178 20128 57001=
21/08/2023 22:51->METAR KJFK 212251Z 32013KT 10SM FEW055 BKN250 29/18 A2999 RMK AO2 SLP156 T02940183=
28/05/2023 09:51->METAR KJFK 280951Z 22003KT 10SM SCT250 13/09 A3021 RMK AO2 SLP231 T01330089=
28/05/2023 06:51->METAR KJFK 280651Z 23004KT 10SM SCT250 14/07 A3023 RMK AO2 SLP237 T01390067=
28/05/2023 05:51->METAR KJFK 280551Z 24005KT 10SM OVC250 14/06 A3024 RMK AO2 SLP239 T01440061 10161 20133 58014=
22/08/2023 01:51->METAR KJFK 220151Z 35007KT 10SM BKN250 28/19 A3001 RMK AO2 SLP161 T02780189=
28/05/2023 07:51->METAR KJFK 280751Z 22004KT 10SM FEW250 13/08 A3022 RMK AO2 SLP234 T01330078=
21/08/2023 20:51->METAR KJFK 212051Z 32012KT 10SM SCT048 BKN250 31/20 A2999 RMK AO2 SLP154 T03060200 56010=
22/08/2023 00:51->METAR KJFK 220051Z 31008KT 10SM FEW055 BKN250 28/19 A3000 RMK AO2 SLP159 T02830189=
28/05/2023 04:51->METAR KJFK 280451Z 25006KT 10SM BKN250 14/06 A3026 RMK AO2 SLP245 T01390061 402280100=
21/08/2023 21:51->METAR KJFK 212151Z 34013G19KT 10SM FEW055 BKN250 31/19 A2999 RMK AO2 SLP154 T03060194=
28/05/2023 01:51->METAR KJFK 280151Z 19007KT 10SM BKN250 15/07 A3029 RMK AO2 SLP255 T01500072=
28/05/2023 00:51->METAR KJFK 280051Z 18007KT 10SM BKN250 16/09 A3028 RMK AO2 SLP252 T01560089=
28/05/2023 02:51->METAR KJFK 280251Z 20007KT 10SM SCT250 14/09 A3028 RMK AO2 SLP253 T01440089 50002=
21/08/2023 16:51->METAR KJFK 211651Z 29009G18KT 260V320 10SM FEW055 BKN250 31/20 A3004 RMK AO2 SLP171 T03110200=
21/08/2023 15:51->METAR KJFK 211551Z 24005KT 10SM FEW075 FEW100 BKN250 30/20 A3005 RMK AO2 SLP175 T03000200=
21/08/2023 19:51->METAR KJFK 211951Z 24005KT 10SM BKN055 BKN250 29/21 A2999 RMK AO2 SLP155 T02940206=
27/05/2023 22:51->METAR KJFK 272251Z 18010KT 10SM BKN250 18/10 A3027 RMK AO2 SLP249 T01780100=
27/05/2023 20:51->METAR KJFK 272051Z 15011KT 10SM BKN250 21/06 A3028 RMK AO2 SLP253 T02110061 56007=
28/05/2023 03:51->METAR KJFK 280351Z 23006KT 10SM BKN250 14/08 A3027 RMK AO2 SLP250 T01390083=
21/08/2023 18:51->METAR KJFK 211851Z 33007KT 10SM SCT055 BKN250 30/21 A3000 RMK AO2 SLP159 T03000206=
21/08/2023 12:51->METAR KJFK 211251Z 25006KT 10SM BKN090 BKN250 24/19 A3007 RMK AO2 SLP183 T02440194 $=
27/05/2023 23:51->METAR KJFK 272351Z 18009KT 10SM BKN250 16/12 A3027 RMK AO2 SLP251 T01610117 10228 20161 55002=
21/08/2023 17:51->METAR KJFK 211751Z 32011KT 10SM FEW055 BKN250 31/21 A3002 RMK AO2 SLP164 T03060206 10311 20233 58016=
21/08/2023 11:51->METAR KJFK 211151Z 24006KT 10SM SCT120 BKN250 23/19 A3007 RMK AO2 SLP182 T02330194 10233 20211 50003 $=
27/05/2023 17:51->METAR KJFK 271751Z 17009KT 10SM SCT250 22/06 A3030 RMK AO2 SLP260 T02220061 10228 20178 57010=
21/08/2023 14:51->METAR KJFK 211451Z 25007KT 10SM FEW075 SCT100 BKN250 28/20 A3006 RMK AO2 SLP180 T02780200 58002=
27/05/2023 21:51->METAR KJFK 272151Z 17012KT 10SM BKN250 19/10 A3027 RMK AO2 SLP251 T01940100=
27/05/2023 19:51->METAR KJFK 271951Z 18010KT 10SM BKN250 21/08 A3029 RMK AO2 SLP255 T02110078=
21/08/2023 10:51->METAR KJFK 211051Z 25007KT 10SM FEW130 BKN250 22/19 A3007 RMK AO2 SLP183 T02170194 $=
21/08/2023 13:51->METAR KJFK 211351Z 25006KT 10SM FEW095 BKN250 26/19 A3007 RMK AO2 SLP182 T02610194=
27/05/2023 15:51->METAR KJFK 271551Z 18007KT 10SM BKN250 22/08 A3032 RMK AO2 SLP267 T02220078=
21/08/2023 07:51->METAR KJFK 210751Z 24009KT 10SM BKN250 22/19 A3006 RMK AO2 SLP178 T02220194=
27/05/2023 18:51->METAR KJFK 271851Z 19010KT 10SM BKN250 22/08 A3029 RMK AO2 SLP257 T02220078=
27/05/2023 14:51->METAR KJFK 271451Z VRB03KT 10SM SCT250 22/06 A3033 RMK AO2 SLP270 T02220056 57001=
27/05/2023 12:51->METAR KJFK 271251Z 09005KT 10SM SCT250 20/06 A3034 RMK AO2 SLP272 T02000061=
27/05/2023 16:51->METAR KJFK 271651Z 17007KT 10SM BKN250 22/07 A3031 RMK AO2 SLP263 T02220072=
21/08/2023 05:51->METAR KJFK 210551Z 24009KT 10SM SCT250 23/19 A3008 RMK AO2 SLP184 T02280189 10250 20228 56005=
21/08/2023 09:51->METAR KJFK 210951Z 25007KT 10SM SCT130 BKN250 22/20 A3006 RMK AO2 SLP179 T02170200 $=
21/08/2023 03:51->METAR KJFK 210351Z 25008KT 10SM BKN250 23/20 A3009 RMK AO2 SLP187 T02330200=
21/08/2023 08:51->METAR KJFK 210851Z 24009KT 10SM BKN250 22/19 A3006 RMK AO2 SLP179 T02220194 55005=
27/05/2023 10:51->METAR KJFK 271051Z 00000KT 10SM FEW250 15/09 A3032 RMK AO2 SLP268 T01500094=
27/05/2023 08:51->METAR KJFK 270851Z 21003KT 10SM FEW250 12/07 A3029 RMK AO2 SLP255 T01220067 56002=
21/08/2023 06:51->METAR KJFK 210651Z 24008KT 10SM BKN250 22/19 A3006 RMK AO2 SLP179 T02170189=
27/05/2023 13:51->METAR KJFK 271351Z 07005KT 10SM BKN250 21/05 A3033 RMK AO2 SLP270 T02110050=
27/05/2023 07:51->METAR KJFK 270751Z 31007KT 10SM FEW250 14/04 A3029 RMK AO2 SLP256 T01390044=
21/08/2023 04:51->METAR KJFK 210451Z 25009KT 10SM BKN250 23/19 A3008 RMK AO2 SLP185 T02330189 402780172=
27/05/2023 11:51->METAR KJFK 271151Z 02005KT 10SM SCT250 18/07 A3033 RMK AO2 SLP271 T01780067 10178 20100 51016=
21/08/2023 00:51->METAR KJFK 210051Z 24006KT 10SM SCT200 BKN250 23/20 A3008 RMK AO2 SLP185 T02330200=
27/05/2023 09:51->METAR KJFK 270951Z 00000KT 10SM FEW250 12/07 A3031 RMK AO2 SLP263 T01220072=
27/05/2023 06:51->METAR KJFK 270651Z 29007KT 10SM FEW250 14/04 A3029 RMK AO2 SLP257 T01390039=
20/08/2023 23:51->METAR KJFK 202351Z 19006KT 10SM SCT200 BKN250 24/21 A3007 RMK AO2 SLP181 T02390206 10278 20239 56001=
27/05/2023 05:51->METAR KJFK 270551Z 27007KT 10SM FEW250 14/05 A3029 RMK AO2 SLP258 T01390050 10161 20133 51004=
21/08/2023 02:51->METAR KJFK 210251Z 26008KT 10SM FEW200 BKN250 24/18 A3009 RMK AO2 SLP190 T02440178 51008=
21/08/2023 01:51->METAR KJFK 210151Z 24008KT 10SM FEW200 BKN250 24/18 A3008 RMK AO2 SLP186 T02440178=
20/08/2023 22:51->METAR KJFK 202251Z 21008KT 10SM SCT200 BKN250 26/18 A3007 RMK AO2 SLP182 T02560183=
27/05/2023 04:51->METAR KJFK 270451Z 25008KT 10SM FEW250 14/06 A3029 RMK AO2 SLP257 T01440061 402280106=
20/08/2023 20:51->METAR KJFK 202051Z 19010KT 10SM SCT200 BKN250 27/19 A3007 RMK AO2 SLP182 T02670189 56010=
27/05/2023 01:51->METAR KJFK 270151Z 20007KT 10SM FEW250 14/09 A3028 RMK AO2 SLP253 T01440089=
27/05/2023 03:51->METAR KJFK 270351Z 25008KT 10SM CLR 14/07 A3029 RMK AO2 SLP258 T01440067=
20/08/2023 18:51->METAR KJFK 201851Z 19011KT 10SM FEW200 FEW250 27/18 A3009 RMK AO2 WSHFT 1753 SLP188 T02670178=
20/08/2023 21:51->METAR KJFK 202151Z 19008KT 10SM SCT200 BKN250 26/19 A3007 RMK AO2 SLP181 T02560189=
20/08/2023 17:51->METAR KJFK 201751Z 24012KT 10SM FEW250 28/16 A3010 RMK AO2 SLP191 T02780156 10278 20206 56011=
27/05/2023 02:51->METAR KJFK 270251Z 23007KT 10SM CLR 14/06 A3028 RMK AO2 SLP254 T01390061 51010=
27/05/2023 00:51->METAR KJFK 270051Z 19008KT 10SM FEW250 16/09 A3026 RMK AO2 SLP248 T01560089=
26/05/2023 22:51->METAR KJFK 262251Z 18008KT 10SM FEW250 18/07 A3024 RMK AO2 SLP241 T01830072=
20/08/2023 19:51->METAR KJFK 201951Z 19011KT 10SM SCT200 SCT250 27/18 A3008 RMK AO2 SLP185 T02670183=
26/05/2023 23:51->METAR KJFK 262351Z 19008KT 10SM SCT250 16/11 A3025 RMK AO2 SLP244 T01610106 10228 20161 51008=
26/05/2023 21:51->METAR KJFK 262151Z 20009KT 10SM FEW075 SCT250 19/07 A3024 RMK AO2 SLP240 T01940072=
20/08/2023 16:51->METAR KJFK 201651Z 24014KT 10SM FEW250 27/15 A3010 RMK AO2 SLP193 T02670150=
20/08/2023 14:51->METAR KJFK 201451Z 23009KT 10SM FEW250 26/15 A3013 RMK AO2 SLP203 T02560150 50004=
20/08/2023 15:51->METAR KJFK 201551Z 23010KT 10SM FEW250 27/14 A3012 RMK AO2 SLP200 T02670144=
20/08/2023 13:51->METAR KJFK 201351Z 25005KT 10SM FEW250 24/16 A3014 RMK AO2 SLP204 T02390156=
26/05/2023 20:51->METAR KJFK 262051Z 03011G16KT 340V050 10SM FEW075 FEW250 22/02 A3023 RMK AO2 SLP236 T02220022 58009=
26/05/2023 18:51->METAR KJFK 261851Z 03007G19KT 10SM FEW075 FEW250 22/02 A3025 RMK AO2 SLP243 T02170017=
26/05/2023 17:51->METAR KJFK 261751Z 03011G17KT 10SM FEW075 FEW250 22/02 A3026 RMK AO2 SLP246 T02170022 10217 20156 58012=
26/05/2023 15:51->METAR KJFK 261551Z 01009G18KT 10SM FEW075 FEW250 20/02 A3029 RMK AO2 SLP256 T02000017=
26/05/2023 16:51->METAR KJFK 261651Z 01011G16KT 10SM FEW075 FEW250 21/02 A3027 RMK AO2 SLP251 T02110017=
20/08/2023 09:51->METAR KJFK 200951Z 27006KT 10SM SCT200 BKN250 18/13 A3010 RMK AO2 SLP191 T01830133=
20/08/2023 12:51->METAR KJFK 201251Z 24005KT 10SM FEW190 FEW250 22/15 A3013 RMK AO2 SLP201 T02220150=
20/08/2023 08:51->METAR KJFK 200851Z 29007KT 10SM BKN250 19/13 A3008 RMK AO2 SLP185 T01940133 52007=
26/05/2023 14:51->METAR KJFK 261451Z 05007KT 10SM FEW070 FEW250 19/00 A3029 RMK AO2 SLP258 T01890000 50004=
26/05/2023 12:51->METAR KJFK 261251Z 36006KT 10SM FEW250 17/04 A3029 RMK AO2 SLP258 T01720039=
26/05/2023 19:51->METAR KJFK 261951Z 02009G18KT 10SM FEW075 FEW250 22/01 A3025 RMK AO2 SLP242 T02170011=
20/08/2023 11:51->METAR KJFK 201151Z 23004KT 10SM SCT190 SCT250 21/15 A3012 RMK AO2 SLP199 T02060150 10206 20172 51014=
26/05/2023 10:51->METAR KJFK 261051Z 36006KT 10SM FEW250 13/06 A3027 RMK AO2 SLP248 T01280061=
20/08/2023 05:51->METAR KJFK 200551Z 25008KT 10SM FEW250 20/16 A3006 RMK AO2 SLP178 T02000156 10244 20194 50005=
20/08/2023 10:51->METAR KJFK 201051Z 27005KT 10SM FEW190 SCT250 19/15 A3011 RMK AO2 SLP196 T01890150=
26/05/2023 09:51->METAR KJFK 260951Z 36006KT 10SM FEW250 11/06 A3025 RMK AO2 SLP243 T01060056=
20/08/2023 07:51->METAR KJFK 200751Z 26011KT 10SM BKN250 20/14 A3007 RMK AO2 SLP182 T02000139=
26/05/2023 08:51->METAR KJFK 260851Z 01004KT 10SM FEW080 11/06 A3023 RMK AO2 SLP237 T01110056 53004=
26/05/2023 13:51->METAR KJFK 261351Z 36009KT 10SM FEW250 18/02 A3030 RMK AO2 SLP259 T01830017=
20/08/2023 03:51->METAR KJFK 200351Z 26007KT 10SM FEW250 22/13 A3005 RMK AO2 SLP176 T02170128=
26/05/2023 11:51->METAR KJFK 261151Z 03006KT 10SM FEW250 15/06 A3028 RMK AO2 SLP254 T01500056 10150 20106 53017=
20/08/2023 02:51->METAR KJFK 200251Z 25008KT 10SM CLR 22/14 A3004 RMK AO2 SLP173 T02170139 51018=
