26/08/2023 03:51->METAR KJFK 260351Z 23004KT 10SM FEW075 SCT200 22/22 A2984 RMK AO2 SLP104 T02220217 $=
26/08/2023 02:51->METAR KJFK 260251Z 19003KT 10SM FEW080 SCT200 22/22 A2984 RMK AO2 SLP105 T02170217 53003 $=
26/08/2023 01:51->METAR KJFK 260151Z 18003KT 10SM FEW065 22/22 A2984 RMK AO2 SLP103 T02220217 $=
26/08/2023 00:51->METAR KJFK 260051Z 18007KT 10SM SCT060 22/22 A2984 RMK AO2 SLP103 T02220217 $=
25/08/2023 23:51->METAR KJFK 252351Z 19011KT 10SM FEW020 FEW033 SCT060 23/22 A2983 RMK AO2 SLP102 T02280217 10250 20228 57005 $=
25/08/2023 22:51->METAR KJFK 252251Z 19013KT 10SM FEW020 FEW033 BKN060 23/22 A2983 RMK AO2 SLP102 T02330217 $=
25/08/2023 21:51->METAR KJFK 252151Z 20015KT 10SM FEW016 FEW033 BKN060 24/22 A2985 RMK AO2 SLP106 T02390222 $=
25/08/2023 20:51->METAR KJFK 252051Z 19015KT 10SM FEW029 SCT037 BKN060 24/22 A2985 RMK AO2 SLP107 T02390222 56003 $=
25/08/2023 19:51->METAR KJFK 251951Z 19016KT 10SM FEW009 BKN027 OVC060 24/22 A2985 RMK AO2 SLP107 T02390222 $=
25/08/2023 18:51->METAR KJFK 251851Z 19014KT 10SM SCT009 BKN027 OVC035 24/22 A2986 RMK AO2 SLP110 T02390222 $=
25/08/2023 17:51->METAR KJFK 251751Z 18015KT 10SM SCT009 BKN018 BKN055 BKN140 24/22 A2987 RMK AO2 SLP115 60018 T02440222 10250 20211 56012 $=
25/08/2023 16:51->METAR KJFK 251651Z 18013KT 10SM FEW009 SCT049 BKN065 BKN140 23/23 A2987 RMK AO2 RAE18 SLP116 P0000 T02330228=
25/08/2023 15:51->METAR KJFK 251551Z 20011KT 7SM -RA SCT008 BKN028 BKN055 OVC140 22/22 A2990 RMK AO2 RAB04 SLP123 P0003 T02220222=
25/08/2023 14:51->METAR KJFK 251451Z 20017KT 10SM FEW007 SCT019 BKN110 OVC140 22/22 A2990 RMK AO2 RAE1357B16E48 SLP126 P0000 60015 T02220217 55002=
25/08/2023 13:51->METAR KJFK 251351Z 18014KT 10SM -RA FEW008 SCT013 BKN026 OVC140 22/22 A2990 RMK AO2 SLP123 P0001 T02220217=
25/08/2023 12:51->METAR KJFK 251251Z 19015KT 8SM -RA SCT026 BKN050 BKN095 OVC140 22/22 A2990 RMK AO2 LTG DSNT SW SLP126 P0014 T02170217=
25/08/2023 11:51->METAR KJFK 251151Z 18012KT 2SM R04R/4000VP6000FT +RA BR FEW007 BKN019CB OVC041 21/21 A2991 RMK AO2 SFC VIS 3 LTG DSNT S TSB1058E33 SLP128 OCNL LTGIC SE-S CB SE-S MOV E P0023 60023 70025 T02110211 10228 20211 56008=
25/08/2023 10:51->METAR KJFK 251051Z 20014KT 8SM -RA BKN026 BKN047 OVC100 22/21 A2993 RMK AO2 LTG DSNT SW AND W RAB31 SLP133 OCNL LTGIC DSNT SW-W CB DSNT SW-W MOV E P0000 T02220211=
25/08/2023 09:51->METAR KJFK 250951Z 18013KT 10SM SCT018 OVC044 23/21 A2992 RMK AO2 SLP130 T02280206=
25/08/2023 08:51->METAR KJFK 250851Z 18011KT 10SM FEW018 OVC044 22/20 A2993 RMK AO2 RAE0754B14E23 SLP136 P0000 60000 T02170200 58015=
25/08/2023 07:51->METAR KJFK 250751Z 18010KT 10SM -RA FEW020 OVC043 22/20 A2995 RMK AO2 RAB32 SLP142 P0000 T02170200=
25/08/2023 06:51->METAR KJFK 250651Z 19013KT 10SM OVC045 22/19 A2997 RMK AO2 SLP147 T02220189=
25/08/2023 05:51->METAR KJFK 250551Z 18014KT 10SM FEW024 SCT032 OVC045 22/20 A2998 RMK AO2 SLP151 60000 T02170200 10217 20211 55005=
25/08/2023 04:51->METAR KJFK 250451Z 17018KT 10SM SCT025 OVC055 22/20 A2997 RMK AO2 SLP149 T02170200 402280200=
25/08/2023 03:51->METAR KJFK 250351Z 16014KT 10SM BKN028 BKN035 OVC055 22/19 A2999 RMK AO2 SLP154 T02170194=
25/08/2023 02:51->METAR KJFK 250251Z 16014KT 10SM FEW022 OVC055 21/19 A2999 RMK AO2 SLP156 60000 T02110194 58016=
25/08/2023 01:51->METAR KJFK 250151Z 17010KT 10SM FEW015 OVC055 22/18 A3003 RMK AO2 RAE0053 SLP169 P0000 T02170178=
25/08/2023 00:51->METAR KJFK 250051Z 18011KT 10SM -RA FEW017 OVC042 21/18 A3005 RMK AO2 RAB42 SLP176 P0000 T02110183=
24/08/2023 23:51->METAR KJFK 242351Z 16011KT 10SM FEW017 SCT038 OVC055 22/17 A3004 RMK AO2 RAB32E42 SLP172 P0000 60002 T02170172 10222 20200 55001=
24/08/2023 22:51->METAR KJFK 242251Z 15013KT 10SM FEW017 SCT039 OVC060 22/17 A3004 RMK AO2 SLP171 T02170172=
24/08/2023 21:51->METAR KJFK 242151Z 15011KT 10SM FEW016 BKN039 OVC060 22/17 A3004 RMK AO2 SLP171 T02170172=
24/08/2023 20:51->METAR KJFK 242051Z 16013KT 10SM SCT016 BKN036 OVC065 22/17 A3004 RMK AO2 SLP173 60002 T02170172 57011=
24/08/2023 19:51->METAR KJFK 241951Z 15014KT 10SM SCT017 SCT028CB OVC050 21/18 A3005 RMK AO2 RAE48 SLP176 CB W-NW MOV N VCSH W-NW P0002 T02110183=
24/08/2023 18:51->METAR KJFK 241851Z 17004KT 4SM R04R/5000VP6000FT -RA BR FEW017 BKN036 OVC046 20/19 A3007 RMK AO2 SLP182 P0000 T02000189=
24/08/2023 17:51->METAR KJFK 241751Z 16011KT 10SM -RA FEW021 BKN050 OVC075 21/17 A3008 RMK AO2 RAB51 SLP184 VCSH SE-S P0000 60000 T02060167 10228 20206 56006=
24/08/2023 16:51->METAR KJFK 241651Z 17010KT 10SM SCT021 BKN044 OVC070 22/18 A3008 RMK AO2 RAB1554E12 SLP185 VCSH S-W P0000 T02170183=
24/08/2023 15:51->METAR KJFK 241551Z 15013G19KT 10SM SCT023 BKN032 OVC070 22/18 A3008 RMK AO2 SLP186 T02220178=
24/08/2023 14:51->METAR KJFK 241451Z 16013KT 10SM BKN030 BKN041 OVC080 22/18 A3009 RMK AO2 SLP190 T02220178 53009=
24/08/2023 13:51->METAR KJFK 241351Z 16013KT 10SM SCT029 OVC080 22/18 A3008 RMK AO2 SLP186 T02170178=
24/08/2023 12:51->METAR KJFK 241251Z 15010KT 10SM FEW028 BKN085 OVC140 22/17 A3008 RMK AO2 SLP184 T02170172=
24/08/2023 11:51->METAR KJFK 241151Z 16009KT 10SM FEW025 BKN090 BKN140 22/18 A3007 RMK AO2 SLP182 T02170178 10217 20206 53001=
24/08/2023 10:51->METAR KJFK 241051Z 15009KT 10SM FEW026 BKN095 OVC140 21/18 A3006 RMK AO2 SLP180 T02110178=
24/08/2023 09:51->METAR KJFK 240951Z 13006KT 10SM FEW034 OVC100 21/17 A3006 RMK AO2 SLP179 T02110172=
24/08/2023 08:51->METAR KJFK 240851Z 14006KT 10SM FEW032 OVC110 21/17 A3006 RMK AO2 SLP180 T02110167 50001=
24/08/2023 07:51->METAR KJFK 240751Z 16005KT 10SM OVC110 21/17 A3007 RMK AO2 SLP182 T02060172=
24/08/2023 06:51->METAR KJFK 240651Z 15007KT 10SM OVC110 21/17 A3007 RMK AO2 SLP181 T02060167=
24/08/2023 05:51->METAR KJFK 240551Z 14006KT 10SM BKN120 21/16 A3006 RMK AO2 SLP180 T02060161 10211 20206 58009=
24/08/2023 04:51->METAR KJFK 240451Z 15005KT 10SM BKN120 OVC150 21/15 A3009 RMK AO2 SLP188 T02060150 402500172=
24/08/2023 03:51->METAR KJFK 240351Z 16006KT 10SM OVC130 21/15 A3009 RMK AO2 SLP189 T02060150=
24/08/2023 02:51->METAR KJFK 240251Z 15008KT 10SM BKN140 BKN250 21/15 A3009 RMK AO2 SLP189 T02060150 50006=
24/08/2023 01:51->METAR KJFK 240151Z 16005KT 10SM OVC140 21/15 A3010 RMK AO2 SLP194 T02060150=
24/08/2023 00:51->METAR KJFK 240051Z 13006KT 10SM OVC140 21/16 A3009 RMK AO2 SLP189 T02060156=
23/08/2023 23:51->METAR KJFK 232351Z 13011KT 10SM BKN150 BKN250 21/16 A3007 RMK AO2 SLP183 T02060156 10244 20206 56010=
23/08/2023 22:51->METAR KJFK 232251Z 13010KT 10SM FEW055 BKN140 BKN250 21/15 A3007 RMK AO2 SLP183 T02110150=
23/08/2023 21:51->METAR KJFK 232151Z 15008KT 10SM FEW055 SCT150 SCT250 21/15 A3009 RMK AO2 SLP190 T02110150=
23/08/2023 20:51->METAR KJFK 232051Z 16008KT 10SM FEW055 SCT160 SCT250 22/16 A3010 RMK AO2 SLP193 T02220156 58008=
23/08/2023 19:51->METAR KJFK 231951Z 18009KT 10SM FEW055 SCT160 SCT250 23/16 A3011 RMK AO2 SLP197 T02330156=
23/08/2023 18:51->METAR KJFK 231851Z 19008KT 10SM FEW055 FEW170 SCT250 24/16 A3012 RMK AO2 SLP198 T02390156=
23/08/2023 17:51->METAR KJFK 231751Z 18009KT 10SM FEW060 FEW170 SCT250 24/14 A3013 RMK AO2 SLP201 T02390144 10250 20189 55013=
23/08/2023 16:51->METAR KJFK 231651Z 18010KT 10SM FEW060 SCT170 SCT250 24/14 A3012 RMK AO2 SLP199 T02390139=
23/08/2023 15:51->METAR KJFK 231551Z 05005KT 10SM FEW060 SCT170 SCT250 24/12 A3014 RMK AO2 SLP206 T02390122=
23/08/2023 14:51->METAR KJFK 231451Z 00000KT 10SM FEW060 BKN170 BKN250 23/13 A3016 RMK AO2 SLP214 T02330128 50001=
23/08/2023 13:51->METAR KJFK 231351Z 05008KT 10SM BKN170 BKN250 21/12 A3017 RMK AO2 SLP214 T02110122=
23/08/2023 12:51->METAR KJFK 231251Z 03009KT 10SM BKN170 BKN250 20/12 A3016 RMK AO2 SLP214 T02000117=
23/08/2023 11:51->METAR KJFK 231151Z 03010KT 10SM FEW060 BKN180 BKN250 19/11 A3016 RMK AO2 SLP213 T01940106 10200 20172 51011=
23/08/2023 10:51->METAR KJFK 231051Z 01007KT 10SM FEW060 BKN180 BKN250 18/11 A3016 RMK AO2 SLP212 T01780106=
23/08/2023 09:51->METAR KJFK 230951Z 03008KT 10SM FEW060 SCT250 17/11 A3014 RMK AO2 SLP206 T01720106=
23/08/2023 08:51->METAR KJFK 230851Z 03009KT 10SM FEW065 SCT250 18/11 A3013 RMK AO2 SLP202 T01780111 53007=
23/08/2023 07:51->METAR KJFK 230751Z 02009KT 10SM SCT070 SCT250 19/11 A3012 RMK AO2 SLP199 T01890111=
23/08/2023 06:51->METAR KJFK 230651Z 02011KT 10SM SCT065 BKN250 19/12 A3012 RMK AO2 SLP199 T01940117=
23/08/2023 05:51->METAR KJFK 230551Z 04007KT 10SM SCT060 SCT250 19/13 A3011 RMK AO2 SLP196 T01940133 10233 20183 52001=
23/08/2023 04:51->METAR KJFK 230451Z 06004KT 10SM FEW065 SCT250 19/13 A3011 RMK AO2 SLP195 T01890128 402610189=
23/08/2023 03:51->METAR KJFK 230351Z 36008KT 10SM FEW070 SCT250 21/12 A3011 RMK AO2 SLP196 T02110122=
23/08/2023 02:51->METAR KJFK 230251Z 36007KT 10SM FEW065 BKN250 22/13 A3011 RMK AO2 SLP195 T02170128 51009=
23/08/2023 01:51->METAR KJFK 230151Z 35007KT 10SM FEW060 SCT250 22/13 A3010 RMK AO2 SLP194 T02220133=
23/08/2023 00:51->METAR KJFK 230051Z 02005KT 10SM SCT250 23/11 A3010 RMK AO2 SLP192 T02280111=
22/08/2023 23:51->METAR KJFK 222351Z 04005KT 10SM FEW060 BKN250 23/12 A3008 RMK AO2 SLP186 T02330117 10261 20228 51006=
22/08/2023 22:51->METAR KJFK 222251Z 36009KT 10SM FEW060 BKN250 24/13 A3008 RMK AO2 SLP186 T02440128=
22/08/2023 21:51->METAR KJFK 222151Z 01009KT 10SM FEW055 BKN250 26/13 A3007 RMK AO2 SLP182 T02560128=
22/08/2023 20:51->METAR KJFK 222051Z 02012G18KT 10SM FEW055 BKN250 26/13 A3006 RMK AO2 SLP180 T02560128 56007=
22/08/2023 19:51->METAR KJFK 221951Z 01008G16KT 10SM FEW055 BKN250 26/13 A3006 RMK AO2 SLP180 T02560128=
22/08/2023 18:51->METAR KJFK 221851Z 01009G17KT 10SM FEW050 BKN250 26/13 A3008 RMK AO2 SLP185 T02560128=
22/08/2023 17:51->METAR KJFK 221751Z 01013KT 10SM SCT050 BKN250 24/13 A3009 RMK AO2 SLP188 T02440128 10250 20194 58004=
22/08/2023 16:51->METAR KJFK 221651Z 02008G17KT 350V050 10SM FEW050 BKN250 24/13 A3009 RMK AO2 SLP189 T02390133=
22/08/2023 15:51->METAR KJFK 221551Z 02012KT 10SM FEW050 BKN250 23/13 A3010 RMK AO2 SLP193 T02330133=
22/08/2023 14:51->METAR KJFK 221451Z 03012G19KT 10SM FEW043 BKN250 22/12 A3010 RMK AO2 SLP192 T02170122 53007=
22/08/2023 13:51->METAR KJFK 221351Z 02014KT 10SM FEW170 BKN250 21/12 A3009 RMK AO2 SLP188 T02110117=
22/08/2023 12:51->METAR KJFK 221251Z 02014KT 10SM FEW120 SCT170 BKN250 20/11 A3008 RMK AO2 SLP186 T02000111=
22/08/2023 11:51->METAR KJFK 221151Z 01014KT 10SM SCT120 SCT170 BKN250 19/12 A3008 RMK AO2 SLP185 T01940117 10239 20194 53020=
22/08/2023 10:51->METAR KJFK 221051Z 01015KT 10SM SCT120 BKN250 21/12 A3006 RMK AO2 SLP178 T02060117=
22/08/2023 09:51->METAR KJFK 220951Z 02009KT 10SM SCT120 BKN150 BKN250 21/13 A3003 RMK AO2 SLP169 T02110128=
22/08/2023 08:51->METAR KJFK 220851Z 36012KT 10SM FEW070 BKN140 BKN250 22/15 A3002 RMK AO2 SLP165 T02170150 55001=
22/08/2023 07:51->METAR KJFK 220751Z 36013KT 10SM SCT065 BKN250 22/16 A3001 RMK AO2 SLP162 T02220161=
