02/09/2023 00:51->METAR KJFK 020051Z 16004KT 10SM CLR 17/13 A3027 RMK AO2 SLP251 T01720128=
01/09/2023 23:51->METAR KJFK 012351Z 15007KT 10SM CLR 18/13 A3027 RMK AO2 SLP250 T01780128 10239 20178 55000=
01/09/2023 22:51->METAR KJFK 012251Z 15007KT 10SM CLR 19/13 A3027 RMK AO2 SLP250 T01940128=
01/09/2023 21:51->METAR KJFK 012151Z 15008KT 10SM FEW250 21/13 A3026 RMK AO2 SLP248 T02060128=
01/09/2023 20:51->METAR KJFK 012051Z 17009KT 10SM FEW250 22/13 A3027 RMK AO2 SLP250 T02170128 56011=
01/09/2023 19:51->METAR KJFK 011951Z 19007KT 10SM FEW055 FEW250 22/13 A3027 RMK AO2 SLP251 T02220128=
01/09/2023 18:51->METAR KJFK 011851Z 18006KT 10SM FEW055 FEW250 22/13 A3029 RMK AO2 SLP255 T02220133=
01/09/2023 17:51->METAR KJFK 011751Z 07007KT 10SM FEW055 24/09 A3030 RMK AO2 SLP261 T02390094 10244 20172 55000=
01/09/2023 16:51->METAR KJFK 011651Z 00000KT 10SM FEW050 FEW250 23/09 A3030 RMK AO2 SLP260 T02280094=
01/09/2023 15:51->METAR KJFK 011551Z VRB05KT 10SM FEW047 FEW250 23/11 A3030 RMK AO2 SLP261 T02280106=
01/09/2023 14:51->METAR KJFK 011451Z 03009KT 10SM FEW045 FEW250 22/10 A3030 RMK AO2 SLP261 T02170100 53019=
01/09/2023 13:51->METAR KJFK 011351Z 03008KT 10SM FEW250 21/10 A3029 RMK AO2 SLP255 T02060100=
01/09/2023 12:51->METAR KJFK 011251Z 03012KT 10SM FEW250 19/10 A3026 RMK AO2 SLP248 T01890100=
01/09/2023 11:51->METAR KJFK 011151Z 03010KT 10SM FEW250 17/09 A3025 RMK AO2 SLP243 T01720094 10178 20150 51015=
01/09/2023 10:51->METAR KJFK 011051Z 02008KT 10SM FEW250 16/09 A3024 RMK AO2 SLP240 T01560089=
01/09/2023 09:51->METAR KJFK 010951Z 02007KT 10SM FEW250 16/09 A3022 RMK AO2 SLP234 T01560089=
01/09/2023 08:51->METAR KJFK 010851Z 02010KT 10SM FEW250 16/09 A3021 RMK AO2 SLP228 T01610089 53013=
01/09/2023 07:51->METAR KJFK 010751Z 02007KT 10SM FEW250 16/09 A3019 RMK AO2 SLP223 T01610089=
01/09/2023 06:51->METAR KJFK 010651Z 02010KT 10SM FEW250 17/08 A3018 RMK AO2 SLP219 T01720083=
01/09/2023 05:51->METAR KJFK 010551Z 02009KT 10SM FEW250 18/09 A3017 RMK AO2 SLP216 T01780089 10217 20167 51023=
01/09/2023 04:51->METAR KJFK 010451Z 03008KT 10SM BKN250 18/10 A3015 RMK AO2 SLP209 T01780100 402500172=
01/09/2023 03:51->METAR KJFK 010351Z 03007KT 10SM FEW250 18/10 A3012 RMK AO2 SLP200 T01780100=
01/09/2023 02:51->METAR KJFK 010251Z 04009KT 10SM FEW250 19/09 A3010 RMK AO2 SLP192 T01940094 53023=
01/09/2023 01:51->METAR KJFK 010151Z 03011KT 10SM FEW250 20/09 A3007 RMK AO2 SLP183 T02000089=
01/09/2023 00:51->METAR KJFK 010051Z 01010KT 10SM FEW250 21/09 A3005 RMK AO2 SLP177 T02110094=
31/08/2023 23:51->METAR KJFK 312351Z 36010KT 10SM FEW250 22/10 A3003 RMK AO2 SLP169 T02170100 10250 20217 53019=
31/08/2023 22:51->METAR KJFK 312251Z 01012KT 10SM SCT250 23/10 A3000 RMK AO2 SLP158 T02280100=
31/08/2023 21:51->METAR KJFK 312151Z 02011G16KT 10SM SCT250 24/10 A2999 RMK AO2 SLP154 T02390100=
31/08/2023 20:51->METAR KJFK 312051Z 02012KT 10SM SCT250 24/10 A2997 RMK AO2 SLP150 T02440100 53006=
31/08/2023 19:51->METAR KJFK 311951Z 03014G20KT 10SM FEW200 SCT250 24/10 A2995 RMK AO2 SLP141 T02440100=
31/08/2023 18:51->METAR KJFK 311851Z 05013KT 10SM FEW200 SCT250 25/11 A2995 RMK AO2 SLP143 T02500106=
31/08/2023 17:51->METAR KJFK 311751Z 02015G18KT 10SM FEW190 SCT250 24/11 A2996 RMK AO2 SLP144 T02440106 10244 20178 53006=
31/08/2023 16:51->METAR KJFK 311651Z 03016G21KT 10SM FEW190 SCT250 23/09 A2994 RMK AO2 SLP140 T02330094=
31/08/2023 15:51->METAR KJFK 311551Z 03016G22KT 10SM SCT250 22/09 A2994 RMK AO2 SLP139 T02220094=
31/08/2023 14:51->METAR KJFK 311451Z 01014G25KT 10SM FEW043 BKN250 21/11 A2994 RMK AO2 SLP138 T02060111 51016=
31/08/2023 13:51->METAR KJFK 311351Z 36017G22KT 10SM FEW040 BKN250 20/12 A2992 RMK AO2 SLP130 T02000117=
31/08/2023 12:51->METAR KJFK 311251Z 02015KT 10SM FEW037 BKN250 18/12 A2992 RMK AO2 PK WND 01027/1204 SLP131 T01830117=
31/08/2023 11:51->METAR KJFK 311151Z 01017G23KT 10SM FEW035 BKN250 18/12 A2989 RMK AO2 SLP122 70013 T01780117 10194 20178 52019=
31/08/2023 10:51->METAR KJFK 311051Z 01013G19KT 10SM FEW035 FEW190 BKN250 18/12 A2988 RMK AO2 SLP116 T01780122=
31/08/2023 09:51->METAR KJFK 310951Z 02012KT 10SM BKN250 18/13 A2985 RMK AO2 SLP108 T01830128=
31/08/2023 08:51->METAR KJFK 310851Z 35010KT 10SM BKN250 19/13 A2983 RMK AO2 SLP102 T01890133 53004=
31/08/2023 07:51->METAR KJFK 310751Z 34007KT 10SM BKN250 19/13 A2983 RMK AO2 SLP099 T01890133=
31/08/2023 06:51->METAR KJFK 310651Z 35010KT 10SM BKN250 19/13 A2982 RMK AO2 SLP096 T01940133=
31/08/2023 05:51->METAR KJFK 310551Z 34011KT 10SM BKN250 19/13 A2982 RMK AO2 SLP099 T01940133 10256 20194 51014=
31/08/2023 04:51->METAR KJFK 310451Z 34010KT 10SM FEW120 BKN250 21/13 A2982 RMK AO2 SLP096 T02060133 402940206=
31/08/2023 03:51->METAR KJFK 310351Z 34011KT 10SM FEW130 SCT250 21/14 A2980 RMK AO2 SLP091 T02060139=
31/08/2023 02:51->METAR KJFK 310251Z 34013G19KT 10SM SCT250 22/14 A2978 RMK AO2 SLP085 T02220139 51022=
31/08/2023 01:51->METAR KJFK 310151Z 34014KT 10SM FEW100 BKN250 23/13 A2976 RMK AO2 SLP078 T02330133=
31/08/2023 00:51->METAR KJFK 310051Z 33015G20KT 10SM FEW065 BKN250 25/14 A2975 RMK AO2 SLP073 T02500139=
30/08/2023 23:51->METAR KJFK 302351Z 32011KT 10SM FEW065 BKN250 26/13 A2972 RMK AO2 SLP063 T02560133 10294 20256 53017=
30/08/2023 22:51->METAR KJFK 302251Z 30014KT 10SM FEW065 BKN250 27/14 A2969 RMK AO2 SLP055 T02670144=
30/08/2023 21:51->METAR KJFK 302151Z 30010KT 10SM SCT065 BKN250 28/15 A2968 RMK AO2 SLP049 T02780150=
30/08/2023 20:51->METAR KJFK 302051Z 30014KT 10SM SCT065 BKN250 28/16 A2967 RMK AO2 SLP046 T02830156 56007=
30/08/2023 19:51->METAR KJFK 301951Z 28010KT 10SM SCT055 SCT070 BKN250 29/16 A2967 RMK AO2 SLP046 T02890161=
30/08/2023 18:51->METAR KJFK 301851Z 26012KT 10SM SCT049 BKN250 29/18 A2967 RMK AO2 SLP048 T02940183=
30/08/2023 17:51->METAR KJFK 301751Z 18009KT 10SM FEW033 FEW090 SCT250 26/22 A2969 RMK AO2 SLP053 60013 T02610217 10272 20206 56013=
30/08/2023 16:51->METAR KJFK 301651Z 23007KT 10SM FEW028 SCT080 BKN130 BKN250 24/22 A2970 RMK AO2 SLP056 T02390217=
30/08/2023 15:51->METAR KJFK 301551Z 25005KT 10SM SCT025 SCT075 BKN110 BKN140 22/20 A2972 RMK AO2 SLP062 T02220200=
30/08/2023 14:51->METAR KJFK 301451Z 21003KT 9SM FEW010 SCT028 BKN075 BKN140 21/20 A2973 RMK AO2 RAE48 SLP066 VCSH NE-S P0007 60013 T02110200 58001=
30/08/2023 13:51->METAR KJFK 301351Z 28008KT 7SM -RA BKN007 BKN032 OVC045 23/22 A2973 RMK AO2 RAB34 SLP069 BKN007 V SCT P0006 T02280222=
30/08/2023 12:51->METAR KJFK 301251Z 22007KT 10SM BKN007 OVC028 23/22 A2973 RMK AO2 SLP065 T02280222=
30/08/2023 11:51->METAR KJFK 301151Z 21005KT 10SM BKN010 OVC130 22/22 A2973 RMK AO2 SLP066 CIG 008V012 T02220217 10222 20211 55005=
30/08/2023 10:51->METAR KJFK 301051Z 20006KT 10SM BKN007 BKN022 BKN130 22/22 A2972 RMK AO2 SLP065 T02170217=
30/08/2023 09:51->METAR KJFK 300951Z 21006KT 9SM OVC002 22/22 A2974 RMK AO2 SLP069 T02170217=
30/08/2023 08:51->METAR KJFK 300851Z 17004KT 1 3/4SM BR OVC002 22/22 A2974 RMK AO2 SLP072 T02170217 56017=
30/08/2023 07:51->METAR KJFK 300751Z 17004KT 9SM BKN004 OVC016 22/22 A2975 RMK AO2 SLP075 T02170217=
30/08/2023 06:51->METAR KJFK 300651Z 18003KT 8SM BKN003 OVC015 22/22 A2978 RMK AO2 SLP083 T02170217=
30/08/2023 05:51->METAR KJFK 300551Z 16004KT 10SM BKN009 BKN014 OVC030 22/22 A2979 RMK AO2 SLP089 T02220222 10228 20222 58017=
30/08/2023 04:51->METAR KJFK 300451Z 00000KT 10SM BKN008 BKN012 OVC028 23/22 A2982 RMK AO2 SLP097 T02280222 402720194=
30/08/2023 03:51->METAR KJFK 300351Z 12003KT 10SM SCT008 BKN022 OVC150 22/22 A2983 RMK AO2 SLP101 T02220217=
30/08/2023 02:51->METAR KJFK 300251Z 10003KT 10SM FEW009 BKN023 OVC170 22/22 A2985 RMK AO2 SLP106 T02220217 58001=
30/08/2023 01:51->METAR KJFK 300151Z 12005KT 10SM SCT014 BKN030 BKN160 BKN220 23/22 A2985 RMK AO2 SLP109 T02280217=
30/08/2023 00:51->METAR KJFK 300051Z 12005KT 10SM SCT013 BKN035 BKN170 BKN250 23/22 A2986 RMK AO2 SLP110 T02280217=
29/08/2023 23:51->METAR KJFK 292351Z 10007KT 10SM SCT014 BKN032 BKN230 22/21 A2985 RMK AO2 SLP107 SCT V BKN T02220211 10272 20222 58012=
29/08/2023 22:51->METAR KJFK 292251Z 13005KT 10SM BKN012 BKN020 BKN120 BKN250 23/21 A2986 RMK AO2 SLP111 T02330211=
29/08/2023 21:51->METAR KJFK 292151Z 11006KT 10SM BKN016 BKN035 BKN120 BKN250 24/21 A2987 RMK AO2 SLP116 T02390206=
29/08/2023 20:51->METAR KJFK 292051Z 13008KT 10SM BKN016 BKN035 BKN140 BKN250 23/21 A2989 RMK AO2 SLP120 T02330206 56017=
29/08/2023 19:51->METAR KJFK 291951Z 00000KT 10SM BKN017 BKN035 BKN140 BKN250 24/21 A2990 RMK AO2 SLP124 T02440211=
29/08/2023 18:51->METAR KJFK 291851Z 10005KT 10SM BKN018 BKN035 BKN140 BKN250 24/21 A2991 RMK AO2 SLP130 T02390206=
29/08/2023 17:51->METAR KJFK 291751Z 13009KT 10SM BKN027 BKN140 BKN250 27/21 A2994 RMK AO2 SLP137 T02670206 10267 20206 58014=
29/08/2023 16:51->METAR KJFK 291651Z 13007KT 10SM FEW018 BKN028 BKN047 BKN250 26/21 A2995 RMK AO2 SLP142 BKN028 V SCT T02560211=
29/08/2023 15:51->METAR KJFK 291551Z 12006KT 10SM BKN023 BKN047 BKN250 24/21 A2996 RMK AO2 SLP146 T02440206=
29/08/2023 14:51->METAR KJFK 291451Z 07006KT 10SM BKN019 BKN045 BKN250 24/20 A2998 RMK AO2 SLP151 T02440200 58002=
29/08/2023 13:51->METAR KJFK 291351Z 06007KT 10SM BKN015 BKN045 BKN250 23/19 A2999 RMK AO2 SLP154 T02330194=
29/08/2023 12:51->METAR KJFK 291251Z 06006KT 10SM BKN011 BKN055 BKN250 22/19 A2999 RMK AO2 SLP154 T02170189=
29/08/2023 11:51->METAR KJFK 291151Z 05007KT 10SM BKN011 BKN250 21/18 A2998 RMK AO2 SLP153 CIG 009V013 T02060183 10206 20194 58000=
29/08/2023 10:51->METAR KJFK 291051Z 05005KT 10SM BKN010 BKN050 BKN250 20/18 A2999 RMK AO2 SLP156 CIG 008V012 T02000183=
29/08/2023 09:51->METAR KJFK 290951Z 03005KT 10SM BKN011 OVC055 19/18 A2999 RMK AO2 SLP154 T01940178=
29/08/2023 08:51->METAR KJFK 290851Z 06004KT 10SM FEW017 SCT060 BKN250 19/18 A2998 RMK AO2 SLP153 T01940183 56015=
29/08/2023 07:51->METAR KJFK 290751Z 03004KT 10SM FEW019 BKN150 BKN250 19/18 A2999 RMK AO2 SLP156 T01940178=
29/08/2023 06:51->METAR KJFK 290651Z 05006KT 10SM FEW018 SCT160 BKN250 20/18 A3001 RMK AO2 SLP160 T02000178=
29/08/2023 05:51->METAR KJFK 290551Z 06006KT 10SM BKN014 BKN150 BKN220 21/18 A3003 RMK AO2 SLP168 T02060178 10211 20194 58007=
29/08/2023 04:51->METAR KJFK 290451Z 07003KT 10SM BKN016 BKN150 21/18 A3005 RMK AO2 SLP174 T02060183 402330194=
29/08/2023 03:51->METAR KJFK 290351Z 07006KT 10SM FEW019 SCT022 BKN180 20/18 A3004 RMK AO2 SLP173 T02000178=
29/08/2023 02:51->METAR KJFK 290251Z 07005KT 10SM FEW014 OVC019 21/18 A3005 RMK AO2 SLP175 T02060183 51003=
29/08/2023 01:51->METAR KJFK 290151Z 12004KT 10SM FEW013 OVC020 21/18 A3005 RMK AO2 SLP175 T02110183=
29/08/2023 00:51->METAR KJFK 290051Z 10007KT 10SM SCT015 OVC022 21/18 A3005 RMK AO2 SLP174 T02060183=
28/08/2023 23:51->METAR KJFK 282351Z 11006KT 10SM FEW013 OVC025 21/18 A3004 RMK AO2 SLP172 T02110183 10233 20211 58000=
28/08/2023 22:51->METAR KJFK 282251Z 11009KT 10SM OVC020 21/18 A3005 RMK AO2 SLP175 T02110183=
28/08/2023 21:51->METAR KJFK 282151Z 12008KT 10SM BKN018 BKN140 BKN250 22/18 A3004 RMK AO2 SLP173 T02170178=
28/08/2023 20:51->METAR KJFK 282051Z 12008KT 10SM BKN020 OVC140 22/18 A3004 RMK AO2 SLP173 T02220183 55008=
28/08/2023 19:51->METAR KJFK 281951Z 12009KT 10SM BKN021 OVC140 23/19 A3004 RMK AO2 SLP171 T02280189=
28/08/2023 18:51->METAR KJFK 281851Z 12010KT 10SM BKN019 BKN110 BKN250 23/18 A3005 RMK AO2 SLP174 T02280183=
28/08/2023 17:51->METAR KJFK 281751Z 11009KT 10SM SCT017 OVC025 23/19 A3006 RMK AO2 SLP180 T02280189 10233 20206 56003=
28/08/2023 16:51->METAR KJFK 281651Z 11010KT 10SM OVC019 22/18 A3007 RMK AO2 SLP181 T02170183=
28/08/2023 15:51->METAR KJFK 281551Z 10009KT 10SM OVC019 22/18 A3007 RMK AO2 SLP181 T02170178=
28/08/2023 14:51->METAR KJFK 281451Z 12010KT 10SM OVC021 22/18 A3007 RMK AO2 SLP184 T02220183 53008=
28/08/2023 13:51->METAR KJFK 281351Z 10009KT 10SM SCT015 OVC023 22/19 A3006 RMK AO2 SLP180 T02170189=
28/08/2023 12:51->METAR KJFK 281251Z 11010KT 10SM SCT012 OVC023 21/19 A3005 RMK AO2 SLP175 T02110189 $=
28/08/2023 11:51->METAR KJFK 281151Z 10005KT 10SM SCT011 OVC025 21/19 A3005 RMK AO2 SLP175 T02060194 10211 20200 51009 $=
28/08/2023 10:51->METAR KJFK 281051Z 05004KT 10SM SCT013 OVC020 21/20 A3004 RMK AO2 SLP171 T02060200 $=
28/08/2023 09:51->METAR KJFK 280951Z 01005KT 10SM BKN014 OVC100 21/19 A3002 RMK AO2 SLP166 T02060194 $=
28/08/2023 08:51->METAR KJFK 280851Z 00000KT 10SM SCT012 OVC110 21/19 A3002 RMK AO2 CIG 012 W SLP164 T02060194 53005 $=
28/08/2023 07:51->METAR KJFK 280751Z 08005KT 10SM FEW010 SCT055 BKN260 20/19 A3001 RMK AO2 SLP160 T02000194 $=
28/08/2023 06:51->METAR KJFK 280651Z 07004KT 10SM FEW008 SCT060 BKN250 20/19 A3001 RMK AO2 SLP160 T02000194 $=
28/08/2023 05:51->METAR KJFK 280551Z 11004KT 10SM BKN007 BKN060 20/20 A3000 RMK AO2 SLP160 T02000200 10233 20200 53003 $=
28/08/2023 04:51->METAR KJFK 280451Z 08005KT 9SM SCT070 SCT250 20/19 A3000 RMK AO2 SLP158 T02000194 402830200 $=
28/08/2023 03:51->METAR KJFK 280351Z 07004KT 10SM FEW008 BKN065 BKN250 21/20 A3000 RMK AO2 SLP157 T02060200 $=
28/08/2023 02:51->METAR KJFK 280251Z 10005KT 10SM SCT007 SCT060 BKN250 21/21 A2999 RMK AO2 SLP156 T02110206 53007 $=
28/08/2023 01:51->METAR KJFK 280151Z 14005KT 10SM FEW007 FEW070 SCT250 22/21 A2998 RMK AO2 SLP152 T02170211 $=
28/08/2023 00:51->METAR KJFK 280051Z 13006KT 10SM FEW060 FEW075 BKN250 23/18 A2997 RMK AO2 SLP149 T02280183 $=
27/08/2023 23:51->METAR KJFK 272351Z 15004KT 10SM FEW065 FEW075 BKN250 23/18 A2995 RMK AO2 SLP141 T02280178 10283 20228 51010 $=
27/08/2023 22:51->METAR KJFK 272251Z 18005KT 10SM SCT065 SCT075 BKN250 24/19 A2993 RMK AO2 SLP136 T02390189 $=
27/08/2023 21:51->METAR KJFK 272151Z 19008KT 10SM SCT060 BKN250 25/19 A2993 RMK AO2 SLP135 T02500189 $=
27/08/2023 20:51->METAR KJFK 272051Z 18010KT 10SM SCT050 BKN065 BKN250 26/19 A2992 RMK AO2 SLP130 T02610194 55001 $=
27/08/2023 19:51->METAR KJFK 271951Z 35006KT 10SM SCT055 BKN070 BKN250 28/17 A2991 RMK AO2 SLP126 T02830167 $=
27/08/2023 18:51->METAR KJFK 271851Z 01006KT 10SM SCT047 BKN060 BKN250 27/17 A2991 RMK AO2 SLP128 T02670167 $=
27/08/2023 17:51->METAR KJFK 271751Z VRB04KT 10SM SCT046 SCT250 28/18 A2992 RMK AO2 SLP131 T02780178 10283 20211 56009 $=
27/08/2023 16:51->METAR KJFK 271651Z 01010KT 10SM FEW050 SCT250 27/17 A2992 RMK AO2 SLP132 T02720172 $=
27/08/2023 15:51->METAR KJFK 271551Z 36009KT 10SM FEW050 FEW130 SCT250 27/17 A2994 RMK AO2 SLP138 T02670172 $=
27/08/2023 14:51->METAR KJFK 271451Z 35006KT 10SM FEW050 FEW130 SCT250 25/17 A2994 RMK AO2 SLP140 T02500172 53007 $=
27/08/2023 13:51->METAR KJFK 271351Z 02009KT 10SM FEW130 FEW250 24/18 A2993 RMK AO2 SLP136 T02440178 $=
27/08/2023 12:51->METAR KJFK 271251Z 01008KT 10SM SCT130 SCT250 23/18 A2993 RMK AO2 SLP133 T02280178 $=
27/08/2023 11:51->METAR KJFK 271151Z 36008KT 10SM SCT130 SCT250 21/18 A2992 RMK AO2 SLP132 70004 T02110178 10222 20200 53018 $=
27/08/2023 10:51->METAR KJFK 271051Z 01004KT 10SM FEW130 SCT250 20/17 A2990 RMK AO2 SLP125 T02000172 $=
27/08/2023 09:51->METAR KJFK 270951Z 01006KT 10SM SCT150 20/17 A2988 RMK AO2 SLP118 T02000172 $=
27/08/2023 08:51->METAR KJFK 270851Z 36009KT 10SM SCT150 21/17 A2987 RMK AO2 SLP115 T02060172 53002 $=
27/08/2023 07:51->METAR KJFK 270751Z 01008KT 10SM SCT150 22/17 A2986 RMK AO2 SLP111 T02170172 $=
27/08/2023 06:51->METAR KJFK 270651Z 01008KT 10SM BKN200 22/18 A2986 RMK AO2 SLP111 T02170183 $=
27/08/2023 05:51->METAR KJFK 270551Z 01004KT 10SM BKN150 22/19 A2986 RMK AO2 SLP113 T02170189 10233 20217 58001 $=
27/08/2023 04:51->METAR KJFK 270451Z 01004KT 10SM FEW065 FEW150 23/19 A2987 RMK AO2 SLP113 T02280194 403000206 $=
27/08/2023 03:51->METAR KJFK 270351Z 25005KT 10SM FEW065 FEW080 BKN150 22/19 A2987 RMK AO2 SLP114 T02220194 $=
27/08/2023 02:51->METAR KJFK 270251Z 21005KT 10SM FEW065 SCT150 22/20 A2987 RMK AO2 SLP113 T02220200 51009 $=
27/08/2023 01:51->METAR KJFK 270151Z 21004KT 10SM FEW050 SCT250 22/20 A2986 RMK AO2 SLP111 T02220200 $=
27/08/2023 00:51->METAR KJFK 270051Z 20004KT 10SM SCT060 SCT250 22/21 A2986 RMK AO2 SLP111 T02220206 $=
26/08/2023 23:51->METAR KJFK 262351Z 14005KT 10SM SCT055 SCT250 23/20 A2984 RMK AO2 SLP104 T02330200 10300 20233 51009 $=
26/08/2023 22:51->METAR KJFK 262251Z 14006KT 10SM SCT050 SCT250 25/19 A2983 RMK AO2 SLP102 T02500189 $=
26/08/2023 21:51->METAR KJFK 262151Z 18006KT 10SM SCT045 BKN060 BKN250 26/21 A2982 RMK AO2 SLP098 T02610206 $=
26/08/2023 20:51->METAR KJFK 262051Z 20008KT 10SM BKN045 BKN060 BKN250 26/21 A2981 RMK AO2 SLP095 T02610206 55007 $=
26/08/2023 19:51->METAR KJFK 261951Z 22006KT 10SM BKN055 BKN250 28/21 A2981 RMK AO2 SLP093 T02780211 $=
26/08/2023 18:51->METAR KJFK 261851Z 20010KT 10SM BKN040 BKN060 BKN250 27/21 A2983 RMK AO2 SLP100 T02670211 $=
26/08/2023 17:51->METAR KJFK 261751Z 10SM FEW039 SCT060 SCT110 BKN250 29/21 A2983 RMK AO2 SLP102 60004 T02940206 10300 20217 56011 $=
26/08/2023 16:51->METAR KJFK 261651Z 02006KT 10SM FEW035 FEW110 SCT180 BKN250 28/21 A2984 RMK AO2 SLP105 T02830206 $=
26/08/2023 15:51->METAR KJFK 261551Z 02005KT 10SM FEW025 FEW110 SCT180 27/21 A2985 RMK AO2 SLP109 T02720206 $=
26/08/2023 14:51->METAR KJFK 261451Z 04007KT 10SM FEW016 SCT110 BKN180 25/21 A2987 RMK AO2 SLP113 60004 T02500211 50007 $=
26/08/2023 13:51->METAR KJFK 261351Z 04008KT 10SM FEW040 SCT110 BKN190 22/21 A2987 RMK AO2 LTG DSNT E RAE16 SLP115 P0000 T02220211 $=
26/08/2023 12:51->METAR KJFK 261251Z 01006KT 7SM -RA FEW007 SCT040 BKN110 22/22 A2985 RMK AO2 LTG DSNT E SLP108 P0004 T02220222 $=
26/08/2023 11:51->METAR KJFK 261151Z 31010KT 7SM -RA FEW008 BKN021 OVC032 23/23 A2985 RMK AO2 RAB1057 SLP106 P0007 60007 70025 T02280228 10228 20206 53012 $=
26/08/2023 10:51->METAR KJFK 261051Z 26005KT 9SM SCT085 BKN110 BKN250 22/22 A2983 RMK AO2 SLP102 T02220222 $=
26/08/2023 09:51->METAR KJFK 260951Z 21003KT 9SM BKN250 21/21 A2982 RMK AO2 SLP096 T02110211 $=
26/08/2023 08:51->METAR KJFK 260851Z 00000KT 7SM FEW025 SCT060 BKN150 21/21 A2981 RMK AO2 SLP094 T02110211 56005 $=
26/08/2023 07:51->METAR KJFK 260751Z 19003KT 8SM FEW060 SCT150 22/22 A2981 RMK AO2 SLP094 T02170217 $=
26/08/2023 06:51->METAR KJFK 260651Z 00000KT 9SM SCT060 BKN200 22/22 A2982 RMK AO2 SLP096 T02220222 $=
26/08/2023 05:51->METAR KJFK 260551Z 19003KT 8SM FEW060 BKN075 BKN150 22/22 A2982 RMK AO2 SLP099 T02220222 10228 20217 58006 $=
26/08/2023 04:51->METAR KJFK 260451Z 21003KT 10SM SCT050 BKN150 22/22 A2984 RMK AO2 SLP103 T02220217 402500211 $=
26/08/2023 03:51->METAR KJFK 260351Z 23004KT 10SM FEW075 SCT200 22/22 A2984 RMK AO2 SLP104 T02220217 $=
26/08/2023 02:51->METAR KJFK 260251Z 19003KT 10SM FEW080 SCT200 22/22 A2984 RMK AO2 SLP105 T02170217 53003 $=
26/08/2023 01:51->METAR KJFK 260151Z 18003KT 10SM FEW065 22/22 A2984 RMK AO2 SLP103 T02220217 $=
26/08/2023 00:51->METAR KJFK 260051Z 18007KT 10SM SCT060 22/22 A2984 RMK AO2 SLP103 T02220217 $=
25/08/2023 23:51->METAR KJFK 252351Z 19011KT 10SM FEW020 FEW033 SCT060 23/22 A2983 RMK AO2 SLP102 T02280217 10250 20228 57005 $=
25/08/2023 22:51->METAR KJFK 252251Z 19013KT 10SM FEW020 FEW033 BKN060 23/22 A2983 RMK AO2 SLP102 T02330217 $=
25/08/2023 21:51->METAR KJFK 252151Z 20015KT 10SM FEW016 FEW033 BKN060 24/22 A2985 RMK AO2 SLP106 T02390222 $=
25/08/2023 20:51->METAR KJFK 252051Z 19015KT 10SM FEW029 SCT037 BKN060 24/22 A2985 RMK AO2 SLP107 T02390222 56003 $=
25/08/2023 19:51->METAR KJFK 251951Z 19016KT 10SM FEW009 BKN027 OVC060 24/22 A2985 RMK AO2 SLP107 T02390222 $=
25/08/2023 18:51->METAR KJFK 251851Z 19014KT 10SM SCT009 BKN027 OVC035 24/22 A2986 RMK AO2 SLP110 T02390222 $=
25/08/2023 17:51->METAR KJFK 251751Z 18015KT 10SM SCT009 BKN018 BKN055 BKN140 24/22 A2987 RMK AO2 SLP115 60018 T02440222 10250 20211 56012 $=
25/08/2023 16:51->METAR KJFK 251651Z 18013KT 10SM FEW009 SCT049 BKN065 BKN140 23/23 A2987 RMK AO2 RAE18 SLP116 P0000 T02330228=
25/08/2023 15:51->METAR KJFK 251551Z 20011KT 7SM -RA SCT008 BKN028 BKN055 OVC140 22/22 A2990 RMK AO2 RAB04 SLP123 P0003 T02220222=
25/08/2023 14:51->METAR KJFK 251451Z 20017KT 10SM FEW007 SCT019 BKN110 OVC140 22/22 A2990 RMK AO2 RAE1357B16E48 SLP126 P0000 60015 T02220217 55002=
25/08/2023 13:51->METAR KJFK 251351Z 18014KT 10SM -RA FEW008 SCT013 BKN026 OVC140 22/22 A2990 RMK AO2 SLP123 P0001 T02220217=
25/08/2023 12:51->METAR KJFK 251251Z 19015KT 8SM -RA SCT026 BKN050 BKN095 OVC140 22/22 A2990 RMK AO2 LTG DSNT SW SLP126 P0014 T02170217=
25/08/2023 11:51->METAR KJFK 251151Z 18012KT 2SM R04R/4000VP6000FT +RA BR FEW007 BKN019CB OVC041 21/21 A2991 RMK AO2 SFC VIS 3 LTG DSNT S TSB1058E33 SLP128 OCNL LTGIC SE-S CB SE-S MOV E P0023 60023 70025 T02110211 10228 20211 56008=
25/08/2023 10:51->METAR KJFK 251051Z 20014KT 8SM -RA BKN026 BKN047 OVC100 22/21 A2993 RMK AO2 LTG DSNT SW AND W RAB31 SLP133 OCNL LTGIC DSNT SW-W CB DSNT SW-W MOV E P0000 T02220211=
25/08/2023 09:51->METAR KJFK 250951Z 18013KT 10SM SCT018 OVC044 23/21 A2992 RMK AO2 SLP130 T02280206=
25/08/2023 08:51->METAR KJFK 250851Z 18011KT 10SM FEW018 OVC044 22/20 A2993 RMK AO2 RAE0754B14E23 SLP136 P0000 60000 T02170200 58015=
25/08/2023 07:51->METAR KJFK 250751Z 18010KT 10SM -RA FEW020 OVC043 22/20 A2995 RMK AO2 RAB32 SLP142 P0000 T02170200=
25/08/2023 06:51->METAR KJFK 250651Z 19013KT 10SM OVC045 22/19 A2997 RMK AO2 SLP147 T02220189=
25/08/2023 05:51->METAR KJFK 250551Z 18014KT 10SM FEW024 SCT032 OVC045 22/20 A2998 RMK AO2 SLP151 60000 T02170200 10217 20211 55005=
25/08/2023 04:51->METAR KJFK 250451Z 17018KT 10SM SCT025 OVC055 22/20 A2997 RMK AO2 SLP149 T02170200 402280200=
25/08/2023 03:51->METAR KJFK 250351Z 16014KT 10SM BKN028 BKN035 OVC055 22/19 A2999 RMK AO2 SLP154 T02170194=
25/08/2023 02:51->METAR KJFK 250251Z 16014KT 10SM FEW022 OVC055 21/19 A2999 RMK AO2 SLP156 60000 T02110194 58016=
25/08/2023 01:51->METAR KJFK 250151Z 17010KT 10SM FEW015 OVC055 22/18 A3003 RMK AO2 RAE0053 SLP169 P0000 T02170178=
25/08/2023 00:51->METAR KJFK 250051Z 18011KT 10SM -RA FEW017 OVC042 21/18 A3005 RMK AO2 RAB42 SLP176 P0000 T02110183=
24/08/2023 23:51->METAR KJFK 242351Z 16011KT 10SM FEW017 SCT038 OVC055 22/17 A3004 RMK AO2 RAB32E42 SLP172 P0000 60002 T02170172 10222 20200 55001=
24/08/2023 22:51->METAR KJFK 242251Z 15013KT 10SM FEW017 SCT039 OVC060 22/17 A3004 RMK AO2 SLP171 T02170172=
24/08/2023 21:51->METAR KJFK 242151Z 15011KT 10SM FEW016 BKN039 OVC060 22/17 A3004 RMK AO2 SLP171 T02170172=
24/08/2023 20:51->METAR KJFK 242051Z 16013KT 10SM SCT016 BKN036 OVC065 22/17 A3004 RMK AO2 SLP173 60002 T02170172 57011=
24/08/2023 19:51->METAR KJFK 241951Z 15014KT 10SM SCT017 SCT028CB OVC050 21/18 A3005 RMK AO2 RAE48 SLP176 CB W-NW MOV N VCSH W-NW P0002 T02110183=
24/08/2023 18:51->METAR KJFK 241851Z 17004KT 4SM R04R/5000VP6000FT -RA BR FEW017 BKN036 OVC046 20/19 A3007 RMK AO2 SLP182 P0000 T02000189=
24/08/2023 17:51->METAR KJFK 241751Z 16011KT 10SM -RA FEW021 BKN050 OVC075 21/17 A3008 RMK AO2 RAB51 SLP184 VCSH SE-S P0000 60000 T02060167 10228 20206 56006=
24/08/2023 16:51->METAR KJFK 241651Z 17010KT 10SM SCT021 BKN044 OVC070 22/18 A3008 RMK AO2 RAB1554E12 SLP185 VCSH S-W P0000 T02170183=
24/08/2023 15:51->METAR KJFK 241551Z 15013G19KT 10SM SCT023 BKN032 OVC070 22/18 A3008 RMK AO2 SLP186 T02220178=
24/08/2023 14:51->METAR KJFK 241451Z 16013KT 10SM BKN030 BKN041 OVC080 22/18 A3009 RMK AO2 SLP190 T02220178 53009=
24/08/2023 13:51->METAR KJFK 241351Z 16013KT 10SM SCT029 OVC080 22/18 A3008 RMK AO2 SLP186 T02170178=
24/08/2023 12:51->METAR KJFK 241251Z 15010KT 10SM FEW028 BKN085 OVC140 22/17 A3008 RMK AO2 SLP184 T02170172=
24/08/2023 11:51->METAR KJFK 241151Z 16009KT 10SM FEW025 BKN090 BKN140 22/18 A3007 RMK AO2 SLP182 T02170178 10217 20206 53001=
24/08/2023 10:51->METAR KJFK 241051Z 15009KT 10SM FEW026 BKN095 OVC140 21/18 A3006 RMK AO2 SLP180 T02110178=
24/08/2023 09:51->METAR KJFK 240951Z 13006KT 10SM FEW034 OVC100 21/17 A3006 RMK AO2 SLP179 T02110172=
24/08/2023 08:51->METAR KJFK 240851Z 14006KT 10SM FEW032 OVC110 21/17 A3006 RMK AO2 SLP180 T02110167 50001=
24/08/2023 07:51->METAR KJFK 240751Z 16005KT 10SM OVC110 21/17 A3007 RMK AO2 SLP182 T02060172=
24/08/2023 06:51->METAR KJFK 240651Z 15007KT 10SM OVC110 21/17 A3007 RMK AO2 SLP181 T02060167=
24/08/2023 05:51->METAR KJFK 240551Z 14006KT 10SM BKN120 21/16 A3006 RMK AO2 SLP180 T02060161 10211 20206 58009=
24/08/2023 04:51->METAR KJFK 240451Z 15005KT 10SM BKN120 OVC150 21/15 A3009 RMK AO2 SLP188 T02060150 402500172=
24/08/2023 03:51->METAR KJFK 240351Z 16006KT 10SM OVC130 21/15 A3009 RMK AO2 SLP189 T02060150=
24/08/2023 02:51->METAR KJFK 240251Z 15008KT 10SM BKN140 BKN250 21/15 A3009 RMK AO2 SLP189 T02060150 50006=
24/08/2023 01:51->METAR KJFK 240151Z 16005KT 10SM OVC140 21/15 A3010 RMK AO2 SLP194 T02060150=
24/08/2023 00:51->METAR KJFK 240051Z 13006KT 10SM OVC140 21/16 A3009 RMK AO2 SLP189 T02060156=
23/08/2023 23:51->METAR KJFK 232351Z 13011KT 10SM BKN150 BKN250 21/16 A3007 RMK AO2 SLP183 T02060156 10244 20206 56010=
23/08/2023 22:51->METAR KJFK 232251Z 13010KT 10SM FEW055 BKN140 BKN250 21/15 A3007 RMK AO2 SLP183 T02110150=
23/08/2023 21:51->METAR KJFK 232151Z 15008KT 10SM FEW055 SCT150 SCT250 21/15 A3009 RMK AO2 SLP190 T02110150=
23/08/2023 20:51->METAR KJFK 232051Z 16008KT 10SM FEW055 SCT160 SCT250 22/16 A3010 RMK AO2 SLP193 T02220156 58008=
23/08/2023 19:51->METAR KJFK 231951Z 18009KT 10SM FEW055 SCT160 SCT250 23/16 A3011 RMK AO2 SLP197 T02330156=
23/08/2023 18:51->METAR KJFK 231851Z 19008KT 10SM FEW055 FEW170 SCT250 24/16 A3012 RMK AO2 SLP198 T02390156=
23/08/2023 17:51->METAR KJFK 231751Z 18009KT 10SM FEW060 FEW170 SCT250 24/14 A3013 RMK AO2 SLP201 T02390144 10250 20189 55013=
23/08/2023 16:51->METAR KJFK 231651Z 18010KT 10SM FEW060 SCT170 SCT250 24/14 A3012 RMK AO2 SLP199 T02390139=
23/08/2023 15:51->METAR KJFK 231551Z 05005KT 10SM FEW060 SCT170 SCT250 24/12 A3014 RMK AO2 SLP206 T02390122=
23/08/2023 14:51->METAR KJFK 231451Z 00000KT 10SM FEW060 BKN170 BKN250 23/13 A3016 RMK AO2 SLP214 T02330128 50001=
23/08/2023 13:51->METAR KJFK 231351Z 05008KT 10SM BKN170 BKN250 21/12 A3017 RMK AO2 SLP214 T02110122=
23/08/2023 12:51->METAR KJFK 231251Z 03009KT 10SM BKN170 BKN250 20/12 A3016 RMK AO2 SLP214 T02000117=
23/08/2023 11:51->METAR KJFK 231151Z 03010KT 10SM FEW060 BKN180 BKN250 19/11 A3016 RMK AO2 SLP213 T01940106 10200 20172 51011=
23/08/2023 10:51->METAR KJFK 231051Z 01007KT 10SM FEW060 BKN180 BKN250 18/11 A3016 RMK AO2 SLP212 T01780106=
23/08/2023 09:51->METAR KJFK 230951Z 03008KT 10SM FEW060 SCT250 17/11 A3014 RMK AO2 SLP206 T01720106=
23/08/2023 08:51->METAR KJFK 230851Z 03009KT 10SM FEW065 SCT250 18/11 A3013 RMK AO2 SLP202 T01780111 53007=
23/08/2023 07:51->METAR KJFK 230751Z 02009KT 10SM SCT070 SCT250 19/11 A3012 RMK AO2 SLP199 T01890111=
23/08/2023 06:51->METAR KJFK 230651Z 02011KT 10SM SCT065 BKN250 19/12 A3012 RMK AO2 SLP199 T01940117=
23/08/2023 05:51->METAR KJFK 230551Z 04007KT 10SM SCT060 SCT250 19/13 A3011 RMK AO2 SLP196 T01940133 10233 20183 52001=
23/08/2023 04:51->METAR KJFK 230451Z 06004KT 10SM FEW065 SCT250 19/13 A3011 RMK AO2 SLP195 T01890128 402610189=
23/08/2023 03:51->METAR KJFK 230351Z 36008KT 10SM FEW070 SCT250 21/12 A3011 RMK AO2 SLP196 T02110122=
23/08/2023 02:51->METAR KJFK 230251Z 36007KT 10SM FEW065 BKN250 22/13 A3011 RMK AO2 SLP195 T02170128 51009=
23/08/2023 01:51->METAR KJFK 230151Z 35007KT 10SM FEW060 SCT250 22/13 A3010 RMK AO2 SLP194 T02220133=
23/08/2023 00:51->METAR KJFK 230051Z 02005KT 10SM SCT250 23/11 A3010 RMK AO2 SLP192 T02280111=
22/08/2023 23:51->METAR KJFK 222351Z 04005KT 10SM FEW060 BKN250 23/12 A3008 RMK AO2 SLP186 T02330117 10261 20228 51006=
22/08/2023 22:51->METAR KJFK 222251Z 36009KT 10SM FEW060 BKN250 24/13 A3008 RMK AO2 SLP186 T02440128=
22/08/2023 21:51->METAR KJFK 222151Z 01009KT 10SM FEW055 BKN250 26/13 A3007 RMK AO2 SLP182 T02560128=
22/08/2023 20:51->METAR KJFK 222051Z 02012G18KT 10SM FEW055 BKN250 26/13 A3006 RMK AO2 SLP180 T02560128 56007=
22/08/2023 19:51->METAR KJFK 221951Z 01008G16KT 10SM FEW055 BKN250 26/13 A3006 RMK AO2 SLP180 T02560128=
22/08/2023 18:51->METAR KJFK 221851Z 01009G17KT 10SM FEW050 BKN250 26/13 A3008 RMK AO2 SLP185 T02560128=
22/08/2023 17:51->METAR KJFK 221751Z 01013KT 10SM SCT050 BKN250 24/13 A3009 RMK AO2 SLP188 T02440128 10250 20194 58004=
22/08/2023 16:51->METAR KJFK 221651Z 02008G17KT 350V050 10SM FEW050 BKN250 24/13 A3009 RMK AO2 SLP189 T02390133=
22/08/2023 15:51->METAR KJFK 221551Z 02012KT 10SM FEW050 BKN250 23/13 A3010 RMK AO2 SLP193 T02330133=
22/08/2023 14:51->METAR KJFK 221451Z 03012G19KT 10SM FEW043 BKN250 22/12 A3010 RMK AO2 SLP192 T02170122 53007=
22/08/2023 13:51->METAR KJFK 221351Z 02014KT 10SM FEW170 BKN250 21/12 A3009 RMK AO2 SLP188 T02110117=
22/08/2023 12:51->METAR KJFK 221251Z 02014KT 10SM FEW120 SCT170 BKN250 20/11 A3008 RMK AO2 SLP186 T02000111=
22/08/2023 11:51->METAR KJFK 221151Z 01014KT 10SM SCT120 SCT170 BKN250 19/12 A3008 RMK AO2 SLP185 T01940117 10239 20194 53020=
22/08/2023 10:51->METAR KJFK 221051Z 01015KT 10SM SCT120 BKN250 21/12 A3006 RMK AO2 SLP178 T02060117=
22/08/2023 09:51->METAR KJFK 220951Z 02009KT 10SM SCT120 BKN150 BKN250 21/13 A3003 RMK AO2 SLP169 T02110128=
22/08/2023 08:51->METAR KJFK 220851Z 36012KT 10SM FEW070 BKN140 BKN250 22/15 A3002 RMK AO2 SLP165 T02170150 55001=
22/08/2023 07:51->METAR KJFK 220751Z 36013KT 10SM SCT065 BKN250 22/16 A3001 RMK AO2 SLP162 T02220161=
22/08/2023 06:51->METAR KJFK 220651Z 35013KT 10SM SCT033 BKN060 BKN250 23/17 A3001 RMK AO2 SLP161 T02280167=
22/08/2023 05:51->METAR KJFK 220551Z 01013G19KT 10SM FEW033 BKN075 BKN250 24/18 A3002 RMK AO2 SLP166 T02390178 10289 20239 52006=
22/08/2023 04:51->METAR KJFK 220451Z 02008KT 10SM BKN250 25/19 A3001 RMK AO2 SLP163 T02500194 403110144=
22/08/2023 03:51->METAR KJFK 220351Z 36007KT 10SM BKN250 26/19 A3001 RMK AO2 SLP162 T02610189=
22/08/2023 02:51->METAR KJFK 220251Z 33011KT 10SM BKN250 27/18 A3000 RMK AO2 SLP159 T02720183 50002=
22/08/2023 01:51->METAR KJFK 220151Z 35007KT 10SM BKN250 28/19 A3001 RMK AO2 SLP161 T02780189=
22/08/2023 00:51->METAR KJFK 220051Z 31008KT 10SM FEW055 BKN250 28/19 A3000 RMK AO2 SLP159 T02830189=
21/08/2023 23:51->METAR KJFK 212351Z 35008KT 10SM FEW055 BKN250 29/19 A3000 RMK AO2 SLP157 T02890189 10311 20289 53003=
21/08/2023 22:51->METAR KJFK 212251Z 32013KT 10SM FEW055 BKN250 29/18 A2999 RMK AO2 SLP156 T02940183=
21/08/2023 21:51->METAR KJFK 212151Z 34013G19KT 10SM FEW055 BKN250 31/19 A2999 RMK AO2 SLP154 T03060194=
21/08/2023 20:51->METAR KJFK 212051Z 32012KT 10SM SCT048 BKN250 31/20 A2999 RMK AO2 SLP154 T03060200 56010=
21/08/2023 19:51->METAR KJFK 211951Z 24005KT 10SM BKN055 BKN250 29/21 A2999 RMK AO2 SLP155 T02940206=
21/08/2023 18:51->METAR KJFK 211851Z 33007KT 10SM SCT055 BKN250 30/21 A3000 RMK AO2 SLP159 T03000206=
21/08/2023 17:51->METAR KJFK 211751Z 32011KT 10SM FEW055 BKN250 31/21 A3002 RMK AO2 SLP164 T03060206 10311 20233 58016=
21/08/2023 16:51->METAR KJFK 211651Z 29009G18KT 260V320 10SM FEW055 BKN250 31/20 A3004 RMK AO2 SLP171 T03110200=
21/08/2023 15:51->METAR KJFK 211551Z 24005KT 10SM FEW075 FEW100 BKN250 30/20 A3005 RMK AO2 SLP175 T03000200=
21/08/2023 14:51->METAR KJFK 211451Z 25007KT 10SM FEW075 SCT100 BKN250 28/20 A3006 RMK AO2 SLP180 T02780200 58002=
21/08/2023 13:51->METAR KJFK 211351Z 25006KT 10SM FEW095 BKN250 26/19 A3007 RMK AO2 SLP182 T02610194=
21/08/2023 12:51->METAR KJFK 211251Z 25006KT 10SM BKN090 BKN250 24/19 A3007 RMK AO2 SLP183 T02440194 $=
21/08/2023 11:51->METAR KJFK 211151Z 24006KT 10SM SCT120 BKN250 23/19 A3007 RMK AO2 SLP182 T02330194 10233 20211 50003 $=
21/08/2023 10:51->METAR KJFK 211051Z 25007KT 10SM FEW130 BKN250 22/19 A3007 RMK AO2 SLP183 T02170194 $=
21/08/2023 09:51->METAR KJFK 210951Z 25007KT 10SM SCT130 BKN250 22/20 A3006 RMK AO2 SLP179 T02170200 $=
21/08/2023 08:51->METAR KJFK 210851Z 24009KT 10SM BKN250 22/19 A3006 RMK AO2 SLP179 T02220194 55005=
21/08/2023 07:51->METAR KJFK 210751Z 24009KT 10SM BKN250 22/19 A3006 RMK AO2 SLP178 T02220194=
21/08/2023 06:51->METAR KJFK 210651Z 24008KT 10SM BKN250 22/19 A3006 RMK AO2 SLP179 T02170189=
21/08/2023 05:51->METAR KJFK 210551Z 24009KT 10SM SCT250 23/19 A3008 RMK AO2 SLP184 T02280189 10250 20228 56005=
21/08/2023 04:51->METAR KJFK 210451Z 25009KT 10SM BKN250 23/19 A3008 RMK AO2 SLP185 T02330189 402780172=
21/08/2023 03:51->METAR KJFK 210351Z 25008KT 10SM BKN250 23/20 A3009 RMK AO2 SLP187 T02330200=
21/08/2023 02:51->METAR KJFK 210251Z 26008KT 10SM FEW200 BKN250 24/18 A3009 RMK AO2 SLP190 T02440178 51008=
21/08/2023 01:51->METAR KJFK 210151Z 24008KT 10SM FEW200 BKN250 24/18 A3008 RMK AO2 SLP186 T02440178=
21/08/2023 00:51->METAR KJFK 210051Z 24006KT 10SM SCT200 BKN250 23/20 A3008 RMK AO2 SLP185 T02330200=
20/08/2023 23:51->METAR KJFK 202351Z 19006KT 10SM SCT200 BKN250 24/21 A3007 RMK AO2 SLP181 T02390206 10278 20239 56001=
20/08/2023 22:51->METAR KJFK 202251Z 21008KT 10SM SCT200 BKN250 26/18 A3007 RMK AO2 SLP182 T02560183=
20/08/2023 21:51->METAR KJFK 202151Z 19008KT 10SM SCT200 BKN250 26/19 A3007 RMK AO2 SLP181 T02560189=
20/08/2023 20:51->METAR KJFK 202051Z 19010KT 10SM SCT200 BKN250 27/19 A3007 RMK AO2 SLP182 T02670189 56010=
20/08/2023 19:51->METAR KJFK 201951Z 19011KT 10SM SCT200 SCT250 27/18 A3008 RMK AO2 SLP185 T02670183=
20/08/2023 18:51->METAR KJFK 201851Z 19011KT 10SM FEW200 FEW250 27/18 A3009 RMK AO2 WSHFT 1753 SLP188 T02670178=
20/08/2023 17:51->METAR KJFK 201751Z 24012KT 10SM FEW250 28/16 A3010 RMK AO2 SLP191 T02780156 10278 20206 56011=
20/08/2023 16:51->METAR KJFK 201651Z 24014KT 10SM FEW250 27/15 A3010 RMK AO2 SLP193 T02670150=
20/08/2023 15:51->METAR KJFK 201551Z 23010KT 10SM FEW250 27/14 A3012 RMK AO2 SLP200 T02670144=
20/08/2023 14:51->METAR KJFK 201451Z 23009KT 10SM FEW250 26/15 A3013 RMK AO2 SLP203 T02560150 50004=
20/08/2023 13:51->METAR KJFK 201351Z 25005KT 10SM FEW250 24/16 A3014 RMK AO2 SLP204 T02390156=
20/08/2023 12:51->METAR KJFK 201251Z 24005KT 10SM FEW190 FEW250 22/15 A3013 RMK AO2 SLP201 T02220150=
20/08/2023 11:51->METAR KJFK 201151Z 23004KT 10SM SCT190 SCT250 21/15 A3012 RMK AO2 SLP199 T02060150 10206 20172 51014=
20/08/2023 10:51->METAR KJFK 201051Z 27005KT 10SM FEW190 SCT250 19/15 A3011 RMK AO2 SLP196 T01890150=
20/08/2023 09:51->METAR KJFK 200951Z 27006KT 10SM SCT200 BKN250 18/13 A3010 RMK AO2 SLP191 T01830133=
20/08/2023 08:51->METAR KJFK 200851Z 29007KT 10SM BKN250 19/13 A3008 RMK AO2 SLP185 T01940133 52007=
20/08/2023 07:51->METAR KJFK 200751Z 26011KT 10SM BKN250 20/14 A3007 RMK AO2 SLP182 T02000139=
20/08/2023 06:51->METAR KJFK 200651Z 25007KT 10SM FEW250 20/16 A3007 RMK AO2 SLP181 T02000156=
20/08/2023 05:51->METAR KJFK 200551Z 25008KT 10SM FEW250 20/16 A3006 RMK AO2 SLP178 T02000156 10244 20194 50005=
20/08/2023 04:51->METAR KJFK 200451Z 24006KT 10SM FEW250 20/14 A3006 RMK AO2 SLP180 T02000139 402610172=
20/08/2023 03:51->METAR KJFK 200351Z 26007KT 10SM FEW250 22/13 A3005 RMK AO2 SLP176 T02170128=
20/08/2023 02:51->METAR KJFK 200251Z 25008KT 10SM CLR 22/14 A3004 RMK AO2 SLP173 T02170139 51018=
20/08/2023 01:51->METAR KJFK 200151Z 26009KT 10SM CLR 23/13 A3003 RMK AO2 SLP169 T02330128=
20/08/2023 00:51->METAR KJFK 200051Z 27010KT 10SM FEW250 23/13 A3002 RMK AO2 SLP166 T02330133=
19/08/2023 23:51->METAR KJFK 192351Z 27014KT 10SM FEW065 FEW250 24/13 A2999 RMK AO2 SLP155 T02440128 10261 20239 53010=
19/08/2023 22:51->METAR KJFK 192251Z 26013KT 10SM FEW065 FEW250 24/13 A2998 RMK AO2 SLP151 T02440133=
19/08/2023 21:51->METAR KJFK 192151Z 27013KT 10SM SCT065 BKN250 24/13 A2997 RMK AO2 SLP148 T02440128=
19/08/2023 20:51->METAR KJFK 192051Z 25011KT 10SM SCT065 BKN250 25/14 A2996 RMK AO2 SLP144 T02500139 56010=
19/08/2023 19:51->METAR KJFK 191951Z 26014KT 10SM SCT060 BKN250 26/13 A2997 RMK AO2 SLP147 T02560128=
19/08/2023 18:51->METAR KJFK 191851Z 25015G19KT 10SM SCT055 BKN250 24/12 A2998 RMK AO2 SLP150 T02390122=
19/08/2023 17:51->METAR KJFK 191751Z 31011G18KT 10SM SCT050 BKN250 24/13 A2999 RMK AO2 SLP155 T02440133 10244 20189 58007=
19/08/2023 16:51->METAR KJFK 191651Z 28011G15KT 10SM BKN049 BKN250 24/13 A3000 RMK AO2 SLP158 T02440133=
19/08/2023 15:51->METAR KJFK 191551Z 10SM BKN048 BKN250 23/12 A3001 RMK AO2 SLP161 T02280122=
19/08/2023 14:51->METAR KJFK 191451Z 28013KT 10SM SCT040 SCT150 SCT250 22/13 A3001 RMK AO2 SLP161 T02220128 51008=
19/08/2023 13:51->METAR KJFK 191351Z 28012G16KT 10SM SCT030 SCT150 SCT250 21/12 A3000 RMK AO2 SLP159 T02110122=
19/08/2023 12:51->METAR KJFK 191251Z 26013KT 10SM FEW030 FEW150 19/12 A3000 RMK AO2 SLP158 T01940117=
19/08/2023 11:51->METAR KJFK 191151Z 27013KT 10SM FEW150 19/12 A2999 RMK AO2 SLP153 T01890117 10200 20172 53019=
19/08/2023 10:51->METAR KJFK 191051Z 27011KT 10SM FEW150 18/12 A2997 RMK AO2 SLP147 T01780117=
19/08/2023 09:51->METAR KJFK 190951Z 26013KT 10SM FEW150 18/11 A2994 RMK AO2 SLP137 T01780111=
19/08/2023 08:51->METAR KJFK 190851Z 28011KT 10SM FEW250 18/11 A2993 RMK AO2 SLP135 T01780111 53004=
19/08/2023 07:51->METAR KJFK 190751Z 28008G19KT 10SM FEW250 19/11 A2992 RMK AO2 SLP132 T01890106=
19/08/2023 06:51->METAR KJFK 190651Z 31013KT 10SM FEW250 19/11 A2991 RMK AO2 SLP128 T01940106=
19/08/2023 05:51->METAR KJFK 190551Z 29013G21KT 10SM FEW250 20/10 A2992 RMK AO2 SLP130 T02000100 10250 20200 51011=
19/08/2023 04:51->METAR KJFK 190451Z 30012G23KT 10SM FEW250 21/10 A2991 RMK AO2 SLP128 T02110100 402830200=
19/08/2023 03:51->METAR KJFK 190351Z 27010KT 10SM FEW250 22/11 A2990 RMK AO2 SLP125 T02170111=
19/08/2023 02:51->METAR KJFK 190251Z 29011KT 10SM FEW085 23/11 A2988 RMK AO2 SLP119 T02280106 51028=
19/08/2023 01:51->METAR KJFK 190151Z 27013KT 10SM FEW075 BKN090 24/11 A2987 RMK AO2 SLP114 T02390106=
19/08/2023 00:51->METAR KJFK 190051Z 28017G23KT 10SM FEW060 24/11 A2983 RMK AO2 SLP102 T02440106 $=
18/08/2023 23:51->METAR KJFK 182351Z 28015G25KT 10SM FEW060 25/10 A2980 RMK AO2 PK WND 28028/2331 SLP091 T02500100 10283 20250 53022 $=
18/08/2023 22:51->METAR KJFK 182251Z 28018G25KT 10SM SCT060 26/11 A2977 RMK AO2 PK WND 26027/2224 SLP082 T02610106 $=
18/08/2023 21:51->METAR KJFK 182151Z 27019G26KT 10SM SCT060 SCT250 27/12 A2976 RMK AO2 PK WND 28029/2133 SLP076 T02670122 $=
18/08/2023 20:51->METAR KJFK 182051Z 26021G27KT 10SM SCT060 SCT250 27/14 A2974 RMK AO2 PK WND 28028/2033 SLP069 T02720139 51004 $=
18/08/2023 19:51->METAR KJFK 181951Z 26016G23KT 10SM SCT055 SCT250 28/16 A2973 RMK AO2 SLP068 T02780156 $=
18/08/2023 18:51->METAR KJFK 181851Z 29014G20KT 10SM SCT049 SCT250 27/16 A2973 RMK AO2 SLP068 T02670161 $=
18/08/2023 17:51->METAR KJFK 181751Z 28012G21KT 10SM SCT044 SCT250 26/17 A2973 RMK AO2 SLP065 T02610167 10267 20206 55001 $=
18/08/2023 16:51->METAR KJFK 181651Z 30014G20KT 10SM FEW044 SCT110 SCT250 27/16 A2972 RMK AO2 SLP062 FROPA T02670161 $=
18/08/2023 15:51->METAR KJFK 181551Z 26011KT 10SM FEW041 BKN110 BKN140 26/18 A2973 RMK AO2 WSHFT 1454 SLP066 T02560183 $=
18/08/2023 14:51->METAR KJFK 181451Z 23008KT 10SM FEW041 SCT090 BKN140 24/19 A2973 RMK AO2 SLP067 T02440194 53006 $=
18/08/2023 13:51->METAR KJFK 181351Z 32005KT 10SM FEW037 SCT065 BKN085 BKN140 23/19 A2973 RMK AO2 SLP065 T02280189 $=
18/08/2023 12:51->METAR KJFK 181251Z 04005KT 10SM FEW033 BKN100 BKN140 BKN250 22/20 A2971 RMK AO2 SLP060 T02170200 $=
18/08/2023 11:51->METAR KJFK 181151Z 36008KT 10SM FEW013 SCT027 BKN055 BKN140 21/19 A2971 RMK AO2 PK WND 31031/1115 WSHFT 1110 RAB21E47 SLP061 CB DSNT E-SE MOV NE TCU DSNT S VCSH E-SE AND NW P0000 60031 70031 T02060189 10239 20200 53014 $=
18/08/2023 10:51->METAR KJFK 181051Z 22006KT 10SM FEW008 BKN017 BKN032 BKN140 23/22 A2968 RMK AO2 RAE28 TSE15 SLP052 CB DSNT W-N MOV NE P0004 T02280217 $=
18/08/2023 09:51->METAR KJFK 180951Z 26006KT 10SM TSRA BKN006CB BKN028 OVC043 22/21 A2968 RMK AO2 WSHFT 0924 LTG DSNT NW-NE SLP052 OCNL LTGICCG OHD TS OHD MOV E P0020 T02170211 $=
18/08/2023 08:51->METAR KJFK 180851Z 17014KT 5SM TSRA BR BKN005 BKN009 OVC012 24/24 A2967 RMK AO2 LTG DSNT W RAB31 TSB39 PRESFR SLP047 OCNL LTGICCG OHD TS OHD MOV E P0007 60007 T02390239 58040=
18/08/2023 07:51->METAR KJFK 180751Z 15009KT 7SM BKN005 BKN008 BKN015 24/24 A2972 RMK AO2 SLP063 T02390239=
18/08/2023 06:51->METAR KJFK 180651Z 13007KT 8SM BKN006 BKN008 BKN010 24/23 A2975 RMK AO2 SLP074 T02390233=
18/08/2023 05:51->METAR KJFK 180551Z 13006KT 10SM BKN009 BKN015 BKN026 23/23 A2979 RMK AO2 SLP087 T02330233 10233 20217 57020=
18/08/2023 04:51->METAR KJFK 180451Z 12006KT 10SM BKN007 BKN015 BKN022 23/23 A2980 RMK AO2 SLP092 T02330233 402440217=
18/08/2023 03:51->METAR KJFK 180351Z 13006KT 8SM BKN007 BKN017 BKN020 23/23 A2983 RMK AO2 SLP102 T02280228=
18/08/2023 02:51->METAR KJFK 180251Z 12007KT 8SM BKN004 BKN011 BKN020 23/22 A2985 RMK AO2 SLP107 T02280222 58014=
18/08/2023 01:51->METAR KJFK 180151Z 11009KT 3/4SM R04R/P6000FT BKN004 OVC015 22/22 A2987 RMK AO2 SFC VIS 10 SLP113 T02220222=
18/08/2023 00:51->METAR KJFK 180051Z 11008KT 3/4SM R04R/P6000FT OVC003 22/22 A2988 RMK AO2 SFC VIS 7 SLP116 T02170217=
17/08/2023 23:51->METAR KJFK 172351Z 11012KT 10SM OVC006 22/22 A2989 RMK AO2 SLP121 T02220217 10239 20217 56006=
17/08/2023 22:51->METAR KJFK 172251Z 12010KT 10SM OVC007 22/21 A2989 RMK AO2 SLP122 T02220211=
17/08/2023 21:51->METAR KJFK 172151Z 10011KT 10SM BKN008 OVC016 23/22 A2990 RMK AO2 SLP123 T02280217=
17/08/2023 20:51->METAR KJFK 172051Z 11012KT 9SM OVC005 22/21 A2991 RMK AO2 SLP127 T02170211 56013=
17/08/2023 19:51->METAR KJFK 171951Z 12013KT 10SM BKN009 OVC016 23/21 A2992 RMK AO2 SLP130 T02280211=
17/08/2023 18:51->METAR KJFK 171851Z 11011KT 10SM BKN010 OVC021 23/21 A2994 RMK AO2 SLP137 T02330211=
17/08/2023 17:51->METAR KJFK 171751Z 11012KT 10SM BKN011 OVC021 24/22 A2995 RMK AO2 SLP140 T02390217 10244 20222 58014=
17/08/2023 16:51->METAR KJFK 171651Z 11009KT 10SM BKN011 BKN018 24/22 A2996 RMK AO2 SLP146 T02390217=
17/08/2023 15:51->METAR KJFK 171551Z 10013KT 10SM BKN010 BKN029TCU 24/22 A2997 RMK AO2 SLP149 CIG 008V012 TCU DSNT NW T02390217=
17/08/2023 14:51->METAR KJFK 171451Z 12009KT 10SM BKN010 BKN027 23/22 A2999 RMK AO2 SLP154 CIG 008V012 T02330217 55000=
17/08/2023 13:51->METAR KJFK 171351Z 11012KT 10SM BKN008 BKN014 23/22 A2999 RMK AO2 SLP154 T02330217=
17/08/2023 12:51->METAR KJFK 171251Z 09011KT 10SM BKN006 22/22 A2999 RMK AO2 SLP153 T02220217=
17/08/2023 11:51->METAR KJFK 171151Z 09007KT 10SM OVC008 23/22 A2999 RMK AO2 SLP154 60000 T02280217 10228 20217 51006=
17/08/2023 10:51->METAR KJFK 171051Z 07005KT 10SM OVC007 22/21 A2998 RMK AO2 SLP152 T02220211=
17/08/2023 09:51->METAR KJFK 170951Z 09006KT 10SM BKN007 OVC060 22/22 A2998 RMK AO2 RAB0854E04 SLP151 P0000 T02220217=
17/08/2023 08:51->METAR KJFK 170851Z 08008KT 10SM OVC008 22/21 A2997 RMK AO2 SLP147 T02220211 56005=
17/08/2023 07:51->METAR KJFK 170751Z 09006KT 10SM BKN009 OVC015 22/21 A2997 RMK AO2 SLP148 T02220211=
17/08/2023 06:51->METAR KJFK 170651Z 08005KT 10SM BKN009 OVC014 22/21 A2998 RMK AO2 SLP150 T02170206=
17/08/2023 05:51->METAR KJFK 170551Z 08005KT 10SM BKN014 OVC019 22/21 A2998 RMK AO2 SLP153 T02220206 10228 20222 50001=
17/08/2023 04:51->METAR KJFK 170451Z 09006KT 10SM OVC012 22/21 A2999 RMK AO2 SLP154 T02220206 402720206=
17/08/2023 03:51->METAR KJFK 170351Z 10004KT 10SM BKN011 BKN042 BKN090 22/21 A2998 RMK AO2 SLP153 T02220211=
17/08/2023 02:51->METAR KJFK 170251Z 10006KT 10SM BKN011 BKN055 BKN080 22/21 A2998 RMK AO2 SLP152 T02220211 50008=
17/08/2023 01:51->METAR KJFK 170151Z 12006KT 10SM BKN012 BKN060 BKN075 22/21 A2999 RMK AO2 SLP154 T02220206=
17/08/2023 00:51->METAR KJFK 170051Z 11009KT 10SM FEW015 FEW055 BKN075 BKN250 22/21 A2997 RMK AO2 SLP149 T02220206=
16/08/2023 23:51->METAR KJFK 162351Z 11009KT 10SM FEW015 FEW040 BKN080 BKN250 23/21 A2996 RMK AO2 SLP144 T02280206 10261 20228 53014=
16/08/2023 22:51->METAR KJFK 162251Z 13009KT 10SM FEW023 SCT040 SCT110 SCT250 23/21 A2993 RMK AO2 SLP136 T02330206=
16/08/2023 21:51->METAR KJFK 162151Z 15010KT 10SM FEW027 SCT040 SCT110 SCT250 24/21 A2993 RMK AO2 SLP135 T02440211=
16/08/2023 20:51->METAR KJFK 162051Z 12011KT 10SM FEW027 SCT040 SCT250 26/21 A2992 RMK AO2 SLP130 T02560211 58003=
16/08/2023 19:51->METAR KJFK 161951Z 13008KT 10SM FEW027 SCT040 SCT250 26/22 A2993 RMK AO2 SLP134 T02610217=
16/08/2023 18:51->METAR KJFK 161851Z 16011KT 10SM SCT027 SCT040 25/22 A2993 RMK AO2 SLP135 T02500217=
16/08/2023 17:51->METAR KJFK 161751Z 18006KT 10SM BKN027 26/22 A2993 RMK AO2 SLP133 BKN V SCT T02560222 10272 20211 58003=
16/08/2023 16:51->METAR KJFK 161651Z 35004KT 10SM BKN027 BKN250 26/21 A2993 RMK AO2 SLP134 T02610206=
16/08/2023 15:51->METAR KJFK 161551Z 00000KT 10SM BKN025 BKN041 BKN095 BKN250 27/21 A2994 RMK AO2 SLP138 T02670211=
16/08/2023 14:51->METAR KJFK 161451Z 36003KT 10SM BKN017 BKN095 BKN250 24/21 A2993 RMK AO2 SLP136 T02440206 51013=
16/08/2023 13:51->METAR KJFK 161351Z 01003KT 10SM BKN012 BKN100 BKN250 23/21 A2992 RMK AO2 SLP133 T02330206=
16/08/2023 12:51->METAR KJFK 161251Z 02006KT 10SM BKN007 BKN037 BKN085 22/21 A2991 RMK AO2 SLP128 BKN007 V SCT VCSH SE T02170206=
16/08/2023 11:51->METAR KJFK 161151Z 11006KT 10SM FEW020 SCT044 BKN060 BKN140 21/21 A2990 RMK AO2 RAE46 SLP123 VCSH NE-S P0013 60040 70048 T02110206 10217 20206 51009=
16/08/2023 10:51->METAR KJFK 161051Z 00000KT 8SM -RA FEW012 SCT033 BKN060 21/21 A2989 RMK AO2 RAB03 SLP122 P0001 T02110211=
16/08/2023 09:51->METAR KJFK 160951Z 07006KT 10SM BKN038 OVC065 21/21 A2987 RMK AO2 RAE43 SLP116 P0005 T02060206=
16/08/2023 08:51->METAR KJFK 160851Z 04006KT 3SM RA BR BKN007 BKN032 OVC038 21/21 A2987 RMK AO2 LTG DSNT NE RAB25 SLP114 P0021 60021 T02060206 53006=
16/08/2023 07:51->METAR KJFK 160751Z 10007KT 10SM OVC008 21/21 A2985 RMK AO2 SLP107 T02110206=
16/08/2023 06:51->METAR KJFK 160651Z 08004KT 10SM BKN008 OVC016 21/21 A2985 RMK AO2 SLP107 T02110211=
16/08/2023 05:51->METAR KJFK 160551Z 05006KT 10SM BKN009 OVC014 21/21 A2985 RMK AO2 SLP108 60008 T02110211 10239 20211 55001=
16/08/2023 04:51->METAR KJFK 160451Z 07007KT 10SM BKN007 OVC085 22/21 A2984 RMK AO2 SLP106 T02170211 402720217=
16/08/2023 03:51->METAR KJFK 160351Z 09007KT 10SM BKN007 OVC090 22/22 A2985 RMK AO2 RAE25 SLP107 P0001 T02170217=
16/08/2023 02:51->METAR KJFK 160251Z 10008KT 7SM -RA FEW006 BKN040 OVC095 22/21 A2985 RMK AO2 CIG 031 W SLP109 P0005 60007 T02170211 50017=
16/08/2023 01:51->METAR KJFK 160151Z 13009KT 10SM -RA FEW010 BKN016 BKN075 OVC150 22/21 A2986 RMK AO2 RAB24 SLP111 P0002 T02220211=
16/08/2023 00:51->METAR KJFK 160051Z 12008KT 10SM SCT010 BKN022 BKN080 BKN250 23/22 A2984 RMK AO2 LTG DSNT SE RAE2355 SLP105 P0000 T02280217=
15/08/2023 23:51->METAR KJFK 152351Z 07005KT 10SM -RA SCT021 BKN033 BKN120 BKN160 BKN250 24/21 A2981 RMK AO2 LTG DSNT S RAB43 SLP093 P0000 60000 T02390206 10267 20239 53006=
15/08/2023 22:51->METAR KJFK 152251Z 07008KT 10SM FEW026 FEW050 SCT160 BKN250 25/21 A2978 RMK AO2 LTG DSNT SW SLP084 T02500206=
15/08/2023 21:51->METAR KJFK 152151Z 35010KT 10SM FEW026 FEW050 SCT140 BKN250 26/21 A2979 RMK AO2 SLP087 T02560206=
15/08/2023 20:51->METAR KJFK 152051Z 35010KT 10SM FEW026 FEW050 SCT160 SCT250 27/21 A2979 RMK AO2 SLP086 T02670206 50000=
15/08/2023 19:51->METAR KJFK 151951Z 36009KT 10SM SCT024 SCT030 BKN180 BKN250 26/21 A2979 RMK AO2 SLP088 SCT030 V BKN T02560206=
15/08/2023 18:51->METAR KJFK 151851Z 34008KT 310V010 10SM FEW020 FEW044 SCT200 BKN250 27/21 A2979 RMK AO2 SLP087 T02670211=
15/08/2023 17:51->METAR KJFK 151751Z 36008KT 10SM FEW017 BKN023 BKN250 24/21 A2978 RMK AO2 SLP086 T02440211 10272 20222 51008=
15/08/2023 16:51->METAR KJFK 151651Z 35011KT 10SM FEW018 BKN032 BKN250 25/21 A2978 RMK AO2 SLP083 T02500211=
15/08/2023 15:51->METAR KJFK 151551Z 28008KT 10SM BKN022 BKN030 BKN180 BKN250 26/21 A2977 RMK AO2 SLP081 T02610211=
15/08/2023 14:51->METAR KJFK 151451Z 33012KT 10SM FEW013 BKN021 BKN250 25/21 A2976 RMK AO2 SLP077 T02500211 51006=
15/08/2023 13:51->METAR KJFK 151351Z 26009KT 10SM FEW010 BKN017 BKN250 24/22 A2976 RMK AO2 SLP077 T02440217=
15/08/2023 12:51->METAR KJFK 151251Z 28005KT 10SM BKN008 BKN023 BKN250 23/22 A2976 RMK AO2 SLP076 CIG 006V010 T02330222=
15/08/2023 11:51->METAR KJFK 151151Z 07004KT 9SM SCT007 BKN014 BKN140 BKN250 22/22 A2974 RMK AO2 RAE1054 SLP071 P0000 60025 70025 T02220222 10239 20217 53010=
15/08/2023 10:51->METAR KJFK 151051Z 07006KT 8SM -RA BKN008 OVC025 22/22 A2973 RMK AO2 SLP068 CIG 006V010 P0000 T02170217=
15/08/2023 09:51->METAR KJFK 150951Z 07008KT 6SM -RA BR OVC006 22/22 A2972 RMK AO2 RAB0857E08B35 SLP063 P0000 T02170217=
15/08/2023 08:51->METAR KJFK 150851Z 02009KT 9SM BKN006 OVC014 23/23 A2971 RMK AO2 SLP061 60025 T02280228 58025=
15/08/2023 07:51->METAR KJFK 150751Z 15003KT 10SM BKN012 OVC017 23/23 A2974 RMK AO2 SLP071 T02330233=
15/08/2023 06:51->METAR KJFK 150651Z 14005KT 10SM SCT015 BKN023 OVC048 24/24 A2976 RMK AO2 RAE11B15E47 TSB0554E10 CIG 015 W SLP078 P0025 T02390239=
15/08/2023 05:51->METAR KJFK 150551Z 14014KT 6SM R04R/3500VP6000FT VCTS -RA BR FEW007 BKN011 OVC022 24/23 A2978 RMK AO2 LTG DSNT SE RAE41B50 TSE39 SLP085 P0000 60000 T02390233 10250 20239 58037=
15/08/2023 04:51->METAR KJFK 150451Z 08006KT 9SM -RA FEW033 BKN070 OVC090 24/22 A2984 RMK AO2 RAB49 SLP103 P0000 T02440222 402830206=
15/08/2023 03:51->METAR KJFK 150351Z 15006KT 10SM FEW055 OVC070 24/23 A2987 RMK AO2 SLP113 T02440228=
15/08/2023 02:51->METAR KJFK 150251Z 16008KT 10SM BKN075 BKN110 OVC150 24/22 A2989 RMK AO2 SLP123 60000 T02440222 58003=
15/08/2023 01:51->METAR KJFK 150151Z 16008KT 10SM FEW075 BKN100 OVC160 24/22 A2990 RMK AO2 RAB35E46 SLP124 P0000 T02440217=
15/08/2023 00:51->METAR KJFK 150051Z 17009KT 10SM FEW055 SCT110 OVC170 25/21 A2991 RMK AO2 SLP128 T02500206=
14/08/2023 23:51->METAR KJFK 142351Z 18013KT 10SM FEW055 BKN140 BKN190 BKN250 25/20 A2990 RMK AO2 SLP126 T02500200 10283 20250 58006=
14/08/2023 22:51->METAR KJFK 142251Z 18011KT 10SM FEW055 BKN140 BKN180 BKN250 26/20 A2992 RMK AO2 SLP130 T02560200=
14/08/2023 21:51->METAR KJFK 142151Z 18011KT 10SM FEW055 BKN190 BKN250 26/19 A2991 RMK AO2 SLP129 T02610189=
14/08/2023 20:51->METAR KJFK 142051Z 17010KT 10SM FEW055 BKN180 BKN250 28/19 A2992 RMK AO2 SLP132 T02830189 58016=
14/08/2023 19:51->METAR KJFK 141951Z 18010KT 10SM FEW055 SCT150 BKN250 28/20 A2994 RMK AO2 SLP138 T02780200=
14/08/2023 18:51->METAR KJFK 141851Z 19011KT 10SM FEW055 FEW150 BKN250 28/20 A2995 RMK AO2 SLP143 T02830200=
14/08/2023 17:51->METAR KJFK 141751Z 20011KT 10SM FEW055 FEW170 BKN250 28/19 A2997 RMK AO2 SLP148 T02780189 10278 20228 58015=
14/08/2023 16:51->METAR KJFK 141651Z 20007KT 10SM FEW055 FEW110 SCT170 BKN250 27/19 A2998 RMK AO2 SLP153 T02670189=
14/08/2023 15:51->METAR KJFK 141551Z 14004KT 10SM FEW110 BKN170 OVC240 26/18 A3000 RMK AO2 SLP160 T02560178=
14/08/2023 14:51->METAR KJFK 141451Z 21005KT 10SM FEW110 SCT170 BKN240 26/18 A3001 RMK AO2 SLP163 T02560178 51013=
14/08/2023 13:51->METAR KJFK 141351Z 22004KT 10SM FEW050 SCT170 BKN240 25/19 A3000 RMK AO2 SLP159 T02500189=
14/08/2023 12:51->METAR KJFK 141251Z 00000KT 10SM SCT170 BKN240 23/20 A2999 RMK AO2 SLP156 T02330200=
14/08/2023 11:51->METAR KJFK 141151Z 22006KT 10SM SCT150 BKN240 23/20 A2998 RMK AO2 SLP150 T02280200 10239 20206 51008 $=
14/08/2023 10:51->METAR KJFK 141051Z 17004KT 10SM FEW095 SCT150 BKN220 22/19 A2997 RMK AO2 SLP149 T02220189 $=
14/08/2023 09:51->METAR KJFK 140951Z 00000KT 10SM SCT100 BKN150 BKN240 23/16 A2996 RMK AO2 SLP145 T02280161 $=
14/08/2023 08:51->METAR KJFK 140851Z 15003KT 10SM SCT150 SCT250 21/18 A2995 RMK AO2 SLP142 T02110183 58005 $=
14/08/2023 07:51->METAR KJFK 140751Z 00000KT 10SM FEW150 FEW250 23/18 A2996 RMK AO2 SLP144 T02280183 $=
14/08/2023 06:51->METAR KJFK 140651Z 26005KT 10SM FEW090 SCT150 SCT250 23/19 A2996 RMK AO2 SLP146 OCNL LTGIC DSNT S CB DSNT S T02280194 $=
14/08/2023 05:51->METAR KJFK 140551Z 25007KT 10SM SCT150 SCT250 23/21 A2996 RMK AO2 SLP146 T02330206 10289 20228 58002 $=
14/08/2023 04:51->METAR KJFK 140451Z 23007KT 10SM FEW150 FEW250 23/21 A2997 RMK AO2 SLP148 T02280206 403170200 $=
14/08/2023 03:51->METAR KJFK 140351Z 24008KT 10SM SCT250 24/20 A2997 RMK AO2 SLP149 T02440200 $=
14/08/2023 02:51->METAR KJFK 140251Z 28008KT 10SM FEW150 FEW250 27/18 A2997 RMK AO2 SLP149 T02670178 51021 $=
14/08/2023 01:51->METAR KJFK 140151Z 31009KT 10SM BKN065 BKN080 BKN250 27/17 A2996 RMK AO2 SLP145 T02720167 $=
14/08/2023 00:51->METAR KJFK 140051Z 29009KT 10SM FEW080 SCT250 28/17 A2993 RMK AO2 SLP136 T02830172 $=
13/08/2023 23:51->METAR KJFK 132351Z 31015KT 10SM FEW070 FEW250 28/17 A2991 RMK AO2 SLP127 T02830167 10317 20278 53012 $=
13/08/2023 22:51->METAR KJFK 132251Z 30010KT 10SM FEW065 SCT085 29/18 A2989 RMK AO2 SLP120 T02940178 $=
13/08/2023 21:51->METAR KJFK 132151Z 29014KT 10SM FEW055 SCT070 30/17 A2988 RMK AO2 SLP118 T03000172 $=
13/08/2023 20:51->METAR KJFK 132051Z 28013KT 10SM SCT060 SCT085 SCT250 31/18 A2987 RMK AO2 SLP116 T03060178 53006 $=
13/08/2023 19:51->METAR KJFK 131951Z 31012G19KT 10SM SCT060 SCT250 32/18 A2986 RMK AO2 SLP111 T03170178 $=
13/08/2023 18:51->METAR KJFK 131851Z 28013KT 10SM FEW050 BKN075 BKN250 31/19 A2986 RMK AO2 SLP113 T03060189 $=
13/08/2023 17:51->METAR KJFK 131751Z 25014KT 10SM SCT041 BKN050 BKN110 BKN250 28/22 A2986 RMK AO2 SLP110 T02830222 10294 20222 56002 $=
13/08/2023 16:51->METAR KJFK 131651Z 24012KT 10SM SCT040 SCT110 SCT250 29/23 A2986 RMK AO2 SLP110 T02890228 $=
13/08/2023 15:51->METAR KJFK 131551Z 23007KT 10SM FEW040 SCT110 SCT250 28/22 A2986 RMK AO2 SLP110 T02780222 $=
13/08/2023 14:51->METAR KJFK 131451Z 24006KT 10SM FEW035 FEW085 BKN110 BKN250 26/22 A2986 RMK AO2 SLP112 T02610222 51002 $=
13/08/2023 13:51->METAR KJFK 131351Z 23006KT 10SM FEW030 FEW085 BKN100 BKN250 26/22 A2986 RMK AO2 SLP112 T02560222 $=
13/08/2023 12:51->METAR KJFK 131251Z 00000KT 10SM FEW030 BKN075 BKN110 BKN250 23/22 A2987 RMK AO2 SLP114 T02330222 $=
13/08/2023 11:51->METAR KJFK 131151Z 09004KT 9SM FEW030 SCT085 BKN110 BKN250 22/22 A2986 RMK AO2 SLP110 60063 70078 T02220217 10233 20200 51013 $=
13/08/2023 10:51->METAR KJFK 131051Z 08004KT 8SM FEW040 SCT065 BKN100 BKN250 22/21 A2985 RMK AO2 LTG DSNT E SLP107 T02170211 $=
13/08/2023 09:51->METAR KJFK 130951Z 36005KT 10SM SCT065 BKN095 BKN120 BKN250 22/21 A2984 RMK AO2 SLP105 T02170211 $=
13/08/2023 08:51->METAR KJFK 130851Z 15006KT 10SM FEW080 SCT140 SCT250 21/20 A2982 RMK AO2 WSHFT 0803 RAE25 TSE25 SLP097 OCNL LTGIC DSNT N CB DSNT N P0000 60063 T02110200 58017 $=
13/08/2023 07:51->METAR KJFK 130751Z 05004KT 10SM -TSRA SCT050CB BKN150 BKN250 21/21 A2982 RMK AO2 SLP098 CONS LTGICCA E TS E MOV E P0063 T02060206 $=
13/08/2023 06:51->METAR KJFK 130651Z 28016KT 3/4SM R04R/2600VP6000FT TSRA BR SCT040 SCT070 BKN100 BKN250 21/20 A2989 RMK AO2 TSB51 SLP121 CONS LTGICCA OHD TS OHD MOV S P0000 T02060200 $=
13/08/2023 05:51->METAR KJFK 130551Z 11006KT 10SM -RA BKN060 BKN080 BKN100 BKN250 23/22 A2987 RMK AO2 RAB09 SLP114 P0000 60000 T02330222 10239 20228 50000 $=
13/08/2023 04:51->METAR KJFK 130451Z 08004KT 10SM BKN060 BKN070 BKN150 BKN250 23/23 A2987 RMK AO2 RAB09E21 SLP116 P0000 T02330228 402720189 $=
13/08/2023 03:51->METAR KJFK 130351Z 19008KT 10SM FEW047 BKN090 BKN150 BKN250 23/23 A2988 RMK AO2 SLP117 OCNL LTGIC DSNT NW CB DSNT NW T02280228 $=
13/08/2023 02:51->METAR KJFK 130251Z 19010KT 10SM FEW047 FEW100 FEW250 23/22 A2987 RMK AO2 SLP114 FRQ LTGIC DSNT SW CB DSNT SW T02280222 50003 $=
13/08/2023 01:51->METAR KJFK 130151Z 19010KT 10SM FEW047 SCT070 BKN250 23/23 A2987 RMK AO2 SLP115 OCNL LTGIC DSNT N CB DSNT N T02330228 $=
13/08/2023 00:51->METAR KJFK 130051Z 19015KT 10SM FEW047 SCT130 BKN250 23/22 A2986 RMK AO2 PK WND 18026/0001 SLP112 OCNL LTGIC DSNT N CB DSNT N T02330222 $=
12/08/2023 23:51->METAR KJFK 122351Z 19020G25KT 10SM SCT047 SCT070 SCT150 BKN250 24/23 A2986 RMK AO2 PK WND 19029/2310 SLP111 CB DSNT NW TCU DSNT N 60010 T02390228 10272 20228 55000 $=
12/08/2023 22:51->METAR KJFK 122251Z 19019KT 10SM FEW045 SCT060 BKN150 BKN250 24/23 A2986 RMK AO2 PK WND 20026/2238 SLP109 T02440228 $=
12/08/2023 21:51->METAR KJFK 122151Z 18017KT 10SM FEW035 FEW065 SCT100 BKN250 25/22 A2985 RMK AO2 PK WND 19026/2053 SLP108 CB DSNT NW T02500217 $=
12/08/2023 20:51->METAR KJFK 122051Z 18019G23KT 10SM FEW035 FEW065 FEW100 SCT250 26/21 A2986 RMK AO2 SLP111 60010 T02610211 58008 $=
12/08/2023 19:51->METAR KJFK 121951Z 17015KT 10SM SCT035 SCT075 SCT100 BKN140 BKN250 25/21 A2986 RMK AO2 PK WND 22029/1913 RAB16E37 TSB06E45 SLP110 CB DSNT E-SE AND CB DSNT NW-N P0010 T02500211 $=
12/08/2023 18:51->METAR KJFK 121851Z 19018G22KT 10SM SCT033 SCT075 SCT100 BKN150 BKN250 27/22 A2989 RMK AO2 SLP121 CB DSNT S TCU DSNT W-NW T02670217 $=
12/08/2023 17:51->METAR KJFK 121751Z 17009KT 10SM SCT065 SCT110 BKN250 26/23 A2988 RMK AO2 LTG DSNT S SLP119 CU DSNT SE-S 60005 T02610228 10267 20222 58011 $=
12/08/2023 16:51->METAR KJFK 121651Z 17007KT 10SM SCT055 BKN110 BKN250 26/22 A2990 RMK AO2 SLP124 T02610222 $=
12/08/2023 15:51->METAR KJFK 121551Z 17004KT 4SM BR FEW027 BKN070 BKN100 24/23 A2991 RMK AO2 RAB36RAEMM SLP129 P0005 T02390228 $=
12/08/2023 14:51->METAR KJFK 121451Z 17009KT 10SM FEW075 BKN130 BKN250 26/19 A2992 RMK AO2 SLP130 T02560194 55002=
12/08/2023 13:51->METAR KJFK 121351Z 13006KT 10SM FEW070 SCT095 BKN250 26/20 A2991 RMK AO2 SLP129 T02560200=
12/08/2023 12:51->METAR KJFK 121251Z 11006KT 10SM FEW180 SCT250 24/20 A2992 RMK AO2 SLP130 T02390200=
12/08/2023 11:51->METAR KJFK 121151Z 09006KT 10SM FEW075 SCT180 BKN250 22/19 A2992 RMK AO2 SLP132 7//// T02220189 10222 20189 53006=
12/08/2023 10:51->METAR KJFK 121051Z 10004KT 10SM FEW200 SCT250 21/17 A2992 RMK AO2 SLP130 T02060167=
12/08/2023 09:51->METAR KJFK 120951Z 08005KT 10SM SCT150 SCT250 19/16 A2991 RMK AO2 SLP128 T01940161=
12/08/2023 08:51->METAR KJFK 120851Z 07004KT 10SM FEW150 FEW250 19/17 A2990 RMK AO2 SLP126 T01940167 51004=
12/08/2023 07:51->METAR KJFK 120751Z 06004KT 10SM FEW250 20/17 A2990 RMK AO2 SLP126 T02000172=
12/08/2023 06:51->METAR KJFK 120651Z 00000KT 10SM SCT070 SCT250 21/18 A2990 RMK AO2 SLP126 T02060178=
12/08/2023 05:51->METAR KJFK 120551Z 06003KT 10SM FEW070 FEW250 22/17 A2989 RMK AO2 SLP122 T02170172 10272 20211 53006=
12/08/2023 04:51->METAR KJFK 120451Z 07003KT 10SM FEW070 FEW250 22/18 A2988 RMK AO2 SLP119 T02220178 403000194=
12/08/2023 03:51->METAR KJFK 120351Z 26005KT 10SM FEW070 FEW250 23/18 A2988 RMK AO2 SLP118 T02330178=
12/08/2023 02:51->METAR KJFK 120251Z 24007KT 10SM SCT070 SCT150 24/18 A2987 RMK AO2 SLP116 T02390178 51018=
12/08/2023 01:51->METAR KJFK 120151Z 26005KT 10SM FEW070 FEW250 24/16 A2986 RMK AO2 SLP112 T02440161=
12/08/2023 00:51->METAR KJFK 120051Z 24007KT 10SM SCT070 SCT250 26/16 A2984 RMK AO2 SLP105 T02560156=
11/08/2023 23:51->METAR KJFK 112351Z 26010KT 10SM SCT065 SCT250 27/15 A2982 RMK AO2 SLP098 6//// T02720150 10300 20267 53011=
11/08/2023 22:51->METAR KJFK 112251Z 26011KT 10SM SCT065 SCT250 28/15 A2980 RMK AO2 SLP092 T02830150=
11/08/2023 21:51->METAR KJFK 112151Z 26014KT 10SM FEW060 SCT075 SCT250 29/15 A2980 RMK AO2 SLP089 T02890150=
11/08/2023 20:51->METAR KJFK 112051Z 26015KT 10SM FEW060 FEW075 SCT250 29/15 A2979 RMK AO2 SLP087 6//// T02940150 56003=
11/08/2023 19:51->METAR KJFK 111951Z 26014KT 10SM FEW060 SCT075 BKN250 29/16 A2979 RMK AO2 SLP087 T02890161 PNO $=
11/08/2023 18:51->METAR KJFK 111851Z 25019G25KT 10SM SCT060 BKN250 29/16 A2979 RMK AO2 SLP088 T02890161 PNO $=
11/08/2023 17:51->METAR KJFK 111751Z 20014KT 10SM SCT049 SCT060 BKN250 27/19 A2980 RMK AO2 SLP090 6//// T02670194 10278 20217 56002 PNO $=
11/08/2023 16:51->METAR KJFK 111651Z 23012KT 10SM BKN042 BKN250 27/19 A2980 RMK AO2 SLP090 T02670194 $=
11/08/2023 15:51->METAR KJFK 111551Z 23008KT 10SM SCT048 SCT250 25/18 A2980 RMK AO2 SLP091 T02500183 $=
11/08/2023 14:51->METAR KJFK 111451Z 25008KT 10SM FEW050 SCT250 24/18 A2980 RMK AO2 SLP092 T02440178 53014 $=
11/08/2023 13:51->METAR KJFK 111351Z 24009KT 10SM FEW090 SCT250 23/18 A2979 RMK AO2 SLP086 T02330183 $=
11/08/2023 12:51->METAR KJFK 111251Z 27008KT 10SM SCT250 23/18 A2977 RMK AO2 SLP081 T02330178 $=
11/08/2023 11:51->METAR KJFK 111151Z 29007KT 10SM SCT250 22/18 A2976 RMK AO2 SLP078 70026 T02170183 10217 20194 53020 $=
11/08/2023 10:51->METAR KJFK 111051Z 27010KT 10SM FEW250 20/19 A2975 RMK AO2 SLP074 T02000189 $=
11/08/2023 09:51->METAR KJFK 110951Z 27009KT 10SM CLR 20/18 A2972 RMK AO2 SLP063 T02000183 $=
11/08/2023 08:51->METAR KJFK 110851Z 27008KT 10SM CLR 20/19 A2970 RMK AO2 SLP059 T02000189 53016 $=
11/08/2023 07:51->METAR KJFK 110751Z 27006KT 10SM CLR 21/18 A2968 RMK AO2 SLP050 T02060183 $=
11/08/2023 06:51->METAR KJFK 110651Z 29006KT 10SM CLR 21/19 A2967 RMK AO2 SLP046 T02110189 $=
11/08/2023 05:51->METAR KJFK 110551Z 30009KT 10SM FEW015 21/19 A2966 RMK AO2 SLP042 T02110194 10217 20211 53010 $=
11/08/2023 04:51->METAR KJFK 110451Z 28005KT 10SM CLR 21/21 A2964 RMK AO2 SLP037 T02110206 402560206 $=
11/08/2023 03:51->METAR KJFK 110351Z 28007KT 8SM CLR 21/21 A2963 RMK AO2 SLP033 T02110206 $=
11/08/2023 02:51->METAR KJFK 110251Z 28008KT 9SM FEW010 21/21 A2963 RMK AO2 SLP032 T02110206 50007 $=
11/08/2023 01:51->METAR KJFK 110151Z 26006KT 9SM FEW010 FEW080 SCT250 21/21 A2963 RMK AO2 SLP033 T02110206 $=
11/08/2023 00:51->METAR KJFK 110051Z 32005KT 10SM FEW010 FEW032 BKN075 BKN250 21/21 A2962 RMK AO2 SLP028 T02110206 $=
10/08/2023 23:51->METAR KJFK 102351Z 00000KT 10SM FEW011 SCT029 BKN041 21/21 A2961 RMK AO2 LTG DSNT S RAE34 SLP025 P0001 60025 T02110206 10233 20206 58004 $=
10/08/2023 22:51->METAR KJFK 102251Z 14003KT 5SM -RA BR SCT009 BKN026 OVC032 21/21 A2961 RMK AO2 SLP026 P0005 T02110206 $=
10/08/2023 21:51->METAR KJFK 102151Z 16006KT 5SM -RA BR FEW007 FEW028 OVC047 21/21 A2962 RMK AO2 SLP029 P0007 T02110211 $=
10/08/2023 20:51->METAR KJFK 102051Z 20011KT 4SM +RA BR SCT012 SCT030 OVC065 22/21 A2965 RMK AO2 LTG DSNT W SLP040 P0010 60012 T02170211 55016 $=
10/08/2023 19:51->METAR KJFK 101951Z 16008KT 5SM -RA BR FEW021 SCT095 OVC120 23/22 A2964 RMK AO2 PRESFR SLP037 P0002 T02280222 $=
10/08/2023 18:51->METAR KJFK 101851Z 20009KT 5SM RA BR FEW018 FEW050 OVC110 23/23 A2968 RMK AO2 SLP051 P0000 T02330228 $=
10/08/2023 17:51->METAR KJFK 101751Z 20007KT 7SM -RA BKN090 OVC110 23/22 A2970 RMK AO2 SLP056 P0001 60001 T02330222 10256 20222 56018 $=
10/08/2023 16:51->METAR KJFK 101651Z 17010KT 9SM -RA SCT080 BKN100 BKN150 OVC250 24/22 A2971 RMK AO2 RAB47 SLP061 P0000 T02440222 $=
10/08/2023 15:51->METAR KJFK 101551Z 15008KT 10SM BKN080 BKN100 BKN160 OVC250 25/21 A2973 RMK AO2 SLP066 T02500211 $=
10/08/2023 14:51->METAR KJFK 101451Z 18008KT 10SM BKN075 BKN150 OVC250 25/22 A2975 RMK AO2 SLP074 T02500217 53000 $=
10/08/2023 13:51->METAR KJFK 101351Z 19005KT 10SM SCT120 BKN190 BKN250 24/21 A2975 RMK AO2 SLP075 T02390206=
10/08/2023 12:51->METAR KJFK 101251Z 16003KT 10SM CLR 23/19 A2974 RMK AO2 SLP070 T02330194=
10/08/2023 11:51->METAR KJFK 101151Z 21005KT 10SM BKN150 BKN220 22/19 A2975 RMK AO2 SLP074 6//// 7//// T02220194 10228 20206 55002 PNO $=
10/08/2023 10:51->METAR KJFK 101051Z 23004KT 10SM SCT100 BKN150 BKN250 21/19 A2974 RMK AO2 SLP071 T02110194 PNO $=
10/08/2023 09:51->METAR KJFK 100951Z 22005KT 10SM FEW110 BKN250 21/18 A2976 RMK AO2 SLP076 T02110183 PNO $=
10/08/2023 08:51->METAR KJFK 100851Z 24005KT 10SM SCT120 BKN250 21/18 A2976 RMK AO2 SLP077 6//// T02110178 56008 PNO $=
10/08/2023 07:51->METAR KJFK 100751Z 24005KT 10SM SCT100 BKN250 21/18 A2976 RMK AO2 SLP078 T02110178 PNO $=
10/08/2023 06:51->METAR KJFK 100651Z 23005KT 10SM FEW110 SCT250 21/17 A2977 RMK AO2 SLP081 T02110172 PNO $=
10/08/2023 05:51->METAR KJFK 100551Z 26007KT 10SM FEW110 SCT250 22/16 A2978 RMK AO2 SLP085 6//// T02220161 10278 20222 58006 PNO $=
10/08/2023 04:51->METAR KJFK 100451Z 27008KT 10SM FEW110 FEW250 24/14 A2979 RMK AO2 SLP087 T02390139 403060206 PNO $=
10/08/2023 03:51->METAR KJFK 100351Z 28009KT 10SM FEW250 24/14 A2980 RMK AO2 SLP090 T02390144 PNO $=
10/08/2023 02:51->METAR KJFK 100251Z 28010KT 10SM FEW250 25/13 A2980 RMK AO2 SLP091 6//// T02500128 51017 PNO $=
10/08/2023 01:51->METAR KJFK 100151Z 25011KT 10SM FEW110 FEW250 25/16 A2979 RMK AO2 SLP086 T02500156 PNO $=
10/08/2023 00:51->METAR KJFK 100051Z 28011KT 10SM SCT110 SCT250 27/14 A2977 RMK AO2 SLP079 T02670144 PNO $=
09/08/2023 23:51->METAR KJFK 092351Z 28015KT 10SM FEW075 SCT110 SCT250 28/14 A2975 RMK AO2 SLP074 6//// T02780144 10306 20278 53004 PNO $=
09/08/2023 22:51->METAR KJFK 092251Z 27015KT 10SM FEW075 FEW100 BKN250 28/16 A2973 RMK AO2 SLP066 T02830156 PNO $=
09/08/2023 21:51->METAR KJFK 092151Z 28013G21KT 10SM FEW080 SCT250 30/14 A2973 RMK AO2 SLP066 T03000144 PNO $=
09/08/2023 20:51->METAR KJFK 092051Z 28015G21KT 10SM FEW075 FEW250 30/14 A2974 RMK AO2 SLP069 6//// T03000139 53002 PNO $=
09/08/2023 19:51->METAR KJFK 091951Z 28018KT 10SM FEW075 FEW250 31/14 A2974 RMK AO2 SLP070 T03060144 PNO $=
09/08/2023 18:51->METAR KJFK 091851Z 29012G23KT 10SM FEW070 SCT250 29/14 A2972 RMK AO2 SLP064 T02940139 PNO $=
09/08/2023 17:51->METAR KJFK 091751Z 32014KT 10SM FEW070 SCT100 SCT250 29/13 A2973 RMK AO2 WSHFT 1654 SLP067 6//// T02940133 10294 20222 58005 PNO $=
09/08/2023 16:51->METAR KJFK 091651Z 32013G20KT 10SM FEW065 SCT080 SCT250 29/14 A2974 RMK AO2 SLP069 T02940139 PNO $=
09/08/2023 15:51->METAR KJFK 091551Z 33016G26KT 10SM FEW080 FEW100 FEW250 28/14 A2974 RMK AO2 PK WND 33026/1545 SLP071 T02830144 PNO $=
09/08/2023 14:51->METAR KJFK 091451Z 32014G27KT 10SM FEW150 FEW250 27/15 A2974 RMK AO2 PK WND 29029/1433 SLP071 6//// T02720150 50004 PNO $=
09/08/2023 13:51->METAR KJFK 091351Z 32017G22KT 10SM FEW150 FEW250 25/16 A2975 RMK AO2 SLP075 T02500156 PNO $=
09/08/2023 12:51->METAR KJFK 091251Z 30016G21KT 10SM FEW150 FEW250 23/16 A2974 RMK AO2 SLP072 T02330156 PNO $=
09/08/2023 11:51->METAR KJFK 091151Z 29015G23KT 10SM FEW150 FEW250 22/15 A2973 RMK AO2 SLP068 6//// 7//// T02220150 10228 20206 53015 PNO $=
09/08/2023 10:51->METAR KJFK 091051Z 29011KT 10SM FEW150 FEW250 21/15 A2972 RMK AO2 SLP063 T02110150 PNO $=
09/08/2023 09:51->METAR KJFK 090951Z 29013KT 10SM FEW095 FEW250 21/15 A2970 RMK AO2 SLP058 T02110150 PNO $=
09/08/2023 08:51->METAR KJFK 090851Z 29011KT 10SM FEW080 FEW100 22/15 A2969 RMK AO2 SLP053 6//// T02170150 55001 PNO $=
09/08/2023 07:51->METAR KJFK 090751Z 28011G18KT 10SM FEW085 FEW110 22/15 A2969 RMK AO2 SLP052 T02170150 PNO $=
09/08/2023 06:51->METAR KJFK 090651Z 29015G21KT 10SM FEW100 BKN110 22/15 A2968 RMK AO2 SLP051 T02220150 PNO $=
09/08/2023 05:51->METAR KJFK 090551Z 29016G23KT 10SM BKN085 BKN120 23/15 A2969 RMK AO2 SLP054 6//// T02280150 10239 20228 58003 PNO $=
09/08/2023 04:51->METAR KJFK 090451Z 27018G23KT 10SM BKN080 BKN130 23/15 A2970 RMK AO2 SLP057 T02280150 402780217 PNO $=
09/08/2023 03:51->METAR KJFK 090351Z 29014G23KT 10SM FEW050 BKN075 OVC140 23/15 A2970 RMK AO2 SLP057 T02330150 PNO $=
09/08/2023 02:51->METAR KJFK 090251Z 27015G23KT 10SM FEW045 FEW065 BKN095 23/16 A2970 RMK AO2 PK WND 30026/0217 SLP057 6//// T02330156 53012 PNO $=
09/08/2023 01:51->METAR KJFK 090151Z 28015KT 10SM FEW040 FEW060 BKN090 23/16 A2968 RMK AO2 PK WND 29027/0112 SLP052 T02330156 PNO $=
09/08/2023 00:51->METAR KJFK 090051Z 30016G32KT 10SM FEW040 BKN090 BKN250 23/16 A2968 RMK AO2 PK WND 29032/0042 SLP049 T02330156 PNO $=
08/08/2023 23:51->METAR KJFK 082351Z 31018G30KT 10SM FEW044 SCT060 SCT250 24/16 A2967 RMK AO2 PK WND 30031/2340 SLP045 6//// T02390156 10278 20239 53011 PNO $=
08/08/2023 22:51->METAR KJFK 082251Z 29015G26KT 10SM FEW042 SCT055 BKN250 25/16 A2963 RMK AO2 PK WND 30032/2214 SLP035 T02500161 PNO $=
08/08/2023 21:51->METAR KJFK 082151Z 29018G25KT 10SM SCT043 BKN055 BKN250 26/16 A2963 RMK AO2 PK WND 27030/2054 SLP034 T02560161 PNO $=
08/08/2023 20:51->METAR KJFK 082051Z 28020G27KT 10SM SCT043 SCT060 BKN250 27/17 A2963 RMK AO2 PK WND 27029/1958 SLP035 6//// T02670167 53007 PNO $=
08/08/2023 19:51->METAR KJFK 081951Z 28021G29KT 10SM SCT043 BKN065 BKN250 26/17 A2962 RMK AO2 PK WND 27029/1948 SLP031 T02610172 PNO $=
08/08/2023 18:51->METAR KJFK 081851Z 26019G26KT 10SM SCT044 BKN060 27/17 A2962 RMK AO2 PK WND 27026/1843 SLP028 T02670172 PNO $=
08/08/2023 17:51->METAR KJFK 081751Z 26017KT 10SM SCT042 BKN070 27/18 A2961 RMK AO2 SLP028 6//// T02720178 10272 20222 56012 PNO $=
08/08/2023 16:51->METAR KJFK 081651Z 29017KT 10SM FEW027 BKN039 BKN060 25/18 A2962 RMK AO2 SLP028 T02500178 $=
08/08/2023 15:51->METAR KJFK 081551Z 26015KT 10SM FEW022 SCT041 BKN065 BKN160 26/19 A2963 RMK AO2 SLP033 SCT V BKN T02560194 $=
08/08/2023 14:51->METAR KJFK 081451Z 27011KT 10SM FEW009 BKN021 BKN047 BKN160 23/22 A2965 RMK AO2 RAE08 SLP039 P0000 6//// T02330217 58011 $=
08/08/2023 13:51->METAR KJFK 081351Z 25012KT 7SM -RA SCT008 BKN024 OVC070 23/22 A2966 RMK AO2 RAB48 SLP043 T02280217 PNO $=
08/08/2023 12:51->METAR KJFK 081251Z 24011KT 10SM FEW008 BKN015 OVC080 22/22 A2967 RMK AO2 SLP047 CIG 013V017 T02220217 $=
08/08/2023 11:51->METAR KJFK 081151Z 25010KT 10SM BKN015 BKN038 BKN085 23/22 A2968 RMK AO2 SLP050 VCSH SW 6//// 7//// T02280217 10228 20217 53004 $=
08/08/2023 10:51->METAR KJFK 081051Z 26007KT 10SM SCT016 BKN036 BKN080 BKN250 22/21 A2968 RMK AO2 SLP050 T02220211 PNO $=
08/08/2023 09:51->METAR KJFK 080951Z 25003KT 10SM FEW046 BKN060 BKN080 22/21 A2967 RMK AO2 RAB0854E44 SLP046 P0000 T02170211 $=
08/08/2023 08:51->METAR KJFK 080851Z 00000KT 10SM BKN039 BKN049 OVC065 22/21 A2967 RMK AO2 RAE11 SLP046 P0003 60003 T02170211 58017 $=
08/08/2023 07:51->METAR KJFK 080751Z 22005KT 3SM +RA BR SCT049 BKN075 BKN090 BKN150 22/21 A2969 RMK AO2 RAB45 SLP053 P0000 T02170211 $=
08/08/2023 06:51->METAR KJFK 080651Z 21007KT 10SM FEW033 FEW085 BKN140 22/21 A2970 RMK AO2 SLP057 T02220211 $=
08/08/2023 05:51->METAR KJFK 080551Z 19011KT 10SM SCT080 BKN100 BKN120 22/21 A2972 RMK AO2 SLP063 60008 T02220211 10244 20211 56012 $=
08/08/2023 04:51->METAR KJFK 080451Z 19011KT 10SM FEW022 BKN110 BKN120 22/21 A2973 RMK AO2 RAB07E30 SLP066 P0000 T02170206 402610200 $=
08/08/2023 03:51->METAR KJFK 080351Z 19014KT 10SM FEW028 SCT110 OVC150 22/21 A2974 RMK AO2 RAE04 SLP071 P0000 T02170206 $=
08/08/2023 02:51->METAR KJFK 080251Z 19012KT 10SM -RA FEW026 FEW110 OVC140 21/21 A2975 RMK AO2 RAE10B34 SLP075 P0000 60008 T02110206 58014 $=
08/08/2023 01:51->METAR KJFK 080151Z 22014KT 10SM -RA FEW015 FEW070 OVC120 22/21 A2979 RMK AO2 WSHFT 0113 SLP086 P0008 T02170211 $=
08/08/2023 00:51->METAR KJFK 080051Z 17018G25KT 10SM -RA BKN015 BKN055 OVC085 24/23 A2980 RMK AO2 PK WND 15026/0036 RAB42 SLP090 OCNL LTGIC DSNT SW CB DSNT SW P0000 T02390233 $=
07/08/2023 23:51->METAR KJFK 072351Z 17015KT 10SM FEW012 SCT024 BKN049 BKN250 24/23 A2980 RMK AO2 SLP089 60000 T02440228 10256 20239 55004 $=
07/08/2023 22:51->METAR KJFK 072251Z 16017G21KT 10SM SCT009 SCT047 BKN250 24/23 A2978 RMK AO2 SLP083 T02440233 $=
07/08/2023 21:51->METAR KJFK 072151Z 16016KT 10SM FEW009 BKN041 BKN250 25/23 A2980 RMK AO2 SLP090 T02500233 $=
07/08/2023 20:51->METAR KJFK 072051Z 16016KT 10SM FEW009 SCT024 BKN038 25/23 A2981 RMK AO2 SLP093 60000 T02500233 58022 $=
07/08/2023 19:51->METAR KJFK 071951Z 17017KT 10SM FEW009 OVC026 25/23 A2984 RMK AO2 SLP103 T02500228 $=
07/08/2023 18:51->METAR KJFK 071851Z 17014KT 10SM SCT030 OVC045 25/23 A2985 RMK AO2 RAB41E50 SLP108 P0000 T02500228 $=
07/08/2023 17:51->METAR KJFK 071751Z 18019G27KT 10SM BKN031 BKN044 26/21 A2987 RMK AO2 PK WND 18027/1746 SLP115 60000 T02560211 10261 20211 56018 $=
07/08/2023 16:51->METAR KJFK 071651Z 17015KT 10SM FEW023 SCT031 BKN100 BKN160 26/20 A2988 RMK AO2 SLP119 T02560200 $=
07/08/2023 15:51->METAR KJFK 071551Z 19013KT 10SM FEW021 BKN065 BKN080 BKN160 24/22 A2990 RMK AO2 SLP126 T02440217 $=
07/08/2023 14:51->METAR KJFK 071451Z 19017KT 10SM BKN016 OVC038 23/22 A2992 RMK AO2 RAB1357E34 SLP133 P0000 60000 T02280222 56007 $=
07/08/2023 13:51->METAR KJFK 071351Z 17016KT 10SM SCT017 BKN026 OVC046 23/22 A2993 RMK AO2 RAE1257 SLP135 P0000 T02280217 $=
07/08/2023 12:51->METAR KJFK 071251Z 17015KT 8SM -RA FEW008 BKN027 OVC060 22/21 A2993 RMK AO2 RAE1156B30 SLP134 P0000 T02220206 $=
07/08/2023 11:51->METAR KJFK 071151Z 17013KT 8SM -RA FEW006 OVC032 21/21 A2994 RMK AO2 SLP140 60009 70009 T02110206 10233 20200 52002 PNO $=
07/08/2023 10:51->METAR KJFK 071051Z 19011KT 2SM R04R/4000VP6000FT +RA BR FEW006 BKN024 OVC035 20/20 A2994 RMK AO2 SFC VIS 2 1/2 SLP137 P0004 T02000200 $=
07/08/2023 09:51->METAR KJFK 070951Z 23009KT 3SM +RA BR SCT011 BKN027 OVC049 21/21 A2994 RMK AO2 VIS 1 3/4 W SLP140 P0005 T02110206 $=
07/08/2023 08:51->METAR KJFK 070851Z 18008KT 10SM -RA FEW016 BKN023 OVC060 23/22 A2994 RMK AO2 SLP137 P0000 60000 T02280222 58009 $=
07/08/2023 07:51->METAR KJFK 070751Z 17008KT 10SM -RA FEW017 OVC055 23/22 A2995 RMK AO2 RAB35 SLP142 P0000 T02330222 $=
07/08/2023 06:51->METAR KJFK 070651Z 15008KT 10SM BKN065 OVC075 23/22 A2996 RMK AO2 SLP144 T02330217 $=
07/08/2023 05:51->METAR KJFK 070551Z 16006KT 10SM BKN060 OVC075 23/22 A2997 RMK AO2 SLP147 T02330217 10233 20228 58007 $=
07/08/2023 04:51->METAR KJFK 070451Z 18009KT 10SM BKN065 BKN250 23/22 A2999 RMK AO2 SLP154 T02330217 402720194 $=
07/08/2023 03:51->METAR KJFK 070351Z 17011KT 10SM SCT060 BKN250 23/21 A2999 RMK AO2 SLP153 T02330211 $=
07/08/2023 02:51->METAR KJFK 070251Z 16012KT 10SM FEW060 SCT200 SCT250 23/21 A2999 RMK AO2 SLP154 T02330211 50000 $=
07/08/2023 01:51->METAR KJFK 070151Z 16009KT 10SM FEW200 SCT250 23/20 A2999 RMK AO2 SLP157 T02280200 $=
07/08/2023 00:51->METAR KJFK 070051Z 16009KT 10SM FEW200 SCT250 23/20 A2999 RMK AO2 SLP154 T02280200 $=
06/08/2023 23:51->METAR KJFK 062351Z 17008KT 10SM FEW034 FEW200 SCT250 23/19 A2999 RMK AO2 SLP154 T02330194 10272 20233 55001 $=
06/08/2023 22:51->METAR KJFK 062251Z 17009KT 10SM FEW034 FEW200 SCT250 25/18 A2998 RMK AO2 SLP153 T02500183 $=
06/08/2023 21:51->METAR KJFK 062151Z 15009KT 10SM FEW038 FEW200 SCT250 26/17 A2998 RMK AO2 SLP152 T02610172 $=
06/08/2023 20:51->METAR KJFK 062051Z 17011KT 10SM FEW040 FEW200 SCT250 26/17 A2999 RMK AO2 SLP154 T02610172 58012 $=
06/08/2023 19:51->METAR KJFK 061951Z 18011KT 10SM FEW043 FEW200 SCT250 27/17 A3000 RMK AO2 SLP158 T02720167 $=
06/08/2023 18:51->METAR KJFK 061851Z 18011KT 10SM FEW046 FEW200 SCT250 27/16 A3001 RMK AO2 SLP163 T02670161 $=
06/08/2023 17:51->METAR KJFK 061751Z 17011KT 10SM FEW050 FEW200 SCT250 27/16 A3002 RMK AO2 SLP166 T02670161 10272 20233 58002 $=
06/08/2023 16:51->METAR KJFK 061651Z 19011KT 10SM FEW050 FEW200 SCT250 27/14 A3003 RMK AO2 SLP169 T02670144 $=
06/08/2023 15:51->METAR KJFK 061551Z 17009KT 10SM FEW050 SCT200 SCT250 27/13 A3004 RMK AO2 SLP171 T02720128 $=
06/08/2023 14:51->METAR KJFK 061451Z 20007KT 10SM FEW200 BKN250 26/14 A3003 RMK AO2 SLP168 T02610139 58002 $=
06/08/2023 13:51->METAR KJFK 061351Z 15005KT 10SM FEW200 BKN250 26/14 A3004 RMK AO2 SLP170 T02560144 $=
06/08/2023 12:51->METAR KJFK 061251Z 00000KT 10SM FEW200 BKN250 26/15 A3003 RMK AO2 SLP170 T02560150 $=
06/08/2023 11:51->METAR KJFK 061151Z 02006KT 10SM FEW200 SCT250 23/16 A3004 RMK AO2 SLP171 T02330156 10233 20194 51010 $=
06/08/2023 10:51->METAR KJFK 061051Z 01004KT 10SM FEW080 SCT200 SCT250 21/16 A3003 RMK AO2 SLP168 T02060156 $=
06/08/2023 09:51->METAR KJFK 060951Z 36006KT 10SM FEW250 20/15 A3002 RMK AO2 SLP165 T02000150 $=
06/08/2023 08:51->METAR KJFK 060851Z 36006KT 10SM SCT250 21/15 A3001 RMK AO2 SLP161 T02060150 52004 $=
06/08/2023 07:51->METAR KJFK 060751Z 04004KT 10SM SCT250 21/15 A3001 RMK AO2 SLP160 T02110150 $=
06/08/2023 06:51->METAR KJFK 060651Z 02006KT 10SM SCT250 22/16 A3000 RMK AO2 SLP158 T02170156 $=
06/08/2023 05:51->METAR KJFK 060551Z 36006KT 10SM BKN250 23/16 A3000 RMK AO2 SLP157 T02280156 10267 20228 53005 $=
06/08/2023 04:51->METAR KJFK 060451Z 01005KT 10SM BKN250 23/15 A2999 RMK AO2 SLP154 T02330150 402890206 $=
06/08/2023 03:51->METAR KJFK 060351Z 01006KT 10SM BKN250 24/15 A2999 RMK AO2 SLP154 T02390150 $=
06/08/2023 02:51->METAR KJFK 060251Z 36009KT 10SM BKN250 24/14 A2998 RMK AO2 SLP152 T02440144 51004 $=
06/08/2023 01:51->METAR KJFK 060151Z 36006KT 10SM BKN250 25/14 A2998 RMK AO2 SLP152 T02500144 $=
06/08/2023 00:51->METAR KJFK 060051Z 36007KT 10SM BKN240 26/14 A2997 RMK AO2 SLP149 T02610144 $=
05/08/2023 23:51->METAR KJFK 052351Z 36008KT 10SM FEW055 BKN240 27/14 A2997 RMK AO2 SLP148 T02670139 10289 20267 53005 $=
05/08/2023 22:51->METAR KJFK 052251Z 36010KT 10SM FEW055 OVC250 27/15 A2996 RMK AO2 SLP144 T02720150 $=
05/08/2023 21:51->METAR KJFK 052151Z 36008KT 10SM FEW055 OVC250 28/16 A2996 RMK AO2 SLP145 T02780161 $=
05/08/2023 20:51->METAR KJFK 052051Z 00000KT 10SM FEW040 SCT055 BKN250 28/17 A2995 RMK AO2 SLP142 T02830167 55004 $=
05/08/2023 19:51->METAR KJFK 051951Z 18010KT 10SM FEW038 BKN055 BKN075 BKN250 27/18 A2995 RMK AO2 SLP142 T02720183 $=
05/08/2023 18:51->METAR KJFK 051851Z 21010KT 10SM FEW035 SCT055 BKN250 28/19 A2996 RMK AO2 SLP146 T02780189 $=
05/08/2023 17:51->METAR KJFK 051751Z 21010KT 10SM FEW028 SCT044 BKN055 BKN250 27/19 A2996 RMK AO2 SLP146 T02720194 10278 20239 58003 $=
05/08/2023 16:51->METAR KJFK 051651Z 20011KT 10SM FEW030 SCT044 BKN250 27/20 A2997 RMK AO2 SLP147 T02670200 $=
05/08/2023 15:51->METAR KJFK 051551Z 22009KT 10SM FEW025 SCT038 BKN250 27/20 A2997 RMK AO2 SLP149 T02670200 $=
05/08/2023 14:51->METAR KJFK 051451Z 03007KT 10SM FEW038 SCT250 28/18 A2997 RMK AO2 SLP149 T02780183 51008 $=
05/08/2023 13:51->METAR KJFK 051351Z 35006KT 10SM FEW025 FEW250 25/19 A2997 RMK AO2 SLP147 T02500189 $=
05/08/2023 12:51->METAR KJFK 051251Z 02005KT 10SM FEW032 FEW250 25/19 A2996 RMK AO2 SLP144 T02500189 $=
05/08/2023 11:51->METAR KJFK 051151Z 36003KT 10SM FEW032 24/19 A2995 RMK AO2 SLP141 T02390194 10239 20206 51005 $=
05/08/2023 10:51->METAR KJFK 051051Z 36003KT 10SM FEW015 SCT032 BKN250 22/20 A2995 RMK AO2 SLP141 T02170200 $=
05/08/2023 09:51->METAR KJFK 050951Z 26004KT 10SM SCT015 BKN024 BKN250 21/20 A2995 RMK AO2 SLP142 T02060200 $=
05/08/2023 08:51->METAR KJFK 050851Z 22006KT 10SM FEW017 SCT020 BKN250 21/20 A2994 RMK AO2 SLP137 T02060200 56004 $=
05/08/2023 07:51->METAR KJFK 050751Z 25008KT 10SM BKN017 BKN250 22/20 A2994 RMK AO2 SLP140 T02170200 $=
05/08/2023 06:51->METAR KJFK 050651Z 24009KT 10SM BKN014 OVC019 22/20 A2994 RMK AO2 SLP137 T02170200 $=
05/08/2023 05:51->METAR KJFK 050551Z 24013KT 10SM OVC011 21/20 A2995 RMK AO2 SLP140 60000 T02110200 10217 20211 55004 $=
05/08/2023 04:51->METAR KJFK 050451Z 22010KT 10SM OVC012 22/20 A2994 RMK AO2 SLP138 T02170200 402440211 $=
05/08/2023 03:51->METAR KJFK 050351Z 24008KT 10SM OVC012 22/20 A2996 RMK AO2 SLP146 T02170200 $=
05/08/2023 02:51->METAR KJFK 050251Z 21010KT 10SM BKN015 BKN250 22/20 A2996 RMK AO2 LTG DSNT N SLP144 CB DSNT N 60000 T02170200 50003 $=
05/08/2023 01:51->METAR KJFK 050151Z 23011KT 10SM SCT014 BKN022 BKN040 BKN250 22/20 A2996 RMK AO2 SLP146 FRQ LTGIC DSNT NW CB DSNT NW T02170200 $=
05/08/2023 00:51->METAR KJFK 050051Z 21008KT 10SM BKN018 OVC036 22/20 A2996 RMK AO2 RAB16E37 SLP144 P0000 T02170200 $=
04/08/2023 23:51->METAR KJFK 042351Z 20014KT 10SM FEW019 BKN032 OVC045 22/20 A2995 RMK AO2 SLP141 T02170200 10239 20217 52005 $=
04/08/2023 22:51->METAR KJFK 042251Z 19015KT 10SM FEW013 BKN029 OVC040 22/20 A2994 RMK AO2 SLP137 T02170200 $=
04/08/2023 21:51->METAR KJFK 042151Z 19015KT 10SM SCT026 BKN036 OVC048 22/20 A2993 RMK AO2 SLP136 T02220200 $=
04/08/2023 20:51->METAR KJFK 042051Z 20017KT 10SM FEW013 SCT043 OVC060 23/19 A2994 RMK AO2 SLP138 T02330194 56010 $=
04/08/2023 19:51->METAR KJFK 041951Z 19013KT 10SM FEW027 SCT041 OVC055 23/20 A2995 RMK AO2 SLP141 T02280200 $=
04/08/2023 18:51->METAR KJFK 041851Z 19015KT 10SM BKN037 BKN046 OVC090 23/19 A2995 RMK AO2 SLP143 T02280194 $=
04/08/2023 17:51->METAR KJFK 041751Z 18013KT 10SM SCT029 BKN041 BKN090 23/19 A2997 RMK AO2 RAB13E23 SLP149 P0000 60000 T02280194 10244 20211 58002 $=
04/08/2023 16:51->METAR KJFK 041651Z 19011KT 10SM BKN039 OVC090 23/18 A2998 RMK AO2 SLP151 T02280183 $=
04/08/2023 15:51->METAR KJFK 041551Z 19012KT 10SM FEW035 BKN044 BKN095 OVC250 23/18 A2998 RMK AO2 SLP151 T02330183 $=
04/08/2023 14:51->METAR KJFK 041451Z 19011KT 10SM FEW035 BKN047 BKN250 24/19 A2998 RMK AO2 SLP151 T02390189 58002 $=
04/08/2023 13:51->METAR KJFK 041351Z 22009KT 10SM BKN042 BKN075 BKN250 22/18 A2998 RMK AO2 SLP152 T02220183 $=
04/08/2023 12:51->METAR KJFK 041251Z 22010KT 10SM SCT035 BKN075 BKN250 22/18 A2998 RMK AO2 SLP153 T02170183=
04/08/2023 11:51->METAR KJFK 041151Z 22011KT 10SM FEW027 BKN040 BKN080 BKN250 21/17 A2998 RMK AO2 SLP153 T02110172 10217 20211 55002 $=
04/08/2023 10:51->METAR KJFK 041051Z 22011KT 10SM FEW029 SCT036 BKN095 BKN250 21/17 A2998 RMK AO2 SLP153 T02110172 $=
04/08/2023 09:51->METAR KJFK 040951Z 22012KT 10SM BKN036 BKN095 BKN250 22/17 A2998 RMK AO2 SLP152 T02170172 $=
04/08/2023 08:51->METAR KJFK 040851Z 22011KT 10SM BKN037 BKN090 BKN250 22/17 A2999 RMK AO2 SLP155 T02170172 58004 $=
04/08/2023 07:51->METAR KJFK 040751Z 23014KT 10SM BKN042 BKN095 BKN250 22/17 A3000 RMK AO2 SLP157 T02170172 $=
04/08/2023 06:51->METAR KJFK 040651Z 22010KT 10SM BKN055 BKN100 BKN250 21/17 A3000 RMK AO2 SLP158 T02110172 $=
04/08/2023 05:51->METAR KJFK 040551Z 21011KT 10SM BKN036 BKN090 BKN250 22/16 A3000 RMK AO2 RAB14E26 SLP159 P0000 60000 T02170161 10222 20211 58012 $=
04/08/2023 04:51->METAR KJFK 040451Z 20012KT 10SM BKN037 BKN120 BKN250 22/17 A3002 RMK AO2 SLP165 T02220172 402560172 $=
04/08/2023 03:51->METAR KJFK 040351Z 19012KT 10SM BKN042 BKN110 BKN250 22/17 A3003 RMK AO2 SLP169 T02220172 $=
04/08/2023 02:51->METAR KJFK 040251Z 19011KT 10SM BKN039 BKN049 BKN120 BKN250 22/17 A3004 RMK AO2 SLP171 T02220172 58000 $=
04/08/2023 01:51->METAR KJFK 040151Z 19013KT 10SM SCT043 BKN055 BKN110 OVC250 22/17 A3005 RMK AO2 SLP176 T02220167 $=
04/08/2023 00:51->METAR KJFK 040051Z 19013KT 10SM BKN049 BKN065 BKN085 BKN250 22/16 A3005 RMK AO2 SLP175 T02220161 $=
03/08/2023 23:51->METAR KJFK 032351Z 19017KT 10SM SCT060 BKN085 BKN250 BKN300 22/16 A3004 RMK AO2 SLP171 FU BKN300 T02220156 10256 20222 56010 $=
03/08/2023 22:51->METAR KJFK 032251Z 18017KT 10SM SCT055 SCT100 BKN250 BKN300 23/15 A3004 RMK AO2 SLP173 FU BKN300 T02280150 $=
03/08/2023 21:51->METAR KJFK 032151Z 18016G24KT 10SM SCT055 BKN100 BKN250 BKN300 23/15 A3006 RMK AO2 SLP178 FU BKN300 T02280150 $=
03/08/2023 20:51->METAR KJFK 032051Z 18017G22KT 10SM SCT055 BKN070 BKN250 BKN300 23/15 A3007 RMK AO2 SLP182 FU BKN300 T02330150 58012 $=
03/08/2023 19:51->METAR KJFK 031951Z 17018KT 10SM FEW045 SCT065 BKN250 BKN300 24/14 A3008 RMK AO2 SLP186 FU BKN300 T02390144 $=
03/08/2023 18:51->METAR KJFK 031851Z 17018KT 10SM FEW045 SCT250 BKN300 25/15 A3009 RMK AO2 SLP190 FU BKN300 T02500150 $=
03/08/2023 17:51->METAR KJFK 031751Z 18018KT 10SM FEW045 FEW070 SCT250 BKN300 24/15 A3010 RMK AO2 SLP194 FU BKN300 T02440150 10250 20211 56013 $=
03/08/2023 16:51->METAR KJFK 031651Z 19015KT 10SM FEW045 FEW065 SCT250 OVC300 24/16 A3011 RMK AO2 SLP196 FU OVC300 T02440156 $=
03/08/2023 15:51->METAR KJFK 031551Z 19014KT 10SM FEW044 FEW100 SCT250 OVC300 24/16 A3013 RMK AO2 SLP201 FU OVC300 T02440156 $=
03/08/2023 14:51->METAR KJFK 031451Z 18011KT 10SM FEW038 FEW100 SCT220 BKN300 24/16 A3014 RMK AO2 SLP207 FU BKN300 T02440156 58008 $=
03/08/2023 13:51->METAR KJFK 031351Z 19011KT 10SM FEW100 SCT200 BKN250 23/15 A3016 RMK AO2 SLP212 T02330150 $=
03/08/2023 12:51->METAR KJFK 031251Z 19010KT 10SM FEW100 FEW200 BKN250 23/14 A3016 RMK AO2 SLP212 T02280139 $=
03/08/2023 11:51->METAR KJFK 031151Z 22008KT 10SM FEW085 SCT170 BKN250 21/14 A3017 RMK AO2 SLP215 T02110144 10211 20172 53005 $=
03/08/2023 10:51->METAR KJFK 031051Z 23007KT 10SM FEW085 BKN250 19/14 A3016 RMK AO2 SLP212 T01940144 $=
03/08/2023 09:51->METAR KJFK 030951Z 25007KT 10SM FEW085 SCT250 18/14 A3016 RMK AO2 SLP211 T01780139 $=
03/08/2023 08:51->METAR KJFK 030851Z 23007KT 10SM SCT250 17/14 A3015 RMK AO2 SLP210 T01720139 56010 $=
03/08/2023 07:51->METAR KJFK 030751Z 22006KT 10SM SCT250 18/13 A3016 RMK AO2 SLP211 T01830133 $=
03/08/2023 06:51->METAR KJFK 030651Z 22005KT 10SM SCT250 18/14 A3017 RMK AO2 SLP214 T01830139 $=
03/08/2023 05:51->METAR KJFK 030551Z 23007KT 10SM SCT250 19/13 A3018 RMK AO2 SLP220 T01890133 10217 20189 58005 $=
03/08/2023 04:51->METAR KJFK 030451Z 23008KT 10SM FEW250 19/14 A3020 RMK AO2 SLP225 T01940139 402560167 $=
03/08/2023 03:51->METAR KJFK 030351Z 22008KT 10SM FEW075 FEW250 21/14 A3020 RMK AO2 SLP227 T02060139 $=
03/08/2023 02:51->METAR KJFK 030251Z 20010KT 10SM SCT250 21/13 A3020 RMK AO2 SLP225 T02060133 53002 $=
03/08/2023 01:51->METAR KJFK 030151Z 20009KT 10SM FEW070 SCT250 21/13 A3020 RMK AO2 SLP225 T02060128 $=
03/08/2023 00:51->METAR KJFK 030051Z 18009KT 10SM FEW070 SCT250 21/13 A3018 RMK AO2 SLP221 T02110128 $=
02/08/2023 23:51->METAR KJFK 022351Z 19010KT 10SM FEW070 SCT250 21/13 A3019 RMK AO2 SLP222 T02110128 10250 20211 53001 $=
02/08/2023 22:51->METAR KJFK 022251Z 18009KT 10SM FEW070 SCT250 22/12 A3018 RMK AO2 SLP219 T02220122 $=
02/08/2023 21:51->METAR KJFK 022151Z 15009KT 10SM FEW070 SCT250 23/13 A3017 RMK AO2 SLP217 T02330133 $=
02/08/2023 20:51->METAR KJFK 022051Z 17007KT 10SM SCT070 SCT250 24/12 A3019 RMK AO2 SLP222 T02440122 58012 $=
02/08/2023 19:51->METAR KJFK 021951Z 18009KT 10SM SCT070 SCT250 24/13 A3020 RMK AO2 SLP225 T02390128 $=
02/08/2023 18:51->METAR KJFK 021851Z 20011KT 10SM SCT070 SCT250 25/13 A3021 RMK AO2 SLP230 T02500128 $=
02/08/2023 17:51->METAR KJFK 021751Z 18008KT 10SM SCT065 SCT140 BKN250 23/13 A3022 RMK AO2 SLP233 T02330128 10256 20206 58001 $=
02/08/2023 16:51->METAR KJFK 021651Z VRB06KT 10SM SCT060 SCT250 25/09 A3022 RMK AO2 SLP232 T02500089 $=
02/08/2023 15:51->METAR KJFK 021551Z 02009G14KT 10SM FEW055 SCT250 24/09 A3023 RMK AO2 SLP236 T02440089 $=
02/08/2023 14:51->METAR KJFK 021451Z 03007KT 10SM FEW050 SCT250 24/09 A3022 RMK AO2 SLP234 T02440094 58005 $=
02/08/2023 13:51->METAR KJFK 021351Z 01008KT 10SM FEW047 SCT250 24/09 A3023 RMK AO2 SLP237 T02390094 $=
02/08/2023 12:51->METAR KJFK 021251Z 03006KT 10SM FEW040 FEW250 22/11 A3024 RMK AO2 SLP239 T02220111 $=
02/08/2023 11:51->METAR KJFK 021151Z 03006KT 10SM FEW035 FEW250 21/12 A3024 RMK AO2 SLP239 T02060122 10206 20167 53017 $=
02/08/2023 10:51->METAR KJFK 021051Z 02004KT 10SM FEW033 FEW250 18/12 A3022 RMK AO2 SLP233 T01780122 $=
02/08/2023 09:51->METAR KJFK 020951Z 01004KT 10SM FEW250 17/12 A3020 RMK AO2 SLP228 T01670117 $=
02/08/2023 08:51->METAR KJFK 020851Z 01005KT 10SM FEW250 17/12 A3019 RMK AO2 SLP222 T01670122 53002 $=
02/08/2023 07:51->METAR KJFK 020751Z 01006KT 10SM FEW250 18/12 A3018 RMK AO2 SLP220 T01780117 $=
02/08/2023 06:51->METAR KJFK 020651Z 01005KT 10SM FEW250 18/12 A3018 RMK AO2 SLP219 T01830117 $=
02/08/2023 05:51->METAR KJFK 020551Z 01004KT 10SM FEW250 19/11 A3018 RMK AO2 SLP220 T01890106 10228 20189 58000 $=
02/08/2023 04:51->METAR KJFK 020451Z 02006KT 10SM FEW110 FEW250 19/11 A3018 RMK AO2 SLP221 T01940106 402720189 $=
02/08/2023 03:51->METAR KJFK 020351Z 02004KT 10SM SCT080 SCT250 21/11 A3019 RMK AO2 SLP222 T02060111 $=
02/08/2023 02:51->METAR KJFK 020251Z 07004KT 10SM SCT085 SCT250 21/12 A3018 RMK AO2 SLP220 T02110117 51017 $=
02/08/2023 01:51->METAR KJFK 020151Z 22004KT 10SM SCT080 SCT250 22/14 A3018 RMK AO2 SLP218 T02170144 $=
02/08/2023 00:51->METAR KJFK 020051Z 24005KT 10SM BKN070 BKN090 BKN250 22/14 A3016 RMK AO2 SLP212 T02170139 $=
01/08/2023 23:51->METAR KJFK 012351Z 17004KT 10SM SCT065 BKN085 BKN250 23/13 A3013 RMK AO2 SLP203 T02280133 10272 20222 53006 $=
01/08/2023 22:51->METAR KJFK 012251Z 14006KT 10SM SCT070 BKN090 BKN250 23/13 A3011 RMK AO2 SLP195 T02280133 $=
01/08/2023 21:51->METAR KJFK 012151Z 19008KT 10SM SCT075 BKN100 BKN250 24/14 A3010 RMK AO2 SLP193 T02390139 $=
01/08/2023 20:51->METAR KJFK 012051Z 19010KT 10SM FEW070 BKN095 BKN250 23/13 A3012 RMK AO2 SLP198 T02330133 55001 $=
01/08/2023 19:51->METAR KJFK 011951Z 21011KT 10SM FEW065 BKN080 BKN250 25/13 A3011 RMK SLP196 T02500128=
01/08/2023 18:51->METAR KJFK 011851Z 01007KT 330V040 10SM SCT065 SCT080 BKN250 25/09 A3012 RMK SLP199 T02500089=
01/08/2023 17:51->METAR KJFK 011751Z 30005KT 10SM SCT065 SCT250 27/09 A3012 RMK SLP199 T02670094 10267 20211 58006=
01/08/2023 16:51->METAR KJFK 011651Z 34010KT 10SM SCT065 SCT250 26/09 A3013 RMK SLP201 T02610094=
01/08/2023 15:51->METAR KJFK 011551Z 03010KT 10SM FEW065 SCT250 26/09 A3014 RMK SLP205 T02560094=
01/08/2023 14:51->METAR KJFK 011451Z 03010G18KT 10SM FEW065 FEW250 24/09 A3014 RMK SLP205 T02440094 51007=
01/08/2023 13:51->METAR KJFK 011351Z 02011KT 10SM FEW110 FEW250 24/12 A3013 RMK SLP202 T02390117=
01/08/2023 12:51->METAR KJFK 011251Z 04011KT 10SM FEW110 FEW250 23/13 A3013 RMK SLP202 T02280128=
01/08/2023 11:51->METAR KJFK 011151Z 36012KT 10SM SCT110 SCT250 21/13 A3012 RMK SLP198 T02110133 10222 20194 53017=
01/08/2023 10:51->METAR KJFK 011051Z 36012KT 10SM FEW075 BKN110 BKN250 19/13 A3010 RMK SLP192 T01940133=
01/08/2023 09:51->METAR KJFK 010951Z 36010KT 10SM BKN090 BKN120 BKN250 20/13 A3008 RMK SLP186 T02000133=
01/08/2023 08:51->METAR KJFK 010851Z 36007KT 10SM BKN090 BKN250 21/14 A3007 RMK SLP181 T02060144 53005=
01/08/2023 07:51->METAR KJFK 010751Z 34007KT 10SM FEW080 FEW120 BKN250 20/14 A3005 RMK SLP176 T02000139=
01/08/2023 06:51->METAR KJFK 010651Z 01008KT 10SM BKN090 BKN110 BKN250 21/14 A3005 RMK SLP175 T02060139=
01/08/2023 05:51->METAR KJFK 010551Z 35008KT 10SM BKN110 BKN250 22/13 A3005 RMK SLP176 T02220128 10228 20211 51004=
01/08/2023 04:51->METAR KJFK 010451Z 36008KT 10SM FEW110 SCT250 22/12 A3005 RMK SLP175 T02170122 402830178=
01/08/2023 03:51->METAR KJFK 010351Z 02005KT 10SM FEW080 FEW120 FEW250 22/14 A3005 RMK SLP174 T02170139=
01/08/2023 02:51->METAR KJFK 010251Z 08003KT 10SM FEW090 FEW110 FEW250 22/18 A3004 RMK SLP172 T02170183 51020=
01/08/2023 01:51->METAR KJFK 010151Z 06005KT 10SM FEW070 FEW110 FEW250 22/18 A3003 RMK SLP167 T02220183=
01/08/2023 00:51->METAR KJFK 010051Z 20012KT 10SM FEW070 FEW110 SCT250 23/18 A3000 RMK SLP159 T02280183=
31/07/2023 23:51->METAR KJFK 312351Z 20011KT 10SM FEW075 FEW110 SCT250 23/18 A2998 RMK SLP152 T02330178 10272 20233 51008=
31/07/2023 22:51->METAR KJFK 312251Z 20015KT 10SM FEW075 SCT110 SCT250 23/17 A2997 RMK SLP150 T02330167=
31/07/2023 21:51->METAR KJFK 312151Z 21017KT 10SM SCT075 BKN110 24/14 A2997 RMK SLP147 T02440144=
31/07/2023 20:51->METAR KJFK 312051Z 21016KT 10SM SCT075 SCT090 26/15 A2996 RMK SLP144 T02610150 55002=
31/07/2023 19:51->METAR KJFK 311951Z 20015KT 10SM SCT075 SCT090 26/14 A2995 RMK SLP141 T02610139=
31/07/2023 18:51->METAR KJFK 311851Z 19015KT 10SM SCT075 SCT090 27/15 A2995 RMK SLP142 T02670150=
31/07/2023 17:51->METAR KJFK 311751Z 20013KT 10SM SCT075 26/13 A2996 RMK WSHFT 1643 SLP146 T02560122 10283 20228 58008=
31/07/2023 16:51->METAR KJFK 311651Z 20013 KT 10SM SCT070 SCT095 27/12 A2997 RMK SLP150 T02670122=
31/07/2023 15:51->METAR KJFK 311551Z 32010KT 10SM FEW075 FEW220 28/10 A2998 RMK SLP153 T02780100=
31/07/2023 14:51->METAR KJFK 311451Z 35008KT 10SM FEW075 27/09 A2999 RMK SLP155 T02670094 51003=
31/07/2023 13:51->METAR KJFK 311351Z 32009G15KT 10SM FEW075 SCT220 26/09 A2999 RMK SLP155 T02610094=
31/07/2023 12:51->METAR KJFK 311251Z 32007KT 10SM SCT075 SCT220 24/11 A2999 RMK SLP157 T02390111=
31/07/2023 11:51->METAR KJFK 311151Z 34008KT 10SM FEW070 SCT220 23/12 A2998 RMK SLP152 T02280122 10228 20178 53013=
31/07/2023 10:51->METAR KJFK 311051Z 34006KT 10SM FEW070 FEW220 20/13 A2996 RMK SLP145 T02000128=
31/07/2023 09:51->METAR KJFK 310951Z 33005KT 10SM SCT220 19/12 A2994 RMK SLP139 T01890122=
31/07/2023 08:51->METAR KJFK 310851Z 00000KT 10SM SCT250 19/13 A2994 RMK SLP139 T01940128 55002=
31/07/2023 07:51->METAR KJFK 310751Z 00000KT 10SM FEW080 SCT220 21/13 A2994 RMK SLP138 T02060128=
31/07/2023 06:51->METAR KJFK 310651Z 00000KT 10SM FEW075 SCT250 18/13 A2994 RMK SLP138 T018330133=
31/07/2023 05:51->METAR KJFK 310551Z 33004KT 10SM FEW250 21/11 A2995 RMK SLP140 T02060111 10244 20194 58003=
31/07/2023 04:51->METAR KJFK 310451Z 36005KT 10SM FEW250 21/11 A2996 RMK SLP144 T02060111 402720189=
31/07/2023 03:51->METAR KJFK 310351Z 01004KT 10SM FEW250 22/11 A2995 RMK SLP142 T02170111=
31/07/2023 02:51->METAR KJFK 310251Z 35005KT 10SM FEW075 FEW250 23/10 A2995 RMK SLP143 T02280100 5007=
31/07/2023 01:51->METAR KJFK 310151Z 34006KT 10SM FEW070 FEW250 23/10 A2995 RMK SLP143 T02280100=
31/07/2023 00:51->METAR KJFK 310051Z 34007KT 10SM FEW070 SCT250 24/11 A2994 RMK SLP139 T02390106=
30/07/2023 23:51->METAR KJFK 302351Z 35011KT 10SM SCT070 SCT250 24/11 A2993 RMK SLP136 T02440106 10272 20244 53009=
30/07/2023 22:51->METAR KJFK 302251Z 33010KT 10SM BKN065 BKN250 26/11 A2992 RMK SLP132 T02560111=
30/07/2023 21:51->METAR KJFK 302151Z 34014G18KT 10SM FEW060 BKN070 BKN250 26/11 A2991 RMK SLP128 T02560111=
30/07/2023 20:51->METAR KJFK 302051Z 34012KT 10SM FEW060 BKN070 BKN250 26/12 A2991 RMK SLP127 T02610122 56011=
30/07/2023 19:51->METAR KJFK 301951Z 33011G27KT 10SM FEW060 BKN070 BKN250 27/13 A2991 RMK PK WND 35027/1947 SLP129 T02720133=
30/07/2023 18:51->METAR KJFK 301851Z 31009G17KT 10SM BKN050 BKN250 24/13 A2993 RMK SLP134 T02440128=
30/07/2023 17:51->METAR KJFK 301751Z 31014G19KT 10SM BKN050 BKN200 BKN250 26/13 A2994 RMK SLP138 T02560133 10256 20194 56010=
30/07/2023 16:51->METAR KJFK 301651Z 35009KT 10SM SCT050 SCT250 24/13 A2994 RMK SLP139 T02440128=
30/07/2023 15:51->METAR KJFK 301551Z 35011G20KT 10SM SCT049 SCT250 23/12 A2996 RMK SLP145 T02330117=
30/07/2023 14:51->METAR KJFK 301451Z 35012G17KT 10SM SCT050 SCT250 23/12 A2997 RMK SLP148 T02280117 51010=
30/07/2023 13:51->METAR KJFK 301351Z 01011KT 10SM FEW030 FEW045 FEW250 22/12 A2996 RMK SLP145 T02220117=
30/07/2023 12:51->METAR KJFK 301251Z 36011KT 10SM FEW030 SCT045 SCT200 SCT250 21/12 A2995 RMK SLP142 T02110117=
30/07/2023 11:51->METAR KJFK 301151Z 36011G18KT 10SM FEW026 BKN041 BKN250 19/13 A2994 RMK SLP138 70064 T01940128 10211 20189 53029=
30/07/2023 10:51->METAR KJFK 301051Z 36012KT 10SM BKN024 BKN080 BKN250 19/16 A2991 RMK SLP127 T01940156=
30/07/2023 09:51->METAR KJFK 300951Z 35014KT 10SM FEW030 SCT075 SCT250 19/15 A2988 RMK SLP116 T01940150=
30/07/2023 08:51->METAR KJFK 300851Z 34016KT 10SM FEW015 FEW055 FEW080 SCT250 20/16 A2985 RMK SLP109 T02000156 51010=
30/07/2023 07:51->METAR KJFK 300751Z 34012KT 10SM FEW055 FEW080 SCT250 20/16 A2985 RMK SLP106 T02000156=
30/07/2023 06:51->METAR KJFK 300651Z 34015KT 10SM FEW055 BKN250 21/15 A2984 RMK SLP105 T02060150=
30/07/2023 05:51->METAR KJFK 300551Z 35018KT 10SM FEW055 SCT250 21/15 A2982 RMK SLP099 60064 T02110150 10294 20211 51022=
30/07/2023 04:51->METAR KJFK 300451Z 34013G21KT 10SM FEW044 SCT250 21/16 A2981 RMK PK WND 32026/0357 SLP094 T02110156 403220211=
30/07/2023 03:51->METAR KJFK 300351Z 33021G26KT 10SM FEW060 SCT250 23/18 A2979 RMK PK WND 33026/0331 SLP086 T02280178=
30/07/2023 02:51->METAR KJFK 300251Z 35011G21KT 10SM SCT041 BKN055 BKN250 24/18 A2976 RMK SLP077 60064 T02440183 51029=
30/07/2023 01:51->METAR KJFK 300151Z 35015KT 10SM FEW030 SCT050 BKN170 BKN250 26/21 A2975 RMK SLP072 T02610211=
30/07/2023 00:51->METAR KJFK 300051Z 28009KT 10SM FEW025 SCT045 BKN160 BKN250 27/23 A2970 RMK PK WND 27038/2358 RAB2353E21 TSB2355E49 SLP056 OCNL LTGIC DSNT E CB DSNT E P0064 T02670233=
29/07/2023 23:51->METAR KJFK 292351Z 25014KT 10SM BKN055CB BKN080 BKN140 BKN250 30/23 A2967 RMK PRESRR SLP048 CB OHD MOV E T03000233 10322 20294 55006=
29/07/2023 22:51->METAR KJFK 292251Z 24015KT 10SM SCT050 SCT140 BKN250 31/23 A2965 RMK SLP041 T03060228=
29/07/2023 21:51->METAR KJFK 292151Z 25017KT 10SM FEW045 FEW180 SCT250 32/23 A2965 RMK SLP041 T03220228=
29/07/2023 20:51->METAR KJFK 292051Z 24016KT 10SM FEW045 FEW180 SCT250 32/22 A2969 RMK SLP054 T03220222 56019=
29/07/2023 19:51->METAR KJFK 291951Z 23014KT 10SM FEW040 SCT150 BKN250 32/23 A2971 RMK SLP059 T03220228=
29/07/2023 18:51->METAR KJFK 291851Z 24015KT 10SM FEW038 SCT150 BKN250 31/22 A2973 RMK SLP066 T03110222=
29/07/2023 17:51->METAR KJFK 291751Z 24014KT 10SM FEW038 SCT150 BKN250 30/23 A2975 RMK SLP073 60000 T03000228 10306 20250 58025=
29/07/2023 16:51->METAR KJFK 291651Z 23019KT 10SM FEW050 SCT150 BKN250 30/23 A2978 RMK SLP083 T03000228=
29/07/2023 15:51->METAR KJFK 291551Z 23014KT 10SM FEW050 SCT080 BKN150 BKN250 28/23 A2980 RMK SLP092 T02830233=
29/07/2023 14:51->METAR KJFK 291451Z 24010KT 10SM FEW048 SCT080 BKN150 BKN250 26/23 A2982 RMK SLP098 60000 T02610228 58015=
29/07/2023 13:51->METAR KJFK 291351Z 24010KT 10SM FEW048 SCT080 BKN160 BKN250 26/22 A2984 RMK RAB33E42 SLP105 P0000 T02610222=
29/07/2023 12:51->METAR KJFK 291251Z 21011KT 10SM FEW038 SCT080 BKN150 BKN250 25/22 A2986 RMK SLP110 T02500222=
29/07/2023 11:51->METAR KJFK 291151Z 24006KT 10SM FEW065 SCT080 BKN130 BKN250 26/22 A2987 RMK SLP113 T02560217 10261 20233 50002=
29/07/2023 10:51->METAR KJFK 291051Z 24012KT 10SM FEW090 SCT130 BKN250 24/22 A2988 RMK SLP116 T02440222=
29/07/2023 09:51->METAR KJFK 290951Z 23007KT 10SM FEW090 BKN150 BKN250 24/22 A2986 RMK SLP112 T02390217=
29/07/2023 08:51->METAR KJFK 290851Z 22004KT 10SM BKN250 24/21 A2986 RMK SLP111 T02390211 58014=
29/07/2023 07:51->METAR KJFK 290751Z 21012KT 10SM BKN250 24/21 A2989 RMK SLP122 T02440211=
29/07/2023 06:51->METAR KJFK 290651Z 23007KT 10SM FEW110 BKN250 25/22 A2989 RMK SLP121 T02500217=
29/07/2023 05:51->METAR KJFK 290551Z 25013KT 10SM BKN200 26/21 A2990 RMK SLP125 T02610211 10283 20256 58015=
29/07/2023 04:51->METAR KJFK 290451Z 27010KT 10SM BKN200 28/22 A2992 RMK TSB0357E18 SLP132 T02780217 403280244=
29/07/2023 03:51->METAR KJFK 290351Z 19005KT 10SM FEW045 BKN200 27/24 A2994 RMK SLP138 T02720239=
29/07/2023 02:51->METAR KJFK 290251Z 00000KT 10SM FEW060 BKN200 26/24 A2995 RMK SLP140 T02610239 50004=
29/07/2023 01:51->METAR KJFK 290151Z 14003KT 10SM FEW060 BKN250 26/24 A2995 RMK SLP142 T02560239=
29/07/2023 00:51->METAR KJFK 290051Z 14003KT 10SM SCT250 26/24 A2994 RMK SLP138 T02560239=
28/07/2023 23:51->METAR KJFK 282351Z 17009KT 10SM FEW050 FEW250 26/24 A2993 RMK SLP136 T02610239 10328 20261 56005=
28/07/2023 22:51->METAR KJFK 282251Z 18012KT 10SM FEW050 28/24 A2994 RMK SLP137 T02780239=
28/07/2023 21:51->METAR KJFK 282151Z 18013KT 10SM FEW050 29/23 A2994 RMK SLP138 T02940233=
28/07/2023 20:51->METAR KJFK 282051Z 18014KT 10SM FEW048 FEW250 30/23 A2995 RMK SLP141 T03000233 58012=
28/07/2023 19:51->METAR KJFK 281951Z 19013KT 10SM FEW048 SCT250 30/23 A2997 RMK SLP147 T03000233=
28/07/2023 18:51->METAR KJFK 281851Z 20012KT 10SM SCT048 31/22 A2998 RMK SLP151 T03110222=
28/07/2023 17:51->METAR KJFK 281751Z 21013KT 10SM SCT048 32/22 A2998 RMK SLP153 T03220222 10322 20278 58009=
28/07/2023 16:51->METAR KJFK 281651Z 20010KT 10SM SCT046 31/23 A3000 RMK SLP158 T03060228=
28/07/2023 15:51->METAR KJFK 281551Z 22012KT 10SM FEW043 SCT050 31/22 A3001 RMK SLP163 T03060222=
28/07/2023 14:51->METAR KJFK 281451Z 31005KT 10SM SCT050 31/22 A3001 RMK SLP161 T03110217 58002=
28/07/2023 13:51->METAR KJFK 281351Z 32006KT 10SM FEW031 SCT048 29/22 A3001 RMK SLP162 T02890222=
28/07/2023 12:51->METAR KJFK 281251Z VRB03KT 10SM FEW030 SCT045 29/23 A3001 RMK SLP163 T02890228=
28/07/2023 11:51->METAR KJFK 281151Z 30006KT 10SM FEW049 SCT250 28/22 A3001 RMK SLP163 60001 70006 T02720217 10278 20244 51018=
28/07/2023 10:51->METAR KJFK 281051Z 32003KT 10SM SCT049 SCT085 SCT250 27/24 A3000 RMK SLP159 T02670239=
28/07/2023 09:51->METAR KJFK 280951Z 00000KT 10SM SCT085 SCT250 24/22 A2998 RMK SLP152 T02440222=
28/07/2023 08:51->METAR KJFK 280851Z 00000KT 10SM FEW075 SCT250 26/22 A2996 RMK SLP146 60001 T02440228 53002=
28/07/2023 07:51->METAR KJFK 280751Z 31004KT 10SM FEW080 FEW140 SCT250 26/22 A2995 RMK SLP141 T02560217=
28/07/2023 06:51->METAR KJFK 280651Z 00000KT 10SM FEW070 SCT085 BKN250 26/24 A2994 RMK AO2 RAE07 SLP139 P0001 T02560239 $=
28/07/2023 05:51->METAR KJFK 280551Z 25008KT 9SM -RA FEW041 BKN070 OVC085 25/24 A2995 RMK AO2 RAB33 TSB08E46 SLP143 P0003 60005 T02500239 10306 20250 53000 $=
28/07/2023 04:51->METAR KJFK 280451Z 00000KT 10SM BKN060 BKN070 BKN250 26/24 A2995 RMK AO2 LTG DSNT SE AND W RAE07 SLP141 P0002 T02560244 403330228 $=
28/07/2023 03:51->METAR KJFK 280351Z 00000KT 6SM -RA BKN047 BKN095 BKN250 27/23 A2996 RMK AO2 RAB49 SLP144 P0000 T02720233 $=
28/07/2023 02:51->METAR KJFK 280251Z 03006KT 10SM FEW030 SCT055 BKN100 26/23 A2995 RMK AO2 LTG DSNT N-E TSE43 SLP143 FRQ LTGICCC DSNT NE CB DSNT NE T02610228 52011 $=
28/07/2023 01:51->METAR KJFK 280151Z 16007KT 10SM TS SCT055CB BKN075 BKN090 BKN250 29/24 A2992 RMK AO2 LTG DSNT W-N TSB47 SLP132 FRQ LTGIC W-NW TS W-NW MOV SE T02890239 $=
28/07/2023 00:51->METAR KJFK 280051Z 23010KT 10SM BKN055 BKN080 BKN250 30/24 A2992 RMK AO2 LTG DSNT N AND NE SLP132 TCU DSNT N-NE T03000239 $=
27/07/2023 23:51->METAR KJFK 272351Z 24014KT 10SM SCT050 SCT100 BKN250 30/24 A2990 RMK AO2 LTG DSNT N AND NW SLP125 CB DSNT NW TCU DSNT W-NW T03000239 10333 20294 53006 $=
27/07/2023 22:51->METAR KJFK 272251Z 24014KT 10SM FEW050 BKN250 32/23 A2989 RMK AO2 SLP120 T03170233 $=
27/07/2023 21:51->METAR KJFK 272151Z 25017KT 10SM FEW045 BKN250 33/23 A2988 RMK AO2 SLP118 CB DSNT NW T03330228 $=
27/07/2023 20:51->METAR KJFK 272051Z 23014KT 10SM FEW045 FEW170 BKN250 32/24 A2988 RMK AO2 SLP118 CB DSNT NW T03170239 56016 $=
27/07/2023 19:51->METAR KJFK 271951Z 19014KT 10SM SCT045 SCT170 BKN250 29/24 A2989 RMK AO2 SLP121 T02940239 $=
27/07/2023 18:51->METAR KJFK 271851Z 19012KT 10SM FEW028 FEW043 SCT170 SCT250 29/24 A2990 RMK AO2 SLP124 T02940244 $=
27/07/2023 17:51->METAR KJFK 271751Z 19014KT 10SM FEW043 SCT180 SCT250 29/24 A2993 RMK AO2 SLP134 T02940244 10300 20250 58012 $=
27/07/2023 16:51->METAR KJFK 271651Z 19013KT 10SM FEW040 FEW120 BKN180 BKN250 29/24 A2994 RMK AO2 SLP139 T02940244 $=
27/07/2023 15:51->METAR KJFK 271551Z 20013KT 10SM FEW038 SCT120 SCT160 BKN250 29/24 A2996 RMK AO2 SLP145 T02890244 $=
27/07/2023 14:51->METAR KJFK 271451Z 19017G21KT 10SM FEW110 FEW160 BKN250 28/24 A2996 RMK AO2 SLP146 T02830244 56013 $=
27/07/2023 13:51->METAR KJFK 271351Z 19013KT 10SM SCT110 BKN250 26/24 A2998 RMK AO2 SLP151 T02610239 $=
27/07/2023 12:51->METAR KJFK 271251Z 19011KT 10SM FEW010 SCT120 BKN250 26/24 A2998 RMK AO2 SLP153 T02610239 $=
27/07/2023 11:51->METAR KJFK 271151Z 19008KT 10SM SCT007 BKN250 25/24 A3000 RMK AO2 SLP159 T02500239 10250 20228 50002 $=
27/07/2023 10:51->METAR KJFK 271051Z 21011KT 9SM BKN008 BKN250 24/24 A3000 RMK AO2 SLP159 BKN008 V SCT T02390239 $=
27/07/2023 09:51->METAR KJFK 270951Z 20010KT 10SM FEW035 SCT140 BKN250 24/23 A3000 RMK AO2 SLP158 T02390233 $=
27/07/2023 08:51->METAR KJFK 270851Z 19008KT 10SM BKN250 23/22 A3000 RMK AO2 SLP157 T02330222 56016 $=
27/07/2023 07:51->METAR KJFK 270751Z 23008KT 10SM BKN250 23/22 A3001 RMK AO2 SLP162 T02280222 $=
27/07/2023 06:51->METAR KJFK 270651Z 21011KT 10SM BKN250 23/22 A3003 RMK AO2 SLP167 T02330222 $=
27/07/2023 05:51->METAR KJFK 270551Z 22009KT 10SM SCT250 23/22 A3004 RMK AO2 SLP173 T02330222 10250 20233 50000 $=
27/07/2023 04:51->METAR KJFK 270451Z 21011KT 10SM SCT250 23/22 A3006 RMK AO2 SLP177 T02330222 402890200 $=
27/07/2023 03:51->METAR KJFK 270351Z 20013KT 10SM SCT250 23/22 A3004 RMK AO2 SLP173 T02330222 $=
27/07/2023 02:51->METAR KJFK 270251Z 19016KT 10SM SCT250 24/22 A3004 RMK AO2 SLP172 T02390222 58007 $=
27/07/2023 01:51->METAR KJFK 270151Z 19013KT 10SM BKN250 24/22 A3006 RMK AO2 SLP179 T02440217 $=
27/07/2023 00:51->METAR KJFK 270051Z 18016KT 10SM FEW050 BKN250 25/19 A3007 RMK AO2 SLP181 T02500194 $=
26/07/2023 23:51->METAR KJFK 262351Z 19016KT 10SM FEW055 BKN250 25/21 A3006 RMK AO2 SLP180 T02500211 10289 20250 55002 $=
26/07/2023 22:51->METAR KJFK 262251Z 19015KT 10SM FEW055 SCT250 26/21 A3005 RMK AO2 SLP174 T02610206 $=
26/07/2023 21:51->METAR KJFK 262151Z 18014KT 10SM FEW055 SCT250 27/20 A3005 RMK AO2 SLP175 T02720200 $=
26/07/2023 20:51->METAR KJFK 262051Z 18016KT 10SM FEW055 SCT250 28/21 A3007 RMK AO2 SLP182 T02780211 58008 $=
26/07/2023 19:51->METAR KJFK 261951Z 19012KT 10SM FEW055 SCT250 28/20 A3008 RMK AO2 SLP185 T02830200 $=
26/07/2023 18:51->METAR KJFK 261851Z 20013KT 10SM FEW050 FEW250 28/21 A3009 RMK AO2 SLP188 T02780206 $=
26/07/2023 17:51->METAR KJFK 261751Z 19011KT 10SM FEW050 FEW250 29/19 A3009 RMK AO2 SLP190 T02890189 10289 20233 58010 $=
26/07/2023 16:51->METAR KJFK 261651Z 21011KT 10SM FEW050 FEW250 28/20 A3010 RMK AO2 SLP193 T02830200 $=
26/07/2023 15:51->METAR KJFK 261551Z 22006KT 10SM FEW047 FEW250 28/19 A3012 RMK AO2 SLP199 T02830194 $=
26/07/2023 14:51->METAR KJFK 261451Z 23006KT 10SM FEW250 27/19 A3012 RMK AO2 SLP200 T02720194 50003 $=
26/07/2023 13:51->METAR KJFK 261351Z 33004KT 10SM FEW250 27/19 A3012 RMK AO2 SLP201 T02670194 $=
26/07/2023 12:51->METAR KJFK 261251Z 26007KT 10SM SCT250 24/20 A3014 RMK AO2 SLP204 T02390200 $=
26/07/2023 11:51->METAR KJFK 261151Z 26004KT 10SM FEW250 23/19 A3012 RMK AO2 SLP198 70024 T02330194 10233 20200 53009 $=
26/07/2023 10:51->METAR KJFK 261051Z 28006KT 9SM FEW023 FEW160 SCT250 21/19 A3010 RMK AO2 SLP193 T02110189 $=
26/07/2023 09:51->METAR KJFK 260951Z 27004KT 10SM FEW020 SCT250 20/19 A3009 RMK AO2 SLP190 T02000189 $=
26/07/2023 08:51->METAR KJFK 260851Z 28005KT 10SM SCT250 21/19 A3009 RMK AO2 SLP189 T02060189 53003 $=
26/07/2023 07:51->METAR KJFK 260751Z 00000KT 10SM FEW013 SCT250 21/19 A3007 RMK AO2 SLP181 T02060189 $=
26/07/2023 06:51->METAR KJFK 260651Z 00000KT 7SM FEW025 BKN250 20/19 A3007 RMK AO2 SLP183 T02000194 $=
26/07/2023 05:51->METAR KJFK 260551Z 01005KT 8SM FEW015 FEW120 SCT250 21/20 A3008 RMK AO2 SLP186 T02060200 10217 20206 50002 $=
26/07/2023 04:51->METAR KJFK 260451Z 33004KT 10SM BKN013 BKN250 22/19 A3008 RMK AO2 SLP187 T02170194 402890206 $=
26/07/2023 03:51->METAR KJFK 260351Z 25006KT 10SM SCT015 SCT130 BKN250 21/19 A3008 RMK AO2 SLP184 T02110194 $=
26/07/2023 02:51->METAR KJFK 260251Z 00000KT 10SM FEW025 FEW120 BKN250 21/19 A3008 RMK AO2 SLP186 T02110194 51006 $=
26/07/2023 01:51->METAR KJFK 260151Z 24004KT 10SM FEW014 FEW100 BKN250 21/20 A3008 RMK AO2 SLP185 T02110200 $=
26/07/2023 00:51->METAR KJFK 260051Z 29005KT 10SM FEW014 FEW055 SCT100 BKN250 22/20 A3008 RMK AO2 SLP184 T02170200 $=
25/07/2023 23:51->METAR KJFK 252351Z 27006KT 10SM FEW025 FEW055 FEW150 BKN250 22/19 A3007 RMK AO2 RAB02E13 SLP181 P0000 60024 T02170189 10283 20206 56010 $=
25/07/2023 22:51->METAR KJFK 252251Z 00000KT 10SM FEW011 FEW025 SCT055 BKN150 BKN250 22/19 A3007 RMK AO2 RAE16 SLP182 P0001 T02170194 $=
25/07/2023 21:51->METAR KJFK 252151Z 00000KT 10SM -RA FEW013 SCT055 OVC120 21/20 A3008 RMK AO2 TSE22 SLP186 P0006 T02110200 $=
25/07/2023 20:51->METAR KJFK 252051Z 00000KT 5SM -TSRA BR FEW013 SCT040CB OVC060 21/20 A3010 RMK AO2 PK WND 23031/1953 WSHFT 1943 RAB01 SLP191 OCNL LTGICCG NE-SW TS NE-SW MOV NE P0017 60017 T02060200 50018 $=
25/07/2023 19:51->METAR KJFK 251951Z 23022G31KT 10SM TS SCT015 BKN050CB BKN100 BKN160 BKN250 25/22 A3007 RMK AO2 PK WND 24031/1951 TSB32 SLP182 FRQ LTGICCG SW-N TS SW-N MOV NE VCSH SW-N T02500217=
25/07/2023 18:51->METAR KJFK 251851Z 18016KT 10SM SCT050 BKN250 27/22 A3005 RMK AO2 SLP174 CB DSNT W-NW T02670217=
25/07/2023 17:51->METAR KJFK 251751Z 17014KT 10SM FEW050 FEW250 28/21 A3004 RMK AO2 SLP172 TCU DSNT NE T02780206 10289 20239 58019=
25/07/2023 16:51->METAR KJFK 251651Z 19011KT 10SM FEW048 FEW250 28/22 A3008 RMK AO2 SLP185 CB AND TCU DSNT NE T02780217=
25/07/2023 15:51->METAR KJFK 251551Z 19007KT 10SM FEW045 FEW250 28/21 A3010 RMK AO2 SLP192 TCU DSNT NE T02780211=
25/07/2023 14:51->METAR KJFK 251451Z 19008KT 10SM FEW042 FEW250 26/21 A3010 RMK AO2 SLP191 T02610206 51003=
25/07/2023 13:51->METAR KJFK 251351Z 21005KT 10SM FEW037 FEW120 SCT250 27/21 A3009 RMK AO2 SLP189 T02670206=
25/07/2023 12:51->METAR KJFK 251251Z VRB03KT 10SM SCT120 SCT250 26/20 A3009 RMK AO2 SLP190 T02560200=
25/07/2023 11:51->METAR KJFK 251151Z 22005KT 10SM FEW140 FEW250 24/21 A3009 RMK AO2 SLP188 T02390206 10239 20217 53006=
25/07/2023 10:51->METAR KJFK 251051Z 22005KT 10SM FEW140 FEW250 23/21 A3008 RMK AO2 SLP186 T02280206=
25/07/2023 09:51->METAR KJFK 250951Z 20005KT 10SM FEW250 22/20 A3007 RMK AO2 SLP181 T02170200=
25/07/2023 08:51->METAR KJFK 250851Z 22006KT 10SM SCT250 22/20 A3007 RMK AO2 SLP182 T02170200 58008=
25/07/2023 07:51->METAR KJFK 250751Z 23006KT 10SM FEW250 22/19 A3008 RMK AO2 SLP185 T02220194=
25/07/2023 06:51->METAR KJFK 250651Z 23008KT 10SM FEW250 23/19 A3009 RMK AO2 SLP188 T02330194=
25/07/2023 05:51->METAR KJFK 250551Z 23007KT 10SM SCT250 23/22 A3009 RMK AO2 SLP190 T02330217 10244 20233 55001=
25/07/2023 04:51->METAR KJFK 250451Z 21009KT 10SM FEW045 SCT250 24/21 A3009 RMK AO2 SLP189 T02390211 402830217=
25/07/2023 03:51->METAR KJFK 250351Z 20010KT 10SM FEW045 FEW140 FEW250 24/23 A3010 RMK AO2 SLP191 T02390228=
25/07/2023 02:51->METAR KJFK 250251Z 18010KT 10SM FEW050 FEW150 SCT250 24/23 A3010 RMK AO2 SLP191 T02390228 52005=
25/07/2023 01:51->METAR KJFK 250151Z 18012KT 10SM FEW040 FEW130 FEW250 24/22 A3009 RMK AO2 SLP188 T02440222=
25/07/2023 00:51->METAR KJFK 250051Z 16009KT 10SM FEW050 FEW100 FEW250 24/22 A3009 RMK AO2 SLP188 T02440217=
24/07/2023 23:51->METAR KJFK 242351Z 17010KT 10SM FEW025 FEW050 FEW100 SCT250 24/21 A3008 RMK AO2 SLP185 T02440211 10283 20244 58001=
24/07/2023 22:51->METAR KJFK 242251Z 15014KT 10SM FEW045 FEW100 FEW250 26/21 A3008 RMK AO2 SLP186 T02560206=
24/07/2023 21:51->METAR KJFK 242151Z 15014KT 10SM FEW045 FEW100 FEW250 27/20 A3008 RMK AO2 SLP187 T02670200=
24/07/2023 20:51->METAR KJFK 242051Z 17012KT 10SM FEW045 FEW100 FEW150 SCT250 27/20 A3008 RMK AO2 SLP187 T02720200 56015=
24/07/2023 19:51->METAR KJFK 241951Z 17013KT 10SM FEW025 FEW043 SCT150 SCT250 27/21 A3010 RMK AO2 SLP191 T02720211=
24/07/2023 18:51->METAR KJFK 241851Z 17012KT 10SM FEW025 FEW043 BKN150 BKN250 28/21 A3010 RMK AO2 SLP194 T02780206=
24/07/2023 17:51->METAR KJFK 241751Z 19013KT 10SM FEW043 BKN150 BKN250 28/21 A3013 RMK AO2 SLP201 T02780206 10278 20239 58001=
24/07/2023 16:51->METAR KJFK 241651Z 19008KT 10SM FEW043 SCT170 BKN250 27/21 A3013 RMK AO2 SLP203 T02670206=
24/07/2023 15:51->METAR KJFK 241551Z 19007KT 9SM FEW040 SCT170 BKN250 26/18 A3013 RMK AO2 SLP203 T02610183=
24/07/2023 14:51->METAR KJFK 241451Z 20006KT 10SM FEW130 BKN170 BKN250 26/19 A3013 RMK AO2 SLP203 T02560189 53007=
24/07/2023 13:51->METAR KJFK 241351Z 20004KT 10SM FEW140 BKN190 OVC250 24/18 A3012 RMK AO2 SLP199 T02440183=
24/07/2023 12:51->METAR KJFK 241251Z 18004KT 10SM FEW150 SCT210 OVC250 24/19 A3011 RMK AO2 SLP197 T02440194=
24/07/2023 11:51->METAR KJFK 241151Z 20006KT 10SM FEW150 FEW200 BKN250 24/19 A3011 RMK AO2 SLP195 T02390194 10239 20217 53007=
24/07/2023 10:51->METAR KJFK 241051Z 23005KT 10SM FEW200 BKN250 23/19 A3010 RMK AO2 SLP192 T02280189=
24/07/2023 09:51->METAR KJFK 240951Z 23007KT 10SM FEW200 SCT250 22/18 A3009 RMK AO2 SLP188 T02220178=
24/07/2023 08:51->METAR KJFK 240851Z 24006KT 10SM SCT250 22/18 A3009 RMK AO2 SLP188 T02170183 53006=
24/07/2023 07:51->METAR KJFK 240751Z 24006KT 10SM FEW250 22/18 A3007 RMK AO2 SLP184 T02170178=
24/07/2023 06:51->METAR KJFK 240651Z 22006KT 10SM FEW250 22/17 A3007 RMK AO2 SLP181 T02220167=
24/07/2023 05:51->METAR KJFK 240551Z 22009KT 10SM SCT250 23/16 A3007 RMK AO2 SLP182 T02330161 10250 20233 51005=
24/07/2023 04:51->METAR KJFK 240451Z 23009KT 10SM FEW070 SCT250 24/16 A3006 RMK AO2 SLP180 T02390161 403000200=
24/07/2023 03:51->METAR KJFK 240351Z 21010KT 10SM SCT075 24/18 A3006 RMK AO2 SLP179 T02440178=
24/07/2023 02:51->METAR KJFK 240251Z 20012KT 10SM SCT075 25/18 A3005 RMK AO2 SLP177 T02500178 51019=
24/07/2023 01:51->METAR KJFK 240151Z 19008KT 10SM SCT070 24/19 A3005 RMK AO2 SLP174 T02440194=
24/07/2023 00:51->METAR KJFK 240051Z 19010KT 10SM FEW070 SCT095 24/21 A3001 RMK AO2 SLP163 T02440211=
23/07/2023 23:51->METAR KJFK 232351Z 19013KT 10SM SCT070 SCT090 25/19 A3000 RMK AO2 SLP157 T02500194 10300 20250 53011=
23/07/2023 22:51->METAR KJFK 232251Z 19011KT 10SM SCT070 BKN090 26/18 A2998 RMK AO2 SLP152 T02560178=
23/07/2023 21:51->METAR KJFK 232151Z 20016KT 10SM SCT075 SCT095 27/19 A2997 RMK AO2 SLP150 T02670189=
23/07/2023 20:51->METAR KJFK 232051Z 18011KT 10SM SCT070 28/17 A2996 RMK AO2 SLP146 T02780172 55002=
23/07/2023 19:51->METAR KJFK 231951Z 18010KT 10SM FEW070 29/17 A2996 RMK AO2 SLP144 T02890172=
23/07/2023 18:51->METAR KJFK 231851Z 21010KT 10SM SCT070 29/17 A2996 RMK AO2 SLP147 T02940172=
23/07/2023 17:51->METAR KJFK 231751Z 21011KT 10SM SCT070 29/16 A2997 RMK AO2 SLP148 T02940161 10300 20244 58004=
23/07/2023 16:51->METAR KJFK 231651Z 22005KT 10SM SCT065 29/15 A2998 RMK AO2 SLP151 T02890150=
23/07/2023 15:51->METAR KJFK 231551Z VRB06KT 10SM FEW060 FEW180 29/15 A2998 RMK AO2 SLP151 T02940150=
23/07/2023 14:51->METAR KJFK 231451Z 36008KT 10SM FEW060 FEW200 FEW250 28/14 A2998 RMK AO2 SLP152 T02830139 51012=
23/07/2023 13:51->METAR KJFK 231351Z 01007KT 10SM FEW200 FEW250 27/14 A2998 RMK AO2 SLP152 T02720144=
23/07/2023 12:51->METAR KJFK 231251Z 02008KT 10SM FEW250 26/14 A2997 RMK AO2 SLP148 T02610144=
23/07/2023 11:51->METAR KJFK 231151Z 02008KT 10SM FEW250 24/15 A2995 RMK AO2 SLP141 T02440150 10244 20200 52016=
23/07/2023 10:51->METAR KJFK 231051Z 01005KT 10SM FEW250 22/17 A2993 RMK AO2 SLP136 T02170167=
23/07/2023 09:51->METAR KJFK 230951Z 36006KT 10SM CLR 20/17 A2991 RMK AO2 SLP129 T02000172=
23/07/2023 08:51->METAR KJFK 230851Z 36004KT 10SM FEW150 21/18 A2990 RMK AO2 SLP124 T02060178 53008=
23/07/2023 07:51->METAR KJFK 230751Z 01004KT 10SM CLR 21/17 A2988 RMK AO2 SLP117 T02060167=
23/07/2023 06:51->METAR KJFK 230651Z 05003KT 10SM CLR 21/16 A2987 RMK AO2 SLP116 T02110156=
23/07/2023 05:51->METAR KJFK 230551Z 02004KT 10SM FEW150 SCT250 22/16 A2988 RMK AO2 SLP116 T02170161 10272 20211 53010=
23/07/2023 04:51->METAR KJFK 230451Z 18003KT 10SM FEW150 SCT250 22/17 A2987 RMK AO2 SLP113 T02220167 403000211=
23/07/2023 03:51->METAR KJFK 230351Z 13003KT 10SM FEW150 SCT250 22/17 A2985 RMK AO2 SLP108 T02220167=
23/07/2023 02:51->METAR KJFK 230251Z 00000KT 10SM FEW150 SCT250 23/13 A2984 RMK AO2 SLP106 T02330133 51008=
23/07/2023 01:51->METAR KJFK 230151Z 00000KT 10SM SCT250 25/13 A2984 RMK AO2 SLP105 T02500133=
23/07/2023 00:51->METAR KJFK 230051Z 01005KT 10SM BKN250 26/13 A2983 RMK AO2 SLP100 T02610128=
22/07/2023 23:51->METAR KJFK 222351Z 04005KT 10SM BKN250 27/12 A2982 RMK AO2 SLP097 T02720122 10300 20272 53005=
22/07/2023 22:51->METAR KJFK 222251Z 33007KT 10SM BKN250 28/12 A2980 RMK AO2 SLP092 T02780117=
22/07/2023 21:51->METAR KJFK 222151Z 34010KT 10SM SCT075 BKN250 29/13 A2979 RMK AO2 SLP089 T02940128=
22/07/2023 20:51->METAR KJFK 222051Z 33012G16KT 10SM BKN065 BKN250 29/13 A2980 RMK AO2 SLP092 T02890133 53001=
22/07/2023 19:51->METAR KJFK 221951Z 35007KT 10SM BKN065 BKN250 28/14 A2980 RMK AO2 SLP090 T02780144=
22/07/2023 18:51->METAR KJFK 221851Z 10SM SCT060 BKN250 28/14 A2980 RMK AO2 SLP091 T02830144=
22/07/2023 17:51->METAR KJFK 221751Z VRB05KT 10SM SCT050 BKN250 27/16 A2980 RMK AO2 SLP091 T02670156 10278 20222 58004=
22/07/2023 16:51->METAR KJFK 221651Z 34008KT 10SM SCT047 BKN250 27/16 A2981 RMK AO2 SLP093 T02670156=
22/07/2023 15:51->METAR KJFK 221551Z 35009KT 10SM SCT045 SCT250 27/16 A2981 RMK AO2 SLP095 T02670161=
22/07/2023 14:51->METAR KJFK 221451Z 02011KT 10SM FEW044 SCT250 26/16 A2981 RMK AO2 SLP095 T02610161 51005=
22/07/2023 13:51->METAR KJFK 221351Z 01010KT 10SM FEW042 SCT250 25/16 A2981 RMK AO2 SLP094 T02500156=
22/07/2023 12:51->METAR KJFK 221251Z 33011KT 10SM FEW037 SCT250 24/16 A2980 RMK AO2 SLP092 T02390161=
22/07/2023 11:51->METAR KJFK 221151Z 34011KT 10SM BKN250 22/16 A2980 RMK AO2 SLP090 70001 T02220156 10233 20211 53014=
22/07/2023 10:51->METAR KJFK 221051Z 34012KT 10SM SCT250 22/16 A2978 RMK AO2 SLP084 T02170156=
22/07/2023 09:51->METAR KJFK 220951Z 34008KT 10SM FEW150 SCT250 21/16 A2977 RMK AO2 SLP080 T02110156=
22/07/2023 08:51->METAR KJFK 220851Z 34010KT 10SM FEW150 22/16 A2976 RMK AO2 SLP076 T02170161 55001=
22/07/2023 07:51->METAR KJFK 220751Z 34012KT 10SM FEW150 22/16 A2975 RMK AO2 SLP074 T02220156=
22/07/2023 06:51->METAR KJFK 220651Z 34009KT 10SM FEW150 23/16 A2975 RMK AO2 SLP075 T02280156=
22/07/2023 05:51->METAR KJFK 220551Z 33010KT 10SM FEW150 23/16 A2976 RMK AO2 SLP077 T02330161 10272 20233 53004=
22/07/2023 04:51->METAR KJFK 220451Z 33011KT 10SM FEW150 24/16 A2975 RMK AO2 SLP074 T02390161 402830228=
22/07/2023 03:51->METAR KJFK 220351Z 33013KT 10SM CLR 25/16 A2974 RMK AO2 SLP072 T02500156=
22/07/2023 02:51->METAR KJFK 220251Z 35010KT 10SM FEW040 26/18 A2975 RMK AO2 SLP073 T02610178 51010=
22/07/2023 01:51->METAR KJFK 220151Z 30009KT 10SM FEW050 FEW080 FEW250 26/18 A2974 RMK AO2 SLP070 T02610178=
22/07/2023 00:51->METAR KJFK 220051Z 27013KT 10SM FEW055 FEW080 FEW250 27/18 A2973 RMK AO2 SLP068 T02670178=
21/07/2023 23:51->METAR KJFK 212351Z 24013KT 10SM FEW055 FEW080 FEW250 27/20 A2972 RMK AO2 SLP063 T02670200 10283 20261 55002=
21/07/2023 22:51->METAR KJFK 212251Z 20011KT 10SM FEW055 FEW100 FEW250 27/22 A2971 RMK AO2 SLP061 T02670222=
21/07/2023 21:51->METAR KJFK 212151Z 20013KT 10SM SCT055 SCT100 SCT250 27/23 A2972 RMK AO2 SLP063 T02720228=
21/07/2023 20:51->METAR KJFK 212051Z 19012KT 10SM SCT045TCU SCT110 SCT250 28/22 A2972 RMK AO2 SLP064 TCU OHD T02780222 56010=
21/07/2023 19:51->METAR KJFK 211951Z 18013KT 10SM SCT045 SCT110 SCT250 28/22 A2973 RMK AO2 SLP067 T02830222=
21/07/2023 18:51->METAR KJFK 211851Z 19008KT 10SM FEW023 SCT042 SCT110 28/22 A2973 RMK AO2 LTG DSNT E SLP068 CB DSNT NE-E T02780222=
21/07/2023 17:51->METAR KJFK 211751Z 21009KT 10SM FEW023 SCT042 BKN110 27/23 A2975 RMK AO2 SLP074 CB DSNT E-SE MOV NE 60001 T02720228 10278 20233 58004=
21/07/2023 16:51->METAR KJFK 211651Z 21007KT 10SM FEW020 FEW037CB BKN100 BKN140 27/22 A2977 RMK AO2 SLP080 CB SE-S MOV NE T02670222=
21/07/2023 15:51->METAR KJFK 211551Z 23009KT 10SM FEW019 FEW035 BKN110 BKN170 26/22 A2978 RMK AO2 SLP083 T02610222=
21/07/2023 14:51->METAR KJFK 211451Z 19005KT 10SM FEW015 FEW035 SCT120 SCT170 26/23 A2976 RMK AO2 SLP078 60001 T02560228 56010=
21/07/2023 13:51->METAR KJFK 211351Z 24005KT 10SM FEW012 FEW032 BKN110 BKN230 24/22 A2977 RMK AO2 RAE21 SLP079 P0001 T02440222=
21/07/2023 12:51->METAR KJFK 211251Z 20010KT 10SM -RA FEW016 FEW027 BKN110 OVC200 24/22 A2979 RMK AO2 RAB45 SLP086 P0000 T02390217=
21/07/2023 11:51->METAR KJFK 211151Z 18012KT 10SM FEW012 SCT022 BKN100 OVC200 24/23 A2979 RMK AO2 RAE37 SLP089 SCT V BKN P0000 60003 70003 T02390228 10239 20228 56011 $=
21/07/2023 10:51->METAR KJFK 211051Z 16010KT 9SM -RA FEW012 SCT039 BKN070 OVC200 23/23 A2979 RMK AO2 LTG DSNT N-E TSB0958E42 SLP089 CB DSNT NE-SE MOV E P0003 T02330228 $=
21/07/2023 09:51->METAR KJFK 210951Z 20008KT 10SM +RA BKN037CB BKN080 OVC090 23/22 A2982 RMK AO2 VIS 2 1/2 W LTG DSNT W-N RAB49 SLP097 CB OHD-W-NW MOV E P0000 T02330222 $=
21/07/2023 08:51->METAR KJFK 210851Z 18005KT 10SM SCT017 BKN043 BKN250 23/22 A2983 RMK AO2 SLP100 T02330222 56010 $=
21/07/2023 07:51->METAR KJFK 210751Z 18006KT 10SM SCT018 SCT250 23/22 A2983 RMK AO2 SLP100 T02280222 $=
21/07/2023 06:51->METAR KJFK 210651Z 19007KT 10SM BKN016 BKN220 23/22 A2984 RMK AO2 SLP104 T02330222 $=
21/07/2023 05:51->METAR KJFK 210551Z 18006KT 10SM SCT027 SCT250 23/22 A2986 RMK AO2 SLP110 T02280217 10244 20228 56015 $=
21/07/2023 04:51->METAR KJFK 210451Z 16005KT 9SM SCT021 SCT250 23/22 A2987 RMK AO2 SLP114 T02280217 402890211=
21/07/2023 03:51->METAR KJFK 210351Z 18005KT 7SM FEW012 SCT250 23/22 A2989 RMK AO2 SLP120 T02280222=
21/07/2023 02:51->METAR KJFK 210251Z 20007KT 8SM FEW190 SCT250 23/22 A2990 RMK AO2 SLP125 T02330222 58006=
21/07/2023 01:51->METAR KJFK 210151Z 19006KT 9SM FEW250 23/22 A2991 RMK AO2 SLP127 T02330217=
21/07/2023 00:51->METAR KJFK 210051Z 18008KT 9SM FEW095 SCT250 24/22 A2992 RMK AO2 SLP130 T02390217=
20/07/2023 23:51->METAR KJFK 202351Z 19009KT 10SM FEW095 BKN100 24/21 A2992 RMK AO2 SLP131 T02440211 10283 20244 55013=
20/07/2023 22:51->METAR KJFK 202251Z 16006KT 10SM FEW095 BKN250 26/18 A2992 RMK AO2 SLP131 T02560178=
20/07/2023 21:51->METAR KJFK 202151Z 15006KT 10SM FEW095 BKN250 27/17 A2993 RMK AO2 SLP134 T02670172=
20/07/2023 20:51->METAR KJFK 202051Z 16007KT 10SM FEW055 SCT095 BKN250 27/17 A2996 RMK AO2 SLP144 T02670172 58006=
20/07/2023 19:51->METAR KJFK 201951Z 18008KT 10SM FEW055 SCT100 BKN250 28/17 A2997 RMK AO2 SLP149 T02780172=
20/07/2023 18:51->METAR KJFK 201851Z 17009KT 10SM FEW055 SCT100 SCT230 28/19 A2997 RMK AO2 SLP149 T02780194=
20/07/2023 17:51->METAR KJFK 201751Z 15011KT 10SM SCT055 SCT100 BKN250 28/18 A2998 RMK AO2 SLP151 T02830178 10289 20239 58008=
20/07/2023 16:51->METAR KJFK 201651Z 19011KT 10SM FEW055 FEW100 BKN250 28/19 A2999 RMK AO2 SLP154 T02780194=
20/07/2023 15:51->METAR KJFK 201551Z 17010KT 10SM FEW050 SCT095 SCT250 27/21 A3000 RMK AO2 SLP159 T02670206=
20/07/2023 14:51->METAR KJFK 201451Z 08007KT 10SM FEW050 SCT100 SCT250 28/17 A3000 RMK AO2 SLP158 T02780172 58005=
20/07/2023 13:51->METAR KJFK 201351Z 03005KT 10SM SCT100 SCT250 27/17 A3001 RMK AO2 SLP161 T02670172=
20/07/2023 12:51->METAR KJFK 201251Z 05007KT 10SM SCT085 SCT250 26/18 A3001 RMK AO2 SLP163 T02560178=
20/07/2023 11:51->METAR KJFK 201151Z 02007KT 6SM HZ FEW015 SCT250 24/21 A3001 RMK AO2 SLP163 70012 T02390206 10239 20211 53008 $=
20/07/2023 10:51->METAR KJFK 201051Z 36004KT 2 1/2SM BR FEW012 SCT250 22/22 A3000 RMK AO2 SLP158 T02220217 $=
20/07/2023 09:51->METAR KJFK 200951Z 36005KT 3SM BR FEW012 SCT250 21/21 A2999 RMK AO2 SLP157 T02110211 $=
20/07/2023 08:51->METAR KJFK 200851Z 01004KT 5SM BR FEW021 SCT250 21/21 A2999 RMK AO2 SLP155 T02110206 58006 $=
20/07/2023 07:51->METAR KJFK 200751Z 00000KT 5SM BR FEW020 SCT250 22/21 A3000 RMK AO2 SLP157 T02220211 $=
20/07/2023 06:51->METAR KJFK 200651Z 33005KT 5SM BR FEW022 SCT250 22/21 A3001 RMK AO2 SLP161 T02170211 $=
20/07/2023 05:51->METAR KJFK 200551Z 00000KT 7SM FEW025 SCT250 22/21 A3001 RMK AO2 SLP161 T02170211 10233 20217 56007 $=
20/07/2023 04:51->METAR KJFK 200451Z 23004KT 8SM BKN250 22/21 A3002 RMK AO2 SLP164 T02170211 402560211 $=
20/07/2023 03:51->METAR KJFK 200351Z 19003KT 8SM FEW020 FEW050 SCT250 22/21 A3002 RMK AO2 SLP164 T02220211 $=
20/07/2023 02:51->METAR KJFK 200251Z 22003KT 8SM FEW055 SCT100 SCT250 23/21 A3003 RMK AO2 SLP168 T02280211 50005 $=
20/07/2023 01:51->METAR KJFK 200151Z 00000KT 9SM FEW050 FEW090 SCT250 23/21 A3003 RMK AO2 SLP170 T02280211 $=
20/07/2023 00:51->METAR KJFK 200051Z 17006KT 9SM FEW050 SCT090 23/21 A3002 RMK AO2 SLP164 T02330211 $=
19/07/2023 23:51->METAR KJFK 192351Z 18006KT 10SM FEW030 SCT070 SCT250 23/21 A3001 RMK AO2 SLP163 60000 T02330211 10256 20222 53003=
19/07/2023 22:51->METAR KJFK 192251Z 18007KT 10SM FEW030 FEW050 SCT250 24/21 A3000 RMK AO2 SLP158 T02440211 $=
19/07/2023 21:51->METAR KJFK 192151Z 19007KT 10SM SCT030 SCT230 24/21 A3000 RMK AO2 SLP158 T02440211 $=
19/07/2023 20:51->METAR KJFK 192051Z 22005KT 10SM SCT020 SCT039 SCT090 26/21 A3000 RMK AO2 SLP160 60000 T02560206 56014 $=
19/07/2023 19:51->METAR KJFK 191951Z 21007KT 10SM FEW014 SCT039 SCT090 BKN130 25/21 A3002 RMK AO2 SLP164 T02500211 $=
19/07/2023 18:51->METAR KJFK 191851Z 16004KT 9SM SCT011 BKN035 BKN046 BKN130 23/21 A3003 RMK AO2 RAE1756 SLP168 P0000 T02330211 $=
19/07/2023 17:51->METAR KJFK 191751Z 15003KT 6SM -RA BR FEW006 BKN023 BKN041 OVC130 22/21 A3004 RMK AO2 SLP174 P0011 60012 T02220211 10250 20211 50003 $=
19/07/2023 16:51->METAR KJFK 191651Z 19007KT 4SM R04R/6000VP6000FT RA BR FEW014 SCT027 BKN055 OVC130 22/21 A3006 RMK AO2 RAB43 SLP179 VIS S-SW 2 1/2 P0001 T02170206 $=
19/07/2023 15:51->METAR KJFK 191551Z 13005KT 7SM BKN055CB BKN130 OVC190 24/19 A3005 RMK AO2 LTG DSNT SE AND S SLP175 CB S MOV E VCSH SE-SW T02440194 $=
19/07/2023 14:51->METAR KJFK 191451Z 06005KT 7SM FEW060 BKN130 BKN190 OVC250 25/19 A3004 RMK AO2 SLP171 60000 T02500194 50002 $=
19/07/2023 13:51->METAR KJFK 191351Z 19004KT 6SM HZ FEW060 SCT110 OVC220 24/20 A3004 RMK AO2 RAB1257E07 SLP172 P0000 T02390200 $=
19/07/2023 12:51->METAR KJFK 191251Z 16004KT 6SM HZ FEW065 OVC085 23/21 A3004 RMK AO2 SLP172 T02330206 $=
19/07/2023 11:51->METAR KJFK 191151Z 00000KT 6SM HZ FEW060 BKN100 OVC250 23/19 A3003 RMK AO2 SLP169 70139 T02330194 10244 20217 53014 $=
19/07/2023 10:51->METAR KJFK 191051Z 00000KT 6SM HZ FEW055 SCT090 SCT140 BKN250 23/20 A3001 RMK AO2 SLP162 T02280200 $=
19/07/2023 09:51->METAR KJFK 190951Z 29003KT 6SM BR SCT250 22/20 A2999 RMK AO2 SLP156 T02220200 $=
19/07/2023 08:51->METAR KJFK 190851Z 26008KT 7SM FEW250 22/20 A2999 RMK AO2 SLP155 T02220200 53007 $=
19/07/2023 07:51->METAR KJFK 190751Z 27006KT 8SM FEW250 22/19 A2998 RMK AO2 SLP151 T02220189 $=
19/07/2023 06:51->METAR KJFK 190651Z 27005KT 8SM FEW250 23/19 A2997 RMK AO2 SLP147 T02330189 $=
19/07/2023 05:51->METAR KJFK 190551Z 28008KT 8SM FEW250 24/19 A2997 RMK AO2 SLP147 T02440194 10244 20228 50002=
19/07/2023 04:51->METAR KJFK 190451Z 28008KT 9SM FEW250 24/21 A2997 RMK AO2 SLP150 T02440206 402830211=
19/07/2023 03:51->METAR KJFK 190351Z 25008KT 10SM FEW250 24/23 A2998 RMK AO2 SLP151 T02390228=
19/07/2023 02:51->METAR KJFK 190251Z 24007KT 10SM R04R/2400VP6000FT FEW045 SCT250 23/22 A2996 RMK AO2 SLP145 T02330222 53013=
19/07/2023 01:51->METAR KJFK 190151Z 22005KT 10SM R04R/0800VP6000FT FEW035 FEW250 23/22 A2995 RMK AO2 SLP141 T02330217=
19/07/2023 00:51->METAR KJFK 190051Z 00000KT 10SM FEW035 FEW250 24/22 A2993 RMK AO2 SLP134 TCU DSNT E-SE T02390217=
18/07/2023 23:51->METAR KJFK 182351Z 19006KT 9SM FEW035 FEW075 SCT100 SCT250 24/21 A2992 RMK AO2 SLP132 TCU DSNT S 60017 T02390211 10256 20217 55006=
18/07/2023 22:51->METAR KJFK 182251Z 17012KT 10SM FEW033 SCT095 SCT170 SCT250 25/22 A2992 RMK AO2 RAE2155 SLP131 P0000 T02500217=
18/07/2023 21:51->METAR KJFK 182151Z 16014KT 10SM -RA FEW017 SCT033 BKN120 BKN170 BKN250 26/24 A2991 RMK AO2 RAE17B36 SLP128 P0000 T02560239=
18/07/2023 20:51->METAR KJFK 182051Z 18012KT 10SM -RA SCT033CB SCT060 BKN100 BKN250 25/23 A2994 RMK AO2 VIS 2 1/2 W LTG DSNT S AND NW RAE03B29 SLP138 CB SW MOV NE CB DSNT NW P0000 60017 T02500228 55010=
18/07/2023 19:51->METAR KJFK 181951Z 15012KT 8SM -RA FEW021 SCT033 BKN100 OVC140 23/23 A2994 RMK AO2 LTG DSNT SW RAB04 SLP137 CB DSNT E-SE P0006 T02330228=
18/07/2023 18:51->METAR KJFK 181851Z 16007KT 9SM FEW016 SCT033 BKN090 BKN140 BKN250 23/22 A2996 RMK AO2 LTG DSNT ALQDS RAE50 TSE13 SLP145 CB DSNT E P0011 T02330222=
18/07/2023 17:51->METAR KJFK 181751Z 17007KT 2SM -TSRA BR SCT011 BKN022CB OVC050 21/21 A2997 RMK AO2 WSHFT 1659 LTG DSNT ALQDS RAB1658 SLP148 OCNL LTGICCG E TS E MOV E P0122 60122 T02110211 10283 20211 55005=
18/07/2023 16:51->METAR KJFK 181651Z 18011KT 7SM TS BKN009 BKN020CB BKN040 BKN250 27/24 A2997 RMK AO2 LTG DSNT SW-N TSB44 SLP147 OCNL LTGICCG W TS W MOV E T02670239=
18/07/2023 15:51->METAR KJFK 181551Z 17013KT 10SM SCT009 SCT038 BKN180 BKN250 28/24 A2998 RMK AO2 LTG DSNT W AND NW SLP150 T02780244=
18/07/2023 14:51->METAR KJFK 181451Z 19012KT 10SM SCT007 BKN040 BKN180 BKN250 27/24 A2998 RMK AO2 SLP153 T02670244 51006=
18/07/2023 13:51->METAR KJFK 181351Z 17009KT 10SM BKN008 BKN180 BKN250 26/24 A2998 RMK AO2 SLP151 T02610244=
18/07/2023 12:51->METAR KJFK 181251Z 18007KT 10SM SCT009 BKN180 BKN250 26/24 A2997 RMK AO2 SLP149 T02610239=
18/07/2023 11:51->METAR KJFK 181151Z 18005KT 10SM SCT180 BKN250 25/24 A2997 RMK AO2 SLP147 T02500239 10256 20233 51007=
18/07/2023 10:51->METAR KJFK 181051Z 18005KT 10SM SCT180 BKN250 24/23 A2996 RMK AO2 SLP145 T02440233=
18/07/2023 09:51->METAR KJFK 180951Z 19006KT 10SM SCT120 BKN250 23/23 A2995 RMK AO2 SLP142 T02330228=
18/07/2023 08:51->METAR KJFK 180851Z 22004KT 10SM SCT065 BKN250 23/23 A2994 RMK AO2 SLP140 T02330228 56008=
18/07/2023 07:51->METAR KJFK 180751Z 24005KT 10SM SCT110 BKN250 24/23 A2995 RMK AO2 SLP141 T02390228=
18/07/2023 06:51->METAR KJFK 180651Z 22005KT 10SM FEW047 BKN250 24/22 A2996 RMK AO2 SLP145 T02390222=
18/07/2023 05:51->METAR KJFK 180551Z 21005KT 10SM BKN250 24/21 A2997 RMK AO2 SLP148 T02390206 10256 20239 50001=
18/07/2023 04:51->METAR KJFK 180451Z 21010KT 10SM BKN250 25/21 A2998 RMK AO2 SLP153 T02500206 403110233=
18/07/2023 03:51->METAR KJFK 180351Z 20006KT 10SM BKN250 24/23 A2997 RMK AO2 SLP150 T02440228=
18/07/2023 02:51->METAR KJFK 180251Z 21007KT 10SM FEW065 BKN250 25/22 A2997 RMK AO2 SLP147 T02500222 51012=
18/07/2023 01:51->METAR KJFK 180151Z 19012KT 10SM FEW060 BKN250 25/22 A2996 RMK AO2 SLP145 T02500217=
18/07/2023 00:51->METAR KJFK 180051Z 19014KT 10SM BKN250 26/22 A2995 RMK AO2 SLP141 T02560222=
17/07/2023 23:51->METAR KJFK 172351Z 18012KT 10SM FEW009 BKN250 26/23 A2993 RMK AO2 SLP136 T02560233 10294 20256 52004=
17/07/2023 22:51->METAR KJFK 172251Z 18015KT 10SM FEW009 FEW050 BKN250 26/24 A2993 RMK AO2 SLP134 T02560239=
17/07/2023 21:51->METAR KJFK 172151Z 18013KT 10SM FEW050 BKN250 27/24 A2992 RMK AO2 SLP133 T02670239=
17/07/2023 20:51->METAR KJFK 172051Z 18009KT 10SM FEW060 BKN250 28/23 A2992 RMK AO2 SLP131 T02830233 58010=
17/07/2023 19:51->METAR KJFK 171951Z 17010KT 10SM FEW060 SCT250 29/23 A2994 RMK AO2 SLP137 T02890228=
17/07/2023 18:51->METAR KJFK 171851Z 17010KT 10SM FEW060 SCT250 29/23 A2995 RMK AO2 SLP140 T02890233=
17/07/2023 17:51->METAR KJFK 171751Z 20011KT 10SM FEW080 FEW250 29/23 A2995 RMK AO2 SLP142 T02890233 10311 20250 50005=
17/07/2023 16:51->METAR KJFK 171651Z 21011KT 10SM SCT015 29/23 A2996 RMK AO2 SLP143 T02940233=
17/07/2023 15:51->METAR KJFK 171551Z VRB04KT 10SM FEW080 SCT150 30/19 A2995 RMK AO2 SLP142 T03000194=
17/07/2023 14:51->METAR KJFK 171451Z 01006KT 10SM FEW040 FEW065 FEW200 29/20 A2994 RMK AO2 SLP137 T02940200 53006=
17/07/2023 13:51->METAR KJFK 171351Z 01004KT 10SM FEW055 28/23 A2993 RMK AO2 SLP135 T02780228=
17/07/2023 12:51->METAR KJFK 171251Z 34006KT 10SM FEW014 26/23 A2992 RMK AO2 SLP131 T02610228=
17/07/2023 11:51->METAR KJFK 171151Z 32004KT 10SM BKN013 BKN020 25/23 A2992 RMK AO2 SLP131 70011 T02500233 10250 20233 53019=
17/07/2023 10:51->METAR KJFK 171051Z 26004KT 8SM OVC009 24/23 A2990 RMK AO2 SLP124 T02390233=
17/07/2023 09:51->METAR KJFK 170951Z 27004KT 5SM BR BKN007 OVC010 23/23 A2988 RMK AO2 SLP117 T02330233=
17/07/2023 08:51->METAR KJFK 170851Z 24007KT 10SM BKN007 BKN250 23/23 A2986 RMK AO2 SLP112 T02330233 53007=
17/07/2023 07:51->METAR KJFK 170751Z 25008KT 10SM BKN009 BKN250 24/24 A2984 RMK AO2 SLP106 T02390239=
17/07/2023 06:51->METAR KJFK 170651Z 22006KT 10SM BKN008 BKN250 24/23 A2985 RMK AO2 SLP107 T02390233=
17/07/2023 05:51->METAR KJFK 170551Z 25004KT 10SM SCT008 BKN055 BKN250 24/23 A2984 RMK AO2 SLP105 T02390233 10244 20233 51006=
17/07/2023 04:51->METAR KJFK 170451Z 25005KT 10SM SCT009 BKN050 24/24 A2984 RMK AO2 SLP104 T02440239 402720233=
17/07/2023 03:51->METAR KJFK 170351Z 24003KT 10SM SCT025 SCT120 SCT250 24/23 A2983 RMK AO2 SLP101 T02390233=
17/07/2023 02:51->METAR KJFK 170251Z 21003KT 10SM FEW028 FEW080 FEW110 SCT250 24/24 A2982 RMK AO2 SLP099 T02390239 50012=
17/07/2023 01:51->METAR KJFK 170151Z 20004KT 10SM FEW022 FEW080 SCT110 24/24 A2983 RMK AO2 SLP100 T02390239=
17/07/2023 00:51->METAR KJFK 170051Z 20007KT 10SM FEW007 BKN028 OVC110 24/24 A2981 RMK AO2 SLP095 T02440239=
16/07/2023 23:51->METAR KJFK 162351Z 00000KT 10SM SCT005 BKN010 OVC140 24/24 A2979 RMK AO2 SLP088 60003 T02390239 10272 20239 58001=
16/07/2023 22:51->METAR KJFK 162251Z 15003KT 10SM FEW005 SCT017 BKN039 OVC180 24/24 A2979 RMK AO2 RAE42 SLP088 P0000 T02440239=
16/07/2023 21:51->METAR KJFK 162151Z 18006KT 10SM -RA BKN018 OVC110 24/24 A2979 RMK AO2 SLP089 P0003 T02440239=
16/07/2023 20:51->METAR KJFK 162051Z 20006KT 10SM -RA FEW037 BKN050 OVC120 25/24 A2979 RMK AO2 RAB02 SLP088 P0000 60000 T02500239 56005=
16/07/2023 19:51->METAR KJFK 161951Z 18005KT 10SM FEW014 BKN060 OVC250 26/24 A2979 RMK AO2 SLP088 T02560239=
16/07/2023 18:51->METAR KJFK 161851Z 25006KT 10SM FEW014 SCT075 BKN160 BKN250 27/24 A2981 RMK AO2 RAB1757E07 SLP093 P0000 T02720239=
16/07/2023 17:51->METAR KJFK 161751Z 20006KT 10SM FEW015 BKN037 BKN055 BKN140 BKN170 BKN250 26/24 A2981 RMK AO2 RAE49 SLP094 P0002 60008 T02610244 10261 20244 58010=
16/07/2023 16:51->METAR KJFK 161651Z 19009KT 3SM -RA BR FEW015 SCT021 OVC095 25/24 A2983 RMK AO2 SFC VIS 6 RAB37 SLP103 P0000 T02500239=
16/07/2023 15:51->METAR KJFK 161551Z 18010KT 3SM BR FEW010 SCT026 BKN055 BKN180 BKN250 26/24 A2984 RMK AO2 SFC VIS 6 CIG 023 W SLP104 T02610244=
16/07/2023 14:51->METAR KJFK 161451Z 19008KT 3SM BR FEW004 BKN012 BKN024 BKN200 BKN250 25/25 A2984 RMK AO2 SFC VIS 6 RAE12 SLP104 P0000 60006 T02500250 51003=
16/07/2023 13:51->METAR KJFK 161351Z 22010KT 2 1/2SM -RA BR BKN008 BKN012 OVC041 24/24 A2983 RMK AO2 SFC VIS 5 RAB1259 SLP102 P0006 T02440244=
16/07/2023 12:51->METAR KJFK 161251Z 21013KT 9SM BKN005 BKN012 OVC060 24/24 A2984 RMK AO2 RAB09E19 SLP103 P0000 T02440244=
16/07/2023 11:51->METAR KJFK 161151Z 19009KT 10SM FEW042 OVC070 24/23 A2983 RMK AO2 RAE12 CIG 035 W SLP101 P0005 60034 70034 T02440233 10256 20239 55001=
16/07/2023 10:51->METAR KJFK 161051Z 17016G23KT 1 3/4SM R04R/3500VP6000FT RA BR SCT007 BKN016 OVC024 24/23 A2982 RMK AO2 SFC VIS 2 SLP098 CB DSNT SE P0029 T02390233=
16/07/2023 09:51->METAR KJFK 160951Z 17015KT 10SM -RA BKN007 BKN013 OVC250 25/25 A2983 RMK AO2 LTG DSNT SW RAB44 SLP100 CB DSNT SW P0000 T02500250=
16/07/2023 08:51->METAR KJFK 160851Z 16013G20KT 10SM SCT006 OVC016 25/25 A2983 RMK AO2 CIG 006 W SLP102 T02500250 57020=
16/07/2023 07:51->METAR KJFK 160751Z 17016G21KT 10SM BKN006 BKN010 OVC250 25/25 A2985 RMK AO2 SLP109 T02500250=
16/07/2023 06:51->METAR KJFK 160651Z 17014G21KT 10SM BKN006 BKN015 OVC250 26/25 A2987 RMK AO2 SLP115 T02560250=
16/07/2023 05:51->METAR KJFK 160551Z 17011KT 10SM OVC006 26/25 A2989 RMK AO2 SLP122 T02560250 10256 20250 58008=
16/07/2023 04:51->METAR KJFK 160451Z 17009KT 10SM OVC009 26/24 A2991 RMK AO2 SLP127 T02560244 403000222=
16/07/2023 03:51->METAR KJFK 160351Z 16011KT 10SM OVC009 26/25 A2991 RMK AO2 SLP129 T02560250=
16/07/2023 02:51->METAR KJFK 160251Z 17012KT 10SM BKN007 BKN017 OVC250 26/25 A2991 RMK AO2 SLP130 T02560250 58002=
16/07/2023 01:51->METAR KJFK 160151Z 17012KT 10SM BKN007 OVC250 26/25 A2992 RMK AO2 SLP132 T02560250=
16/07/2023 00:51->METAR KJFK 160051Z 17010KT 10SM OVC006 26/25 A2992 RMK AO2 SLP131 T02560250=
15/07/2023 23:51->METAR KJFK 152351Z 18014KT 10SM BKN007 BKN250 26/25 A2992 RMK AO2 SLP131 T02560250 10294 20256 50001=
15/07/2023 22:51->METAR KJFK 152251Z 16013KT 10SM BKN008 BKN050 OVC250 26/24 A2992 RMK AO2 LTG DSNT SW AND W SLP132 CB DSNT SW-W T02560244=
15/07/2023 21:51->METAR KJFK 152151Z 17014KT 10SM BKN006 BKN050 BKN250 26/24 A2993 RMK AO2 LTG DSNT SW AND W SLP133 CB DSNT SW-W T02610244=
15/07/2023 20:51->METAR KJFK 152051Z 16011KT 10SM FEW035 SCT050 BKN250 27/24 A2992 RMK AO2 LTG DSNT SW AND W SLP131 CB DSNT SW-W T02720244 58010=
15/07/2023 19:51->METAR KJFK 151951Z 17013KT 10SM FEW050 BKN250 28/23 A2994 RMK AO2 SLP137 TCU DSNT N T02830228=
15/07/2023 18:51->METAR KJFK 151851Z 17014KT 10SM FEW050 BKN250 28/24 A2996 RMK AO2 SLP144 TCU DSNT N T02830239=
15/07/2023 17:51->METAR KJFK 151751Z 17010KT 10SM FEW024 SCT050 BKN250 29/24 A2995 RMK AO2 SLP141 T02940239 10300 20244 58008=
15/07/2023 16:51->METAR KJFK 151651Z 18007KT 10SM FEW016 SCT026 BKN250 29/24 A2996 RMK AO2 SLP146 T02940239=
15/07/2023 15:51->METAR KJFK 151551Z VRB06KT 10SM FEW016 SCT025 SCT250 29/24 A2996 RMK AO2 SLP146 T02890239=
15/07/2023 14:51->METAR KJFK 151451Z 18007KT 10SM FEW016 SCT025 BKN250 28/24 A2997 RMK AO2 SLP149 T02780239 51007=
15/07/2023 13:51->METAR KJFK 151351Z 24004KT 10SM BKN015 BKN250 27/23 A2997 RMK AO2 SLP148 T02670233=
15/07/2023 12:51->METAR KJFK 151251Z 20004KT 10SM SCT008 BKN016 26/24 A2996 RMK AO2 SLP146 T02560239=
15/07/2023 11:51->METAR KJFK 151151Z 00000KT 10SM FEW006 SCT014 BKN047 BKN250 24/23 A2995 RMK AO2 SLP143 T02440233 10244 20222 53015=
15/07/2023 10:51->METAR KJFK 151051Z 03003KT 10SM FEW047 SCT250 23/22 A2994 RMK AO2 SLP138 T02330222=
15/07/2023 09:51->METAR KJFK 150951Z 04003KT 10SM FEW010 SCT047 BKN250 23/22 A2992 RMK AO2 SLP131 T02280217=
15/07/2023 08:51->METAR KJFK 150851Z 00000KT 10SM FEW200 SCT250 22/21 A2991 RMK AO2 SLP128 T02220211 58008=
15/07/2023 07:51->METAR KJFK 150751Z 00000KT 10SM SCT250 22/21 A2992 RMK AO2 SLP131 T02220211=
15/07/2023 06:51->METAR KJFK 150651Z 23003KT 10SM FEW080 SCT250 22/21 A2993 RMK AO2 SLP134 T02220206=
15/07/2023 05:51->METAR KJFK 150551Z 00000KT 10SM BKN200 23/21 A2994 RMK AO2 SLP137 60000 T02280211 10261 20228 55002=
15/07/2023 04:51->METAR KJFK 150451Z 10004KT 10SM SCT200 23/20 A2993 RMK AO2 SLP135 T02330200 402890217=
15/07/2023 03:51->METAR KJFK 150351Z 34008KT 10SM VCTS SCT035 BKN045 BKN250 24/21 A2994 RMK AO2 WSHFT 0326 LTG DSNT ALQDS RAE0257 TSB04E24 SLP138 CB DSNT N AND NW P0000 T02440211=
15/07/2023 02:51->METAR KJFK 150251Z 00000KT 10SM VCTS -RA SCT030 BKN043 OVC100 26/22 A2993 RMK AO2 LTG DSNT W-N RAB45 TSE46 SLP133 CB DSNT W-N MOV NE P0000 60000 T02610222 53006=
15/07/2023 01:51->METAR KJFK 150151Z 24006KT 10SM BKN041 BKN250 24/23 A2991 RMK AO2 SLP129 OCNL LTGIC DSNT NW-N CB DSNT NW-N MOV NE T02440228=
15/07/2023 00:51->METAR KJFK 150051Z 19011KT 10SM FEW044 BKN140 BKN250 24/22 A2990 RMK AO2 SLP126 OCNL LTGIC DSNT NW CB DSNT NW-N MOV NE T02390222=
14/07/2023 23:51->METAR KJFK 142351Z 18014KT 10SM FEW042 BKN120 BKN250 24/23 A2991 RMK AO2 SLP127 OCNL LTGIC DSNT NW CB DSNT NW MOV NE T02440228 10289 20244 53002=
14/07/2023 22:51->METAR KJFK 142251Z 18014KT 10SM FEW041 BKN120 BKN250 25/23 A2990 RMK AO2 SLP125 T02500228=
14/07/2023 21:51->METAR KJFK 142151Z 14007KT 10SM FEW040 BKN120 BKN170 BKN250 26/23 A2990 RMK AO2 SLP124 CB DSNT W AND NW MOV NE T02610228=
14/07/2023 20:51->METAR KJFK 142051Z 13011KT 10SM FEW035 BKN160 27/23 A2990 RMK AO2 SLP125 CB DSNT NW MOV NE T02720228 55006=
14/07/2023 19:51->METAR KJFK 141951Z 14009KT 10SM FEW016 SCT035 SCT130 29/23 A2990 RMK AO2 SLP123 T02890233=
14/07/2023 18:51->METAR KJFK 141851Z 11012KT 10SM FEW015 FEW033 BKN130 29/23 A2990 RMK AO2 SLP125 TCU DSNT SW AND W T02890233=
14/07/2023 17:51->METAR KJFK 141751Z 09011G17KT 10SM BKN013 BKN030 OVC110 26/22 A2992 RMK AO2 SLP131 T02610217 10278 20228 51006=
14/07/2023 16:51->METAR KJFK 141651Z 11015KT 10SM BKN015 BKN041 BKN100 26/22 A2992 RMK AO2 SLP130 CIG 013V017 T02610222=
14/07/2023 15:51->METAR KJFK 141551Z 10013KT 10SM BKN015 BKN110 26/23 A2991 RMK AO2 SLP128 CIG 012V018 T02610228 $=
14/07/2023 14:51->METAR KJFK 141451Z 06009KT 10SM BKN017 BKN110 BKN250 26/22 A2990 RMK AO2 SLP126 T02610217 51012 $=
14/07/2023 13:51->METAR KJFK 141351Z 10007KT 10SM FEW014 BKN028 BKN060 BKN250 26/22 A2990 RMK AO2 LTG DSNT NE AND E SLP126 T02560217 $=
14/07/2023 12:51->METAR KJFK 141251Z 02009KT 10SM SCT012 BKN020 BKN095 BKN250 24/22 A2991 RMK AO2 LTG DSNT N AND NE TSE10 SLP127 T02390217 $=
14/07/2023 11:51->METAR KJFK 141151Z 10006KT 10SM TS FEW013 BKN025CB BKN085 BKN250 23/22 A2987 RMK AO2 TSB30 SLP114 OCNL LTGICCG W-NW TS W-NW MOV NE CB DSNT SW MOV NE TCU SE-S VCSH W-NW 60012 70012 T02280217 10244 20217 53002 $=
14/07/2023 10:51->METAR KJFK 141051Z 10010KT 10SM FEW037 BKN090 BKN120 OVC250 23/21 A2986 RMK AO2 RAE19 TSE16 SLP112 P0012 T02280211=
14/07/2023 09:51->METAR KJFK 140951Z 11006KT 10SM -TSRA SCT028CB BKN040 BKN110 24/18 A2986 RMK AO2 RAB44 TSB35 SLP111 OCNL LTGICCC S TS S MOV NE P0000 T02390183=
14/07/2023 08:51->METAR KJFK 140851Z 07010KT 10SM BKN024 BKN040 24/18 A2986 RMK AO2 LTG DSNT SE TSB33E48 SLP112 T02440178 51005 $=
14/07/2023 07:51->METAR KJFK 140751Z 04011KT 10SM BKN007 BKN075 BKN250 24/18 A2986 RMK AO2 LTG DSNT N SLP112 T02390183 $=
14/07/2023 06:51->METAR KJFK 140651Z 21003KT 10SM BKN007 BKN050 BKN250 24/24 A2985 RMK AO2 LTG DSNT N AND NE SLP108 T02390239 $=
14/07/2023 05:51->METAR KJFK 140551Z 20011KT 10SM FEW055 BKN250 24/24 A2985 RMK AO2 SLP106 FRQ LTGIC DSNT N-NE CB DSNT N-NE T02440239 10256 20244 53004 $=
14/07/2023 04:51->METAR KJFK 140451Z 18013KT 10SM SCT060 BKN250 24/24 A2983 RMK AO2 SLP100 FRQ LTGICCC DSNT N CB DSNT N T02440239 402940222 $=
14/07/2023 03:51->METAR KJFK 140351Z 19014KT 10SM SCT055 SCT250 24/24 A2984 RMK AO2 SLP103 FRQ LTGIC DSNT N CB DSNT N T02440239 $=
14/07/2023 02:51->METAR KJFK 140251Z 18015KT 10SM FEW055 SCT250 24/24 A2983 RMK AO2 SLP103 CB DSNT NW-N T02440239 51008 $=
14/07/2023 01:51->METAR KJFK 140151Z 19015KT 10SM FEW045 FEW250 25/24 A2983 RMK AO2 SLP101 OCNL LTGIC DSNT NW CB DSNT NW T02500239 $=
14/07/2023 00:51->METAR KJFK 140051Z 19018KT 10SM FEW045 SCT250 25/24 A2981 RMK AO2 PK WND 19026/2358 SLP096 T02500239 $=
13/07/2023 23:51->METAR KJFK 132351Z 18019G24KT 10SM FEW045 FEW250 26/24 A2981 RMK AO2 PK WND 19028/2322 SLP094 T02560239 10294 20256 55002 $=
13/07/2023 22:51->METAR KJFK 132251Z 19021G28KT 10SM FEW045 FEW100 FEW250 27/24 A2980 RMK AO2 PK WND 18030/2152 SLP090 TCU DSNT NW T02670239 $=
13/07/2023 21:51->METAR KJFK 132151Z 19022G28KT 10SM FEW045 FEW080 FEW250 28/24 A2980 RMK AO2 PK WND 19030/2135 SLP092 TCU DSNT NW T02780239 $=
13/07/2023 20:51->METAR KJFK 132051Z 18020G31KT 10SM FEW045 FEW080 FEW160 SCT250 28/24 A2982 RMK AO2 PK WND 17031/2047 SLP097 T02830244 56014=
13/07/2023 19:51->METAR KJFK 131951Z 18018G26KT 10SM FEW010 FEW043 SCT160 SCT200 BKN250 29/25 A2983 RMK AO2 PK WND 17029/1935 SLP102 T02890250=
13/07/2023 18:51->METAR KJFK 131851Z 17019G25KT 10SM FEW011 SCT043 SCT160 BKN190 BKN250 28/24 A2984 RMK AO2 LTG DSNT S AND SW SLP104 TCU DSNT W T02830244=
13/07/2023 17:51->METAR KJFK 131751Z 16014KT 10SM FEW043 FEW070 BKN160 BKN250 29/24 A2986 RMK AO2 SLP110 T02940244 10294 20250 58015=
13/07/2023 16:51->METAR KJFK 131651Z 17016G21KT 10SM FEW040 FEW070 BKN190 BKN250 28/24 A2987 RMK AO2 SLP116 T02780239=
13/07/2023 15:51->METAR KJFK 131551Z 17013KT 10SM FEW037 FEW070 BKN250 29/24 A2989 RMK AO2 SLP120 T02890239=
13/07/2023 14:51->METAR KJFK 131451Z 18012KT 10SM FEW033 FEW075 BKN250 28/23 A2990 RMK AO2 SLP125 T02830233 58005=
13/07/2023 13:51->METAR KJFK 131351Z 18008KT 10SM FEW075 BKN250 27/22 A2991 RMK AO2 SLP128 T02670217=
13/07/2023 12:51->METAR KJFK 131251Z 18008KT 10SM FEW075 BKN250 26/22 A2992 RMK AO2 SLP131 T02610217=
13/07/2023 11:51->METAR KJFK 131151Z 19007KT 10SM SCT070 BKN250 25/21 A2992 RMK AO2 SLP130 T02500211 10256 20222 50002=
13/07/2023 10:51->METAR KJFK 131051Z 21005KT 10SM FEW065 SCT250 24/22 A2992 RMK AO2 SLP131 T02440217 $=
13/07/2023 09:51->METAR KJFK 130951Z 20004KT 10SM FEW065 SCT180 SCT250 23/21 A2991 RMK AO2 SLP129 T02280206 $=
13/07/2023 08:51->METAR KJFK 130851Z 22005KT 10SM FEW065 SCT250 23/21 A2991 RMK AO2 SLP128 T02280206 53002 $=
13/07/2023 07:51->METAR KJFK 130751Z 21006KT 10SM SCT250 23/21 A2990 RMK AO2 SLP125 T02280206 $=
13/07/2023 06:51->METAR KJFK 130651Z 19005KT 10SM SCT250 23/20 A2989 RMK AO2 SLP121 T02330200 $=
13/07/2023 05:51->METAR KJFK 130551Z 23006KT 10SM SCT250 24/21 A2990 RMK AO2 SLP126 T02440206 10261 20244 58006 $=
13/07/2023 04:51->METAR KJFK 130451Z 23009KT 10SM FEW200 SCT250 25/20 A2991 RMK AO2 SLP128 T02500200 403220222 $=
13/07/2023 03:51->METAR KJFK 130351Z 20005KT 10SM FEW075 SCT200 BKN250 24/21 A2992 RMK AO2 SLP131 T02440211 $=
13/07/2023 02:51->METAR KJFK 130251Z 00000KT 10SM FEW065 BKN250 25/22 A2992 RMK AO2 SLP132 T02500222 50002 $=
13/07/2023 01:51->METAR KJFK 130151Z 17003KT 10SM FEW190 BKN250 26/22 A2992 RMK AO2 SLP133 T02560222 $=
13/07/2023 00:51->METAR KJFK 130051Z 19007KT 10SM FEW060 BKN190 BKN250 26/22 A2992 RMK AO2 SLP131 T02560222 $=
12/07/2023 23:51->METAR KJFK 122351Z 19009KT 10SM FEW060 BKN240 26/22 A2992 RMK AO2 SLP131 T02610222 10322 20261 53002 $=
12/07/2023 22:51->METAR KJFK 122251Z 18016KT 10SM FEW060 BKN220 27/21 A2991 RMK AO2 SLP129 T02720206 $=
12/07/2023 21:51->METAR KJFK 122151Z 18016KT 10SM FEW060 BKN230 28/20 A2991 RMK AO2 SLP127 T02830200 $=
12/07/2023 20:51->METAR KJFK 122051Z 19015KT 10SM FEW060 SCT250 29/19 A2991 RMK AO2 SLP128 T02940194 55000 $=
12/07/2023 19:51->METAR KJFK 121951Z 19015KT 10SM FEW060 SCT250 32/19 A2991 RMK AO2 SLP127 T03170194 $=
12/07/2023 18:51->METAR KJFK 121851Z 19012KT 10SM FEW060 BKN250 31/19 A2991 RMK AO2 SLP128 T03110194 $=
12/07/2023 17:51->METAR KJFK 121751Z 22013KT 10SM FEW060 SCT250 32/17 A2991 RMK AO2 SLP129 T03220172 10322 20261 58010 $=
12/07/2023 16:51->METAR KJFK 121651Z 21011KT 10SM FEW060 SCT250 32/18 A2993 RMK AO2 SLP136 T03170183 $=
12/07/2023 15:51->METAR KJFK 121551Z 22010KT 10SM FEW060 SCT250 31/18 A2994 RMK AO2 SLP139 T03110183 $=
12/07/2023 14:51->METAR KJFK 121451Z 22008KT 10SM FEW055 FEW250 31/18 A2994 RMK AO2 SLP139 T03060183 58001 $=
12/07/2023 13:51->METAR KJFK 121351Z 24009KT 10SM FEW250 29/19 A2994 RMK AO2 SLP139 T02940189 $=
12/07/2023 12:51->METAR KJFK 121251Z 25007KT 10SM FEW160 FEW250 28/18 A2995 RMK AO2 SLP142 T02780183 $=
12/07/2023 11:51->METAR KJFK 121151Z 26007KT 10SM FEW250 26/18 A2995 RMK AO2 SLP140 T02610183 10261 20222 53010 $=
12/07/2023 10:51->METAR KJFK 121051Z 24005KT 10SM FEW160 FEW250 24/19 A2993 RMK AO2 SLP135 T02390189 $=
12/07/2023 09:51->METAR KJFK 120951Z 21004KT 10SM FEW250 22/19 A2992 RMK AO2 SLP132 T02220189 $=
12/07/2023 08:51->METAR KJFK 120851Z 25005KT 10SM CLR 23/18 A2992 RMK AO2 SLP131 T02280178 53005 $=
12/07/2023 07:51->METAR KJFK 120751Z 25006KT 10SM CLR 23/19 A2991 RMK AO2 SLP127 T02330189 $=
12/07/2023 06:51->METAR KJFK 120651Z 24007KT 10SM FEW250 23/21 A2991 RMK AO2 SLP127 T02330206 $=
12/07/2023 05:51->METAR KJFK 120551Z 22005KT 10SM FEW250 23/21 A2990 RMK AO2 SLP126 T02330206 10267 20233 58002 $=
12/07/2023 04:51->METAR KJFK 120451Z 22006KT 10SM FEW250 24/20 A2991 RMK AO2 SLP129 T02440200 403000211 $=
12/07/2023 03:51->METAR KJFK 120351Z 21006KT 10SM FEW250 24/20 A2991 RMK AO2 SLP127 T02440200 $=
12/07/2023 02:51->METAR KJFK 120251Z 25006KT 10SM FEW250 26/19 A2991 RMK AO2 SLP128 T02560189 53009 $=
12/07/2023 01:51->METAR KJFK 120151Z 24006KT 10SM FEW250 26/19 A2990 RMK AO2 SLP125 T02610189 $=
12/07/2023 00:51->METAR KJFK 120051Z 22007KT 10SM FEW060 FEW250 26/21 A2989 RMK AO2 SLP121 T02560206 $=
11/07/2023 23:51->METAR KJFK 112351Z 20011KT 10SM FEW060 FEW250 26/19 A2988 RMK AO2 SLP119 T02610194 10300 20261 53004=
11/07/2023 22:51->METAR KJFK 112251Z 20013KT 10SM FEW060 27/18 A2988 RMK AO2 SLP116 T02720183=
11/07/2023 21:51->METAR KJFK 112151Z 21014KT 10SM FEW060 28/19 A2987 RMK AO2 SLP116 T02830189=
11/07/2023 20:51->METAR KJFK 112051Z 19014KT 10SM FEW055 28/18 A2987 RMK AO2 SLP115 T02830183 58004=
11/07/2023 19:51->METAR KJFK 111951Z 19012KT 10SM FEW055 FEW250 29/18 A2988 RMK AO2 SLP117 T02890183=
11/07/2023 18:51->METAR KJFK 111851Z 21012KT 10SM FEW055 FEW250 30/18 A2988 RMK AO2 SLP119 T03000178=
11/07/2023 17:51->METAR KJFK 111751Z 20011KT 10SM FEW055 FEW250 29/17 A2988 RMK AO2 SLP119 T02940172 10300 20244 58004=
11/07/2023 16:51->METAR KJFK 111651Z 21012KT 10SM FEW050 FEW250 29/18 A2989 RMK AO2 SLP120 T02940183=
11/07/2023 15:51->METAR KJFK 111551Z 22010KT 10SM FEW047 FEW250 29/17 A2989 RMK AO2 SLP121 T02940172=
11/07/2023 14:51->METAR KJFK 111451Z 23008KT 10SM FEW250 28/16 A2989 RMK AO2 SLP122 T02830161 58005=
11/07/2023 13:51->METAR KJFK 111351Z 31007KT 10SM FEW250 27/16 A2990 RMK AO2 SLP124 T02720156=
11/07/2023 12:51->METAR KJFK 111251Z 33010KT 10SM FEW250 26/14 A2991 RMK AO2 SLP128 T02560139=
11/07/2023 11:51->METAR KJFK 111151Z 27005KT 10SM SCT250 24/14 A2991 RMK AO2 SLP127 T02440139 10244 20211 53017 $=
11/07/2023 10:51->METAR KJFK 111051Z 27005KT 10SM SCT250 23/13 A2989 RMK AO2 SLP121 T02280133 $=
11/07/2023 09:51->METAR KJFK 110951Z 30009KT 10SM SCT250 22/13 A2987 RMK AO2 SLP115 T02170128 $=
11/07/2023 08:51->METAR KJFK 110851Z 30010KT 10SM FEW250 22/13 A2986 RMK AO2 SLP111 T02170128 53004 $=
11/07/2023 07:51->METAR KJFK 110751Z 31007KT 10SM FEW250 22/12 A2985 RMK AO2 SLP109 T02170122 $=
11/07/2023 06:51->METAR KJFK 110651Z 31013KT 10SM FEW250 23/14 A2985 RMK AO2 SLP108 T02280139 $=
11/07/2023 05:51->METAR KJFK 110551Z 28008KT 10SM FEW250 23/13 A2985 RMK AO2 SLP107 T02330133 10272 20228 58001 $=
11/07/2023 04:51->METAR KJFK 110451Z 31009KT 10SM FEW250 24/13 A2986 RMK AO2 SLP110 T02390133 403060217 $=
11/07/2023 03:51->METAR KJFK 110351Z 32008KT 10SM FEW200 FEW250 24/14 A2986 RMK AO2 SLP111 T02440139 $=
11/07/2023 02:51->METAR KJFK 110251Z 34009KT 10SM FEW065 FEW200 SCT250 25/13 A2985 RMK AO2 SLP108 T02500133 51016 $=
11/07/2023 01:51->METAR KJFK 110151Z 34009KT 10SM FEW055 FEW100 FEW250 26/16 A2984 RMK AO2 SLP103 T02610156 $=
11/07/2023 00:51->METAR KJFK 110051Z 36006KT 10SM FEW055 FEW100 SCT250 26/18 A2982 RMK AO2 SLP099 T02610183 $=
10/07/2023 23:51->METAR KJFK 102351Z 36013KT 10SM SCT055 SCT100 SCT250 27/18 A2980 RMK AO2 SLP092 T02720183 10306 20267 53015 $=
10/07/2023 22:51->METAR KJFK 102251Z 36013KT 10SM SCT055 SCT100 BKN250 28/19 A2978 RMK AO2 SLP084 T02830189 $=
10/07/2023 21:51->METAR KJFK 102151Z 29012KT 10SM SCT050 BKN250 31/19 A2977 RMK AO2 SLP079 T03060189 $=
10/07/2023 20:51->METAR KJFK 102051Z 33009KT 10SM SCT047 SCT210 BKN250 30/19 A2976 RMK AO2 SLP078 T03000189 50000 $=
10/07/2023 19:51->METAR KJFK 101951Z 35008KT 10SM SCT042 SCT210 BKN250 29/19 A2976 RMK AO2 SLP078 T02890189 $=
10/07/2023 18:51->METAR KJFK 101851Z 34011KT 10SM SCT037 SCT050 SCT200 BKN250 28/19 A2977 RMK AO2 SLP081 T02780189 $=
10/07/2023 17:51->METAR KJFK 101751Z 35010KT 10SM SCT036 BKN180 BKN250 27/19 A2976 RMK AO2 SLP077 T02720189 10283 20239 58001 $=
10/07/2023 16:51->METAR KJFK 101651Z 35014KT 10SM SCT028 SCT046 BKN180 BKN250 28/20 A2976 RMK AO2 SLP078 T02780200 $=
10/07/2023 15:51->METAR KJFK 101551Z 34011KT 10SM BKN027 BKN170 BKN250 28/21 A2977 RMK AO2 SLP080 T02780206 $=
10/07/2023 14:51->METAR KJFK 101451Z 34010KT 10SM SCT022 BKN028 BKN170 BKN250 26/20 A2976 RMK AO2 SLP079 T02560200 53006 $=
10/07/2023 13:51->METAR KJFK 101351Z 33008KT 10SM SCT018 BKN160 BKN230 25/21 A2975 RMK AO2 SLP075 T02500206 $=
10/07/2023 12:51->METAR KJFK 101251Z 35007KT 10SM SCT025 SCT160 BKN230 24/21 A2975 RMK AO2 SLP075 T02440211 $=
10/07/2023 11:51->METAR KJFK 101151Z 35007KT 10SM FEW010 FEW025 BKN160 BKN230 24/22 A2975 RMK AO2 SLP073 60000 70053 T02390217 10239 20217 51012 $=
10/07/2023 10:51->METAR KJFK 101051Z 33006KT 10SM FEW012 BKN024 BKN130 BKN220 23/22 A2974 RMK AO2 SLP071 T02280217 $=
10/07/2023 09:51->METAR KJFK 100951Z 29006KT 10SM SCT035 SCT130 BKN220 22/21 A2972 RMK AO2 SLP065 T02220211 $=
10/07/2023 08:51->METAR KJFK 100851Z 28005KT 10SM FEW013 SCT021 BKN150 22/21 A2971 RMK AO2 SLP061 60000 T02220211 56010 $=
10/07/2023 07:51->METAR KJFK 100751Z 27008KT 10SM SCT011 BKN017 BKN035 23/22 A2972 RMK AO2 RAE0654 SLP063 P0000 T02280217 $=
10/07/2023 06:51->METAR KJFK 100651Z 00000KT 10SM -RA SCT009 BKN029 BKN039 23/23 A2972 RMK AO2 RAE0558B43 SLP063 P0000 T02330228 $=
10/07/2023 05:51->METAR KJFK 100551Z 13007KT 10SM -RA FEW010 BKN034 OVC055 23/22 A2974 RMK AO2 VIS 2 1/2 W RAB48 SLP072 P0000 60016 T02330222 10244 20233 56005 $=
10/07/2023 04:51->METAR KJFK 100451Z 12010KT 10SM FEW010 BKN047 OVC055 24/23 A2974 RMK AO2 SLP072 T02390233 402720233 $=
10/07/2023 03:51->METAR KJFK 100351Z 11011KT 10SM SCT010 SCT016 BKN080 24/23 A2974 RMK AO2 RAE04 SLP069 P0000 T02390233 $=
10/07/2023 02:51->METAR KJFK 100251Z 11011KT 10SM -RA FEW014 BKN090 OVC110 24/23 A2976 RMK AO2 LTG DSNT SE SLP077 P0016 60016 T02390233 56012 $=
10/07/2023 01:51->METAR KJFK 100151Z 13012KT 10SM -RA FEW012 SCT021 OVC140 24/23 A2978 RMK AO2 RAE0057B31 SLP083 P0000 T02390233 $=
10/07/2023 00:51->METAR KJFK 100051Z 13009KT 10SM -RA FEW012 BKN026 BKN060 OVC150 24/23 A2977 RMK AO2 RAB37 SLP082 P0000 T02440233 $=
09/07/2023 23:51->METAR KJFK 092351Z 14012KT 10SM SCT015 BKN023 BKN060 OVC130 24/23 A2979 RMK AO2 RAE2253 SLP089 P0000 60037 T02440233 10272 20233 56006 $=
09/07/2023 22:51->METAR KJFK 092251Z 17003KT 6SM -RA BR SCT016 BKN029 OVC070 23/23 A2980 RMK AO2 SLP089 P0028 T02330233 $=
09/07/2023 21:51->METAR KJFK 092151Z 11009KT 8SM -RA SCT013 BKN026 BKN055 OVC250 25/24 A2979 RMK AO2 RAB42 SLP088 P0001 T02500239 $=
09/07/2023 20:51->METAR KJFK 092051Z 14011KT 10SM SCT013 BKN022 BKN055 OVC250 25/24 A2981 RMK AO2 RAB00E27 SLP095 CB DSNT NE P0008 60008 T02500239 56002 $=
09/07/2023 19:51->METAR KJFK 091951Z 17008KT 10SM BKN018 BKN026 OVC250 26/22 A2981 RMK AO2 SLP095 VCSH SE T02610222 $=
09/07/2023 18:51->METAR KJFK 091851Z 16013KT 10SM BKN015 BKN022 BKN250 27/23 A2981 RMK AO2 SLP094 T02670228 $=
09/07/2023 17:51->METAR KJFK 091751Z 15012KT 10SM SCT016 BKN022 BKN028 BKN250 27/23 A2982 RMK AO2 CIG 015 W SLP097 T02670228 10272 20244 56014 $=
09/07/2023 16:51->METAR KJFK 091651Z 16014KT 10SM BKN014 BKN022 BKN050 BKN160 26/23 A2982 RMK AO2 SLP099 T02610228 $=
09/07/2023 15:51->METAR KJFK 091551Z 16011KT 10SM BKN016 BKN038 BKN047 26/22 A2983 RMK AO2 LTG DSNT N AND NW SLP102 T02610222 $=
09/07/2023 14:51->METAR KJFK 091451Z 17008KT 10SM BKN018 BKN027 BKN041 OVC160 26/22 A2986 RMK AO2 SLP111 T02610222 58001 $=
09/07/2023 13:51->METAR KJFK 091351Z 18006KT 10SM SCT013 BKN020 OVC160 26/23 A2986 RMK AO2 SLP110 T02610233 $=
09/07/2023 12:51->METAR KJFK 091251Z 20006KT 10SM SCT011 BKN021 BKN200 BKN250 26/23 A2986 RMK AO2 SLP112 T02560228 $=
09/07/2023 11:51->METAR KJFK 091151Z 17007KT 10SM FEW008 BKN013 OVC019 24/23 A2986 RMK AO2 SLP112 T02440233 10244 20233 53004 $=
09/07/2023 10:51->METAR KJFK 091051Z 18003KT 10SM FEW007 SCT015 BKN200 BKN250 24/23 A2985 RMK AO2 SLP107 T02390233 $=
09/07/2023 09:51->METAR KJFK 090951Z 17004KT 10SM SCT007 BKN018 BKN065 OVC250 24/23 A2985 RMK AO2 SLP107 T02390233 $=
09/07/2023 08:51->METAR KJFK 090851Z 20006KT 10SM SCT010 BKN065 23/23 A2984 RMK AO2 SLP105 T02330233 55003 $=
09/07/2023 07:51->METAR KJFK 090751Z 20007KT 10SM BKN019 24/23 A2984 RMK AO2 SLP104 T02390233 $=
09/07/2023 06:51->METAR KJFK 090651Z 20008KT 10SM BKN019 24/23 A2985 RMK AO2 SLP107 T02390233 $=
09/07/2023 05:51->METAR KJFK 090551Z 18007KT 10SM FEW013 SCT020 24/23 A2985 RMK AO2 SLP108 T02390233 10250 20239 51002 $=
09/07/2023 04:51->METAR KJFK 090451Z 18005KT 10SM SCT016 SCT060 24/23 A2985 RMK AO2 SLP108 T02390233 402890228 $=
09/07/2023 03:51->METAR KJFK 090351Z 18006KT 10SM FEW016 SCT060 24/23 A2985 RMK AO2 SLP109 T02440233 $=
09/07/2023 02:51->METAR KJFK 090251Z 16007KT 10SM FEW012 SCT070 24/23 A2984 RMK AO2 SLP106 T02440228 51003 $=
09/07/2023 01:51->METAR KJFK 090151Z 16006KT 10SM SCT012 SCT070 BKN250 24/23 A2984 RMK AO2 SLP105 T02440228 $=
09/07/2023 00:51->METAR KJFK 090051Z 18008KT 10SM FEW013 FEW025 SCT070 BKN220 24/23 A2984 RMK AO2 SLP105 T02440228 $=
08/07/2023 23:51->METAR KJFK 082351Z 21009KT 10SM BKN014 BKN070 BKN200 BKN250 25/23 A2984 RMK AO2 SLP103 T02500228 10289 20250 56002 $=
08/07/2023 22:51->METAR KJFK 082251Z 18007KT 10SM BKN014 BKN070 OVC230 25/23 A2984 RMK AO2 SLP103 T02500228 $=
08/07/2023 21:51->METAR KJFK 082151Z 17008KT 10SM FEW014 FEW030 SCT060 OVC230 26/23 A2984 RMK AO2 SLP104 T02560228 $=
08/07/2023 20:51->METAR KJFK 082051Z 17007KT 10SM FEW025 SCT055 BKN220 26/22 A2984 RMK AO2 SLP105 T02560222 58003 $=
08/07/2023 19:51->METAR KJFK 081951Z 16011KT 10SM FEW018 FEW030 SCT055 BKN220 26/22 A2984 RMK AO2 LTG DSNT N SLP106 CB DSNT N T02610222 $=
08/07/2023 18:51->METAR KJFK 081851Z 17009KT 10SM FEW015 FEW030 SCT055 BKN250 27/22 A2985 RMK AO2 LTG DSNT SW-N SLP108 CB DSNT NW T02720222 $=
08/07/2023 17:51->METAR KJFK 081751Z 15009KT 10SM FEW015 SCT030 SCT250 28/23 A2985 RMK AO2 SLP108 T02830228 10289 20250 58006 $=
08/07/2023 16:51->METAR KJFK 081651Z 18010KT 10SM FEW023 SCT030 BKN250 28/23 A2987 RMK AO2 SLP113 T02830233 $=
08/07/2023 15:51->METAR KJFK 081551Z 15008KT 10SM FEW023 SCT042 BKN250 28/22 A2987 RMK AO2 SLP114 T02780222 $=
08/07/2023 14:51->METAR KJFK 081451Z 16009KT 10SM FEW019 SCT026 BKN055 28/23 A2987 RMK AO2 SLP114 T02780228 58001 $=
08/07/2023 13:51->METAR KJFK 081351Z 18005KT 10SM FEW010 SCT017 BKN250 27/23 A2987 RMK AO2 SLP114 T02670228 $=
08/07/2023 12:51->METAR KJFK 081251Z 00000KT 10SM FEW010 BKN017 BKN250 27/23 A2988 RMK AO2 SLP117 T02670228 $=
08/07/2023 11:51->METAR KJFK 081151Z 00000KT 10SM FEW010 BKN014 OVC250 25/23 A2987 RMK AO2 SLP116 T02500228 10250 20228 51007 $=
08/07/2023 10:51->METAR KJFK 081051Z 14003KT 10SM FEW010 BKN016 OVC030 24/23 A2987 RMK AO2 SLP115 T02440233 $=
08/07/2023 09:51->METAR KJFK 080951Z 08003KT 10SM BKN014 BKN250 24/23 A2986 RMK AO2 SLP111 T02390233 $=
08/07/2023 08:51->METAR KJFK 080851Z 00000KT 10SM BKN013 BKN017 24/23 A2985 RMK AO2 SLP109 T02390233 56003 $=
08/07/2023 07:51->METAR KJFK 080751Z 16003KT 10SM BKN010 BKN017 23/23 A2986 RMK AO2 SLP110 T02330228 $=
08/07/2023 06:51->METAR KJFK 080651Z 18004KT 10SM SCT008 SCT012 23/23 A2986 RMK AO2 SLP110 T02330228 $=
08/07/2023 05:51->METAR KJFK 080551Z 21005KT 10SM SCT010 23/23 A2986 RMK AO2 SLP112 T02330228 10250 20233 53004 $=
08/07/2023 04:51->METAR KJFK 080451Z 19003KT 10SM SCT011 23/23 A2986 RMK AO2 SLP110 T02330228 402890233 $=
08/07/2023 03:51->METAR KJFK 080351Z 18005KT 10SM FEW010 SCT014 24/23 A2985 RMK AO2 SLP108 T02390228 $=
08/07/2023 02:51->METAR KJFK 080251Z 14004KT 10SM FEW018 FEW210 24/23 A2985 RMK AO2 SLP108 T02390228 50000 $=
08/07/2023 01:51->METAR KJFK 080151Z 14007KT 10SM SCT018 BKN210 BKN250 24/23 A2986 RMK AO2 SLP110 T02440228 $=
08/07/2023 00:51->METAR KJFK 080051Z 15006KT 10SM SCT015 BKN230 24/22 A2986 RMK AO2 SLP111 T02440222 $=
07/07/2023 23:51->METAR KJFK 072351Z 15005KT 10SM SCT014 BKN230 25/22 A2985 RMK AO2 SLP108 T02500222 10289 20250 53002 $=
07/07/2023 22:51->METAR KJFK 072251Z 15008KT 10SM SCT013 BKN250 25/22 A2985 RMK AO2 SLP107 T02500222=
07/07/2023 21:51->METAR KJFK 072151Z 14009KT 10SM SCT013 BKN250 26/22 A2984 RMK AO2 SLP103 T02560222=
07/07/2023 20:51->METAR KJFK 072051Z 15009KT 10SM SCT017 BKN250 27/23 A2985 RMK AO2 SLP106 T02670228 58006 $=
07/07/2023 19:51->METAR KJFK 071951Z 15010KT 10SM SCT019 SCT032 BKN250 28/23 A2985 RMK AO2 SLP109 T02780228 $=
07/07/2023 18:51->METAR KJFK 071851Z 15011KT 10SM SCT017 SCT029 BKN250 27/22 A2986 RMK AO2 SLP112 T02720222 $=
07/07/2023 17:51->METAR KJFK 071751Z 16010KT 10SM SCT022 SCT040 SCT170 BKN250 28/23 A2986 RMK AO2 SLP113 T02830228 10283 20250 56009 $=
07/07/2023 16:51->METAR KJFK 071651Z 16010KT 10SM FEW021 FEW040 SCT250 28/22 A2986 RMK AO2 SLP113 T02830222 $=
07/07/2023 15:51->METAR KJFK 071551Z 16009KT 10SM FEW020 FEW037 SCT250 28/22 A2988 RMK AO2 SLP119 T02830222 $=
07/07/2023 14:51->METAR KJFK 071451Z 17008KT 10SM SCT025 SCT250 28/22 A2989 RMK AO2 SLP121 T02780222 56003 $=
07/07/2023 13:51->METAR KJFK 071351Z 13007KT 10SM SCT025 SCT250 27/22 A2989 RMK AO2 SLP122 T02670217 $=
07/07/2023 12:51->METAR KJFK 071251Z 00000KT 10SM FEW013 SCT021 SCT180 SCT250 26/22 A2990 RMK AO2 SLP123 T02610217 $=
07/07/2023 11:51->METAR KJFK 071151Z 25003KT 10SM BKN021 BKN250 25/21 A2990 RMK AO2 SLP124 T02500211 10256 20233 53007 $=
07/07/2023 10:51->METAR KJFK 071051Z 00000KT 10SM SCT018 SCT250 24/22 A2988 RMK AO2 SLP119 T02440222 $=
07/07/2023 09:51->METAR KJFK 070951Z 00000KT 10SM SCT018 BKN250 23/22 A2987 RMK AO2 SLP115 T02330217 $=
07/07/2023 08:51->METAR KJFK 070851Z 00000KT 10SM BKN019 BKN250 23/22 A2988 RMK AO2 SLP117 T02330222 55004 $=
07/07/2023 07:51->METAR KJFK 070751Z 20003KT 10SM BKN016 BKN250 24/23 A2987 RMK AO2 SLP116 T02390228 $=
07/07/2023 06:51->METAR KJFK 070651Z 20005KT 10SM BKN013 BKN019 OVC250 24/22 A2988 RMK AO2 SLP118 T02390222 $=
07/07/2023 05:51->METAR KJFK 070551Z 19004KT 10SM BKN013 BKN130 BKN250 23/23 A2989 RMK AO2 SLP120 T02330228 10244 20228 58007 $=
07/07/2023 04:51->METAR KJFK 070451Z 20005KT 10SM BKN007 BKN120 BKN250 23/23 A2990 RMK AO2 SLP124 T02330228 402890217 $=
07/07/2023 03:51->METAR KJFK 070351Z 17005KT 10SM FEW010 FEW150 SCT250 23/23 A2990 RMK AO2 SLP126 T02330228 $=
07/07/2023 02:51->METAR KJFK 070251Z 19005KT 10SM FEW009 FEW100 FEW250 23/23 A2991 RMK AO2 SLP128 T02330228 50003 $=
07/07/2023 01:51->METAR KJFK 070151Z 16007KT 10SM FEW008 FEW055 FEW250 24/22 A2991 RMK AO2 SLP128 T02390222=
07/07/2023 00:51->METAR KJFK 070051Z 16009KT 10SM BKN008 BKN140 BKN250 24/23 A2990 RMK AO2 SLP126 T02390228=
06/07/2023 23:51->METAR KJFK 062351Z 16008KT 10SM FEW008 FEW050 SCT250 24/23 A2990 RMK AO2 SLP125 T02440233 10283 20244 55002=
06/07/2023 22:51->METAR KJFK 062251Z 15010KT 10SM FEW008 FEW045 SCT250 26/23 A2990 RMK AO2 SLP123 T02560228=
06/07/2023 21:51->METAR KJFK 062151Z 16010KT 10SM FEW008 FEW045 FEW250 27/23 A2989 RMK AO2 SLP122 T02670228=
06/07/2023 20:51->METAR KJFK 062051Z 17009KT 10SM FEW045 FEW250 28/23 A2991 RMK AO2 SLP127 CB DSNT NW T02780228 56015 $=
06/07/2023 19:51->METAR KJFK 061951Z 17009KT 10SM FEW045 FEW250 28/22 A2991 RMK AO2 SLP130 CB DSNT NW T02830222 $=
06/07/2023 18:51->METAR KJFK 061851Z 18009KT 10SM FEW008 FEW045 FEW250 27/23 A2993 RMK AO2 SLP136 CB DSNT W AND DSNT NW T02720228 $=
06/07/2023 17:51->METAR KJFK 061751Z 19010KT 10SM FEW008 FEW045 FEW250 28/22 A2995 RMK AO2 SLP142 T02830222 10289 20250 56008 $=
06/07/2023 16:51->METAR KJFK 061651Z 18010KT 10SM FEW043 FEW250 29/22 A2996 RMK AO2 SLP144 T02890222 $=
06/07/2023 15:51->METAR KJFK 061551Z 19009KT 10SM FEW040 FEW250 28/22 A2997 RMK AO2 SLP148 T02780222 $=
06/07/2023 14:51->METAR KJFK 061451Z 18006KT 10SM FEW007 FEW035 FEW250 26/23 A2998 RMK AO2 SLP150 T02610228 50003 $=
06/07/2023 13:51->METAR KJFK 061351Z 18009KT 10SM VCFG FEW006 FEW035 FEW250 27/23 A2998 RMK AO2 SLP151 VCFG S T02670228 $=
06/07/2023 12:51->METAR KJFK 061251Z 19006KT 10SM FEW032 FEW250 26/23 A2997 RMK AO2 SLP149 T02560228 $=
06/07/2023 11:51->METAR KJFK 061151Z 13003KT 9SM FEW250 26/23 A2997 RMK AO2 SLP148 T02560228 10256 20217 53002 $=
06/07/2023 10:51->METAR KJFK 061051Z 00000KT 10SM FEW250 24/22 A2995 RMK AO2 SLP142 T02390222 $=
06/07/2023 09:51->METAR KJFK 060951Z 19003KT 10SM FEW250 22/22 A2996 RMK AO2 SLP143 T02220222 $=
06/07/2023 08:51->METAR KJFK 060851Z 19006KT 10SM FEW250 22/22 A2996 RMK AO2 SLP146 T02220217 58006 $=
06/07/2023 07:51->METAR KJFK 060751Z 17004KT 10SM FEW250 22/22 A2996 RMK AO2 SLP147 T02220217 $=
06/07/2023 06:51->METAR KJFK 060651Z 18003KT 10SM FEW250 22/22 A2998 RMK AO2 SLP151 T02220217 $=
06/07/2023 05:51->METAR KJFK 060551Z 20004KT 10SM FEW250 23/22 A2998 RMK AO2 SLP152 T02330222 10250 20228 57001 $=
06/07/2023 04:51->METAR KJFK 060451Z 19005KT 10SM FEW250 23/22 A2998 RMK AO2 SLP153 T02280222 403110211 $=
06/07/2023 03:51->METAR KJFK 060351Z 19004KT 10SM FEW250 23/22 A2998 RMK AO2 SLP151 T02330222 $=
06/07/2023 02:51->METAR KJFK 060251Z 20004KT 10SM FEW055 FEW250 23/22 A2998 RMK AO2 SLP152 T02330217 53008 $=
06/07/2023 01:51->METAR KJFK 060151Z 19007KT 10SM FEW250 24/22 A2998 RMK AO2 SLP151 T02390217 $=
06/07/2023 00:51->METAR KJFK 060051Z 21007KT 10SM FEW055 SCT250 24/21 A2996 RMK AO2 SLP144 T02440211 $=
05/07/2023 23:51->METAR KJFK 052351Z 20009KT 10SM FEW050 SCT250 25/21 A2996 RMK AO2 SLP144 T02500211 10311 20250 55003 $=
05/07/2023 22:51->METAR KJFK 052251Z 19010KT 10SM FEW050 SCT250 26/22 A2995 RMK AO2 SLP142 T02610217 $=
05/07/2023 21:51->METAR KJFK 052151Z 19012KT 10SM FEW050 SCT250 27/22 A2995 RMK AO2 SLP141 T02720217=
05/07/2023 20:51->METAR KJFK 052051Z 18012KT 10SM FEW050 FEW250 28/22 A2997 RMK AO2 SLP147 T02830217 56008=
05/07/2023 19:51->METAR KJFK 051951Z 18010KT 10SM FEW050 FEW250 29/22 A2997 RMK AO2 SLP148 T02940217=
05/07/2023 18:51->METAR KJFK 051851Z 20009KT 10SM FEW050 FEW250 30/20 A2998 RMK AO2 SLP151 CB DSNT SW T03000200=
05/07/2023 17:51->METAR KJFK 051751Z 20010KT 9SM FEW050 FEW250 29/21 A2999 RMK AO2 SLP155 CB DSNT SW T02940211 10300 20256 56003=
05/07/2023 16:51->METAR KJFK 051651Z 20010KT 9SM FEW050 FEW250 28/22 A2999 RMK AO2 SLP155 T02830217=
05/07/2023 15:51->METAR KJFK 051551Z 20007KT 9SM FEW047 FEW250 30/21 A2999 RMK AO2 SLP155 T03000211=
05/07/2023 14:51->METAR KJFK 051451Z 21007KT 7SM FEW250 28/22 A3000 RMK AO2 SLP157 T02780217 51003=
05/07/2023 13:51->METAR KJFK 051351Z 06004KT 9SM FEW250 29/19 A3000 RMK AO2 SLP157 T02890194=
05/07/2023 12:51->METAR KJFK 051251Z 05008KT 8SM FEW250 27/19 A3000 RMK AO2 SLP159 T02720194=
05/07/2023 11:51->METAR KJFK 051151Z 36004KT 5SM HZ FEW250 26/21 A2999 RMK AO2 SLP154 70014 T02560206 10256 20211 53010 $=
05/07/2023 10:51->METAR KJFK 051051Z 00000KT 5SM BR FEW250 23/21 A2997 RMK AO2 SLP149 T02330211 $=
05/07/2023 09:51->METAR KJFK 050951Z 00000KT 3SM BR FEW250 21/21 A2996 RMK AO2 SLP145 T02110206 $=
05/07/2023 08:51->METAR KJFK 050851Z 06003KT 4SM BR FEW011 FEW110 FEW250 21/21 A2996 RMK AO2 SLP144 T02110206 55002 $=
05/07/2023 07:51->METAR KJFK 050751Z 05003KT 2SM BR FEW017 FEW120 FEW250 22/21 A2995 RMK AO2 SLP143 T02170211 $=
05/07/2023 06:51->METAR KJFK 050651Z 05005KT 2SM BR FEW110 FEW250 22/22 A2996 RMK AO2 SLP146 T02220217 $=
05/07/2023 05:51->METAR KJFK 050551Z 22005KT 2SM BR FEW120 SCT250 23/22 A2996 RMK AO2 SLP146 T02280217 10250 20222 53002 $=
05/07/2023 04:51->METAR KJFK 050451Z 22004KT 5SM BR FU FEW120 SCT250 23/22 A2996 RMK AO2 VIS 2 1/2 W SLP144 T02280222 402780222 $=
05/07/2023 03:51->METAR KJFK 050351Z 00000KT 4SM BR FU SCT120 SCT250 23/22 A2994 RMK AO2 SLP140 T02280222 $=
05/07/2023 02:51->METAR KJFK 050251Z 00000KT 3SM BR FEW035 SCT120 SCT250 24/22 A2996 RMK AO2 SLP144 T02390222 53015 $=
05/07/2023 01:51->METAR KJFK 050151Z 00000KT 10SM FEW004 FEW032 FEW060 SCT250 24/22 A2994 RMK AO2 SLP137 FU FEW004 T02390222 $=
05/07/2023 00:51->METAR KJFK 050051Z 21005KT 10SM FEW032 FEW060 FEW080 SCT250 23/22 A2992 RMK AO2 SLP130 T02330222 $=
04/07/2023 23:51->METAR KJFK 042351Z 19004KT 10SM FEW032 SCT080 BKN250 25/23 A2991 RMK AO2 SLP128 TCU DSNT W T02500228 10261 20233 53005 $=
04/07/2023 22:51->METAR KJFK 042251Z 09004KT 10SM FEW020 FEW032 SCT080 BKN250 26/23 A2990 RMK AO2 SLP126 TCU DSNT W AND DSNT NW T02610228 $=
04/07/2023 21:51->METAR KJFK 042151Z 13003KT 10SM FEW020 SCT032 SCT080 SCT210 BKN250 26/23 A2989 RMK AO2 SLP120 CB DSNT SW TCU DSNT SW-DSNT NW T02560228 $=
04/07/2023 20:51->METAR KJFK 042051Z 20006KT 10SM FEW020 SCT032CB SCT090 BKN250 24/22 A2990 RMK AO2 SLP123 CBMAM OHD-SW MOV SE CB DSNT NW TCU DSNT NW-N T02390222 51004 $=
04/07/2023 19:51->METAR KJFK 041951Z 21005KT 10SM FEW011 SCT032CB SCT090 BKN200 BKN250 24/22 A2989 RMK AO2 TSE38 SLP122 CBMAM OHD MOV SE CB DSNT W-NW TCU DSNT W VCSH W T02440217 $=
04/07/2023 18:51->METAR KJFK 041851Z 22007KT 10SM TS FEW013 SCT035CB SCT100 BKN200 BKN250 25/22 A2989 RMK AO2 TSB46 SLP121 OCNL LTGCG NW TS NW MOV SE TCU DSNT N T02500217 $=
04/07/2023 17:51->METAR KJFK 041751Z 00000KT 10SM FEW013 SCT032 BKN095 BKN250 25/22 A2988 RMK AO2 RAE38 TSE20 SLP119 CB DSNT SW-NW MOV SE P0005 60014 T02500222 10278 20228 58006 $=
04/07/2023 16:51->METAR KJFK 041651Z 28008KT 5SM R04R/4000VP6000FT TSRA BR FEW008 SCT024CB BKN090 BKN220 24/23 A2992 RMK AO2 RAB12 SLP130 VIS SE-S 2 1/2 FRQ LTGICCG OHD AND SE-SW TS OHD AND SE-SW MOV E P0009 T02390233 $=
04/07/2023 15:51->METAR KJFK 041551Z 22004KT 10SM TS SCT024CB BKN095 BKN140 BKN250 28/22 A2991 RMK AO2 TSB35 SLP127 FRQ LTGICCG W-NW TS W-NW MOV E VCSH W-NW T02780222 $=
04/07/2023 14:51->METAR KJFK 041451Z 24006KT 10SM FEW028 SCT100 BKN160 BKN250 27/22 A2990 RMK AO2 LTG DSNT W AND NW SLP125 CB DSNT W-NW MOV E T02670222 58002 $=
04/07/2023 13:51->METAR KJFK 041351Z 21011KT 10SM FEW027 SCT095 SCT160 SCT250 25/22 A2992 RMK AO2 SLP133 T02500217 $=
04/07/2023 12:51->METAR KJFK 041251Z 19012KT 10SM FEW025 SCT050 BKN085 BKN160 24/21 A2992 RMK AO2 SLP130 T02390211 $=
04/07/2023 11:51->METAR KJFK 041151Z 21013KT 10SM BKN065 BKN110 BKN250 23/22 A2991 RMK AO2 SLP127 70018 T02280217 10239 20228 53015 $=
04/07/2023 10:51->METAR KJFK 041051Z 19008KT 10SM SCT050 BKN065 BKN110 BKN250 23/22 A2989 RMK AO2 SLP121 T02330217 $=
04/07/2023 09:51->METAR KJFK 040951Z 21005KT 10SM SCT060 BKN110 BKN250 23/22 A2988 RMK AO2 SLP117 T02280217 $=
04/07/2023 08:51->METAR KJFK 040851Z 21006KT 10SM SCT080 SCT120 BKN220 23/22 A2986 RMK AO2 SLP112 T02330217 50001 $=
04/07/2023 07:51->METAR KJFK 040751Z 20004KT 10SM FEW055 FEW090 BKN250 23/23 A2986 RMK AO2 SLP113 T02280228 $=
04/07/2023 06:51->METAR KJFK 040651Z 00000KT 10SM FEW045 SCT085 BKN220 23/23 A2986 RMK AO2 SLP111 T02330228 $=
04/07/2023 05:51->METAR KJFK 040551Z 09003KT 10SM FEW050 SCT065 BKN250 23/23 A2986 RMK AO2 LTG DSNT NE RAE01 TSE06 SLP111 P0000 60018 T02330228 10278 20233 50003 $=
04/07/2023 04:51->METAR KJFK 040451Z 05004KT 7SM -TSRA FEW030 BKN048CB OVC090 24/22 A2987 RMK AO2 LTG DSNT NW RAB25 TSE20B26 SLP116 OCNL LTGICCC NW-N TS NW-N MOV NE P0003 T02390222 403060228 $=
04/07/2023 03:51->METAR KJFK 040351Z 06008KT 10SM FEW031 BKN050 BKN080 BKN250 24/23 A2985 RMK AO2 RAB13E27 SLP108 P0015 T02390228=
04/07/2023 02:51->METAR KJFK 040251Z 35008KT 10SM BKN050 BKN065 BKN120 BKN250 27/22 A2985 RMK AO2 LTG DSNT NE SLP108 T02670217 53011=
04/07/2023 01:51->METAR KJFK 040151Z 21008KT 10SM FEW050 BKN120 BKN250 26/21 A2985 RMK AO2 SLP107 T02610211=
04/07/2023 00:51->METAR KJFK 040051Z 19008KT 10SM SCT045 SCT140 BKN250 24/21 A2982 RMK AO2 LTG DSNT N SLP097 CB DSNT NW VCSH NW T02440211=
03/07/2023 23:51->METAR KJFK 032351Z 18007KT 10SM SCT045 SCT140 SCT250 25/22 A2982 RMK AO2 SLP098 T02500217 10300 20250 53001=
03/07/2023 22:51->METAR KJFK 032251Z 17010KT 10SM FEW045 SCT140 SCT250 27/22 A2980 RMK AO2 SLP092 T02670222=
03/07/2023 21:51->METAR KJFK 032151Z 16010KT 10SM FEW045 FEW160 SCT250 28/23 A2980 RMK AO2 SLP092 CB DSNT N T02830228=
03/07/2023 20:51->METAR KJFK 032051Z 18013KT 10SM FEW045 SCT160 BKN250 28/23 A2982 RMK AO2 SLP096 CB DSNT NW T02830228 58009=
03/07/2023 19:51->METAR KJFK 031951Z 16012KT 10SM FEW043 FEW140 SCT200 BKN250 29/21 A2983 RMK AO2 SLP100 T02940211=
03/07/2023 18:51->METAR KJFK 031851Z 17012KT 10SM FEW043 SCT190 BKN250 29/22 A2984 RMK AO2 SLP104 T02940217=
03/07/2023 17:51->METAR KJFK 031751Z 20011KT 10SM FEW043 FEW140 BKN200 BKN250 30/22 A2984 RMK AO2 SLP106 T03000217 10306 20244 56006=
03/07/2023 16:51->METAR KJFK 031651Z 22009KT 10SM FEW040 SCT140 BKN210 BKN250 30/22 A2984 RMK AO2 SLP106 T03000217=
03/07/2023 15:51->METAR KJFK 031551Z 19009KT 10SM BKN140 BKN210 BKN250 28/22 A2986 RMK AO2 SLP110 T02780217=
03/07/2023 14:51->METAR KJFK 031451Z 22009KT 10SM FEW080 SCT140 BKN200 BKN250 27/22 A2986 RMK AO2 SLP112 T02720217 52007=
03/07/2023 13:51->METAR KJFK 031351Z 18008KT 10SM FEW065 SCT110 SCT250 27/22 A2985 RMK AO2 SLP108 T02720217=
03/07/2023 12:51->METAR KJFK 031251Z 19005KT 10SM FEW048 SCT070 BKN110 BKN250 25/22 A2985 RMK AO2 SLP108 T02500217=
03/07/2023 11:51->METAR KJFK 031151Z 31004KT 10SM FEW050 BKN110 BKN250 26/21 A2984 RMK AO2 SLP105 70042 T02610211 10261 20228 53009=
03/07/2023 10:51->METAR KJFK 031051Z 27005KT 10SM FEW075 SCT110 BKN250 24/22 A2982 RMK AO2 SLP097 T02440217=
03/07/2023 09:51->METAR KJFK 030951Z 30007KT 10SM SCT110 SCT250 24/21 A2981 RMK AO2 SLP096 T02390211 $=
03/07/2023 08:51->METAR KJFK 030851Z 27006KT 10SM FEW055 SCT250 23/22 A2982 RMK AO2 SLP096 T02330217 55001 $=
03/07/2023 07:51->METAR KJFK 030751Z 25008KT 10SM SCT030 BKN259 23/22 A2981 RMK AO2 SLP096 T02330217 $=
03/07/2023 06:51->METAR KJFK 030651Z 23007KT 10SM SCT080 BKN220 23/22 A2981 RMK AO2 SLP095 T02330217 $=
03/07/2023 05:51->METAR KJFK 030551Z 23006KT 10SM FEW035 SCT100 SCT250 23/22 A2982 RMK AO2 RAE0458 SLP097 P0000 60000 T02330222 10250 20228 53002 $=
03/07/2023 04:51->METAR KJFK 030451Z 29004KT 10SM -RA FEW027 SCT055 BKN110 24/22 A2981 RMK AO2 RAB48 SLP095 OCNL LTGIC DSNT N CB DSNT N MOV E P0000 T02440222 402890206 $=
03/07/2023 03:51->METAR KJFK 030351Z 18005KT 7SM SCT038 BKN070 BKN220 23/22 A2980 RMK AO2 LTG DSNT W AND NW SLP091 FRQ LTGICCC DSNT W CB DSNT W MOV E T02280222 $=
03/07/2023 02:51->METAR KJFK 030251Z 18007KT 8SM FEW070 BKN120 OVC220 23/22 A2981 RMK AO2 LTG DSNT N AND NW RAB24E48 SLP096 P0000 60000 T02280222 53001 $=
03/07/2023 01:51->METAR KJFK 030151Z 18009KT 8SM FEW030 SCT060 BKN160 OVC200 23/22 A2981 RMK AO2 SLP094 T02280222 $=
03/07/2023 00:51->METAR KJFK 030051Z 18012G18KT 8SM FEW030 SCT060 SCT100 BKN250 23/22 A2980 RMK AO2 SLP092 T02280222 $=
02/07/2023 23:51->METAR KJFK 022351Z 17010KT 7SM FEW045 SCT080 SCT120 BKN180 BKN250 24/22 A2981 RMK AO2 SLP095 60042 T02390222 10289 20233 58005 $=
02/07/2023 22:51->METAR KJFK 022251Z 16006KT 7SM FEW030 SCT055 BKN250 25/23 A2981 RMK AO2 TSE24 SLP094 T02500228 $=
02/07/2023 21:51->METAR KJFK 022151Z 18008KT 6SM TS BR FEW028 SCT055CB BKN085 BKN250 24/23 A2984 RMK AO2 RAB07E41 TSB02 SLP104 OCNL LTGIC N TS N MOV E P0042 T02440233 $=
02/07/2023 20:51->METAR KJFK 022051Z 18013KT 6SM HZ BKN055TCU BKN110 BKN200 BKN250 26/22 A2983 RMK AO2 SLP100 TCU SW VCSH SW T02560222 57013 $=
02/07/2023 19:51->METAR KJFK 021951Z 18011KT 6SM HZ FEW045 SCT110 BKN140 BKN200 BKN250 26/22 A2984 RMK AO2 SLP105 T02610222 $=
02/07/2023 18:51->METAR KJFK 021851Z 17011KT 6SM HZ FEW045 SCT110 BKN160 BKN250 26/22 A2985 RMK AO2 SLP108 T02560222 $=
02/07/2023 17:51->METAR KJFK 021751Z 17011KT 8SM FEW020 SCT050 BKN200 BKN250 29/23 A2987 RMK AO2 SLP113 T02890228 10289 20222 58008 $=
02/07/2023 16:51->METAR KJFK 021651Z 18007KT 8SM SCT020 SCT050 BKN150 BKN250 28/22 A2988 RMK AO2 SLP118 T02780222 $=
02/07/2023 15:51->METAR KJFK 021551Z 23008KT 8SM BKN022 BKN050 BKN250 27/22 A2989 RMK AO2 SLP120 T02720217 $=
02/07/2023 14:51->METAR KJFK 021451Z 21008KT 6SM HZ FEW015 BKN026 BKN050 BKN140 BKN250 24/21 A2989 RMK AO2 SLP121 T02390211 55004 $=
02/07/2023 13:51->METAR KJFK 021351Z 19014KT 8SM BKN022 BKN045 BKN060 BKN140 BKN250 24/21 A2989 RMK AO2 SLP121 T02440211 $=
02/07/2023 12:51->METAR KJFK 021251Z 18012KT 10SM FEW025 SCT043 BKN060 BKN140 BKN210 23/22 A2989 RMK AO2 SLP121 T02330217 $=
02/07/2023 11:51->METAR KJFK 021151Z 17010KT 10SM FEW010 FEW027 BKN034 BKN140 OVC210 22/21 A2990 RMK AO2 RAB15E24 SLP125 P0000 60005 70005 T02220211 10222 20206 58001 $=
02/07/2023 10:51->METAR KJFK 021051Z 16005KT 10SM FEW010 BKN031 OVC050 22/21 A2991 RMK AO2 SLP128 T02170206 $=
02/07/2023 09:51->METAR KJFK 020951Z 14007KT 10SM FEW010 OVC036 22/22 A2990 RMK AO2 RAB17E28 SLP126 P0000 T02170217 $=
02/07/2023 08:51->METAR KJFK 020851Z 11004KT 10SM BKN030 BKN035 OVC042 21/20 A2991 RMK AO2 RAB15E49 SLP126 P0000 60005 T02060200 56017 $=
02/07/2023 07:51->METAR KJFK 020751Z 14009KT 10SM SCT008 BKN014 OVC047 22/21 A2991 RMK AO2 RAB0656E45 SLP128 P0005 T02170211 $=
02/07/2023 06:51->METAR KJFK 020651Z 14006KT 10SM SCT008 BKN014 OVC055 22/21 A2993 RMK AO2 SLP136 T02170206 $=
02/07/2023 05:51->METAR KJFK 020551Z 15005KT 10SM FEW008 BKN047 OVC065 22/21 A2996 RMK AO2 SLP143 T02170206 10222 20217 58008 $=
02/07/2023 04:51->METAR KJFK 020451Z 16006KT 10SM SCT009 OVC055 22/21 A2997 RMK AO2 CIG 009 W SLP148 T02170206 402670183 $=
02/07/2023 03:51->METAR KJFK 020351Z 15008KT 10SM SCT011 BKN050 BKN060 OVC250 22/20 A2997 RMK AO2 SLP150 T02170200 $=
02/07/2023 02:51->METAR KJFK 020251Z 17007KT 10SM BKN046 BKN055 OVC250 22/19 A2998 RMK AO2 SLP152 T02170194 56006 $=
02/07/2023 01:51->METAR KJFK 020151Z 15008KT 10SM BKN049 OVC200 22/19 A2999 RMK AO2 SLP155 T02170194 $=
02/07/2023 00:51->METAR KJFK 020051Z 16008KT 10SM SCT100 BKN250 22/18 A2999 RMK AO2 SLP154 T02170183 $=
01/07/2023 23:51->METAR KJFK 012351Z 16009KT 10SM FEW070 FEW100 BKN250 22/19 A3000 RMK AO2 SLP157 T02220189 10261 20222 55008 $=
01/07/2023 22:51->METAR KJFK 012251Z 17009KT 9SM FEW100 BKN250 23/18 A2999 RMK AO2 SLP155 T02280183 $=
01/07/2023 21:51->METAR KJFK 012151Z 18009KT 9SM BKN250 24/18 A3000 RMK AO2 SLP160 T02440178 $=
01/07/2023 20:51->METAR KJFK 012051Z 15010KT 9SM FEW075 BKN250 25/18 A3002 RMK AO2 SLP166 T02500178 56015 $=
01/07/2023 19:51->METAR KJFK 011951Z 17011KT 8SM FEW075 BKN250 25/17 A3003 RMK AO2 SLP168 T02500172 $=
01/07/2023 18:51->METAR KJFK 011851Z 18012KT 10SM FEW075 BKN250 26/17 A3004 RMK AO2 SLP173 T02560172 $=
01/07/2023 17:51->METAR KJFK 011751Z 17012KT 10SM BKN250 26/18 A3007 RMK AO2 SLP181 T02610183 10267 20217 56007 $=
01/07/2023 16:51->METAR KJFK 011651Z 16012KT 10SM FEW030 BKN250 25/19 A3007 RMK AO2 SLP181 T02500189 $=
01/07/2023 15:51->METAR KJFK 011551Z 18008KT 10SM BKN250 26/18 A3008 RMK AO2 SLP186 T02560183 $=
01/07/2023 14:51->METAR KJFK 011451Z 17008KT 10SM SCT080 BKN250 24/18 A3009 RMK AO2 SLP188 T02440183 51006 $=
01/07/2023 13:51->METAR KJFK 011351Z 20007KT 10SM BKN070 BKN250 24/18 A3008 RMK AO2 SLP186 T02390178 $=
01/07/2023 12:51->METAR KJFK 011251Z 21006KT 10SM SCT250 23/18 A3009 RMK AO2 SLP188 T02330183 $=
01/07/2023 11:51->METAR KJFK 011151Z 16005KT 9SM SCT250 22/18 A3007 RMK AO2 SLP183 T02220178 10222 20183 51006 $=
01/07/2023 10:51->METAR KJFK 011051Z 18003KT 7SM SCT250 21/18 A3007 RMK AO2 SLP181 T02060183 $=
01/07/2023 09:51->METAR KJFK 010951Z 23004KT 6SM BR FEW250 19/17 A3006 RMK AO2 SLP180 T01890172 $=
01/07/2023 08:51->METAR KJFK 010851Z 22003KT 8SM FEW250 19/17 A3005 RMK AO2 SLP177 T01890172 55001 $=
01/07/2023 07:51->METAR KJFK 010751Z 21004KT 9SM FEW250 19/17 A3005 RMK AO2 SLP176 T01890167 $=
01/07/2023 06:51->METAR KJFK 010651Z 19004KT 9SM FEW250 19/16 A3005 RMK AO2 SLP176 T01940161 $=
01/07/2023 05:51->METAR KJFK 010551Z 21006KT 9SM FEW250 19/17 A3006 RMK AO2 SLP178 T01940172 10222 20194 56005 $=
01/07/2023 04:51->METAR KJFK 010451Z 18007KT 9SM FEW250 20/19 A3006 RMK AO2 SLP179 T02000189 402830194 $=
01/07/2023 03:51->METAR KJFK 010351Z 19006KT 9SM FEW250 21/19 A3007 RMK AO2 SLP181 T02060189 $=
01/07/2023 02:51->METAR KJFK 010251Z 21007KT 10SM FEW250 21/18 A3007 RMK AO2 SLP183 T02060178 53007 $=
01/07/2023 01:51->METAR KJFK 010151Z 19008KT 7SM FEW250 21/18 A3007 RMK AO2 SLP181 T02110178=
01/07/2023 00:51->METAR KJFK 010051Z 18010KT 7SM FEW250 22/18 A3005 RMK AO2 SLP176 T02170178=
30/06/2023 23:51->METAR KJFK 302351Z 16009KT 7SM BKN250 22/18 A3005 RMK AO2 SLP176 T02220178 10278 20222 55000=
30/06/2023 22:51->METAR KJFK 302251Z 18010KT 7SM BKN250 24/18 A3005 RMK AO2 SLP175 T02390183=
30/06/2023 21:51->METAR KJFK 302151Z 18010KT 7SM BKN250 25/19 A3005 RMK AO2 SLP174 T02500189=
30/06/2023 20:51->METAR KJFK 302051Z 17012KT 6SM HZ FU FEW180 BKN250 26/19 A3005 RMK AO2 SLP176 T02560189 55004=
30/06/2023 19:51->METAR KJFK 301951Z 19012KT 6SM HZ FU FEW055 BKN250 25/19 A3005 RMK AO2 SLP175 T02500189 $=
30/06/2023 18:51->METAR KJFK 301851Z 18010KT 5SM HZ FU FEW055 BKN250 26/19 A3006 RMK AO2 SLP178 T02560194 $=
30/06/2023 17:51->METAR KJFK 301751Z 21011KT 4SM HZ FU FEW055 BKN250 28/18 A3006 RMK AO2 SLP180 T02780183 10283 20217 58005 $=
30/06/2023 16:51->METAR KJFK 301651Z 21009KT 4SM HZ FU FEW055 BKN250 28/16 A3007 RMK AO2 SLP182 T02830161 $=
30/06/2023 15:51->METAR KJFK 301551Z 21008KT 3SM HZ FU FEW055 BKN250 27/16 A3008 RMK AO2 SLP184 T02720161=
30/06/2023 14:51->METAR KJFK 301451Z 21006KT 3SM HZ FU SCT055 BKN250 27/17 A3008 RMK AO2 SLP184 T02670172 51005=
30/06/2023 13:51->METAR KJFK 301351Z 21005KT 3SM HZ FU SCT250 24/19 A3007 RMK AO2 SLP182 T02440189=
30/06/2023 12:51->METAR KJFK 301251Z VRB04KT 3SM HZ FU SCT250 23/19 A3007 RMK AO2 SLP182 T02330189=
30/06/2023 11:51->METAR KJFK 301151Z 21005KT 3SM BR FU SCT250 22/19 A3006 RMK AO2 SLP179 T02170194 10217 20194 53006 $=
30/06/2023 10:51->METAR KJFK 301051Z 16004KT 4SM BR FU SCT075 SCT250 20/19 A3005 RMK AO2 SLP175 T02000189 $=
30/06/2023 09:51->METAR KJFK 300951Z 23006KT 4SM BR FU BKN075 BKN250 20/19 A3005 RMK AO2 SLP175 T02000189 $=
30/06/2023 08:51->METAR KJFK 300851Z 21004KT 5SM BR FU SCT075 19/19 A3004 RMK AO2 SLP173 T01940189 53003 $=
30/06/2023 07:51->METAR KJFK 300751Z 20006KT 6SM BR FU FEW007 19/19 A3004 RMK AO2 SLP171 T01940189 $=
30/06/2023 06:51->METAR KJFK 300651Z 13003KT 6SM BR FU FEW007 19/19 A3004 RMK AO2 SLP170 T01940194 $=
30/06/2023 05:51->METAR KJFK 300551Z 17004KT 6SM BR FU CLR 20/19 A3004 RMK AO2 SLP170 T02000194 10222 20200 56004 $=
30/06/2023 04:51->METAR KJFK 300451Z 17004KT 6SM BR FU CLR 20/19 A3004 RMK AO2 SLP172 T02000194 402780183 $=
30/06/2023 03:51->METAR KJFK 300351Z 14005KT 6SM BR CLR 21/19 A3004 RMK AO2 SLP172 T02060194 $=
30/06/2023 02:51->METAR KJFK 300251Z 14005KT 7SM FEW060 21/19 A3005 RMK AO2 SLP174 T02060189 50006 $=
30/06/2023 01:51->METAR KJFK 300151Z 17005KT 7SM FEW065 FEW250 21/19 A3005 RMK AO2 SLP175 T02110189=
30/06/2023 00:51->METAR KJFK 300051Z 15007KT 7SM FEW065 FEW250 21/19 A3003 RMK AO2 SLP170 T02110189=
29/06/2023 23:51->METAR KJFK 292351Z 18009KT 7SM SCT060 SCT250 22/18 A3003 RMK AO2 SLP168 T02220183 10278 20222 53011=
29/06/2023 22:51->METAR KJFK 292251Z 19011KT 7SM FEW055 SCT070 SCT250 23/19 A3001 RMK AO2 SLP162 T02280189=
29/06/2023 21:51->METAR KJFK 292151Z 19011KT 7SM SCT055 BKN070 BKN250 24/19 A3001 RMK AO2 SLP161 T02390189=
29/06/2023 20:51->METAR KJFK 292051Z 19012KT 8SM SCT060 BKN075 BKN250 25/19 A3000 RMK AO2 SLP158 T02500189 58002=
29/06/2023 19:51->METAR KJFK 291951Z 19013KT 9SM SCT055 BKN070 BKN250 26/18 A3000 RMK AO2 SLP159 T02610183=
29/06/2023 18:51->METAR KJFK 291851Z 21011KT 10SM BKN065 BKN080 BKN250 26/17 A3000 RMK AO2 SLP159 T02610167=
29/06/2023 17:51->METAR KJFK 291751Z 18005KT 10SM BKN049 BKN085 BKN250 27/16 A3000 RMK AO2 SLP159 T02670161 10272 20211 58008=
29/06/2023 16:51->METAR KJFK 291651Z 22007KT 190V260 10SM BKN047 BKN250 26/17 A3001 RMK AO2 SLP163 T02610167=
29/06/2023 15:51->METAR KJFK 291551Z 23009KT 10SM SCT046 BKN250 24/16 A3002 RMK AO2 SLP166 SCT V BKN T02440161=
29/06/2023 14:51->METAR KJFK 291451Z 34007KT 310V020 10SM SCT038 SCT060 BKN250 26/16 A3003 RMK AO2 SLP168 T02560156 50004=
29/06/2023 13:51->METAR KJFK 291351Z 35004KT 9SM SCT035 SCT060 BKN250 24/16 A3003 RMK AO2 SLP169 T02390156=
29/06/2023 12:51->METAR KJFK 291251Z 36005KT 10SM SCT035 BKN060 BKN250 22/15 A3003 RMK AO2 SLP168 T02220150=
29/06/2023 11:51->METAR KJFK 291151Z 34006KT 9SM SCT032 BKN065 BKN250 21/16 A3001 RMK AO2 SLP163 70017 T02110156 10211 20183 51020=
29/06/2023 10:51->METAR KJFK 291051Z 33007KT 9SM FEW035 SCT065 20/15 A3000 RMK AO2 SLP159 T02000150=
29/06/2023 09:51->METAR KJFK 290951Z 31007KT 10SM FEW065 19/15 A2998 RMK AO2 SLP152 T01890150=
29/06/2023 08:51->METAR KJFK 290851Z 31009KT 10SM FEW060 19/14 A2996 RMK AO2 SLP143 T01890144 53005=
29/06/2023 07:51->METAR KJFK 290751Z 30008KT 10SM FEW060 19/14 A2994 RMK AO2 SLP139 T01890144=
29/06/2023 06:51->METAR KJFK 290651Z 31009KT 10SM SCT055 20/14 A2994 RMK AO2 SLP139 T02000139=
29/06/2023 05:51->METAR KJFK 290551Z 31010KT 10SM SCT049 21/14 A2994 RMK AO2 SLP138 60000 T02060144 10244 20206 53008=
29/06/2023 04:51->METAR KJFK 290451Z 32010KT 10SM SCT044 BKN085 22/15 A2993 RMK AO2 SLP135 T02170150 402830194=
29/06/2023 03:51->METAR KJFK 290351Z 34010KT 10SM FEW045 OVC090 22/16 A2992 RMK AO2 SLP132 T02220161=
29/06/2023 02:51->METAR KJFK 290251Z 34007KT 10SM OVC045 23/17 A2992 RMK AO2 WSHFT 0210 RAB08E18 SLP130 P0000 60000 T02330172 51024=
29/06/2023 01:51->METAR KJFK 290151Z VRB03KT 10SM BKN045 OVC065 23/21 A2990 RMK AO2 SLP124 T02280206=
29/06/2023 00:51->METAR KJFK 290051Z 32005KT 10SM SCT055 BKN070 BKN250 24/19 A2987 RMK AO2 SLP115 T02390194=
28/06/2023 23:51->METAR KJFK 282351Z 29005KT 10SM BKN045 BKN065 BKN250 24/19 A2984 RMK AO2 WSHFT 2308 RAB2252E36 SLP105 P0006 60017 T02390194 10278 20228 53014=
28/06/2023 22:51->METAR KJFK 282251Z 23006KT 10SM BKN046TCU BKN065 BKN250 23/21 A2983 RMK AO2 RAE11 SLP099 TCU NW P0000 T02330206=
28/06/2023 21:51->METAR KJFK 282151Z 00000KT 10SM -RA BKN038 OVC060 23/19 A2981 RMK AO2 RAB07 SLP095 P0011 T02330194=
28/06/2023 20:51->METAR KJFK 282051Z 20005KT 10SM BKN041 BKN060 BKN100 BKN250 24/20 A2980 RMK AO2 RAB31E46 SLP092 VCSH NE AND W P0000 60000 T02440200 50001=
28/06/2023 19:51->METAR KJFK 281951Z 21011KT 10SM SCT040 SCT100 SCT250 26/19 A2980 RMK AO2 SLP092 TCU DSNT W VCSH NW T02560189=
28/06/2023 18:51->METAR KJFK 281851Z 19012KT 10SM SCT040 SCT065 SCT130 SCT250 27/19 A2980 RMK AO2 SLP092 T02670194=
28/06/2023 17:51->METAR KJFK 281751Z 20012KT 10SM SCT038 SCT095 SCT250 27/19 A2980 RMK AO2 SLP091 T02720194 10283 20217 55004=
28/06/2023 16:51->METAR KJFK 281651Z 20010KT 10SM SCT034 SCT250 27/19 A2980 RMK AO2 SLP091 T02720189=
28/06/2023 15:51->METAR KJFK 281551Z 20011KT 10SM FEW028 BKN250 27/19 A2981 RMK AO2 SLP095 T02670194=
28/06/2023 14:51->METAR KJFK 281451Z 22006KT 10SM FEW027 FEW150 BKN250 26/18 A2981 RMK AO2 SLP095 T02560183 51007=
28/06/2023 13:51->METAR KJFK 281351Z 22005KT 10SM FEW022 FEW150 BKN250 23/18 A2981 RMK AO2 SLP093 T02280183=
28/06/2023 12:51->METAR KJFK 281251Z 30006KT 9SM SCT018 BKN160 BKN250 22/18 A2981 RMK AO2 SLP092 T02220183=
28/06/2023 11:51->METAR KJFK 281151Z 32005KT 8SM FEW011 SCT170 BKN230 22/19 A2979 RMK AO2 SLP088 T02170189 10217 20194 53013 $=
28/06/2023 10:51->METAR KJFK 281051Z 36003KT 8SM FEW008 SCT150 OVC250 20/19 A2978 RMK AO2 SLP084 T02000189 $=
28/06/2023 09:51->METAR KJFK 280951Z 00000KT 10SM FEW170 BKN250 19/18 A2977 RMK AO2 SLP079 T01940183 $=
28/06/2023 08:51->METAR KJFK 280851Z 34004KT 10SM FEW130 BKN250 20/18 A2976 RMK AO2 SLP076 T02000183 55002 $=
28/06/2023 07:51->METAR KJFK 280751Z 34005KT 10SM FEW007 BKN130 BKN250 20/19 A2976 RMK AO2 SLP076 T02000194 $=
28/06/2023 06:51->METAR KJFK 280651Z 00000KT 10SM SCT006 BKN130 20/19 A2975 RMK AO2 SLP074 T02000194 $=
28/06/2023 05:51->METAR KJFK 280551Z 20006KT 10SM SCT006 BKN130 20/20 A2976 RMK AO2 SLP079 60000 T02000200 10211 20194 56001 $=
28/06/2023 04:51->METAR KJFK 280451Z 18004KT 9SM SCT005 BKN120 21/20 A2977 RMK AO2 SLP080 T02060200 402560189 $=
28/06/2023 03:51->METAR KJFK 280351Z 21003KT 10SM FEW005 FEW060 BKN180 19/19 A2976 RMK AO2 SLP077 T01940194 $=
28/06/2023 02:51->METAR KJFK 280251Z 18007KT 10SM FEW005 SCT065 OVC170 21/20 A2977 RMK AO2 RAE0156 SLP080 P0000 60000 T02060200 50003 $=
28/06/2023 01:51->METAR KJFK 280151Z 17007KT 10SM -RA FEW010 SCT075 BKN110 OVC140 21/20 A2977 RMK AO2 RAB23 SLP081 P0000 T02060200 $=
28/06/2023 00:51->METAR KJFK 280051Z 19008KT 10SM FEW013 FEW035 SCT070 BKN140 OVC250 21/19 A2977 RMK AO2 SLP082 T02110189 $=
27/06/2023 23:51->METAR KJFK 272351Z 17013KT 10SM FEW013 BKN070 BKN250 21/19 A2976 RMK AO2 LTG DSNT NW SLP077 T02110194 10256 20211 51019 $=
27/06/2023 22:51->METAR KJFK 272251Z 16008KT 10SM FEW013 FEW040 BKN085 BKN250 22/19 A2975 RMK AO2 LTG DSNT W AND NW SLP072 T02170194 $=
27/06/2023 21:51->METAR KJFK 272151Z 17012KT 10SM FEW019 FEW040 SCT090 BKN250 24/19 A2973 RMK AO2 SLP067 T02440194 $=
27/06/2023 20:51->METAR KJFK 272051Z 17010KT 10SM SCT019 SCT040 SCT110 BKN250 24/19 A2970 RMK AO2 SLP058 T02440194 50000 $=
27/06/2023 19:51->METAR KJFK 271951Z 19011KT 10SM SCT021 SCT040 BKN110 BKN250 24/19 A2971 RMK AO2 SLP059 T02440194 $=
27/06/2023 18:51->METAR KJFK 271851Z 20012KT 10SM SCT017 SCT040 BKN250 24/19 A2971 RMK AO2 SLP060 SCT017 V BKN T02440194 $=
27/06/2023 17:51->METAR KJFK 271751Z 18011KT 10SM SCT015 BKN250 24/20 A2970 RMK AO2 SLP058 60000 T02390200 10244 20211 58008 $=
27/06/2023 16:51->METAR KJFK 271651Z 19012KT 10SM FEW027 FEW120 BKN250 23/19 A2972 RMK AO2 SLP064 T02280194 $=
27/06/2023 15:51->METAR KJFK 271551Z 18018KT 10SM FEW012 BKN090 BKN250 22/19 A2973 RMK AO2 SLP067 T02170189 $=
27/06/2023 14:51->METAR KJFK 271451Z 19016KT 10SM SCT010 BKN013 BKN090 OVC250 21/19 A2973 RMK AO2 SLP067 60000 T02110189 51019 $=
27/06/2023 13:51->METAR KJFK 271351Z 14012KT 10SM BKN012 BKN018 BKN110 OVC250 22/19 A2972 RMK AO2 RAB18E44 SLP062 P0000 T02170194 $=
27/06/2023 12:51->METAR KJFK 271251Z 09004KT 10SM FEW013 BKN020 OVC250 22/19 A2970 RMK AO2 RAB1158E26 SLP056 P0000 T02170194 $=
27/06/2023 11:51->METAR KJFK 271151Z 00000KT 10SM SCT019 BKN130 OVC250 21/19 A2967 RMK AO2 SLP048 60000 70002 T02110194 10211 20189 50009 $=
27/06/2023 10:51->METAR KJFK 271051Z 12005KT 9SM FEW010 BKN130 BKN250 21/20 A2968 RMK AO2 SLP050 T02060200 $=
27/06/2023 09:51->METAR KJFK 270951Z 19003KT 10SM BKN130 BKN250 20/20 A2968 RMK AO2 SLP051 T02000200 $=
27/06/2023 08:51->METAR KJFK 270851Z 28007KT 10SM BKN250 20/19 A2965 RMK AO2 SLP038 60000 T02000189 58014 $=
27/06/2023 07:51->METAR KJFK 270751Z 15007KT 10SM FEW050 SCT100 BKN170 21/20 A2966 RMK AO2 SLP044 OCNL LTGICCC DSNT E-SE CB DSNT E-SE MOV NE T02060200 $=
27/06/2023 06:51->METAR KJFK 270651Z 22007KT 10SM FEW050 SCT100 19/18 A2968 RMK AO2 RAE0557 TSE10 SLP051 FRQ LTGIC DSNT SE-S CB DSNT SE-S MOV NE P0000 T01940183 $=
27/06/2023 05:51->METAR KJFK 270551Z 25006KT 10SM -TSRA SCT050CB BKN100 20/18 A2969 RMK AO2 PK WND 25026/0500 WSHFT 0456 RAB0455 TSB16 SLP052 FRQ LTGICCA SE-S TS SE-S MOV NE P0002 60002 T02000183 10228 20200 58006 $=
27/06/2023 04:51->METAR KJFK 270451Z 22016KT 1SM R04R/P6000FT BR OVC003 21/21 A2971 RMK AO2 SFC VIS 2 1/2 LTG DSNT S-W SLP061 T02110211 402720200 $=
27/06/2023 03:51->METAR KJFK 270351Z 18013KT 6SM BR OVC005 22/21 A2971 RMK AO2 SLP059 T02170211 $=
27/06/2023 02:51->METAR KJFK 270251Z 14011KT 7SM OVC007 22/21 A2971 RMK AO2 SLP059 T02170206 58012 $=
27/06/2023 01:51->METAR KJFK 270151Z 14005KT 10SM OVC010 22/21 A2974 RMK AO2 SLP072 T02220206 $=
27/06/2023 00:51->METAR KJFK 270051Z VRB05KT 10SM OVC011 23/21 A2973 RMK AO2 SLP068 T02280206 $=
26/06/2023 23:51->METAR KJFK 262351Z 20004KT 10SM BKN009 BKN016 OVC065 23/21 A2974 RMK AO2 SLP071 T02280206 10272 20222 51009 $=
26/06/2023 22:51->METAR KJFK 262251Z 18009KT 10SM BKN009 BKN040 OVC085 23/21 A2974 RMK AO2 LTG DSNT W-N SLP069 T02280206 $=
26/06/2023 21:51->METAR KJFK 262151Z 16012G19KT 10SM FEW009 FEW045 BKN120 BKN160 OVC250 23/21 A2972 RMK AO2 LTG DSNT W AND NW SLP064 T02280206 $=
26/06/2023 20:51->METAR KJFK 262051Z 15013KT 10SM FEW009 BKN160 BKN250 23/21 A2971 RMK AO2 LTG DSNT NW SLP062 T02330206 56015 $=
26/06/2023 19:51->METAR KJFK 261951Z 16012KT 10SM FEW010 FEW047 SCT140 BKN180 BKN250 24/21 A2974 RMK AO2 LTG DSNT W-N SLP069 T02440206 $=
26/06/2023 18:51->METAR KJFK 261851Z 14012KT 10SM FEW011 FEW047 SCT065 BKN250 25/21 A2974 RMK AO2 LTG DSNT N SLP069 T02500206 $=
26/06/2023 17:51->METAR KJFK 261751Z 14010KT 10SM FEW011 FEW047 BKN160 BKN250 26/22 A2976 RMK AO2 LTG DSNT N AND NW SLP077 VCSH NW T02610217 10261 20211 58016 $=
26/06/2023 16:51->METAR KJFK 261651Z 13009KT 10SM FEW011 FEW045 SCT110 BKN170 BKN250 25/21 A2978 RMK AO2 LTG DSNT SW AND W SLP083 T02500211 $=
26/06/2023 15:51->METAR KJFK 261551Z 14008KT 10SM FEW009 SCT047 BKN100 BKN250 24/21 A2979 RMK AO2 LTG DSNT N AND NW TSE00 SLP089 T02440211 $=
26/06/2023 14:51->METAR KJFK 261451Z 16009KT 10SM TS SCT009 SCT042CB BKN090 BKN250 23/21 A2981 RMK AO2 LTG DSNT W-N TSB29 SLP093 OCNL LTGICCG W-NW TS W-NW MOV NE VCSH W-NW T02330206 51003 $=
26/06/2023 13:51->METAR KJFK 261351Z 15009KT 10SM FEW009 SCT046 BKN075 BKN250 24/21 A2981 RMK AO2 LTG DSNT W AND NW SLP093 CB DSNT SW-W MOV NE T02390206 $=
26/06/2023 12:51->METAR KJFK 261251Z 12010KT 10SM SCT005 SCT046 SCT075 BKN140 BKN250 22/21 A2980 RMK AO2 SLP092 T02220211 $=
26/06/2023 11:51->METAR KJFK 261151Z 10008KT 8SM FEW008 SCT050 BKN085 BKN140 21/21 A2980 RMK AO2 SLP090 60001 70001 T02110211 10211 20200 53005 $=
26/06/2023 10:51->METAR KJFK 261051Z 09004KT 8SM FEW008 BKN041 BKN075 BKN140 21/21 A2979 RMK AO2 RAB00E30 SLP087 P0001 T02060206 $=
26/06/2023 09:51->METAR KJFK 260951Z 06003KT 7SM FEW007 SCT060 BKN140 BKN250 21/20 A2978 RMK AO2 SLP085 VCSH SW T02060200 $=
26/06/2023 08:51->METAR KJFK 260851Z 20004KT 8SM FEW006 FEW050 BKN140 20/20 A2978 RMK AO2 SLP085 60000 T02000200 56004 $=
26/06/2023 07:51->METAR KJFK 260751Z 16003KT 10SM FEW005 FEW047 BKN130 20/20 A2979 RMK AO2 SLP086 T02000200 $=
26/06/2023 06:51->METAR KJFK 260651Z 18006KT 9SM SCT005 SCT047 BKN130 20/20 A2979 RMK AO2 RAB41E50 SLP086 P0000 T02000200 $=
26/06/2023 05:51->METAR KJFK 260551Z 17003KT 10SM FEW004 SCT150 20/20 A2980 RMK AO2 SLP089 T02000200 10228 20200 58005 $=
26/06/2023 04:51->METAR KJFK 260451Z 12004KT 10SM SCT004 BKN150 21/20 A2980 RMK AO2 SLP091 T02060200 402830183 $=
26/06/2023 03:51->METAR KJFK 260351Z 15006KT 2 1/2SM OVC004 20/20 A2982 RMK AO2 SFC VIS 7 SLP098 T02000200 $=
26/06/2023 02:51->METAR KJFK 260251Z 14008KT 8SM OVC005 21/20 A2981 RMK AO2 SLP094 T02060200 55001 $=
26/06/2023 01:51->METAR KJFK 260151Z 15006KT 10SM FEW120 21/21 A2980 RMK AO2 SLP090 T02110206 $=
26/06/2023 00:51->METAR KJFK 260051Z 13007KT 10SM FEW080 FEW120 22/21 A2979 RMK AO2 SLP089 T02170206 $=
25/06/2023 23:51->METAR KJFK 252351Z 16007KT 10SM FEW080 SCT120 SCT250 23/21 A2981 RMK AO2 LTG DSNT W SLP096 CB DSNT W-NW T02280206 10267 20228 55000 $=
25/06/2023 22:51->METAR KJFK 252251Z 17006KT 10SM FEW070 SCT120 SCT250 24/21 A2981 RMK AO2 LTG DSNT W SLP095 CB DSNT W T02440206 $=
25/06/2023 21:51->METAR KJFK 252151Z 17007KT 10SM FEW070 SCT120 SCT250 25/21 A2980 RMK AO2 SLP091 T02500211 $=
25/06/2023 20:51->METAR KJFK 252051Z 17008KT 10SM FEW085 SCT130 BKN250 26/21 A2982 RMK AO2 SLP096 T02560211 58011 $=
25/06/2023 19:51->METAR KJFK 251951Z 14009KT 10SM FEW085 SCT150 BKN250 26/21 A2983 RMK AO2 SLP101 T02610211 $=
25/06/2023 18:51->METAR KJFK 251851Z 16007KT 10SM FEW085 BKN250 26/21 A2984 RMK AO2 LTG DSNT NW SLP105 CB DSNT W-NW T02560206 $=
25/06/2023 17:51->METAR KJFK 251751Z 16010KT 10SM SCT040 SCT090 BKN150 BKN250 26/21 A2985 RMK AO2 LTG DSNT W AND NW SLP107 CB DSNT SW-NW T02560206 10283 20217 53003 $=
25/06/2023 16:51->METAR KJFK 251651Z 16012KT 10SM SCT035 SCT090 BKN150 BKN250 26/21 A2983 RMK AO2 LTG DSNT N AND NE AND SW SLP102 CB DSNT NE AND DSNT SW-W T02610211 $=
25/06/2023 15:51->METAR KJFK 251551Z 16012KT 10SM SCT035CB SCT150 SCT250 26/21 A2984 RMK AO2 TSE37 SLP103 CB NW MOV NE CB DSNT S T02610206 $=
25/06/2023 14:51->METAR KJFK 251451Z 15006KT 10SM FEW030 FEW150 SCT250 28/21 A2984 RMK AO2 SLP103 T02780211 57003 $=
25/06/2023 13:51->METAR KJFK 251351Z VRB03KT 10SM FEW009 FEW180 SCT250 26/21 A2984 RMK AO2 SLP105 T02610211 $=
25/06/2023 12:51->METAR KJFK 251251Z 02004KT 2SM FEW005 FEW180 SCT250 24/21 A2984 RMK AO2 SFC VIS 8 SLP106 T02440206 $=
25/06/2023 11:51->METAR KJFK 251151Z 00000KT 2SM BR FEW005 FEW200 SCT250 22/21 A2985 RMK AO2 SFC VIS 5 SLP107 T02170211 10217 20183 53013 $=
25/06/2023 10:51->METAR KJFK 251051Z 00000KT 2SM BR SCT005 SCT200 BKN250 20/20 A2983 RMK AO2 SFC VIS 4 SLP102 T02000200 $=
25/06/2023 09:51->METAR KJFK 250951Z 00000KT 1/2SM R04R/P6000FT BKN004 19/19 A2982 RMK AO2 SFC VIS 5 SLP097 T01890189 $=
25/06/2023 08:51->METAR KJFK 250851Z 08003KT 5SM FEW003 FEW015 18/18 A2981 RMK AO2 SLP093 T01830183 56004 $=
25/06/2023 07:51->METAR KJFK 250751Z 12004KT 2SM BR FEW003 FEW015 18/18 A2981 RMK AO2 SLP093 T01830183 $=
25/06/2023 06:51->METAR KJFK 250651Z 00000KT 5SM BR SCT002 19/19 A2982 RMK AO2 VIS 1 W SLP097 T01890189 $=
25/06/2023 06:12->METAR KJFK COR 250612Z COR 16003KT 1/2SM R04R/3000VP6000FT FG OVC002 19/19 A2983 RMK AO2 VIS 1/4 W T01940194 $=
25/06/2023 05:51->METAR KJFK 250551Z 19003KT 1/2SM R04R/2200V3000FT FG VV002 19/19 A2983 RMK AO2 SLP101 T01890189 10217 20189 56000 $=
25/06/2023 04:51->METAR KJFK 250451Z 11003KT 1 3/4SM R04R/3500V5500FT BR BKN002 19/19 A2983 RMK AO2 SLP102 T01940194 402440189 $=
25/06/2023 03:51->METAR KJFK 250351Z 17006KT 1 1/4SM R04R/2400VP6000FT BR OVC002 19/19 A2983 RMK AO2 SLP099 T01940194 $=
25/06/2023 02:51->METAR KJFK 250251Z 17004KT 4SM BR BKN002 19/19 A2983 RMK AO2 SLP101 T01940194 50002 $=
25/06/2023 01:51->METAR KJFK 250151Z 18008KT 8SM SCT004 BKN090 BKN250 20/20 A2983 RMK AO2 SLP102 T02000200 $=
25/06/2023 00:51->METAR KJFK 250051Z 21005KT 9SM SCT035 SCT085 BKN250 21/20 A2983 RMK AO2 SLP101 T02060200 $=
24/06/2023 23:51->METAR KJFK 242351Z 19011KT 10SM FEW040 SCT065 BKN250 22/20 A2983 RMK AO2 SLP100 60000 T02170200 10244 20200 55002 $=
24/06/2023 22:51->METAR KJFK 242251Z 18011KT 10SM FEW008 FEW030 SCT060 BKN250 22/19 A2982 RMK AO2 SLP096 T02170194 $=
24/06/2023 21:51->METAR KJFK 242151Z 15007KT 10SM SCT006 SCT030 BKN060 BKN250 21/19 A2981 RMK AO2 SLP095 T02110194 $=
24/06/2023 20:51->METAR KJFK 242051Z 18009KT 10SM SCT005 BKN028 BKN250 21/19 A2983 RMK AO2 LTG DSNT SW SLP102 60000 T02060194 56001 $=
24/06/2023 19:51->METAR KJFK 241951Z 18009KT 7SM SCT005 BKN010 BKN024 23/20 A2983 RMK AO2 LTG DSNT S AND SW RAB28E46 SLP101 P0000 T02280200 $=
24/06/2023 18:51->METAR KJFK 241851Z 17008KT 10SM FEW006 SCT013 BKN070 BKN250 24/20 A2984 RMK AO2 SLP103 T02390200 $=
24/06/2023 17:51->METAR KJFK 241751Z 17010KT 10SM OVC006 22/20 A2985 RMK AO2 CIG 002 W SLP109 60000 T02220200 10228 20194 58007 $=
24/06/2023 16:51->METAR KJFK 241651Z 18009KT 10SM BKN006 OVC025 22/19 A2986 RMK AO2 SLP112 T02170194 $=
24/06/2023 15:51->METAR KJFK 241551Z 18009KT 10SM FEW003 FEW012 BKN023 23/21 A2987 RMK AO2 SLP116 T02280206 $=
24/06/2023 14:51->METAR KJFK 241451Z 19008KT 10SM FEW003 BKN012 BKN018 21/21 A2988 RMK AO2 SLP117 60000 T02110206 58004 $=
24/06/2023 13:51->METAR KJFK 241351Z 19007KT 10SM OVC004 21/20 A2988 RMK AO2 SLP119 T02060200 $=
24/06/2023 12:51->METAR KJFK 241251Z 17005KT 10SM OVC003 20/20 A2989 RMK AO2 RAE17 SLP120 P0000 T02000200 $=
24/06/2023 11:51->METAR KJFK 241151Z 20006KT 6SM -RA BR OVC003 19/19 A2989 RMK AO2 VIS 2 1/2 W RAE1059B45 SLP121 P0000 60003 7//// T01940194 10194 20189 53001 $=
24/06/2023 10:51->METAR KJFK 241051Z 00000KT 5SM -RA BR OVC004 19/19 A2989 RMK AO2 SLP120 P0000 T01940194 $=
24/06/2023 09:51->METAR KJFK 240951Z 17004KT 5SM -RA BR BKN004 OVC080 19/19 A2989 RMK AO2 SLP120 P0000 T01890189 $=
24/06/2023 08:51->METAR KJFK 240851Z 19007KT 1 1/4SM R04R/4500V6000FT -RA BR OVC003 19/19 A2988 RMK AO2 RAB21 SLP119 P0000 60003 T01890189 55011 $=
24/06/2023 07:51->METAR KJFK 240751Z 18009KT 1/2SM R04R/2600V3000FT FG VV002 19/19 A2988 RMK AO2 SLP119 T01890189 $=
24/06/2023 06:51->METAR KJFK 240651Z 17007KT 5SM BR OVC005 19/19 A2989 RMK AO2 RAB00E45 SLP122 P0003 T01940194 $=
24/06/2023 05:51->METAR KJFK 240551Z 14007KT 7SM OVC008 19/19 A2992 RMK AO2 SLP130 T01940189 10206 20189 58010 $=
24/06/2023 04:51->METAR KJFK 240451Z 13004KT 8SM BKN007 BKN080 19/19 A2994 RMK AO2 SLP137 T01940189 402110172 $=
24/06/2023 03:51->METAR KJFK 240351Z 14007KT 9SM FEW003 BKN046 BKN060 19/19 A2995 RMK AO2 SLP140 T01940194 $=
24/06/2023 02:51->METAR KJFK 240251Z 12006KT 10SM BKN006 BKN048 19/19 A2995 RMK AO2 SLP143 T01890189 56002 $=
24/06/2023 01:51->METAR KJFK 240151Z 12006KT 10SM SCT006 BKN044 BKN160 OVC250 19/18 A2996 RMK AO2 SLP144 T01940183 $=
24/06/2023 00:51->METAR KJFK 240051Z 11007KT 10SM SCT006 BKN160 OVC250 19/19 A2995 RMK AO2 SLP142 T01940189 $=
23/06/2023 23:51->METAR KJFK 232351Z 13007KT 10SM SCT008 SCT075 BKN140 BKN250 21/19 A2996 RMK AO2 SLP144 60000 T02060189 10211 20189 56011 $=
23/06/2023 22:51->METAR KJFK 232251Z 12007KT 10SM BKN008 BKN075 BKN250 21/19 A2997 RMK AO2 SLP148 T02110194=
23/06/2023 21:51->METAR KJFK 232151Z 12007KT 10SM OVC005 20/19 A2998 RMK AO2 SLP151 T02000194=
23/06/2023 20:51->METAR KJFK 232051Z 13007KT 2 1/2SM OVC006 21/19 A2999 RMK AO2 SFC VIS 9 SLP155 60000 T02060194 56013=
23/06/2023 19:51->METAR KJFK 231951Z 11009KT 2 1/2SM OVC004 19/18 A3000 RMK AO2 SFC VIS 8 SLP158 T01940183 $=
23/06/2023 18:51->METAR KJFK 231851Z 11011KT 8SM OVC005 19/18 A3001 RMK AO2 DZE46 SLP161 P0000 T01940183 $=
23/06/2023 17:51->METAR KJFK 231751Z 12012KT 6SM -DZ BR OVC007 19/18 A3003 RMK AO2 DZB50 SLP167 60003 T01940178 10206 20178 56017 $=
23/06/2023 16:51->METAR KJFK 231651Z 09008KT 10SM OVC007 19/18 A3003 RMK AO2 RAE1554 SLP169 P0000 T01890178 $=
23/06/2023 15:51->METAR KJFK 231551Z 07011KT 10SM -RA BKN007 OVC013 18/18 A3005 RMK AO2 RAE13B38 SLP176 P0000 T01830178=
23/06/2023 14:51->METAR KJFK 231451Z 10012KT 7SM -RA BKN010 OVC018 18/17 A3008 RMK AO2 RAB12 SLP184 CIG 008V012 P0003 60003 T01780167 56006 $=
23/06/2023 13:51->METAR KJFK 231351Z 11011KT 10SM OVC013 19/16 A3008 RMK AO2 SLP185 CIG 010V016 T01940161 $=
23/06/2023 12:51->METAR KJFK 231251Z 11008KT 10SM OVC008 19/17 A3009 RMK AO2 SLP188 T01890167 $=
23/06/2023 11:51->METAR KJFK 231151Z 13010KT 10SM OVC008 18/17 A3009 RMK AO2 SLP190 T01780167 10178 20172 53008 $=
23/06/2023 10:51->METAR KJFK 231051Z 12005KT 10SM OVC007 18/17 A3008 RMK AO2 SLP184 T01780167 $=
23/06/2023 09:51->METAR KJFK 230951Z 10004KT 10SM OVC007 17/16 A3007 RMK AO2 SLP182 T01720161 $=
23/06/2023 08:51->METAR KJFK 230851Z 12005KT 10SM OVC006 17/16 A3007 RMK AO2 SLP182 T01720161 58006 $=
23/06/2023 07:51->METAR KJFK 230751Z 10008KT 10SM OVC006 17/16 A3008 RMK AO2 SLP184 T01720161 $=
23/06/2023 06:51->METAR KJFK 230651Z 12007KT 10SM OVC006 17/16 A3008 RMK AO2 SLP187 T01720161 $=
23/06/2023 05:51->METAR KJFK 230551Z 10006KT 10SM SCT007 BKN029 OVC130 17/16 A3009 RMK AO2 SLP188 T01720161 10206 20172 58005 $=
23/06/2023 04:51->METAR KJFK 230451Z 13006KT 10SM FEW006 BKN028 OVC049 18/17 A3010 RMK AO2 SLP193 T01780167 402280144 $=
23/06/2023 03:51->METAR KJFK 230351Z 13006KT 10SM FEW008 OVC031 18/17 A3011 RMK AO2 SLP194 T01780167 $=
23/06/2023 02:51->METAR KJFK 230251Z 15006KT 10SM SCT033 BKN250 18/17 A3010 RMK AO2 SLP193 T01780167 53002 $=
23/06/2023 01:51->METAR KJFK 230151Z 07006KT 10SM FEW024 OVC034 21/16 A3010 RMK AO2 SLP192 T02060161 $=
23/06/2023 00:51->METAR KJFK 230051Z 09004KT 10SM FEW024 BKN036 BKN250 20/17 A3010 RMK AO2 SLP191 T02000167 $=
22/06/2023 23:51->METAR KJFK 222351Z 12006KT 10SM OVC028 21/17 A3009 RMK AO2 SLP190 T02060167 10228 20206 55006 $=
22/06/2023 22:51->METAR KJFK 222251Z 08010KT 10SM BKN029 BKN250 22/16 A3009 RMK AO2 SLP189 T02220156 $=
22/06/2023 21:51->METAR KJFK 222151Z 08012KT 10SM BKN029 BKN250 22/15 A3009 RMK AO2 SLP190 T02220150 $=
22/06/2023 20:51->METAR KJFK 222051Z 04010KT 10SM OVC029 22/14 A3011 RMK AO2 SLP196 T02170144 56014 $=
22/06/2023 19:51->METAR KJFK 221951Z 08009KT 10SM OVC029 22/14 A3012 RMK AO2 SLP200 T02220144 $=
22/06/2023 18:51->METAR KJFK 221851Z 05008KT 10SM OVC027 22/14 A3014 RMK AO2 SLP205 T02170144 $=
22/06/2023 17:51->METAR KJFK 221751Z 05010KT 10SM OVC024 21/14 A3015 RMK AO2 SLP211 60000 T02110139 10211 20156 58012 $=
22/06/2023 16:51->METAR KJFK 221651Z 03011KT 10SM OVC021 20/14 A3018 RMK AO2 SLP219 T02000139 $=
22/06/2023 15:51->METAR KJFK 221551Z 04013G21KT 10SM SCT012 OVC020 18/13 A3019 RMK AO2 SLP223 T01830133 $=
22/06/2023 14:51->METAR KJFK 221451Z 04016G23KT 10SM FEW014 BKN023 OVC037 19/13 A3019 RMK AO2 SLP222 60000 T01890133 50001 $=
22/06/2023 13:51->METAR KJFK 221351Z 04013KT 10SM BKN015 BKN027 OVC039 17/13 A3019 RMK AO2 DZE06 SLP223 CIG 013V017 P0000 T01720133 $=
22/06/2023 12:51->METAR KJFK 221251Z 05013KT 4SM -DZ BR FEW007 BKN013 OVC025 16/14 A3019 RMK AO2 RAB31E41DZB41 SLP224 P0000 T01560144 $=
22/06/2023 11:51->METAR KJFK 221151Z 04010KT 10SM FEW012 OVC029 16/13 A3019 RMK AO2 SLP221 60000 T01610128 10172 20144 51004 $=
22/06/2023 10:51->METAR KJFK 221051Z 04012KT 10SM FEW013 OVC028 15/13 A3018 RMK AO2 SLP220 T01500128 $=
22/06/2023 09:51->METAR KJFK 220951Z 05011KT 10SM BKN026 OVC034 14/12 A3018 RMK AO2 RAE0853B34E44 SLP221 P0000 T01440117 $=
22/06/2023 08:51->METAR KJFK 220851Z 07011KT 10SM -RA OVC027 16/11 A3018 RMK AO2 RAB23 SLP218 P0000 60000 T01560111 55006 $=
22/06/2023 07:51->METAR KJFK 220751Z 06012KT 10SM SCT034 OVC049 16/11 A3017 RMK AO2 CIG 042 W SLP216 T01610111 $=
22/06/2023 06:51->METAR KJFK 220651Z 06014G23KT 10SM OVC034 17/10 A3018 RMK AO2 RAB38E47 SLP220 P0000 T01670100 $=
22/06/2023 05:51->METAR KJFK 220551Z 07014KT 10SM BKN040 OVC050 17/11 A3019 RMK AO2 SLP224 T01720106 10183 20172 57016 $=
22/06/2023 04:51->METAR KJFK 220451Z 07010KT 10SM BKN055 OVC070 17/11 A3021 RMK AO2 SLP228 T01720111 402220156 $=
22/06/2023 03:51->METAR KJFK 220351Z 07012KT 10SM OVC070 17/11 A3023 RMK AO2 SLP236 T01720111=
22/06/2023 02:51->METAR KJFK 220251Z 08012KT 10SM FEW035 BKN065 BKN250 17/12 A3024 RMK AO2 SLP240 T01720117 53001=
22/06/2023 01:51->METAR KJFK 220151Z 08014KT 10SM FEW030 BKN080 BKN250 18/12 A3024 RMK AO2 SLP238 T01780117=
22/06/2023 00:51->METAR KJFK 220051Z 09010KT 10SM FEW030 BKN085 BKN250 18/11 A3023 RMK AO2 SLP236 T01830106=
21/06/2023 23:51->METAR KJFK 212351Z 09011KT 10SM FEW030 BKN080 BKN100 BKN250 18/12 A3024 RMK AO2 SLP239 T01830117 10222 20183 57005=
21/06/2023 22:51->METAR KJFK 212251Z 09017KT 10SM FEW035 BKN095 BKN170 BKN250 19/12 A3024 RMK AO2 SLP240 T01890122=
21/06/2023 21:51->METAR KJFK 212151Z 10015KT 10SM FEW035 SCT100 BKN170 BKN250 20/13 A3025 RMK AO2 SLP242 T02000128=
21/06/2023 20:51->METAR KJFK 212051Z 10014G20KT 10SM FEW017 FEW035 BKN170 BKN250 21/13 A3025 RMK AO2 SLP244 T02110128 58009=
21/06/2023 19:51->METAR KJFK 211951Z 08015G24KT 10SM FEW017 FEW035 BKN190 BKN250 22/12 A3027 RMK AO2 SLP249 T02170117=
21/06/2023 18:51->METAR KJFK 211851Z 10011G20KT 10SM FEW035 BKN170 BKN250 20/13 A3028 RMK AO2 SLP253 T02000128=
21/06/2023 17:51->METAR KJFK 211751Z 11015KT 10SM FEW035 SCT180 BKN250 19/12 A3028 RMK AO2 SLP253 T01940122 10211 20172 50000=
21/06/2023 16:51->METAR KJFK 211651Z 09017G25KT 10SM FEW035 SCT200 BKN250 20/11 A3028 RMK AO2 SLP255 T02000111=
21/06/2023 15:51->METAR KJFK 211551Z 11015KT 10SM FEW032 FEW210 BKN250 20/13 A3029 RMK AO2 SLP257 T02000128=
21/06/2023 14:51->METAR KJFK 211451Z 11013KT 10SM FEW029 FEW210 BKN250 21/12 A3028 RMK AO2 SLP252 T02060117 52002=
21/06/2023 13:51->METAR KJFK 211351Z 07014KT 10SM FEW026 BKN250 21/11 A3028 RMK AO2 SLP252 T02060111=
21/06/2023 12:51->METAR KJFK 211251Z 06013KT 10SM FEW019 BKN250 19/11 A3027 RMK AO2 SLP251 T01890111=
21/06/2023 11:51->METAR KJFK 211151Z 07014KT 10SM BKN018 BKN250 17/12 A3027 RMK AO2 SLP250 BKN018 V SCT T01670122 10167 20156 51012=
21/06/2023 10:51->METAR KJFK 211051Z 05012KT 10SM BKN016 BKN250 16/12 A3026 RMK AO2 SLP246 T01560122=
21/06/2023 09:51->METAR KJFK 210951Z 05009KT 10SM BKN015 OVC250 16/12 A3025 RMK AO2 SLP244 T01560122=
21/06/2023 08:51->METAR KJFK 210851Z 04013KT 10SM OVC015 16/13 A3024 RMK AO2 SLP239 T01560128 58002 $=
21/06/2023 07:51->METAR KJFK 210751Z 05009KT 10SM FEW016 FEW080 OVC250 16/12 A3024 RMK SLP238 T01560122=
21/06/2023 06:51->METAR KJFK 210651Z 06009KT 10SM FEW080 BKN250 16/12 A3024 RMK AO2 SLP240 T01560122 $=
21/06/2023 05:51->METAR KJFK 210551Z 05008KT 10SM FEW080 BKN250 16/12 A3024 RMK AO2 SLP240 T01610117 10194 20161 50003 $=
21/06/2023 04:51->METAR KJFK 210451Z 06005KT 10SM FEW080 BKN250 17/11 A3024 RMK AO2 SLP241 T01670106 402390167 $=
21/06/2023 03:51->METAR KJFK 210351Z 05008KT 10SM FEW080 BKN250 17/11 A3024 RMK AO2 SLP239 T01720106 $=
21/06/2023 02:51->METAR KJFK 210251Z 07011KT 10SM FEW080 OVC250 18/11 A3023 RMK AO2 SLP238 T01780106 51007 $=
21/06/2023 01:51->METAR KJFK 210151Z 08009KT 10SM FEW190 BKN250 18/13 A3023 RMK AO2 SLP237 T01830128 $=
21/06/2023 00:51->METAR KJFK 210051Z 08008KT 10SM FEW020 FEW190 BKN250 18/12 A3022 RMK SLP233 T01830122=
20/06/2023 23:51->METAR KJFK 202351Z 11008KT 10SM FEW020 FEW190 BKN250 19/12 A3021 RMK SLP230 T01940117 10239 20194 53006=
20/06/2023 22:51->METAR KJFK 202251Z 10012KT 10SM FEW035 BKN250 20/13 A3020 RMK SLP227 T02000133=
20/06/2023 21:51->METAR KJFK 202151Z 11011KT 10SM FEW035 BKN250 21/13 A3019 RMK SLP224 T02110128=
20/06/2023 20:51->METAR KJFK 202051Z 12013KT 10SM FEW035 BKN250 22/13 A3019 RMK SLP224 T02170128 58003=
20/06/2023 19:51->METAR KJFK 201951Z 13011KT 10SM FEW035 FEW190 BKN250 22/13 A3021 RMK SLP228 T02170128=
20/06/2023 18:51->METAR KJFK 201851Z 13011KT 10SM FEW035 BKN250 23/13 A3020 RMK SLP228 T02280133=
20/06/2023 17:51->METAR KJFK 201751Z 09011KT 10SM FEW035 BKN250 23/13 A3020 RMK SLP228 T02330133 10233 20178 58001=
20/06/2023 17:00->METAR KJFK 141651Z 18015G23KT 10SM TS BKN007 BKN042 OVC120 21/18 A2954 RMK AO2 LTG DSNT N AND NW TSB51 SLP004 VCSH SW-N T02060178 $=
20/06/2023 16:51->METAR KJFK 201651Z 12011KT 10SM FEW033 FEW140 BKN250 23/14 A3021 RMK SLP230 T02280139=
20/06/2023 15:51->METAR KJFK 201551Z 11011KT 10SM SCT024 BKN250 22/16 A3021 RMK SLP231 T02220156=
20/06/2023 14:51->METAR KJFK 201451Z 12011KT 10SM BKN019 BKN250 21/16 A3021 RMK SLP229 T02110161 50001=
20/06/2023 13:51->METAR KJFK 201351Z 08008KT 10SM BKN018 BKN250 21/16 A3021 RMK SLP229 T02060156=
20/06/2023 12:51->METAR KJFK 201251Z 07007KT 10SM OVC012 19/16 A3021 RMK SLP229 T01890161=
20/06/2023 11:51->METAR KJFK 201151Z 06007KT 10SM OVC011 18/16 A3020 RMK SLP228 CIG 009V013 T01780156 10178 20172 51016=
20/06/2023 10:51->METAR KJFK 201051Z 06008KT 10SM OVC008 17/16 A3019 RMK SLP223 T01720156=
20/06/2023 09:51->METAR KJFK 200951Z 04008KT 10SM OVC010 17/16 A3018 RMK SLP218 T01720156=
20/06/2023 08:51->METAR KJFK 200851Z 07006KT 10SM OVC010 17/16 A3016 RMK SLP212 T01720156 53003=
20/06/2023 07:51->METAR KJFK 200751Z 05007KT 10SM OVC011 18/16 A3014 RMK SLP207 T01780156=
20/06/2023 06:51->METAR KJFK 200651Z 09005KT 10SM BKN011 BKN100 OVC250 18/16 A3014 RMK SLP2207 T01780161=
20/06/2023 05:51->METAR KJFK 200551Z 08005KT 10SM BKN011 OVC100 18/16 A3015 RMK SLP209 T01780161 10194 20178 50001=
20/06/2023 04:51->METAR KJFK 200451Z 09006KT 10SM BKN009 BKN100 OVC250 18/16 A3015 RMK SLP210 T01780161 402500172=
20/06/2023 03:51->METAR KJFK 200351Z 08007KT 10SM BKN008 OVC250 18/17 A3016 RMK SLP212 T01780167=
20/06/2023 02:51->METAR KJFK 200251Z 10009KT 10SM SCT008 SCT100 BKN250 18/17 A3015 RMK SLP208 SCT008 V BKN T01780167 51020=
20/06/2023 01:51->METAR KJFK 200151Z 10009KT 10SM FEW009 FEW100 BKN250 18/17 A3013 RMK SLP283 T01780167=
20/06/2023 00:51->METAR KJFK 200051Z 11006KT 10SM FEW020 FEW100 BKN250 18/17 A3011 RMK SLP196 T01830167=
19/06/2023 23:51->METAR KJFK 192351Z 12009KT 10SM FEW100 BKN250 19/16 A3009 RMK SLP188 T01940161 10244 20194 53014=
19/06/2023 22:51->METAR KJFK 192251Z 10009KT 10SM FEW045 BKN250 21/16 A3007 RMK SLP183 T02060161=
19/06/2023 21:51->METAR KJFK 192151Z 13008KT 10SM FEW045 BKN250 21/16 A3005 RMK SLP176 T02110161=
19/06/2023 20:51->METAR KJFK 192051Z 12013KT 10SM FEW045 BKN250 23/16 A3005 RMK SLP174 T02280156 58005=
19/06/2023 19:51->METAR KJFK 191951Z 12012KT 10SM FEW045 SCT250 23/16 A3006 RMK SLP179 T02330156=
19/06/2023 18:51->METAR KJFK 191851Z 12014KT 10SM FEW045 SCT250 24/16 A3007 RMK SLP182 T02390161=
19/06/2023 17:51->METAR KJFK 191751Z 13011KT 10SM FEW045 SCT250 24/17 A3006 RMK SLP179 T02390167 10250 20200 58001=
19/06/2023 16:51->METAR KJFK 191651Z 14009KT 10SM FEW042 SCT080 SCT250 23/17 A3007 RMK SLP182 T02330167=
19/06/2023 15:51->METAR KJFK 191551Z 14009KT 10SM FEW035 SCT075 SCT250 24/17 A3007 RMK SLP184 T02390167=
19/06/2023 14:51->METAR KJFK 191451Z VRB04KT 10SM SCT075 SCT250 24/16 A3007 RMK SLP181 T02390156 51011=
19/06/2023 13:51->METAR KJFK 191351Z 00000KT 10SM SCT075 SCT250 23/15 A3006 RMK SLP178 T02280150=
19/06/2023 12:51->METAR KJFK 191251Z 03005KT 10SM FEW080 FEW250 22/14 A3005 RMK SLP175 T02170144=
19/06/2023 11:51->METAR KJFK 191151Z 04008KT 10SM FEW250 20/14 A3003 RMK SLP169 T02000139 10200 20172 51017=
19/06/2023 10:51->METAR KJFK 191051Z 03007KT 10SM FEW075 FEW110 SCT250 19/14 A3002 RMK SLP164 T01890139=
19/06/2023 09:51->METAR KJFK 190951Z 03006KT 10SM FEW075 FEW250 17/14 A3000 RMK SLP160 T01720139=
19/06/2023 08:51->METAR KJFK 190851Z 04007KT 10SM FEW080 FEW250 17/14 A2998 RMK SLP152 T01720139 51007=
19/06/2023 07:51->METAR KJFK 190751Z 04007KT 10SM FEW080 SCT250 18/14 A2998 RMK SLP150 T01830144=
19/06/2023 06:51->METAR KJFK 190651Z 02006KT 10SM FEW080 SCT250 18/14 A2997 RMK SLP147 T01830144=
19/06/2023 05:51->METAR KJFK 190551Z 36004KT 10SM FEW080 SCT250 19/16 A2996 RMK SLP145 T01890156 10206 20178 51010=
19/06/2023 04:51->METAR KJFK 190451Z 23003KT 10SM SCT250 19/16 A2995 RMK SLP142 T01890161 402780178=
19/06/2023 03:51->METAR KJFK 190351Z 23004KT 10SM FEW080 SCT250 19/16 A2994 RMK SLP139 T01890161=
19/06/2023 02:51->METAR KJFK 190251Z 21003KT 10SM SCT250 20/16 A2993 RMK SLP135 T02000156 53012=
19/06/2023 01:51->METAR KJFK 190151Z 20003KT 10SM FEW080 SCT200 BKN250 19/15 A2992 RMK SLP132 T01940150=
19/06/2023 00:51->METAR KJFK 190051Z 20005KT 10SM FEW065 SCT080 BKN250 20/16 A2990 RMK SLP126 T02000156=
18/06/2023 23:51->METAR KJFK 182351Z 20011KT 10SM FEW065 SCT085 BKN250 21/16 A2990 RMK SLP123 T02060156 10278 20206 53011=
18/06/2023 22:51->METAR KJFK 182251Z 20012KT 10SM BKN065 BKN085 BKN250 21/16 A2988 RMK SLP119 T02110161=
18/06/2023 21:51->METAR KJFK 182151Z 18011KT 10SM BKN060 BKN080 BKN250 23/15 A2986 RMK SLP111 T02280150=
18/06/2023 20:51->METAR KJFK 182051Z 32008G16KT 10SM BKN060 BKN080 BKN250 26/13 A2986 RMK SLP112 T02610128 53006=
18/06/2023 19:51->METAR KJFK 181951Z 27010G15KT 10SM SCT055 BKN070 BKN250 27/12 A2985 RMK SLP109 T02670122=
18/06/2023 18:51->METAR KJFK 181851Z 28010G14KT 220V310 10SM SCT055 BKN070 BKN250 27/13 A2984 RMK SLP105 T02670133=
18/06/2023 17:51->METAR KJFK 181751Z 29008KT 10SM BKN055 BKN070 BKN250 25/13 A2984 RMK SLP106 T02500128 10261 20206 53002 $=
18/06/2023 16:51->METAR KJFK 181651Z 30007KT 10SM BKN060 BKN250 25/13 A2984 RMK SLP104 T02500128=
18/06/2023 15:51->METAR KJFK 181551Z 33009G16KT 10SM FEW049 SCT250 26/13 A2983 RMK SLP102 T02560128=
18/06/2023 14:51->METAR KJFK 181451Z 31010KT 10SM SCT045 SCT250 24/13 A2984 RMK SLP104 T02440128 53006=
18/06/2023 13:51->METAR KJFK 181351Z 36011G18KT 10SM FEW040 FEW080 SCT250 23/12 A2983 RMK SLP100 T02280122=
18/06/2023 12:51->METAR KJFK 181251Z 34012KT 10SM FEW075 SCT250 22/12 A2983 RMK SLP101 T02170122=
18/06/2023 11:51->METAR KJFK 181151Z 32012KT 10SM FEW080 SCT250 21/12 A2982 RMK SLP098 T02060117 10206 20178 51011 $=
18/06/2023 10:51->METAR KJFK 181051Z 30011G19KT 10SM FEW080 SCT250 19/10 A2981 RMK SLP094 T01890100=
18/06/2023 09:51->METAR KJFK 180951Z 28009KT 10SM FEW200 SCT250 18/10 A2981 RMK SLP093 T01780100=
18/06/2023 08:51->METAR KJFK 180851Z 29012KT 10SM FEW200 SCT250 18/11 A2979 RMK SLP087 T01780106 53008=
18/06/2023 07:51->METAR KJFK 180751Z 29009KT 10SM FEW250 18/11 A2977 RMK SLP081 T01780106=
18/06/2023 06:51->METAR KJFK 180651Z 32009KT 10SM SCT250 19/11 A2976 RMK SLP078 T01890106=
18/06/2023 05:51->METAR KJFK 180551Z 31013KT 10SM SCT250 19/11 A2977 RMK SLP079 T01940106 10206 20189 58001=
18/06/2023 04:51->METAR KJFK 180451Z 31011KT 10SM BKN075 BKN250 19/11 A2976 RMK SLP079 T01940106 402720156=
18/06/2023 03:51->METAR KJFK 180351Z 30013KT 10SM BKN080 20/11 A2977 RMK SLP081 T02000106=
18/06/2023 02:51->METAR KJFK 180251Z 31011KT 8SM BKN070 BKN085 20/11 A2977 RMK SLP080 T02000111 51014=
18/06/2023 01:51->METAR KJFK 180151Z 32009KT 9SM BKN110 OVC150 20/11 A2976 RMK SLP079 T02000111=
18/06/2023 00:51->METAR KJFK 180051Z 34015G21KT 9SM FEW070 BKN160 OVC250 20/11 A2975 RMK SLP074 T02000106=
17/06/2023 23:51->METAR KJFK 172351Z 35012KT 9SM FEW050 SCT070 SCT120 BKN180 BKN250 20/11 A2973 RMK PK WND 36029/2253 SLP066 T02000111 10272 20200 51034=
17/06/2023 22:51->METAR KJFK 172251Z 34021G31KT 8SM SCT050CB SCT075 BKN110 BKN250 22/09 A2970 RMK PK WND 01031/2248 SLP058 CB NW-NE MOV SE T02170094=
17/06/2023 21:51->METAR KJFK 172151Z 36024G35KT 10SM SCT050 SCT070 BKN110 BKN250 22/09 A2966 RMK PK WND 36035/2146 WSHFT 2131 SLP045 CB DSNT E T02220089=
17/06/2023 20:51->METAR KJFK 172051Z 30020G29KT 10SM FEW050 SCT075 BKN110 BKN250 26/09 A2963 RMK PK WND 30029/2048 TSB16E45 SLP032 T02560094 57002=
17/06/2023 19:51->METAR KJFK 171951Z 31020G27KT 10SM FEW050 SCT080 BKN250 27/09 A2963 RMK PK WND 30031/1900 SLP033 CB DSNT NW T02670094=
17/06/2023 18:51->METAR KJFK 171851Z 31018G28KT 10SM FEW050 SCT075 BKN250 26/09 A2963 RMK PK WND 31030/1841 SLP034 T02610089=
17/06/2023 17:51->METAR KJFK 171751Z 33012KT 10SM SCT060 BKN080 BKN090 BKN250 25/11 A2964 RMK SLP038 60000 T02500111 10250 20189 56004=
17/06/2023 16:51->METAR KJFK 171651Z 34012KT 10SM SCT045 BKN060 BKN095 BKN250 24/13 A2967 RMK RAE08 SLP045 P0000 T02390128=
17/06/2023 15:51->METAR KJFK 171551Z 33012KT 10SM -RA BKN038 BKN050 BKN060 BKN250 21/13 A2967 RMK RAB45 SLP048 P000 T02110133=
17/06/2023 14:51->METAR KJFK 171451Z 35013KT 10SM SCT034 BKN085 BKN250 22/14 A2966 RMK SLP044 T02170139 56004=
17/06/2023 13:51->METAR KJFK 171351Z 34011KT 10SM SCT085 BKN110 BKN250 22/14 A2966 RMK SLP044 T02170139=
17/06/2023 12:51->METAR KJFK 171251Z 32013KT 10SM SCT075 BKN100 BKN250 19/14 A2967 RMK SLP046 T01940139=
17/06/2023 11:51->METAR KJFK 171151Z 31013KT 10SM FEW055 BKN200 BKN250 18/14 A2967 RMK SLP048 70020 T01830139 10183 20156 51006=
17/06/2023 10:51->METAR KJFK 171051Z 32010KT 10SM SCT045 BKN070 BKN250 18/14 A2967 RMK SLP047 T01780139=
17/06/2023 09:51->METAR KJFK 170951Z 32009KT 10SM OVC041 17/14 A2967 RMK SLP045 T01670139=
17/06/2023 08:51->METAR KJFK 170851Z 34007KT 10SM BKN250 17/14 A2965 RMK SLP041 T01670139 55003=
17/06/2023 07:51->METAR KJFK 170751Z 34008KT 10SM SCT100 BKN250 16/14 A2965 RMK SLP041 T01610139=
17/06/2023 06:51->METAR KJFK 170651Z 33006KT 10SM FEW029 BKN250 16/14 A2966 RMK SLP042 T01610144=
17/06/2023 05:51->METAR KJFK 170551Z 36003KT 10SM FEW080 OVC250 17/14 A2966 RMK AO2 SLP044 T01670144 10183 20167 56009=
17/06/2023 04:51->METAR KJFK 170451Z 04005KT 10SM OVC250 17/14 A2967 RMK AO2 SLP046 T01670144 402560161=
17/06/2023 03:51->METAR KJFK 170351Z 05006KT 10SM SCT250 17/14 A2968 RMK SLP050 T01720144=
17/06/2023 02:51->METAR KJFK 170251Z 03007KT 10SM OVC025 18/14 A2969 RMK SLP053 T01830144 55000=
17/06/2023 01:51->METAR KJFK 170151Z 07005KT 10SM OVC025 18/14 A2969 RMK SLP055 T01830139=
17/06/2023 00:51->METAR KJFK 170051Z 08004KT 10SM FEW013 BKN024 OVC047 18/14 A2968 RMK AO2 SLP049 T01830139=
16/06/2023 23:51->METAR KJFK 162351Z 09003KT 10SM FEW025 BKN046 OVC250 18/14 A2969 RMK AO2 SLP053 60020 T01830144 10206 20172 53004=
16/06/2023 22:51->METAR KJFK 162251Z 09005KT 10SM FEW030 BKN048 OVC250 18/14 A2968 RMK AO2 SLP051 T01830144=
16/06/2023 21:51->METAR KJFK 162151Z 10009KT 10SM FEW030 FEW060 OVC250 19/14 A2968 RMK AO2 SLP049 T01890144=
16/06/2023 20:51->METAR KJFK 162051Z 08006KT 10SM FEW030 FEW110 OVC210 18/16 A2968 RMK AO2 SLP049 60020 T01830156 56019=
16/06/2023 19:51->METAR KJFK 161951Z 09006KT 10SM FEW017 FEW030 SCT110 OVC160 17/16 A2968 RMK RAE39 TSE31 SLP051 P0004 T01720161=
16/06/2023 18:51->METAR KJFK 161851Z 09008KT 7SM TSRA SCT030CB BKN065 OVC085 18/16 A2971 RMK AO2 TSB01 SLP060 OCNL LTGICCG NE-S TS NE-S MOV NE P0016 T01780156=
16/06/2023 17:51->METAR KJFK 161751Z 25007KT 5SM -RA FEW038CB BKN070 OVC120 21/15 A2973 RMK RAB13E29B45 SLP067 CB SW-W MOV NE P0000 60000 T02060150 10256 20200 55007=
16/06/2023 16:51->METAR KJFK 161651Z 18007KT 10SM FEW045 BKN120 BKN250 24/12 A2971 RMK AO2 SLP059 T02440117=
16/06/2023 15:51->METAR KJFK 161551Z 19006KT 10SM FEW045 SCT140 BKN250 25/13 A2973 RMK AO2 SLP066 T02500128=
16/06/2023 14:51->METAR KJFK 161451Z 19005KT 10SM FEW043 FEW140 SCT250 24/13 A2975 RMK AO2 SLP074 T02390133 50000=
16/06/2023 13:51->METAR KJFK 161351Z 20005KT 10SM SCT250 23/14 A2975 RMK SLP075 T02280144=
16/06/2023 12:51->METAR KJFK 161251Z 22006KT 10SM SCT250 22/13 A2976 RMK AO2 SLP076 T02170133=
16/06/2023 11:51->METAR KJFK 161151Z 20004KT 10SM FEW085 SCT250 20/15 A2975 RMK AO2 SLP074 T02000150 10200 20161 51006=
16/06/2023 10:51->METAR KJFK 161051Z 23005KT 10SM FEW100 BKN250 18/14 A2974 RMK AO2 SLP070 T01780144=
16/06/2023 09:51->METAR KJFK 160951Z 23005KT 10SM FEW100 SCT250 17/15 A2975 RMK AO2 SLP073 T01720150=
16/06/2023 08:51->METAR KJFK 160851Z 25005KT 10SM BKN250 18/16 A2973 RMK AO2 SLP068 T01780161 55004=
16/06/2023 07:51->METAR KJFK 160751Z 23004KT 10SM BKN250 18/16 A2973 RMK SLP067 T01780161=
16/06/2023 06:51->METAR KJFK 160651Z 21004KT 10SM BKN250 18/15 A2973 RMK SLP068 T01780150=
16/06/2023 05:51->METAR KJFK 160551Z 23006KT 10SM BKN250 18/16 A2974 RMK AO2 SLP071 T01780156 10250 20178 51007=
16/06/2023 04:51->METAR KJFK 160451Z 25008KT 10SM BKN250 20/15 A2974 RMK AO2 SLP071 T02000150 402670161=
16/06/2023 03:51->METAR KJFK 160351Z 29005KT 10SM SCT250 22/12 A2974 RMK AO2 SLP070 T02220122=
16/06/2023 02:51->METAR KJFK 160251Z 28008KT 10SM BKN250 23/12 A2972 RMK AO2 SLP064 T02280122 51018=
16/06/2023 01:51->METAR KJFK 160151Z 28011KT 10SM FEW080 BKN250 23/13 A2972 RMK AO2 SLP063 T02330128=
16/06/2023 00:51->METAR KJFK 160051Z 30008KT 10SM FEW060 FEW080 BKN250 24/13 A2969 RMK AO2 SLP054 T02390128=
15/06/2023 23:51->METAR KJFK 152351Z 30012KT 10SM FEW060 FEW080 BKN250 25/12 A2967 RMK AO2 SLP047 T02500122 10267 20233 53008=
15/06/2023 22:51->METAR KJFK 152251Z 30014KT 10SM SCT060 SCT080 BKN250 26/12 A2965 RMK AO2 SLP039 T02560122=
15/06/2023 21:51->METAR KJFK 152151Z 26011KT 10SM SCT055 SCT075 BKN250 26/13 A2964 RMK AO2 SLP037 T02560128=
15/06/2023 20:51->METAR KJFK 152051Z 30008KT 10SM SCT055 SCT075 BKN250 26/13 A2964 RMK AO2 SLP038 T02560128 55003=
15/06/2023 19:51->METAR KJFK 151951Z 34012G28KT 10SM SCT055 SCT075 BKN250 26/13 A2964 RMK PK WND 31028/1945 SLP036 T02560128=
15/06/2023 18:51->METAR KJFK 151851Z 31010G18KT 10SM SCT050 SCT065 BKN250 25/13 A2965 RMK AO2 SLP039 T02500133=
15/06/2023 17:51->METAR KJFK 151751Z 27011KT 10SM BKN050 BKN250 23/12 A2965 RMK AO2 SLP041 T02280122 10233 20189 51004=
15/06/2023 16:51->METAR KJFK 151651Z 28011KT 10SM BKN050 BKN250 23/12 A2965 RMK AO2 SLP041 T02280122=
15/06/2023 15:51->METAR KJFK 151551Z 29010KT 10SM BKN045 BKN250 22/12 A2965 RMK SLP042 T02170122=
15/06/2023 14:51->METAR KJFK 151451Z 29013KT 10SM BKN040 BKN250 21/12 A2964 RMK AO2 SLP037 T02110122 53011=
15/06/2023 13:51->METAR KJFK 151351Z 31014G21KT 10SM FEW035 SCT250 21/12 A2962 RMK SLP028 T02110122=
15/06/2023 12:51->METAR KJFK 151251Z 30012KT 10SM FEW033 SCT250 20/12 A2961 RMK SLP028 T02000122=
15/06/2023 11:51->METAR KJFK 151151Z 28009KT 10SM FEW030 FEW100 SCT250 19/12 A2961 RMK SLP026 70024 T01890122 10189 20161 53014=
15/06/2023 10:51->METAR KJFK 151051Z 27012KT 10SM FEW030 FEW100 SCT250 17/12 A2959 RMK AO2 SLP019 T01720117 $=
15/06/2023 09:51->METAR KJFK 150951Z 27010KT 10SM FEW100 SCT250 16/12 A2958 RMK AO2 SLP015 T01610117 $=
15/06/2023 08:51->METAR KJFK 150851Z 29011KT 10SM FEW250 16/11 A2957 RMK AO2 SLP012 T01610111 51001 $=
15/06/2023 07:51->METAR KJFK 150751Z 28011KT 10SM FEW250 17/12 A2956 RMK AO2 SLP011 T01670117 $=
15/06/2023 06:51->METAR KJFK 150651Z 27013KT 10SM FEW250 17/12 A2957 RMK AO2 SLP013 T01720117 $=
15/06/2023 05:51->METAR KJFK 150551Z 27013KT 10SM FEW100 FEW250 17/12 A2956 RMK AO2 SLP011 T01720117 10206 20172 50000 $=
15/06/2023 04:51->METAR KJFK 150451Z 29014G21KT 10SM FEW095 FEW250 18/12 A2957 RMK AO2 SLP011 T01830117 402220161 $=
15/06/2023 03:51->METAR KJFK 150351Z 27015KT 10SM FEW055 FEW250 19/12 A2956 RMK AO2 SLP010 T01890117 $=
15/06/2023 02:51->METAR KJFK 150251Z 27013G21KT 10SM FEW050 FEW250 19/11 A2956 RMK AO2 SLP010 T01940111 51016 $=
15/06/2023 01:51->METAR KJFK 150151Z 26016KT 10SM FEW047 FEW090 19/11 A2955 RMK AO2 SLP006 T01940111 $=
15/06/2023 00:51->METAR KJFK 150051Z 27016KT 10SM FEW047 FEW090 FEW250 20/11 A2953 RMK AO2 SLP999 CB DSNT E T02000111 $=
14/06/2023 23:51->METAR KJFK 142351Z 27006KT 10SM SCT047 SCT060 SCT090 SCT250 20/14 A2951 RMK AO2 RAB04E14 SLP994 CB DSNT NE P0000 60002 T02000139 10211 20183 53001 $=
14/06/2023 22:51->METAR KJFK 142251Z 20010KT 10SM SCT050CB SCT070 BKN100 BKN250 19/15 A2950 RMK AO2 SLP989 CB W-NW MOV E VCSH W-NW T01940150 $=
14/06/2023 21:51->METAR KJFK 142151Z 19014KT 10SM FEW020 SCT050 BKN100 BKN160 BKN250 20/16 A2950 RMK AO2 SLP990 TCU DSNT NE T02000156 $=
14/06/2023 20:51->METAR KJFK 142051Z 17009KT 10SM SCT042 SCT085 BKN250 21/16 A2951 RMK AO2 RAE1957 SLP993 P0000 60002 T02060161 58007 $=
14/06/2023 19:51->METAR KJFK 141951Z 24008KT 10SM -RA FEW020 SCT042 BKN090 BKN250 19/15 A2952 RMK AO2 RAE1854B19 SLP997 CB DSNT NE P0002 T01890150 $=
14/06/2023 18:51->METAR KJFK 141851Z 28013G18KT 10SM -RA FEW009 SCT042 BKN095 OVC130 21/16 A2952 RMK AO2 WSHFT 1756 RAE11B26 SLP996 P0000 T02060161 $=
14/06/2023 17:51->METAR KJFK 141751Z 20016KT 8SM -RA SCT007 SCT028 BKN048 BKN180 19/18 A2953 RMK AO2 LTG DSNT N AND NE RAB15 TSE1652B01E50 SLP000 CB DSNT NE-E MOV NE P0022 60022 T01940183 10222 20183 56015 $=
14/06/2023 16:51->METAR KJFK 141651Z 18015G23KT 10SM TS BKN007 BKN042 OVC120 21/18 A2954 RMK AO2 LTG DSNT N AND NW TSB51 SLP004 VCSH SW-N T02060178 $=
14/06/2023 15:51->METAR KJFK 141551Z 18016KT 10SM FEW015 BKN120 BKN250 22/18 A2956 RMK AO2 SLP009 T02170178=
14/06/2023 14:51->METAR KJFK 141451Z 17012KT 10SM FEW012 BKN120 BKN250 22/18 A2957 RMK AO2 SLP014 T02170178 58015=
14/06/2023 13:51->METAR KJFK 141351Z 19012KT 10SM FEW012 FEW110 FEW140 BKN250 22/18 A2960 RMK AO2 SLP022 T02170178=
14/06/2023 12:51->METAR KJFK 141251Z 18009KT 10SM FEW012 FEW140 BKN250 21/17 A2961 RMK AO2 SLP028 T02060172=
14/06/2023 11:51->METAR KJFK 141151Z 18008KT 10SM FEW016 FEW080 FEW140 BKN250 19/17 A2962 RMK AO2 SLP029 T01890167 10200 20161 56008 $=
14/06/2023 10:51->METAR KJFK 141051Z 15007KT 10SM FEW045 FEW080 SCT250 18/17 A2962 RMK AO2 SLP031 T01830167 $=
14/06/2023 09:51->METAR KJFK 140951Z 16004KT 10SM FEW080 SCT250 17/14 A2963 RMK AO2 SLP033 T01670144 $=
14/06/2023 08:51->METAR KJFK 140851Z 20007KT 10SM SCT250 17/14 A2964 RMK AO2 SLP038 T01670144 58012 $=
14/06/2023 07:51->METAR KJFK 140751Z 21007KT 10SM FEW250 17/15 A2965 RMK AO2 SLP041 T01720150 $=
14/06/2023 06:51->METAR KJFK 140651Z 21008KT 10SM FEW250 17/15 A2967 RMK AO2 SLP046 T01720150=
14/06/2023 05:51->METAR KJFK 140551Z 22007KT 10SM FEW250 17/14 A2968 RMK AO2 SLP050 T01720144 10233 20172 56008=
14/06/2023 04:51->METAR KJFK 140451Z 21009KT 10SM FEW250 18/14 A2968 RMK AO2 SLP051 T01830139 402670178=
14/06/2023 03:51->METAR KJFK 140351Z 21007KT 10SM SCT250 19/12 A2969 RMK AO2 SLP054 T01890122=
14/06/2023 02:51->METAR KJFK 140251Z 24006KT 10SM SCT250 19/11 A2970 RMK AO2 SLP057 T01940111 50005=
14/06/2023 01:51->METAR KJFK 140151Z 27008KT 10SM FEW065 SCT250 22/10 A2970 RMK AO2 SLP058 T02220100=
14/06/2023 00:51->METAR KJFK 140051Z 27012KT 10SM FEW065 SCT250 23/10 A2969 RMK AO2 SLP054 T02280100=
13/06/2023 23:51->METAR KJFK 132351Z 26010KT 10SM SCT065 SCT250 23/11 A2969 RMK AO2 SLP052 T02330106 10267 20233 53009=
13/06/2023 22:51->METAR KJFK 132251Z 25012KT 10SM FEW055 FEW250 24/12 A2968 RMK AO2 SLP049 T02390122=
13/06/2023 21:51->METAR KJFK 132151Z 23017KT 10SM FEW055 FEW250 25/12 A2966 RMK AO2 SLP044 T02500117=
13/06/2023 20:51->METAR KJFK 132051Z 24016G20KT 10SM FEW055 SCT250 26/11 A2966 RMK AO2 SLP043 T02560106 56006=
13/06/2023 19:51->METAR KJFK 131951Z 23013G19KT 10SM FEW055 SCT230 26/11 A2966 RMK AO2 SLP045 T02560106=
13/06/2023 18:51->METAR KJFK 131851Z 26014G19KT 10SM SCT055 BKN230 27/12 A2966 RMK AO2 SLP044 T02670122=
13/06/2023 17:51->METAR KJFK 131751Z 29010G18KT 260V320 10SM SCT050 BKN250 26/12 A2968 RMK AO2 SLP049 T02610122 10261 20183 58007=
13/06/2023 16:51->METAR KJFK 131651Z 29012KT 270V330 10SM SCT042 BKN250 25/14 A2970 RMK AO2 SLP056 SCT V BKN T02500139=
13/06/2023 15:51->METAR KJFK 131551Z 27014KT 10SM SCT037 BKN250 24/14 A2971 RMK AO2 SLP059 T02390139=
13/06/2023 14:51->METAR KJFK 131451Z 29010G17KT 10SM SCT034 23/14 A2970 RMK AO2 SLP057 T02280139 51005=
13/06/2023 13:51->METAR KJFK 131351Z VRB06KT 10SM SCT028 BKN250 21/14 A2970 RMK AO2 SLP055 T02110139=
13/06/2023 12:51->METAR KJFK 131251Z 27008KT 10SM BKN023 BKN250 19/14 A2969 RMK AO2 SLP054 T01890139=
13/06/2023 11:51->METAR KJFK 131151Z 29011KT 10SM BKN021 18/14 A2968 RMK AO2 SLP051 70018 T01830139 10189 20178 51015=
13/06/2023 10:51->METAR KJFK 131051Z 31010KT 10SM BKN021 18/14 A2967 RMK AO2 SLP048 T01780139=
13/06/2023 09:51->METAR KJFK 130951Z 30011KT 10SM BKN018 18/14 A2967 RMK AO2 SLP046 T01780144=
13/06/2023 08:51->METAR KJFK 130851Z 28008KT 10SM OVC020 19/16 A2964 RMK AO2 SLP036 T01890161 51010=
13/06/2023 07:51->METAR KJFK 130751Z 28005KT 10SM OVC019 19/17 A2963 RMK AO2 SLP034 T01890172=
13/06/2023 06:51->METAR KJFK 130651Z 27010KT 10SM BKN016 19/17 A2962 RMK AO2 SLP031 T01890172=
13/06/2023 05:51->METAR KJFK 130551Z 26012KT 10SM BKN016 19/18 A2961 RMK AO2 SLP025 60013 T01890178 10200 20183 55004=
13/06/2023 04:51->METAR KJFK 130451Z 24013KT 10SM SCT022 SCT250 20/19 A2960 RMK AO2 SLP022 T02000189 402440183=
13/06/2023 03:51->METAR KJFK 130351Z 19012KT 9SM FEW005 OVC017 19/19 A2961 RMK AO2 SLP028 T01940194=
13/06/2023 02:51->METAR KJFK 130251Z 17012KT 8SM OVC005 19/19 A2962 RMK AO2 RAE41 SLP030 P0001 60013 T01890189 56007=
13/06/2023 01:51->METAR KJFK 130151Z 13012KT 7SM -RA BKN005 OVC024 19/19 A2962 RMK AO2 RAB0056 SLP031 P0002 T01890189=
13/06/2023 00:51->METAR KJFK 130051Z 13012KT 6SM BR BKN006 OVC014 18/18 A2963 RMK AO2 RAE43 SLP033 P0010 T01830183=
12/06/2023 23:51->METAR KJFK 122351Z 10009KT 3SM RA BR FEW004 BKN016 OVC029 19/18 A2964 RMK AO2 SFC VIS 5 RAB34 SLP037 P0005 60005 T01940183 10244 20194 58013=
12/06/2023 22:51->METAR KJFK 122251Z 10006KT 8SM BKN004 BKN022 BKN250 20/19 A2966 RMK AO2 SLP042 BKN004 V SCT T02000189=
12/06/2023 21:51->METAR KJFK 122151Z 12008KT 6SM BR OVC005 19/19 A2967 RMK AO2 SLP047 T01940189=
12/06/2023 20:51->METAR KJFK 122051Z 13011KT 8SM OVC007 21/19 A2968 RMK AO2 SLP050 T02060189 56021=
12/06/2023 19:51->METAR KJFK 121951Z 12014G22KT 10SM OVC008 21/19 A2969 RMK AO2 SLP054 T02110189=
12/06/2023 18:51->METAR KJFK 121851Z 12017G21KT 10SM BKN011 BKN180 BKN250 24/19 A2971 RMK AO2 SLP059 T02390194=
12/06/2023 17:51->METAR KJFK 121751Z 13015G20KT 9SM BKN010 BKN130 BKN250 23/19 A2974 RMK AO2 SLP072 CIG 008V012 T02280189 10244 20194 58020=
12/06/2023 16:51->METAR KJFK 121651Z 14015KT 10SM FEW029 BKN130 BKN250 24/19 A2976 RMK AO2 SLP078 T02440194=
12/06/2023 15:51->METAR KJFK 121551Z 15014G21KT 10SM FEW027 BKN150 BKN250 23/18 A2979 RMK AO2 SLP087 T02330183=
12/06/2023 14:51->METAR KJFK 121451Z 15017G20KT 9SM SCT026 BKN085 BKN190 BKN250 23/18 A2980 RMK AO2 SLP092 T02280183 58008=
12/06/2023 13:51->METAR KJFK 121351Z 17012KT 9SM FEW011 BKN030 BKN070 OVC150 21/18 A2982 RMK AO2 SLP098 T02110178=
12/06/2023 12:51->METAR KJFK 121251Z 16008KT 8SM FEW027 SCT070 OVC150 19/17 A2983 RMK AO2 SLP100 T01940172=
12/06/2023 11:51->METAR KJFK 121151Z 17006KT 8SM SCT070 OVC170 19/17 A2983 RMK AO2 SLP100 T01940172 10194 20183 51004=
12/06/2023 10:51->METAR KJFK 121051Z 16007KT 9SM BKN075 OVC180 19/17 A2982 RMK AO2 SLP098 T01890167 $=
12/06/2023 09:51->METAR KJFK 120951Z 18007KT 10SM BKN070 OVC180 19/17 A2983 RMK AO2 SLP100 T01890167 $=
12/06/2023 08:51->METAR KJFK 120851Z 17010KT 10SM BKN080 OVC170 19/17 A2982 RMK AO2 SLP096 T01890172 57006 $=
12/06/2023 07:51->METAR KJFK 120751Z 18011KT 10SM BKN080 OVC160 19/17 A2982 RMK AO2 SLP098 T01890172 $=
12/06/2023 06:51->METAR KJFK 120651Z 18009KT 10SM FEW080 OVC170 19/17 A2983 RMK AO2 SLP101 T01890172 $=
12/06/2023 05:51->METAR KJFK 120551Z 19009KT 10SM BKN150 BKN220 19/17 A2984 RMK AO2 SLP103 T01890167 10206 20189 58004 $=
12/06/2023 04:51->METAR KJFK 120451Z 18015KT 10SM BKN250 19/17 A2985 RMK AO2 SLP106 T01890167 402440167 $=
12/06/2023 03:51->METAR KJFK 120351Z 18015KT 10SM BKN250 19/17 A2985 RMK AO2 SLP107 T01890172 $=
12/06/2023 02:51->METAR KJFK 120251Z 18016KT 10SM BKN250 19/17 A2985 RMK AO2 SLP107 T01890172 51005 $=
12/06/2023 01:51->METAR KJFK 120151Z 18016G24KT 10SM FEW100 BKN250 19/17 A2984 RMK AO2 PK WND 18027/0104 SLP105 T01940167 $=
12/06/2023 00:51->METAR KJFK 120051Z 18018KT 9SM FEW080 SCT100 SCT200 BKN250 19/17 A2984 RMK AO2 SLP103 T01940167 $=
11/06/2023 23:51->METAR KJFK 112351Z 16013KT 10SM SCT100 SCT180 BKN250 21/15 A2983 RMK AO2 SLP102 T02060150 10239 20206 56004=
11/06/2023 22:51->METAR KJFK 112251Z 14013KT 10SM FEW085 SCT110 BKN250 21/16 A2984 RMK AO2 SLP104 T02110156=
11/06/2023 21:51->METAR KJFK 112151Z 13007KT 10SM SCT090 SCT130 BKN250 21/16 A2983 RMK AO2 SLP102 T02110156=
11/06/2023 20:51->METAR KJFK 112051Z 13008KT 10SM FEW080 SCT110 BKN250 23/17 A2984 RMK AO2 SLP106 T02330167 58010=
11/06/2023 19:51->METAR KJFK 111951Z 15007KT 10SM FEW065 BKN110 OVC250 22/16 A2986 RMK AO2 SLP111 VCSH W T02170161=
11/06/2023 18:51->METAR KJFK 111851Z 15009KT 10SM FEW095 SCT120 SCT200 BKN250 23/16 A2987 RMK AO2 SLP114 T02280161=
11/06/2023 17:51->METAR KJFK 111751Z 14006KT 10SM BKN100 BKN210 BKN250 23/16 A2987 RMK AO2 SLP116 T02280161 10244 20189 58008=
11/06/2023 16:51->METAR KJFK 111651Z 15008KT 10SM SCT090 BKN220 BKN250 24/16 A2989 RMK AO2 SLP120 T02390156=
11/06/2023 15:51->METAR KJFK 111551Z VRB04KT 10SM SCT100 SCT210 BKN250 23/15 A2990 RMK AO2 SLP123 T02330150=
11/06/2023 14:51->METAR KJFK 111451Z 19005KT 10SM SCT100 SCT210 BKN250 22/15 A2990 RMK AO2 SLP124 T02220150 50004=
11/06/2023 13:51->METAR KJFK 111351Z 19006KT 9SM FEW095 SCT200 BKN250 21/16 A2990 RMK AO2 SLP125 T02110156=
11/06/2023 12:51->METAR KJFK 111251Z 20007KT 10SM FEW100 SCT200 BKN250 21/15 A2990 RMK AO2 SLP124 T02060150=
11/06/2023 11:51->METAR KJFK 111151Z 21005KT 10SM FEW100 BKN230 19/14 A2989 RMK AO2 SLP120 70005 T01890144 10194 20167 51008=
11/06/2023 10:51->METAR KJFK 111051Z 21004KT 10SM FEW100 BKN250 18/15 A2988 RMK AO2 SLP117 T01830150=
11/06/2023 09:51->METAR KJFK 110951Z 21008KT 10SM BKN100 BKN250 17/15 A2987 RMK AO2 SLP116 T01720150=
11/06/2023 08:51->METAR KJFK 110851Z 18005KT 10SM SCT100 SCT250 17/16 A2986 RMK AO2 SLP112 T01720156 50000=
11/06/2023 07:51->METAR KJFK 110751Z 13005KT 10SM FEW090 17/16 A2987 RMK AO2 SLP113 T01720156=
11/06/2023 06:51->METAR KJFK 110651Z 03005KT 10SM BKN080 BKN110 18/16 A2987 RMK AO2 SLP114 T01830161=
11/06/2023 05:51->METAR KJFK 110551Z 17005KT 10SM FEW055 BKN080 BKN110 18/16 A2986 RMK AO2 RAB12E50 SLP112 P0002 60005 T01780161 10200 20178 50002=
11/06/2023 04:51->METAR KJFK 110451Z 18007KT 10SM BKN080 BKN120 18/16 A2987 RMK AO2 RAE18 SLP114 P0003 T01780161 402670133=
11/06/2023 03:51->METAR KJFK 110351Z 27011KT 8SM -RA BKN065 BKN085 19/15 A2989 RMK AO2 RAB49 SLP121 P0000 T01940150=
11/06/2023 02:51->METAR KJFK 110251Z 20008KT 10SM BKN120 BKN250 18/15 A2986 RMK AO2 SLP110 T01830150 53012=
11/06/2023 01:51->METAR KJFK 110151Z 18005KT 10SM SCT250 18/14 A2985 RMK AO2 SLP107 T01830144=
11/06/2023 00:51->METAR KJFK 110051Z 20006KT 10SM BKN250 19/14 A2983 RMK AO2 SLP102 T01890139=
10/06/2023 23:51->METAR KJFK 102351Z 21008KT 10SM SCT100 BKN250 19/14 A2982 RMK AO2 SLP099 T01940144 10267 20189 53014=
10/06/2023 22:51->METAR KJFK 102251Z 19008KT 10SM SCT100 BKN250 20/14 A2981 RMK AO2 SLP093 T02000144=
10/06/2023 21:51->METAR KJFK 102151Z 19013KT 10SM SCT075 BKN090 21/14 A2979 RMK AO2 SLP087 T02110139=
10/06/2023 20:51->METAR KJFK 102051Z 20014KT 10SM BKN085 BKN200 23/13 A2978 RMK AO2 SLP085 T02280133 53001=
10/06/2023 19:51->METAR KJFK 101951Z 31013KT 10SM SCT070 BKN090 BKN200 26/09 A2977 RMK AO2 SLP081 T02610094=
10/06/2023 18:51->METAR KJFK 101851Z 30017G22KT 10SM FEW060 FEW075 BKN200 26/09 A2978 RMK AO2 SLP085 T02560089=
10/06/2023 17:51->METAR KJFK 101751Z 32009KT 10SM SCT060 BKN250 25/09 A2978 RMK AO2 SLP083 T02500094 10250 20172 58006=
10/06/2023 16:51->METAR KJFK 101651Z 28009G15KT 10SM SCT060 SCT070 BKN100 BKN250 23/09 A2979 RMK AO2 SLP086 T02280094=
10/06/2023 15:51->METAR KJFK 101551Z 29008KT 10SM SCT050 SCT250 22/09 A2979 RMK AO2 SLP089 T02220094=
10/06/2023 14:51->METAR KJFK 101451Z 30011G14KT 10SM FEW046 FEW090 SCT250 21/09 A2980 RMK AO2 SLP089 T02060089 50002=
10/06/2023 13:51->METAR KJFK 101351Z 31010KT 10SM FEW036 FEW090 SCT250 19/10 A2980 RMK AO2 SLP090 T01940100=
10/06/2023 12:51->METAR KJFK 101251Z 34010KT 10SM FEW090 FEW250 19/11 A2980 RMK AO2 SLP091 T01890106=
10/06/2023 11:51->METAR KJFK 101151Z 33009KT 10SM FEW090 FEW250 17/11 A2979 RMK AO2 SLP087 70006 T01720106 10172 20133 51015=
10/06/2023 10:51->METAR KJFK 101051Z 31009KT 10SM FEW090 SCT250 16/11 A2978 RMK AO2 SLP084 T01560106=
10/06/2023 09:51->METAR KJFK 100951Z 31009KT 10SM SCT090 SCT250 14/10 A2976 RMK AO2 SLP079 T01390100=
10/06/2023 08:51->METAR KJFK 100851Z 30007KT 10SM BKN090 BKN250 14/10 A2975 RMK AO2 SLP072 T01390100 53003=
10/06/2023 07:51->METAR KJFK 100751Z 32005KT 10SM FEW250 14/10 A2974 RMK AO2 SLP069 T01390100=
10/06/2023 06:51->METAR KJFK 100651Z 34003KT 10SM FEW100 FEW250 14/10 A2973 RMK AO2 SLP068 T01440100=
10/06/2023 05:51->METAR KJFK 100551Z 34007KT 10SM SCT110 SCT250 15/11 A2974 RMK AO2 SLP069 60006 T01500106 10172 20150 58008=
10/06/2023 04:51->METAR KJFK 100451Z 36004KT 10SM BKN090 BKN250 16/12 A2975 RMK AO2 SLP073 T01560122 402220144=
10/06/2023 03:51->METAR KJFK 100351Z 01005KT 10SM FEW045 BKN085 OVC250 16/14 A2975 RMK AO2 SLP075 T01610144=
10/06/2023 02:51->METAR KJFK 100251Z 26005KT 10SM FEW045 SCT090 SCT250 16/14 A2976 RMK AO2 SLP077 60006 T01610144 51009=
10/06/2023 01:51->METAR KJFK 100151Z 17009KT 10SM FEW045 FEW065 BKN090 BKN250 16/15 A2976 RMK AO2 LTG DSNT SE RAE0052B29E39 SLP076 OCNL LTGIC DSNT SE CB DSNT SE P0000 T01610150=
10/06/2023 00:51->METAR KJFK 100051Z 16005KT 10SM -RA SCT047 BKN090 OVC250 16/12 A2975 RMK AO2 RAB08 SLP072 P0006 T01560122=
09/06/2023 23:51->METAR KJFK 092351Z 19007KT 10SM FEW040 SCT070 BKN090 BKN250 17/13 A2973 RMK AO2 SLP068 VCSH W T01720128 10222 20172 53009=
09/06/2023 22:51->METAR KJFK 092251Z 16006KT 10SM FEW040 FEW070 BKN090 BKN230 18/13 A2972 RMK AO2 SLP065 VCSH SE AND W T01830128=
09/06/2023 21:51->METAR KJFK 092151Z 14005KT 10SM SCT065 BKN095 BKN140 BKN250 18/13 A2971 RMK AO2 SLP062 VCSH NE AND SW-NW T01830128=
09/06/2023 20:51->METAR KJFK 092051Z 18014KT 10SM SCT060 BKN100 BKN250 19/13 A2971 RMK AO2 SLP059 VCSH NW T01890128 55010=
09/06/2023 19:51->METAR KJFK 091951Z 18010KT 10SM SCT060 BKN095 BKN250 21/11 A2970 RMK AO2 SLP058 VCSH NW T02110106=
09/06/2023 18:51->METAR KJFK 091851Z 20008KT 10SM SCT050 BKN100 BKN250 21/10 A2972 RMK AO2 SLP063 T02110100=
09/06/2023 17:51->METAR KJFK 091751Z 21011KT 10SM SCT050 BKN095 BKN250 20/10 A2974 RMK AO2 SLP069 T02000100 10217 20167 58009=
09/06/2023 16:51->METAR KJFK 091651Z 23009G14KT 10SM SCT047 BKN070 BKN250 20/10 A2975 RMK AO2 SLP074 T02000100=
09/06/2023 15:51->METAR KJFK 091551Z 03004KT 10SM SCT044 BKN250 19/08 A2976 RMK AO2 SLP076 T01940083=
09/06/2023 14:51->METAR KJFK 091451Z 01004KT 10SM SCT042 SCT140 BKN250 19/09 A2976 RMK AO2 SLP078 T01940089 50001=
09/06/2023 13:51->METAR KJFK 091351Z VRB04KT 10SM SCT037 SCT140 BKN250 19/09 A2977 RMK AO2 SLP079 T01890089=
09/06/2023 12:51->METAR KJFK 091251Z 36006KT 10SM FEW034 SCT140 BKN250 18/09 A2977 RMK AO2 SLP080 T01780094=
09/06/2023 11:51->METAR KJFK 091151Z 02004KT 10SM FEW065 SCT150 BKN250 17/09 A2976 RMK AO2 SLP078 T01670094 10172 20144 51012=
09/06/2023 10:51->METAR KJFK 091051Z 34007KT 10SM FEW065 BKN150 BKN250 16/09 A2975 RMK AO2 SLP075 T01560094=
09/06/2023 09:51->METAR KJFK 090951Z 32007KT 10SM FEW080 BKN150 15/09 A2975 RMK AO2 SLP072 T01500089=
09/06/2023 08:51->METAR KJFK 090851Z 34006KT 10SM SCT070 OVC150 15/09 A2972 RMK AO2 SLP065 T01500089 55003=
09/06/2023 07:51->METAR KJFK 090751Z 32007KT 10SM SCT070 OVC150 16/08 A2972 RMK AO2 SLP065 T01560083=
09/06/2023 06:51->METAR KJFK 090651Z 33007KT 10SM SCT080 OVC140 16/08 A2973 RMK AO2 SLP066 T01610083=
09/06/2023 05:51->METAR KJFK 090551Z 34005KT 10SM FEW080 OVC140 16/08 A2973 RMK AO2 SLP068 T01610083 10178 20139 58005=
09/06/2023 04:51->METAR KJFK 090451Z 34005KT 6SM FU HZ FEW060 OVC140 16/09 A2974 RMK AO2 SLP070 T01610094 402170106=
09/06/2023 03:51->METAR KJFK 090351Z 00000KT 5SM FU HZ FEW055 BKN140 14/12 A2975 RMK AO2 SLP074 T01440117=
09/06/2023 02:51->METAR KJFK 090251Z 11003KT 5SM FU HZ FEW043 BKN160 16/10 A2975 RMK AO2 SLP073 T01610100 51009=
09/06/2023 01:51->METAR KJFK 090151Z 17004KT 6SM FU HZ FEW041 BKN110 17/11 A2975 RMK AO2 SLP073 T01670106=
09/06/2023 00:51->METAR KJFK 090051Z 00000KT 6SM FU HZ SCT043 BKN100 BKN210 17/10 A2973 RMK AO2 SLP066 T01720100=
08/06/2023 23:51->METAR KJFK 082351Z 16003KT 5SM FU HZ FEW000 FEW055 SCT070 BKN100 BKN180 18/11 A2972 RMK AO2 SLP064 FU HZ FEW000 T01780111 10217 20178 53003=
08/06/2023 22:51->METAR KJFK 082251Z 20005KT 5SM FU HZ FEW000 SCT075 BKN100 BKN210 18/11 A2971 RMK AO2 SLP060 FU HZ FEW000 T01830111=
08/06/2023 21:51->METAR KJFK 082151Z 18009KT 5SM FU HZ FEW000 FEW055 BKN075 BKN100 BKN250 18/12 A2971 RMK AO2 SLP060 FU HZ FEW000 T01830122=
08/06/2023 20:51->METAR KJFK 082051Z 22009KT 5SM FU HZ FEW000 FEW038 BKN070 BKN100 18/12 A2971 RMK AO2 SLP061 FU HZ FEW000 T01830117 53009=
08/06/2023 19:51->METAR KJFK 081951Z 19011KT 5SM FU HZ FEW000 SCT060 BKN090 20/09 A2969 RMK AO2 SLP055 FU HZ FEW000 T02000094=
08/06/2023 18:51->METAR KJFK 081851Z 20009KT 5SM FU HZ FEW000 SCT060 SCT085 21/08 A2969 RMK AO2 SLP055 FU HZ FEW000 T02060083=
08/06/2023 17:51->METAR KJFK 081751Z 21008KT 5SM FU HZ FEW000 SCT060 21/08 A2968 RMK AO2 SLP051 FU HZ FEW000 T02110083 10217 20161 58011=
08/06/2023 16:51->METAR KJFK 081651Z 20011KT 4SM FU HZ SCT000 SCT039 SCT250 21/08 A2970 RMK AO2 SLP057 FU HZ SCT000 T02060083=
08/06/2023 15:51->METAR KJFK 081551Z 20010KT 4SM FU HZ SCT000 SCT036 20/08 A2971 RMK AO2 SLP062 FU HZ SCT000 T02000083=
08/06/2023 14:51->METAR KJFK 081451Z 28006KT 4SM FU HZ SCT000 SCT036 21/07 A2972 RMK AO2 SLP062 FU HZ SCT000 T02060067 58003=
08/06/2023 13:51->METAR KJFK 081351Z 31005KT 3SM FU HZ SCT000 SCT029 19/08 A2973 RMK AO2 SLP066 FU HZ SCT000 T01940078=
08/06/2023 12:51->METAR KJFK 081251Z 35006KT 2 1/2SM FU HZ BKN000 BKN029 17/08 A2973 RMK AO2 SLP068 FU HZ BKN000 T01720083=
08/06/2023 11:51->METAR KJFK 081151Z 35004KT 2 1/2SM FU HZ BKN000 BKN031 16/08 A2973 RMK AO2 SLP066 FU HZ BKN000 T01610083 10161 20106 51018 $=
08/06/2023 10:51->METAR KJFK 081051Z 00000KT 3SM FU HZ SCT000 SCT031 12/09 A2972 RMK AO2 SLP063 FU HZ SCT000 T01220094 $=
08/06/2023 09:51->METAR KJFK 080951Z 00000KT 3SM FU HZ SCT000 SCT033 12/09 A2969 RMK AO2 SLP055 FU HZ SCT000 T01170089 $=
08/06/2023 08:51->METAR KJFK 080851Z 00000KT 1 1/2SM FU HZ BKN000 BKN033 12/08 A2967 RMK AO2 SFC VIS 4 SLP048 FU HZ BKN000 T01170078 57003 $=
08/06/2023 07:51->METAR KJFK 080751Z 34003KT 1 1/2SM FU HZ BKN000 BKN035 12/08 A2967 RMK AO2 SFC VIS 4 SLP048 FU HZ BKN000 T01220078=
08/06/2023 06:51->METAR KJFK 080651Z 36004KT 1 1/2SM FU HZ BKN000 BKN037 13/08 A2968 RMK AO2 SFC VIS 4 SLP050 FU HZ BKN000 T01280078=
08/06/2023 05:51->METAR KJFK 080551Z 00000KT 1 1/2SM FU HZ BKN000 OVC035 13/07 A2968 RMK AO2 SFC VIS 3 SLP051 FU HZ BKN000 T01280067 10189 20128 50001=
08/06/2023 04:51->METAR KJFK 080451Z 01005KT 1 1/2SM FU HZ BKN000 OVC046 15/06 A2969 RMK AO2 SFC VIS 2 1/2 SLP053 FU HZ BKN000 T01500061 402220133=
08/06/2023 03:51->METAR KJFK 080351Z 34007KT 1 1/2SM FU HZ BKN000 OVC043 17/03 A2969 RMK AO2 SFC VIS 2 1/2 SLP053 FU HZ BKN000 T01670028=
08/06/2023 02:51->METAR KJFK 080251Z 30007KT 1 1/2SM FU HZ BKN000 OVC043 18/03 A2968 RMK AO2 SFC VIS 3 SLP050 FU HZ BKN000 T01780033 53009=
08/06/2023 01:51->METAR KJFK 080151Z 31006KT 1 1/2SM FU HZ BKN000 OVC043 17/04 A2967 RMK AO2 SFC VIS 3 SLP046 FU HZ BKN000 T01720044=
08/06/2023 00:51->METAR KJFK 080051Z 31009KT 1 1/2SM FU HZ BKN000 OVC038 18/05 A2967 RMK AO2 SFC VIS 2 1/2 SLP045 FU HZ BKN000 T01830050=
07/06/2023 23:51->METAR KJFK 072351Z 27012KT 1 1/2SM FU HZ BKN000 OVC034 19/05 A2966 RMK AO2 SFC VIS 2 1/2 SLP042 FU HZ BKN000 T01890050 10211 20189 53010=
07/06/2023 22:51->METAR KJFK 072251Z 28009KT 1 1/2SM FU HZ BKN000 OVC028 19/06 A2964 RMK AO2 SFC VIS 3 SLP037 FU HZ BKN000 T01940056=
07/06/2023 21:51->METAR KJFK 072151Z 31012KT 1 1/2SM FU HZ BKN000 OVC028 20/04 A2963 RMK AO2 SFC VIS 3 SLP034 FU HZ BKN000 T02000044=
07/06/2023 20:51->METAR KJFK 072051Z 32012KT 1 1/2SM FU HZ BKN000 OVC028 19/04 A2963 RMK AO2 SFC VIS 2 1/2 SLP032 FU HZ BKN000 T01940044 53007=
07/06/2023 19:51->METAR KJFK 071951Z 31011KT 1 1/2SM FU HZ BKN000 OVC028 19/03 A2962 RMK AO2 SLP028 FU HZ BKN000 T01940028=
07/06/2023 18:51->METAR KJFK 071851Z 31014KT 1 1/2SM FU HZ BKN000 OVC030 19/03 A2961 RMK AO2 SLP027 FU HZ BKN000 T01890028=
07/06/2023 17:51->METAR KJFK 071751Z 31017G23KT 1 1/2SM FU HZ BKN000 OVC026 21/04 A2961 RMK AO2 SLP025 FU HZ BKN000 T02060044 10222 20161 56012=
07/06/2023 16:51->METAR KJFK 071651Z 31016G24KT 2SM FU HZ BKN026 OVC200 22/06 A2961 RMK AO2 SLP028 FU OVC200 T02170061=
07/06/2023 15:51->METAR KJFK 071551Z 27010G16KT 4SM FU HZ FEW038 OVC220 22/07 A2962 RMK AO2 SLP030 FU OVC220 T02220067=
07/06/2023 14:51->METAR KJFK 071451Z 33009KT 6SM FU HZ BKN220 21/07 A2964 RMK AO2 SLP037 FU BKN220 T02110072 54000=
07/06/2023 13:51->METAR KJFK 071351Z 32014KT 5SM FU HZ OVC300 19/08 A2964 RMK AO2 SLP037 FU OVC300 T01890078=
07/06/2023 12:51->METAR KJFK 071251Z 33014KT 5SM FU HZ OVC300 17/07 A2964 RMK AO2 SLP037 FU OVC300 T01720072=
07/06/2023 11:51->METAR KJFK 071151Z 32011KT 6SM FU HZ BKN300 16/07 A2964 RMK AO2 SLP037 FU BKN300 70003 T01610067 10167 20133 52003=
07/06/2023 10:51->METAR KJFK 071051Z 32009KT 6SM FU HZ BKN300 14/06 A2964 RMK AO2 SLP037 FU BKN300 T01440061=
07/06/2023 09:51->METAR KJFK 070951Z 32007KT 5SM FU HZ BKN300 13/06 A2963 RMK AO2 SLP034 FU BKN300 T01330061=
07/06/2023 08:51->METAR KJFK 070851Z 32011KT 6SM FU HZ FEW050 BKN300 14/06 A2963 RMK AO2 SLP034 FU BKN300 T01440056 52000=
07/06/2023 07:51->METAR KJFK 070751Z 30011KT 6SM FU HZ FEW050 BKN300 16/06 A2964 RMK AO2 SLP035 FU BKN300 T01560056=
07/06/2023 06:51->METAR KJFK 070651Z 31012KT 5SM FU HZ FEW048 OVC300 16/06 A2963 RMK AO2 SLP033 FU OVC300 T01610061=
07/06/2023 05:51->METAR KJFK 070551Z 32011KT 5SM FU HZ SCT048 OVC300 16/07 A2963 RMK AO2 SLP034 FU OVC300 T01610067 10200 20150 58006=
07/06/2023 04:51->METAR KJFK 070451Z 34010KT 4SM FU HZ BKN047 16/08 A2964 RMK AO2 SLP035 T01610078 402500150=
07/06/2023 03:51->METAR KJFK 070351Z 01007KT 4SM FU HZ OVC041 17/08 A2965 RMK AO2 SLP040 T01670083=
07/06/2023 02:51->METAR KJFK 070251Z 35011KT 5SM FU HZ OVC041 18/08 A2965 RMK AO2 SLP040 T01830083 51015=
07/06/2023 01:51->METAR KJFK 070151Z 34018G25KT 5SM FU HZ FEW035 OVC050 19/08 A2964 RMK AO2 SLP038 T01940083=
07/06/2023 00:51->METAR KJFK 070051Z 32012KT 6SM FU HZ OVC060 20/08 A2963 RMK AO2 SLP032 T02000078=
06/06/2023 23:51->METAR KJFK 062351Z 19006KT 7SM BKN044 OVC300 18/12 A2960 RMK AO2 RAB10E20 SLP025 FU OVC300 P0000 60003 T01830122 10250 20183 51010=
06/06/2023 22:51->METAR KJFK 062251Z 10003KT 7SM BKN039 BKN050 OVC300 18/13 A2960 RMK AO2 SLP022 FU OVC300 T01830133=
06/06/2023 21:51->METAR KJFK 062151Z 10005KT 7SM FEW039 SCT095 OVC300 19/13 A2959 RMK AO2 LTG DSNT S SLP021 RAB14E37 FU OVC300 P0002 T01890133=
06/06/2023 20:51->METAR KJFK 062051Z 09009KT 7SM SCT050 SCT090 BKN300 22/11 A2957 RMK AO2 LTG DSNT E SLP014 FU BKN300 60001 T02170111 56011=
06/06/2023 19:51->METAR KJFK 061951Z 15011KT 8SM SCT050 BKN100 BKN300 21/15 A2958 RMK AO2 LTG DSNT NE-SE RAB17E39 SLP017 FU BKN300 P0001 T02060150=
06/06/2023 18:51->METAR KJFK 061851Z 16011KT 8SM SCT060 BKN090 BKN120 BKN300 22/12 A2958 RMK AO2 LTG DSNT N SLP016 FU BKN300 CB DSNT NW T02220117=
06/06/2023 17:51->METAR KJFK 061751Z 19009KT 7SM SCT060 SCT085 BKN300 23/11 A2961 RMK AO2 SLP026 FU BKN300 60000 T02280106 10250 20172 58027=
06/06/2023 16:51->METAR KJFK 061651Z 24010KT 6SM FU HZ FEW055 OVC300 24/10 A2964 RMK AO2 SLP037 FU OVC300 T02440100=
06/06/2023 15:51->METAR KJFK 061551Z 25008KT 6SM FU HZ BKN300 23/09 A2967 RMK AO2 SLP046 FU BKN300 T02280089=
06/06/2023 14:51->METAR KJFK 061451Z 32008KT 7SM FEW110 BKN300 21/08 A2969 RMK AO2 RAB1352E05 SLP052 FU BKN300 P0000 60000 T02110078 58016=
06/06/2023 13:51->METAR KJFK 061351Z 31012KT 8SM FEW046 BKN110 OVC300 17/08 A2972 RMK AO2 RAB39E48 SLP063 FU OVC300 P0000 T01720078=
06/06/2023 12:51->METAR KJFK 061251Z 25011KT 7SM FEW050 SCT110 BKN300 19/08 A2972 RMK AO2 SLP064 FU BKN300 T01890078=
06/06/2023 11:51->METAR KJFK 061151Z 26007KT 6SM FU HZ FEW050 OVC300 18/07 A2973 RMK AO2 SLP068 FU OVC300 T01830067 10183 20156 58006=
06/06/2023 10:51->METAR KJFK 061051Z 31005KT 6SM FU HZ BKN300 17/05 A2974 RMK AO2 SLP071 FU BKN300 T01720050=
06/06/2023 09:51->METAR KJFK 060951Z 31007KT 6SM FU HZ BKN300 16/05 A2975 RMK AO2 SLP075 FU BKN300 T01610050=
06/06/2023 08:51->METAR KJFK 060851Z 31006KT 7SM BKN300 16/05 A2975 RMK AO2 SLP074 FU BKN300 T01560050 56005=
06/06/2023 07:51->METAR KJFK 060751Z 32007KT 7SM BKN300 17/05 A2975 RMK AO2 SLP074 FU BKN300 T01670050=
06/06/2023 06:51->METAR KJFK 060651Z 33010KT 7SM BKN300 17/06 A2975 RMK AO2 SLP075 FU BKN300 T01720056=
06/06/2023 05:51->METAR KJFK 060551Z 33010KT 8SM BKN300 18/05 A2977 RMK AO2 SLP080 FU BKN300 T01780050 10206 20178 56007=
06/06/2023 04:51->METAR KJFK 060451Z 33011KT 8SM FEW210 OVC300 19/05 A2977 RMK AO2 SLP081 FU OVC300 T01890050 402500100=
06/06/2023 03:51->METAR KJFK 060351Z 33011KT 9SM FEW090 SCT210 OVC300 19/06 A2978 RMK AO2 SLP084 FU OVC300 T01940056=
06/06/2023 02:51->METAR KJFK 060251Z 33011KT 10SM SCT090 OVC300 20/07 A2979 RMK AO2 SLP087 FU OVC300 T02000072 58003=
06/06/2023 01:51->METAR KJFK 060151Z 21005KT 10SM FEW080 SCT095 BKN190 BKN300 18/14 A2980 RMK AO2 SLP090 FU BKN300 T01780139=
06/06/2023 00:51->METAR KJFK 060051Z 21011KT 10SM BKN075 BKN100 BKN250 OVC300 18/12 A2980 RMK AO2 SLP090 FU OVC300 T01830122=
05/06/2023 23:51->METAR KJFK 052351Z 18006KT 10SM FEW075 BKN095 BKN250 BKN300 18/12 A2980 RMK AO2 SLP090 FU BKN300 T01830122 10250 20183 55001=
05/06/2023 22:51->METAR KJFK 052251Z 17007KT 10SM FEW075 BKN100 OVC250 19/13 A2980 RMK AO2 SLP090 T01890133=
05/06/2023 21:51->METAR KJFK 052151Z 03006KT 10SM SCT070 BKN100 BKN250 23/08 A2980 RMK AO2 SLP089 T02280078=
05/06/2023 20:51->METAR KJFK 052051Z 03011KT 10SM SCT065 BKN090 BKN250 23/08 A2980 RMK AO2 SLP091 T02330078 56009=
05/06/2023 19:51->METAR KJFK 051951Z 02015G19KT 10SM BKN065 BKN250 23/08 A2980 RMK AO2 SLP092 T02330078=
05/06/2023 18:51->METAR KJFK 051851Z 36017G22KT 10SM SCT065 BKN250 23/07 A2981 RMK AO2 PK WND 36030/1807 SLP095 T02280072=
05/06/2023 17:51->METAR KJFK 051751Z 02014G19KT 10SM SCT060 SCT250 24/08 A2983 RMK AO2 PK WND 32027/1656 SLP100 T02390078 10239 20161 57021=
05/06/2023 16:51->METAR KJFK 051651Z 01019G27KT 10SM SCT055 SCT095 SCT250 22/08 A2985 RMK AO2 PK WND 01027/1651 SLP108 T02220078=
05/06/2023 15:51->METAR KJFK 051551Z 33016G22KT 10SM SCT049 SCT095 SCT250 21/08 A2987 RMK AO2 SLP113 T02110078=
05/06/2023 14:51->METAR KJFK 051451Z 33014KT 10SM FEW044 SCT095 SCT250 21/08 A2989 RMK AO2 SLP122 T02060083 58014=
05/06/2023 13:51->METAR KJFK 051351Z 34013KT 10SM FEW041 FEW060 SCT095 SCT250 19/08 A2991 RMK AO2 SLP129 T01890083=
05/06/2023 12:51->METAR KJFK 051251Z 34007G15KT 10SM FEW041 SCT060 SCT250 18/08 A2993 RMK AO2 SLP135 T01780078=
05/06/2023 11:51->METAR KJFK 051151Z 32005KT 10SM FEW060 FEW250 16/08 A2993 RMK AO2 SLP136 T01610078 10161 20100 58003=
05/06/2023 10:51->METAR KJFK 051051Z 00000KT 10SM FEW060 FEW250 14/08 A2994 RMK AO2 SLP138 T01390083=
05/06/2023 09:51->METAR KJFK 050951Z 00000KT 10SM FEW060 10/07 A2994 RMK AO2 SLP140 T01000067=
05/06/2023 08:51->METAR KJFK 050851Z 04004KT 10SM CLR 11/07 A2994 RMK AO2 SLP139 T01060067 56008=
05/06/2023 07:51->METAR KJFK 050751Z 36005KT 10SM FEW060 12/07 A2994 RMK AO2 SLP140 T01170072=
05/06/2023 06:51->METAR KJFK 050651Z 02006KT 10SM FEW060 12/07 A2995 RMK AO2 SLP142 T01220072=
05/06/2023 05:51->METAR KJFK 050551Z 04006KT 10SM SCT055 13/08 A2997 RMK AO2 SLP147 T01280078 10161 20128 58012=
05/06/2023 04:51->METAR KJFK 050451Z 03004KT 10SM SCT048 13/07 A2998 RMK AO2 SLP151 T01330072 402110094=
05/06/2023 03:51->METAR KJFK 050351Z 04008KT 10SM BKN048 14/07 A3000 RMK AO2 SLP158 T01440072=
05/06/2023 02:51->METAR KJFK 050251Z 03007KT 10SM OVC060 15/07 A3000 RMK AO2 SLP159 T01500072 50007=
05/06/2023 01:51->METAR KJFK 050151Z 04008KT 10SM BKN065 OVC080 15/07 A3001 RMK AO2 SLP160 T01500072=
05/06/2023 00:51->METAR KJFK 050051Z 05009KT 10SM BKN070 BKN085 16/07 A2999 RMK AO2 SLP155 T01560072=
04/06/2023 23:51->METAR KJFK 042351Z 09007KT 10SM FEW045 BKN065 BKN075 16/07 A2998 RMK AO2 SLP152 T01610072 10211 20161 53008=
04/06/2023 22:51->METAR KJFK 042251Z 03008KT 10SM FEW045 BKN065 BKN075 17/07 A2997 RMK AO2 SLP149 T01720067=
04/06/2023 21:51->METAR KJFK 042151Z 05012KT 10SM FEW045 BKN065 BKN080 18/07 A2996 RMK AO2 SLP145 T01830067=
04/06/2023 20:51->METAR KJFK 042051Z 02015G20KT 10SM FEW045 BKN075 19/06 A2996 RMK AO2 SLP144 T01890056 55006=
04/06/2023 19:51->METAR KJFK 041951Z 01013G22KT 10SM FEW045 BKN065 20/06 A2995 RMK AO2 SLP141 T02000061=
04/06/2023 18:51->METAR KJFK 041851Z 03013KT 10SM FEW045 BKN070 19/06 A2997 RMK AO2 SLP147 T01890061=
04/06/2023 17:51->METAR KJFK 041751Z 35010G18KT 10SM FEW045 BKN065 18/06 A2998 RMK AO2 SLP151 T01830061 10194 20117 56017=
04/06/2023 16:51->METAR KJFK 041651Z 04013G19KT 10SM FEW030 FEW045 BKN060 18/07 A2999 RMK AO2 SLP154 T01780067=
04/06/2023 15:51->METAR KJFK 041551Z 35010G19KT 10SM FEW030 FEW045 BKN055 18/07 A3001 RMK AO2 SLP160 T01830067=
04/06/2023 14:51->METAR KJFK 041451Z 35010G16KT 10SM FEW030 FEW043 BKN060 18/06 A3003 RMK AO2 SLP167 T01780061 58013=
04/06/2023 13:51->METAR KJFK 041351Z 02006KT 10SM FEW030 SCT048 BKN065 16/06 A3005 RMK AO2 SLP174 T01560061=
04/06/2023 12:51->METAR KJFK 041251Z 02011KT 10SM FEW030 FEW049 BKN060 15/06 A3005 RMK AO2 SLP176 T01500056=
04/06/2023 11:51->METAR KJFK 041151Z 36009KT 10SM BKN047 BKN075 12/06 A3006 RMK AO2 SLP180 T01170061 10117 20094 53001=
04/06/2023 10:51->METAR KJFK 041051Z 01005KT 10SM FEW030 FEW080 11/07 A3006 RMK AO2 SLP177 T01060067=
04/06/2023 09:51->METAR KJFK 040951Z 01006KT 10SM FEW030 FEW075 FEW100 09/06 A3007 RMK AO2 SLP180 T00940061=
04/06/2023 08:51->METAR KJFK 040851Z 01009KT 10SM FEW040 FEW100 09/06 A3006 RMK AO2 SLP179 T00940061 58010=
04/06/2023 07:51->METAR KJFK 040751Z 02008KT 10SM FEW040 10/06 A3007 RMK AO2 SLP183 T01000056=
04/06/2023 06:51->METAR KJFK 040651Z 04009KT 10SM BKN027 BKN032 11/06 A3009 RMK AO2 SLP188 T01060061=
04/06/2023 05:51->METAR KJFK 040551Z 05009KT 10SM OVC029 12/07 A3009 RMK AO2 SLP189 T01170067 10156 20117 58006=
04/06/2023 04:51->METAR KJFK 040451Z 06011KT 10SM OVC028 12/07 A3010 RMK AO2 SLP193 T01220067 402110122=
04/06/2023 03:51->METAR KJFK 040351Z 07008KT 10SM BKN026 12/07 A3010 RMK AO2 SLP194 T01220072=
04/06/2023 02:51->METAR KJFK 040251Z 06012KT 10SM OVC027 13/07 A3011 RMK AO2 SLP196 T01280072 51012=
04/06/2023 01:51->METAR KJFK 040151Z 04010KT 10SM SCT025 BKN060 13/08 A3010 RMK AO2 SLP194 T01330083=
04/06/2023 00:51->METAR KJFK 040051Z 06013KT 10SM FEW029 BKN035 BKN050 14/09 A3008 RMK AO2 SLP187 T01440089=
03/06/2023 23:51->METAR KJFK 032351Z 08013KT 10SM SCT029 BKN039 OVC055 16/09 A3007 RMK AO2 SLP184 T01560094 10194 20156 53019=
03/06/2023 22:51->METAR KJFK 032251Z 07013KT 10SM BKN033 OVC055 17/10 A3005 RMK AO2 SLP175 T01670100=
03/06/2023 21:51->METAR KJFK 032151Z 05011KT 10SM FEW020 BKN033 OVC055 18/11 A3003 RMK AO2 WSHFT 2111 SLP169 T01780111=
03/06/2023 20:51->METAR KJFK 032051Z 09007KT 10SM FEW018 BKN031 OVC050 18/12 A3002 RMK AO2 SLP164 T01830117 53000=
03/06/2023 19:51->METAR KJFK 031951Z 05011KT 10SM BKN030 OVC060 19/12 A3001 RMK AO2 SLP160 T01890117=
03/06/2023 18:51->METAR KJFK 031851Z 08009KT 10SM BKN028 OVC060 19/12 A3002 RMK AO2 SLP165 T01890122=
03/06/2023 17:51->METAR KJFK 031751Z 04010KT 10SM BKN024 BKN060 19/12 A3002 RMK AO2 SLP164 T01890122 10211 20172 50010=
03/06/2023 16:51->METAR KJFK 031651Z 05012KT 10SM OVC021 17/12 A3002 RMK AO2 SLP165 T01720122=
03/06/2023 15:51->METAR KJFK 031551Z 05016KT 10SM BKN018 OVC060 18/13 A3000 RMK AO2 SLP160 T01830128=
03/06/2023 14:51->METAR KJFK 031451Z 05011KT 10SM OVC019 20/14 A2999 RMK AO2 SLP153 T02000139 51013=
03/06/2023 13:51->METAR KJFK 031351Z 05011KT 10SM OVC018 19/14 A2997 RMK AO2 SLP150 T01890144=
03/06/2023 12:51->METAR KJFK 031251Z 06015KT 10SM FEW019 SCT050 BKN130 20/16 A2996 RMK AO2 SLP145 T02000156=
03/06/2023 11:51->METAR KJFK 031151Z 06013G22KT 10SM SCT018 SCT050 BKN130 19/16 A2995 RMK AO2 SLP140 70002 T01890156 10200 20167 53021=
03/06/2023 10:51->METAR KJFK 031051Z 06008KT 10SM SCT012 BKN130 19/16 A2992 RMK AO2 SLP132 T01940161=
03/06/2023 09:51->METAR KJFK 030951Z 07008KT 10SM FEW060 BKN100 18/16 A2990 RMK AO2 SLP125 T01780156=
03/06/2023 08:51->METAR KJFK 030851Z 04003KT 10SM BKN020 BKN150 17/16 A2988 RMK AO2 SLP119 T01720156 55003=
03/06/2023 07:51->METAR KJFK 030751Z 00000KT 10SM FEW150 SCT200 18/16 A2987 RMK AO2 SLP115 T01780161=
03/06/2023 06:51->METAR KJFK 030651Z 00000KT 10SM FEW170 FEW200 17/16 A2988 RMK AO2 SLP118 T01670156=
03/06/2023 05:51->METAR KJFK 030551Z 10003KT 10SM FEW170 SCT200 18/16 A2989 RMK AO2 SLP122 60002 T01780161 10211 20178 55000=
03/06/2023 04:51->METAR KJFK 030451Z 07005KT 10SM SCT080 OVC100 19/16 A2990 RMK AO2 SLP125 T01890161 402610156=
03/06/2023 03:51->METAR KJFK 030351Z 15004KT 10SM BKN110 OVC200 19/16 A2988 RMK AO2 SLP117 T01890156=
03/06/2023 02:51->METAR KJFK 030251Z 06004KT 10SM FEW120 BKN200 19/14 A2989 RMK AO2 SLP122 60002 T01940139 53013=
03/06/2023 01:51->METAR KJFK 030151Z 00000KT 10SM FEW055 FEW150 BKN230 19/14 A2988 RMK AO2 SLP118 T01940139=
03/06/2023 00:51->METAR KJFK 030051Z 13004KT 10SM FEW055 FEW100 BKN170 BKN230 20/14 A2987 RMK AO2 RAE32 SLP114 P0002 T02000144=
02/06/2023 23:51->METAR KJFK 022351Z 19007KT 10SM -RA SCT050 SCT100 BKN120 BKN150 BKN190 BKN250 21/14 A2986 RMK AO2 LTG DSNT SW RAB32 TSE32 SLP110 CB DSNT SW P0000 60000 T02110144 10261 20211 50001=
02/06/2023 22:51->METAR KJFK 022251Z 22004KT 10SM TS SCT050CB SCT100 BKN250 23/08 A2988 RMK AO2 LTG DSNT NW TSB43 SLP118 OCNL LTGICCG NW TS NW MOV S VCSH NW T02280078=
02/06/2023 21:51->METAR KJFK 022151Z 15008KT 10SM FEW050 FEW090 SCT250 23/12 A2985 RMK AO2 LTG DSNT W-N SLP108 CB DSNT NW T02330117=
02/06/2023 20:51->METAR KJFK 022051Z 18009KT 10SM FEW050 FEW090 SCT250 24/11 A2985 RMK AO2 SLP109 CB DSNT NW T02390106 56018=
02/06/2023 19:51->METAR KJFK 021951Z 19010KT 10SM FEW050 SCT250 24/13 A2987 RMK AO2 SLP114 CB DSNT NW-N T02390133=
02/06/2023 18:51->METAR KJFK 021851Z 20008KT 10SM FEW050 FEW090 FEW250 25/14 A2989 RMK AO2 SLP120 T02500144=
02/06/2023 17:51->METAR KJFK 021751Z 17007KT 10SM FEW050 FEW095 FEW250 26/15 A2991 RMK AO2 SLP127 T02560150 10261 20194 58008=
02/06/2023 16:51->METAR KJFK 021651Z 18008KT 10SM FEW045 FEW095 24/16 A2992 RMK AO2 SLP132 T02440156=
02/06/2023 15:51->METAR KJFK 021551Z 19009KT 10SM FEW045 26/16 A2992 RMK AO2 SLP133 T02560161=
02/06/2023 14:51->METAR KJFK 021451Z 19006KT 10SM CLR 24/16 A2993 RMK AO2 SLP135 T02440161 58002=
02/06/2023 13:51->METAR KJFK 021351Z 17004KT 10SM CLR 23/16 A2993 RMK AO2 SLP136 T02330156=
02/06/2023 12:51->METAR KJFK 021251Z 17004KT 10SM CLR 21/16 A2994 RMK AO2 SLP138 T02110156=
02/06/2023 11:51->METAR KJFK 021151Z 19003KT 10SM FEW250 19/16 A2994 RMK AO2 SLP137 T01890161 10194 20156 56004=
02/06/2023 10:51->METAR KJFK 021051Z 22004KT 10SM FEW250 17/17 A2994 RMK AO2 SLP139 T01720167=
02/06/2023 09:51->METAR KJFK 020951Z 20006KT 10SM CLR 16/16 A2994 RMK AO2 SLP138 T01610156=
02/06/2023 08:51->METAR KJFK 020851Z 18004KT 10SM CLR 16/16 A2995 RMK AO2 SLP141 T01560156 56015=
02/06/2023 07:51->METAR KJFK 020751Z 23003KT 10SM CLR 16/16 A2996 RMK AO2 SLP144 T01610156=
02/06/2023 06:51->METAR KJFK 020651Z 21004KT 10SM CLR 16/15 A2998 RMK AO2 SLP150 T01610150=
02/06/2023 05:51->METAR KJFK 020551Z 22004KT 10SM CLR 16/15 A2999 RMK AO2 SLP156 T01560150 10194 20156 58016=
02/06/2023 04:51->METAR KJFK 020451Z 22003KT 10SM CLR 17/16 A3001 RMK AO2 SLP163 T01670156 402440139=
02/06/2023 03:51->METAR KJFK 020351Z 18003KT 10SM CLR 17/16 A3002 RMK AO2 SLP167 T01670156=
02/06/2023 02:51->METAR KJFK 020251Z 20005KT 10SM FEW250 17/16 A3004 RMK AO2 SLP172 T01670156 50005=
02/06/2023 01:51->METAR KJFK 020151Z 19004KT 10SM FEW250 17/16 A3004 RMK AO2 SLP172 T01670156=
02/06/2023 00:51->METAR KJFK 020051Z 14003KT 10SM FEW250 18/16 A3003 RMK AO2 SLP170 T01780161=
01/06/2023 23:51->METAR KJFK 012351Z 16007KT 10SM FEW250 19/15 A3002 RMK AO2 SLP167 T01940150 10244 20194 55007=
01/06/2023 22:51->METAR KJFK 012251Z 18006KT 10SM CLR 21/16 A3002 RMK AO2 SLP166 T02060161=
01/06/2023 21:51->METAR KJFK 012151Z 19005KT 10SM CLR 22/16 A3002 RMK AO2 SLP166 T02220156=
01/06/2023 20:51->METAR KJFK 012051Z 18009KT 10SM CLR 22/16 A3004 RMK AO2 SLP174 T02220156 56014=
01/06/2023 19:51->METAR KJFK 011951Z 18009KT 10SM CLR 23/15 A3006 RMK AO2 SLP178 T02330150=
01/06/2023 18:51->METAR KJFK 011851Z 19009KT 10SM CLR 23/15 A3007 RMK AO2 SLP183 T02330150=
01/06/2023 17:51->METAR KJFK 011751Z 22008KT 10SM CLR 24/14 A3008 RMK AO2 SLP187 T02390144 10244 20189 58013=
01/06/2023 16:51->METAR KJFK 011651Z 19007KT 10SM CLR 23/15 A3010 RMK AO2 SLP192 T02330150=
01/06/2023 15:51->METAR KJFK 011551Z 21008KT 10SM FEW300 23/14 A3012 RMK AO2 SLP197 FU FEW300 T02280144=
01/06/2023 14:51->METAR KJFK 011451Z 21008KT 10SM FEW250 22/15 A3012 RMK AO2 SLP200 T02220150 58005=
01/06/2023 13:51->METAR KJFK 011351Z 21005KT 10SM FEW250 22/14 A3013 RMK AO2 SLP202 T02170144=
01/06/2023 12:51->METAR KJFK 011251Z 00000KT 10SM FEW250 FEW300 21/14 A3014 RMK AO2 SLP205 FU FEW300 T02110144=
01/06/2023 11:51->METAR KJFK 011151Z 00000KT 10SM FEW300 19/14 A3014 RMK AO2 SLP204 FU FEW300 T01890139 10189 20139 53006=
01/06/2023 10:51->METAR KJFK 011051Z 04003KT 10SM FEW300 17/13 A3013 RMK AO2 SLP202 FU FEW300 T01670133=
01/06/2023 09:51->METAR KJFK 010951Z 00000KT 10SM FEW300 14/12 A3013 RMK AO2 SLP201 FU FEW300 T01440122=
01/06/2023 08:51->METAR KJFK 010851Z 01004KT 10SM FEW300 14/12 A3012 RMK AO2 SLP199 FU FEW300 T01440122 56010=
01/06/2023 07:51->METAR KJFK 010751Z 03003KT 10SM FEW300 14/12 A3012 RMK AO2 SLP199 FU FEW300 T01440122=
01/06/2023 06:51->METAR KJFK 010651Z 01004KT 10SM FEW300 15/12 A3014 RMK AO2 SLP206 FU FEW300 T01500122=
01/06/2023 05:51->METAR KJFK 010551Z 00000KT 10SM FEW300 15/12 A3015 RMK AO2 SLP209 FU FEW300 T01500122 10167 20144 58002=
01/06/2023 04:51->METAR KJFK 010451Z 03003KT 10SM FEW300 16/13 A3015 RMK AO2 SLP210 FU FEW300 T01560128 402110089=
01/06/2023 03:51->METAR KJFK 010351Z 00000KT 10SM FEW300 16/13 A3016 RMK AO2 SLP213 FU FEW300 T01560128=
01/06/2023 02:51->METAR KJFK 010251Z 00000KT 10SM FEW300 15/12 A3016 RMK AO2 SLP211 FU FEW300 T01500122 58001=
01/06/2023 01:51->METAR KJFK 010151Z 07003KT 10SM FEW250 FEW300 16/13 A3016 RMK AO2 SLP212 FU FEW300 T01560128=
01/06/2023 00:51->METAR KJFK 010051Z 13004KT 10SM FEW250 FEW300 16/13 A3016 RMK AO2 SLP213 FU FEW300 T01560128=
31/05/2023 23:51->METAR KJFK 312351Z 13005KT 10SM FEW250 FEW300 17/13 A3016 RMK AO2 SLP212 FU FEW300 T01670128 10211 20167 56004=
31/05/2023 22:51->METAR KJFK 312251Z 13008KT 10SM FEW250 SCT300 18/13 A3016 RMK AO2 SLP213 FU SCT300 T01830133=
31/05/2023 21:51->METAR KJFK 312151Z 15009KT 10SM FEW250 SCT300 19/14 A3017 RMK AO2 SLP214 FU SCT300 T01940139=
31/05/2023 20:51->METAR KJFK 312051Z 15010KT 10SM FEW250 SCT300 19/14 A3017 RMK AO2 SLP216 FU SCT300 T01890139 56013=
31/05/2023 19:51->METAR KJFK 311951Z 17005KT 10SM FEW250 SCT300 20/14 A3018 RMK AO2 SLP219 FU SCT300 T02000139=
31/05/2023 18:51->METAR KJFK 311851Z 18009KT 10SM FEW250 FEW300 21/14 A3020 RMK AO2 SLP226 FU FEW300 T02060139=
31/05/2023 17:51->METAR KJFK 311751Z 19007KT 10SM FEW250 FEW300 20/14 A3021 RMK AO2 SLP229 FU FEW300 T02000139 10206 20117 58005=
31/05/2023 16:51->METAR KJFK 311651Z 18008KT 10SM FEW250 SCT300 19/13 A3022 RMK AO2 SLP231 FU SCT300 T01940133=
31/05/2023 15:51->METAR KJFK 311551Z 18009KT 10SM FEW250 19/13 A3022 RMK AO2 SLP234 T01940128=
31/05/2023 14:51->METAR KJFK 311451Z 00000KT 9SM FEW250 19/10 A3023 RMK AO2 SLP235 T01890100 58004=
31/05/2023 13:51->METAR KJFK 311351Z 00000KT 10SM FEW018 FEW250 17/09 A3024 RMK AO2 SLP240 T01720089=
31/05/2023 12:51->METAR KJFK 311251Z 01003KT 10SM FEW012 SCT250 14/08 A3024 RMK AO2 SLP241 T01440083=
31/05/2023 11:51->METAR KJFK 311151Z 06003KT 8SM FEW006 SCT250 12/09 A3024 RMK AO2 SLP240 T01170089 10117 20089 50015=
31/05/2023 10:51->METAR KJFK 311051Z 00000KT 6SM BR BKN006 10/09 A3024 RMK AO2 SLP240 T01000094=
31/05/2023 09:51->METAR KJFK 310951Z 05005KT 2 1/2SM OVC006 10/09 A3022 RMK AO2 SFC VIS 7 SLP233 T01000094=
31/05/2023 08:51->METAR KJFK 310851Z 05004KT 10SM FEW009 FEW300 09/08 A3020 RMK AO2 SLP225 FU FEW300 T00890078 56005=
31/05/2023 07:51->METAR KJFK 310751Z 06004KT 10SM FEW009 FEW300 10/09 A3020 RMK AO2 SLP226 FU FEW300 T01000089=
31/05/2023 06:51->METAR KJFK 310651Z 04005KT 10SM FEW300 10/08 A3020 RMK AO2 SLP227 FU FEW300 T01000083=
31/05/2023 05:51->METAR KJFK 310551Z 06003KT 10SM FEW300 11/09 A3021 RMK AO2 SLP230 FU FEW300 T01060089 10150 20106 58004=
31/05/2023 04:51->METAR KJFK 310451Z 05004KT 10SM FEW300 11/09 A3022 RMK AO2 SLP231 FU FEW300 T01110089 401890100=
31/05/2023 03:51->METAR KJFK 310351Z 05004KT 10SM FEW300 11/09 A3022 RMK AO2 SLP234 FU FEW300 T01110094=
31/05/2023 02:51->METAR KJFK 310251Z 11007KT 10SM FEW300 12/10 A3022 RMK AO2 SLP234 FU FEW300 T01220100 53009=
31/05/2023 01:51->METAR KJFK 310151Z 10008KT 10SM FEW300 13/09 A3021 RMK AO2 SLP231 FU FEW300 T01280094=
31/05/2023 00:51->METAR KJFK 310051Z 11010KT 10SM FEW300 13/09 A3020 RMK AO2 SLP226 FU FEW300 T01330089=
30/05/2023 23:51->METAR KJFK 302351Z 11012KT 10SM FEW300 15/07 A3020 RMK AO2 SLP225 FU FEW300 T01500072 10189 20150 53003=
30/05/2023 22:51->METAR KJFK 302251Z 11010KT 10SM SCT300 16/09 A3019 RMK AO2 SLP223 FU SCT300 T01560089=
30/05/2023 21:51->METAR KJFK 302151Z 13011KT 10SM FEW250 SCT300 17/09 A3019 RMK AO2 SLP222 FU SCT300 T01670094=
30/05/2023 20:51->METAR KJFK 302051Z 12011KT 10SM FEW250 BKN300 18/10 A3019 RMK AO2 SLP222 FU BKN300 T01830100 56017=
30/05/2023 19:51->METAR KJFK 301951Z 12008KT 9SM FEW250 BKN300 18/09 A3020 RMK AO2 SLP227 FU BKN300 T01780089=
30/05/2023 18:51->METAR KJFK 301851Z 11011KT 9SM FEW250 BKN300 18/07 A3022 RMK AO2 SLP234 FU BKN300 T01830072=
30/05/2023 17:51->METAR KJFK 301751Z 14014KT 9SM FEW250 BKN300 18/07 A3024 RMK AO2 SLP239 FU BKN300 T01780067 10189 20144 55000=
30/05/2023 16:51->METAR KJFK 301651Z 13011KT 10SM FEW047 FEW250 BKN300 18/06 A3024 RMK AO2 SLP238 FU BKN300 T01830061=
30/05/2023 15:51->METAR KJFK 301551Z 14012KT 10SM FEW250 BKN300 18/08 A3024 RMK AO2 SLP239 FU BKN300 T01780078=
30/05/2023 14:51->METAR KJFK 301451Z 14008KT 10SM FEW045 FEW250 SCT300 18/08 A3024 RMK AO2 SLP239 FU SCT300 T01780083 51013=
30/05/2023 13:51->METAR KJFK 301351Z 09009KT 060V130 10SM FEW040 FEW250 SCT300 17/07 A3023 RMK AO2 SLP236 FU SCT300 T01670067=
30/05/2023 12:51->METAR KJFK 301251Z 05012KT 10SM FEW040 FEW250 SCT300 16/07 A3021 RMK AO2 SLP229 FU SCT300 T01610072=
30/05/2023 11:51->METAR KJFK 301151Z 06014KT 10SM FEW034 FEW250 14/07 A3020 RMK AO2 SLP226 T01440072 10144 20100 53002=
30/05/2023 10:51->METAR KJFK 301051Z 05007KT 10SM FEW027 FEW250 12/08 A3019 RMK AO2 SLP224 T01220078=
30/05/2023 09:51->METAR KJFK 300951Z 04008KT 10SM FEW250 11/07 A3019 RMK AO2 SLP222 T01060072=
30/05/2023 08:51->METAR KJFK 300851Z 04009KT 10SM CLR 11/07 A3019 RMK AO2 SLP224 T01060072 55000=
30/05/2023 07:51->METAR KJFK 300751Z 03007KT 10SM CLR 11/08 A3019 RMK AO2 SLP223 T01110078=
30/05/2023 06:51->METAR KJFK 300651Z 05007KT 10SM CLR 11/08 A3020 RMK AO2 SLP225 T01110078=
30/05/2023 05:51->METAR KJFK 300551Z 05007KT 10SM CLR 12/09 A3019 RMK AO2 SLP224 T01220089 10167 20122 53004=
30/05/2023 04:51->METAR KJFK 300451Z 06007KT 10SM CLR 13/09 A3019 RMK AO2 SLP221 T01330089 402390133=
30/05/2023 03:51->METAR KJFK 300351Z 09009KT 10SM FEW250 14/09 A3018 RMK AO2 SLP220 T01390094=
30/05/2023 02:51->METAR KJFK 300251Z 10009KT 10SM FEW250 14/09 A3018 RMK AO2 SLP220 T01440094 51025=
30/05/2023 01:51->METAR KJFK 300151Z 08014G21KT 10SM FEW250 15/09 A3017 RMK AO2 SLP214 T01500089=
30/05/2023 00:51->METAR KJFK 300051Z 09013KT 10SM SCT250 16/09 A3014 RMK AO2 PK WND 10029/0029 SLP204 T01560094=
29/05/2023 23:51->METAR KJFK 292351Z 11019G26KT 10SM SCT250 17/09 A3011 RMK AO2 PK WND 12028/2314 SLP194 T01670089 10228 20167 53016=
29/05/2023 22:51->METAR KJFK 292251Z 11017G24KT 10SM SCT250 18/08 A3008 RMK AO2 PK WND 11027/2159 SLP187 T01830083=
29/05/2023 21:51->METAR KJFK 292151Z 12016G25KT 10SM SCT250 19/08 A3007 RMK AO2 PK WND 11026/2053 SLP181 T01940083=
29/05/2023 20:51->METAR KJFK 292051Z 11021G26KT 10SM SCT250 21/07 A3006 RMK AO2 PK WND 10027/2004 SLP178 T02110072 50000=
29/05/2023 19:51->METAR KJFK 291951Z 11021G26KT 10SM SCT250 22/09 A3006 RMK AO2 PK WND 10026/1920 SLP179 T02170089=
29/05/2023 18:51->METAR KJFK 291851Z 10016G22KT 10SM SCT250 22/09 A3006 RMK AO2 PK WND 11027/1834 SLP178 T02220089=
29/05/2023 17:51->METAR KJFK 291751Z 11018KT 10SM FEW250 22/09 A3006 RMK AO2 PK WND 11027/1701 SLP179 T02220089 10239 20183 53006=
29/05/2023 16:51->METAR KJFK 291651Z 11018G24KT 10SM SCT250 23/09 A3005 RMK AO2 PK WND 11027/1600 SLP175 T02280094=
29/05/2023 15:51->METAR KJFK 291551Z 12021G25KT 10SM SCT250 23/08 A3004 RMK AO2 PK WND 10026/1457 SLP173 T02330078=
29/05/2023 14:51->METAR KJFK 291451Z 09014G22KT 10SM SCT250 23/12 A3004 RMK AO2 SLP172 T02280122 51017=
29/05/2023 13:51->METAR KJFK 291351Z 07012KT 10SM FEW200 SCT250 23/11 A3003 RMK AO2 SLP167 T02280111=
29/05/2023 12:51->METAR KJFK 291251Z 03010KT 10SM FEW160 FEW200 BKN250 22/12 A3001 RMK AO2 SLP161 T02170117=
29/05/2023 11:51->METAR KJFK 291151Z 27003KT 10SM FEW160 FEW200 BKN250 18/13 A2999 RMK AO2 SLP155 T01830133 10189 20139 53013=
29/05/2023 10:51->METAR KJFK 291051Z 26003KT 10SM FEW200 BKN250 18/13 A2998 RMK AO2 SLP151 T01780128=
29/05/2023 09:51->METAR KJFK 290951Z 26003KT 10SM SCT250 15/12 A2997 RMK AO2 SLP147 T01500117=
29/05/2023 08:51->METAR KJFK 290851Z 20005KT 10SM FEW250 14/12 A2995 RMK AO2 SLP143 T01440117 56008=
29/05/2023 07:51->METAR KJFK 290751Z 20008KT 10SM FEW250 14/12 A2996 RMK AO2 SLP143 T01440122=
29/05/2023 06:51->METAR KJFK 290651Z 23005KT 10SM FEW250 16/11 A2996 RMK AO2 SLP146 T01560111=
29/05/2023 05:51->METAR KJFK 290551Z 23004KT 10SM FEW250 15/12 A2998 RMK AO2 SLP151 T01500117 10167 20144 58016=
29/05/2023 04:51->METAR KJFK 290451Z 23006KT 10SM SCT250 14/11 A3000 RMK AO2 SLP159 T01440111 402170128=
29/05/2023 03:51->METAR KJFK 290351Z 23006KT 10SM SCT250 15/12 A3000 RMK AO2 SLP160 T01500117=
29/05/2023 02:51->METAR KJFK 290251Z 22007KT 10SM FEW180 SCT250 16/13 A3003 RMK AO2 SLP167 T01560128 50003=
29/05/2023 01:51->METAR KJFK 290151Z 20009KT 10SM FEW180 BKN250 16/12 A3003 RMK AO2 SLP168 T01610122=
29/05/2023 00:51->METAR KJFK 290051Z 19008KT 10SM FEW150 FEW200 BKN250 16/12 A3002 RMK AO2 SLP166 T01610122=
28/05/2023 23:51->METAR KJFK 282351Z 19008KT 10SM FEW150 FEW200 BKN250 17/12 A3002 RMK AO2 SLP164 T01670122 10217 20167 56014=
28/05/2023 22:51->METAR KJFK 282251Z 18009KT 10SM FEW150 FEW200 BKN250 17/12 A3003 RMK AO2 SLP168 T01720122=
28/05/2023 21:51->METAR KJFK 282151Z 17011KT 10SM FEW070 FEW150 SCT200 BKN250 19/11 A3004 RMK AO2 SLP171 T01940106=
28/05/2023 20:51->METAR KJFK 282051Z 17011KT 10SM FEW070 FEW150 SCT200 BKN250 21/09 A3006 RMK AO2 SLP179 T02060094 58023=
28/05/2023 19:51->METAR KJFK 281951Z 17012KT 10SM FEW070 FEW150 FEW200 BKN250 21/07 A3008 RMK AO2 SLP187 T02110067=
28/05/2023 18:51->METAR KJFK 281851Z 19009KT 10SM FEW070 FEW150 FEW200 BKN250 21/04 A3011 RMK AO2 SLP195 T02110039=
28/05/2023 17:51->METAR KJFK 281751Z 21008KT 10SM FEW200 BKN250 21/07 A3013 RMK AO2 SLP202 T02110067 10217 20178 58017=
28/05/2023 16:51->METAR KJFK 281651Z 19006KT 10SM FEW200 BKN250 21/07 A3015 RMK AO2 SLP209 T02110067=
28/05/2023 15:51->METAR KJFK 281551Z 19009KT 10SM FEW200 BKN250 20/10 A3017 RMK AO2 SLP216 T02000100=
28/05/2023 14:51->METAR KJFK 281451Z 19008KT 10SM FEW200 BKN250 19/08 A3018 RMK AO2 SLP219 T01940083 58011=
28/05/2023 13:51->METAR KJFK 281351Z 20005KT 10SM FEW200 BKN250 19/06 A3019 RMK AO2 SLP223 T01890061=
28/05/2023 12:51->METAR KJFK 281251Z 20007KT 10SM FEW200 BKN250 18/07 A3021 RMK AO2 SLP228 T01830067=
28/05/2023 11:51->METAR KJFK 281151Z 24004KT 10SM FEW200 BKN250 18/08 A3021 RMK AO2 SLP230 T01780083 10178 20128 57001=
28/05/2023 10:51->METAR KJFK 281051Z 23005KT 10SM FEW200 BKN250 16/08 A3022 RMK AO2 SLP231 T01560083=
28/05/2023 09:51->METAR KJFK 280951Z 22003KT 10SM SCT250 13/09 A3021 RMK AO2 SLP231 T01330089=
28/05/2023 08:51->METAR KJFK 280851Z 21004KT 10SM SCT250 14/09 A3022 RMK AO2 SLP231 T01390094 58008=
28/05/2023 07:51->METAR KJFK 280751Z 22004KT 10SM FEW250 13/08 A3022 RMK AO2 SLP234 T01330078=
28/05/2023 06:51->METAR KJFK 280651Z 23004KT 10SM SCT250 14/07 A3023 RMK AO2 SLP237 T01390067=
28/05/2023 05:51->METAR KJFK 280551Z 24005KT 10SM OVC250 14/06 A3024 RMK AO2 SLP239 T01440061 10161 20133 58014=
28/05/2023 04:51->METAR KJFK 280451Z 25006KT 10SM BKN250 14/06 A3026 RMK AO2 SLP245 T01390061 402280100=
28/05/2023 03:51->METAR KJFK 280351Z 23006KT 10SM BKN250 14/08 A3027 RMK AO2 SLP250 T01390083=
28/05/2023 02:51->METAR KJFK 280251Z 20007KT 10SM SCT250 14/09 A3028 RMK AO2 SLP253 T01440089 50002=
28/05/2023 01:51->METAR KJFK 280151Z 19007KT 10SM BKN250 15/07 A3029 RMK AO2 SLP255 T01500072=
28/05/2023 00:51->METAR KJFK 280051Z 18007KT 10SM BKN250 16/09 A3028 RMK AO2 SLP252 T01560089=
27/05/2023 23:51->METAR KJFK 272351Z 18009KT 10SM BKN250 16/12 A3027 RMK AO2 SLP251 T01610117 10228 20161 55002=
27/05/2023 22:51->METAR KJFK 272251Z 18010KT 10SM BKN250 18/10 A3027 RMK AO2 SLP249 T01780100=
27/05/2023 21:51->METAR KJFK 272151Z 17012KT 10SM BKN250 19/10 A3027 RMK AO2 SLP251 T01940100=
27/05/2023 20:51->METAR KJFK 272051Z 15011KT 10SM BKN250 21/06 A3028 RMK AO2 SLP253 T02110061 56007=
27/05/2023 19:51->METAR KJFK 271951Z 18010KT 10SM BKN250 21/08 A3029 RMK AO2 SLP255 T02110078=
27/05/2023 18:51->METAR KJFK 271851Z 19010KT 10SM BKN250 22/08 A3029 RMK AO2 SLP257 T02220078=
27/05/2023 17:51->METAR KJFK 271751Z 17009KT 10SM SCT250 22/06 A3030 RMK AO2 SLP260 T02220061 10228 20178 57010=
27/05/2023 16:51->METAR KJFK 271651Z 17007KT 10SM BKN250 22/07 A3031 RMK AO2 SLP263 T02220072=
27/05/2023 15:51->METAR KJFK 271551Z 18007KT 10SM BKN250 22/08 A3032 RMK AO2 SLP267 T02220078=
27/05/2023 14:51->METAR KJFK 271451Z VRB03KT 10SM SCT250 22/06 A3033 RMK AO2 SLP270 T02220056 57001=
27/05/2023 13:51->METAR KJFK 271351Z 07005KT 10SM BKN250 21/05 A3033 RMK AO2 SLP270 T02110050=
27/05/2023 12:51->METAR KJFK 271251Z 09005KT 10SM SCT250 20/06 A3034 RMK AO2 SLP272 T02000061=
27/05/2023 11:51->METAR KJFK 271151Z 02005KT 10SM SCT250 18/07 A3033 RMK AO2 SLP271 T01780067 10178 20100 51016=
27/05/2023 10:51->METAR KJFK 271051Z 00000KT 10SM FEW250 15/09 A3032 RMK AO2 SLP268 T01500094=
27/05/2023 09:51->METAR KJFK 270951Z 00000KT 10SM FEW250 12/07 A3031 RMK AO2 SLP263 T01220072=
27/05/2023 08:51->METAR KJFK 270851Z 21003KT 10SM FEW250 12/07 A3029 RMK AO2 SLP255 T01220067 56002=
27/05/2023 07:51->METAR KJFK 270751Z 31007KT 10SM FEW250 14/04 A3029 RMK AO2 SLP256 T01390044=
27/05/2023 06:51->METAR KJFK 270651Z 29007KT 10SM FEW250 14/04 A3029 RMK AO2 SLP257 T01390039=
27/05/2023 05:51->METAR KJFK 270551Z 27007KT 10SM FEW250 14/05 A3029 RMK AO2 SLP258 T01390050 10161 20133 51004=
27/05/2023 04:51->METAR KJFK 270451Z 25008KT 10SM FEW250 14/06 A3029 RMK AO2 SLP257 T01440061 402280106=
27/05/2023 03:51->METAR KJFK 270351Z 25008KT 10SM CLR 14/07 A3029 RMK AO2 SLP258 T01440067=
27/05/2023 02:51->METAR KJFK 270251Z 23007KT 10SM CLR 14/06 A3028 RMK AO2 SLP254 T01390061 51010=
27/05/2023 01:51->METAR KJFK 270151Z 20007KT 10SM FEW250 14/09 A3028 RMK AO2 SLP253 T01440089=
27/05/2023 00:51->METAR KJFK 270051Z 19008KT 10SM FEW250 16/09 A3026 RMK AO2 SLP248 T01560089=
26/05/2023 23:51->METAR KJFK 262351Z 19008KT 10SM SCT250 16/11 A3025 RMK AO2 SLP244 T01610106 10228 20161 51008=
26/05/2023 22:51->METAR KJFK 262251Z 18008KT 10SM FEW250 18/07 A3024 RMK AO2 SLP241 T01830072=
26/05/2023 21:51->METAR KJFK 262151Z 20009KT 10SM FEW075 SCT250 19/07 A3024 RMK AO2 SLP240 T01940072=
26/05/2023 20:51->METAR KJFK 262051Z 03011G16KT 340V050 10SM FEW075 FEW250 22/02 A3023 RMK AO2 SLP236 T02220022 58009=
26/05/2023 19:51->METAR KJFK 261951Z 02009G18KT 10SM FEW075 FEW250 22/01 A3025 RMK AO2 SLP242 T02170011=
26/05/2023 18:51->METAR KJFK 261851Z 03007G19KT 10SM FEW075 FEW250 22/02 A3025 RMK AO2 SLP243 T02170017=
26/05/2023 17:51->METAR KJFK 261751Z 03011G17KT 10SM FEW075 FEW250 22/02 A3026 RMK AO2 SLP246 T02170022 10217 20156 58012=
26/05/2023 16:51->METAR KJFK 261651Z 01011G16KT 10SM FEW075 FEW250 21/02 A3027 RMK AO2 SLP251 T02110017=
26/05/2023 15:51->METAR KJFK 261551Z 01009G18KT 10SM FEW075 FEW250 20/02 A3029 RMK AO2 SLP256 T02000017=
26/05/2023 14:51->METAR KJFK 261451Z 05007KT 10SM FEW070 FEW250 19/00 A3029 RMK AO2 SLP258 T01890000 50004=
26/05/2023 13:51->METAR KJFK 261351Z 36009KT 10SM FEW250 18/02 A3030 RMK AO2 SLP259 T01830017=
26/05/2023 12:51->METAR KJFK 261251Z 36006KT 10SM FEW250 17/04 A3029 RMK AO2 SLP258 T01720039=
26/05/2023 11:51->METAR KJFK 261151Z 03006KT 10SM FEW250 15/06 A3028 RMK AO2 SLP254 T01500056 10150 20106 53017=
26/05/2023 10:51->METAR KJFK 261051Z 36006KT 10SM FEW250 13/06 A3027 RMK AO2 SLP248 T01280061=
26/05/2023 09:51->METAR KJFK 260951Z 36006KT 10SM FEW250 11/06 A3025 RMK AO2 SLP243 T01060056=
26/05/2023 08:51->METAR KJFK 260851Z 01004KT 10SM FEW080 11/06 A3023 RMK AO2 SLP237 T01110056 53004=
26/05/2023 07:51->METAR KJFK 260751Z 01004KT 10SM FEW080 12/06 A3022 RMK AO2 SLP234 T01170056=
26/05/2023 06:51->METAR KJFK 260651Z 03003KT 10SM FEW080 13/05 A3022 RMK AO2 SLP232 T01330050=
26/05/2023 05:51->METAR KJFK 260551Z 36004KT 10SM FEW080 FEW250 12/04 A3022 RMK AO2 SLP233 T01220039 10178 20117 53010=
26/05/2023 04:51->METAR KJFK 260451Z 04005KT 10SM FEW070 SCT250 13/04 A3021 RMK AO2 SLP229 T01330039 402000094=
26/05/2023 03:51->METAR KJFK 260351Z 02007KT 10SM FEW070 SCT250 15/03 A3020 RMK AO2 SLP225 T01500033=
26/05/2023 02:51->METAR KJFK 260251Z 01008KT 10SM FEW080 SCT220 16/03 A3019 RMK AO2 SLP223 T01560033 53015=
26/05/2023 01:51->METAR KJFK 260151Z 01007KT 10SM FEW060 BKN250 16/03 A3018 RMK AO2 SLP219 T01610033=
26/05/2023 00:51->METAR KJFK 260051Z 02006KT 10SM FEW060 BKN250 17/03 A3016 RMK AO2 SLP212 T01670033=
25/05/2023 23:51->METAR KJFK 252351Z 03009KT 10SM FEW060 BKN250 18/03 A3015 RMK AO2 SLP208 T01780033 10200 20178 53011=
25/05/2023 22:51->METAR KJFK 252251Z 02012KT 10SM FEW060 SCT250 19/02 A3013 RMK AO2 SLP202 T01890017=
25/05/2023 21:51->METAR KJFK 252151Z 01007G18KT 10SM FEW060 SCT250 19/03 A3012 RMK AO2 SLP198 T01940028=
25/05/2023 20:51->METAR KJFK 252051Z 34013G18KT 10SM FEW060 FEW250 19/03 A3011 RMK AO2 SLP197 T01940028 58008=
25/05/2023 19:51->METAR KJFK 251951Z 02014G19KT 10SM FEW250 19/02 A3013 RMK AO2 SLP202 T01940022=
25/05/2023 18:51->METAR KJFK 251851Z 34010G19KT 10SM FEW250 18/03 A3014 RMK AO2 SLP204 T01830033=
25/05/2023 17:51->METAR KJFK 251751Z 02011G14KT 10SM FEW250 18/04 A3014 RMK AO2 SLP205 T01780039 10178 20117 56001=
25/05/2023 16:51->METAR KJFK 251651Z 34008G19KT 10SM FEW045 17/04 A3014 RMK AO2 PK WND 35028/1638 SLP206 T01720039=
25/05/2023 15:51->METAR KJFK 251551Z 02013G20KT 10SM FEW045 17/03 A3014 RMK AO2 SLP205 T01670028=
25/05/2023 14:51->METAR KJFK 251451Z 34014KT 10SM FEW040 16/04 A3014 RMK AO2 SLP206 T01560044 50001=
25/05/2023 13:51->METAR KJFK 251351Z 02017G21KT 10SM FEW250 14/03 A3015 RMK AO2 SLP208 T01440033=
25/05/2023 12:51->METAR KJFK 251251Z 02018G23KT 10SM CLR 13/03 A3014 RMK AO2 PK WND 01026/1237 SLP207 T01280033=
25/05/2023 11:51->METAR KJFK 251151Z 35018G23KT 10SM CLR 12/04 A3014 RMK AO2 SLP205 70001 T01170039 10128 20094 51019=
25/05/2023 10:51->METAR KJFK 251051Z 36017KT 10SM CLR 11/04 A3013 RMK AO2 SLP201 T01060044=
25/05/2023 09:51->METAR KJFK 250951Z 01015KT 10SM FEW040 FEW110 10/04 A3010 RMK AO2 SLP193 T01000039=
25/05/2023 08:51->METAR KJFK 250851Z 36018G24KT 10SM FEW110 FEW250 10/03 A3008 RMK AO2 PK WND 36027/0755 SLP187 T01000028 53012=
25/05/2023 07:51->METAR KJFK 250751Z 36017G24KT 10SM FEW110 SCT250 11/03 A3007 RMK AO2 PK WND 36026/0737 SLP182 T01060028=
25/05/2023 06:51->METAR KJFK 250651Z 35016KT 10SM FEW041 BKN110 BKN250 12/04 A3005 RMK AO2 PK WND 36027/0619 SLP176 T01220039=
25/05/2023 05:51->METAR KJFK 250551Z 01017G25KT 10SM FEW025 SCT095 BKN250 13/08 A3005 RMK AO2 SLP175 60001 T01330078 10178 20133 53004=
25/05/2023 04:51->METAR KJFK 250451Z 01018G23KT 10SM FEW027 OVC075 14/09 A3004 RMK AO2 RAE0356 SLP171 P0000 T01390089 402060094=
25/05/2023 03:51->METAR KJFK 250351Z 02013G19KT 10SM -RA FEW030 OVC070 13/10 A3003 RMK AO2 RAB15 SLP170 P0001 T01330100=
25/05/2023 02:51->METAR KJFK 250251Z 01015G23KT 10SM FEW036 OVC065 15/08 A3004 RMK AO2 SLP170 60000 T01500083 51020=
25/05/2023 01:51->METAR KJFK 250151Z 03014G29KT 10SM SCT047 BKN090 OVC110 15/10 A3002 RMK AO2 PK WND 03029/0146 RAE28 SLP165 P0000 T01500100=
25/05/2023 00:51->METAR KJFK 250051Z 01014G21KT 10SM -RA FEW030 SCT065 OVC080 16/12 A3000 RMK AO2 RAB27 SLP157 P0000 T01560122=
24/05/2023 23:51->METAR KJFK 242351Z 04005KT 10SM FEW030 OVC075 17/06 A2998 RMK AO2 SLP151 T01720056 10206 20161 53006=
24/05/2023 22:51->METAR KJFK 242251Z 19008KT 10SM SCT050 SCT250 BKN300 16/07 A2993 RMK AO2 SLP134 FU BKN300 T01610067=
24/05/2023 21:51->METAR KJFK 242151Z 18011KT 10SM FEW050 SCT250 BKN300 17/08 A2994 RMK AO2 SLP140 FU BKN300 T01670083=
24/05/2023 20:51->METAR KJFK 242051Z 16011KT 10SM FEW250 BKN300 17/08 A2996 RMK AO2 SLP144 FU BKN300 T01720078 56018=
24/05/2023 19:51->METAR KJFK 241951Z 15012KT 10SM FEW250 BKN300 19/06 A2998 RMK AO2 SLP150 FU BKN300 T01890061=
24/05/2023 18:51->METAR KJFK 241851Z 16009KT 10SM SCT250 BKN300 20/07 A2999 RMK AO2 SLP154 FU BKN300 T02000072=
24/05/2023 17:51->METAR KJFK 241751Z 19009KT 10SM FEW200 FEW250 20/00 A3001 RMK AO2 SLP162 T02000000 10200 20133 56022=
24/05/2023 16:51->METAR KJFK 241651Z 19009KT 10SM SCT250 19/04 A3003 RMK AO2 SLP169 T01940039=
24/05/2023 15:51->METAR KJFK 241551Z 20007KT 10SM FEW250 BKN300 19/06 A3005 RMK AO2 SLP176 FU BKN300 T01940056=
24/05/2023 14:51->METAR KJFK 241451Z 22005KT 10SM FEW200 FEW250 BKN300 18/06 A3007 RMK AO2 SLP184 FU BKN300 T01780056 56022=
24/05/2023 13:51->METAR KJFK 241351Z VRB03KT 10SM FEW250 BKN300 17/06 A3010 RMK AO2 SLP191 FU BKN300 T01670061=
24/05/2023 12:51->METAR KJFK 241251Z 00000KT 10SM SCT250 BKN300 15/06 A3012 RMK AO2 SLP198 FU BKN300 T01500056=
24/05/2023 11:51->METAR KJFK 241151Z 04003KT 10SM FEW250 BKN300 13/07 A3014 RMK AO2 SLP205 FU BKN300 T01330067 10133 20094 58006=
24/05/2023 10:51->METAR KJFK 241051Z 00000KT 10SM SCT250 SCT300 11/06 A3015 RMK AO2 SLP209 FU SCT300 T01110056=
24/05/2023 09:51->METAR KJFK 240951Z 06003KT 10SM FEW250 10/04 A3016 RMK AO2 SLP212 T01000044=
24/05/2023 08:51->METAR KJFK 240851Z 07004KT 10SM SCT250 09/05 A3016 RMK AO2 SLP211 T00940050 57012=
24/05/2023 07:51->METAR KJFK 240751Z 00000KT 10SM CLR 11/04 A3017 RMK AO2 SLP215 T01060044=
24/05/2023 06:51->METAR KJFK 240651Z 00000KT 10SM SCT250 11/04 A3018 RMK AO2 SLP219 T01060044=
24/05/2023 05:51->METAR KJFK 240551Z 06003KT 10SM SCT250 11/06 A3019 RMK AO2 SLP224 T01060061 10133 20106 56020=
24/05/2023 04:51->METAR KJFK 240451Z 03004KT 10SM SCT250 12/06 A3021 RMK AO2 SLP229 T01170061 401830117=
24/05/2023 03:51->METAR KJFK 240351Z 04003KT 10SM SCT250 12/07 A3023 RMK AO2 SLP235 T01170067=
24/05/2023 02:51->METAR KJFK 240251Z 09003KT 10SM SCT250 12/06 A3025 RMK AO2 SLP243 T01170061 58007=
24/05/2023 01:51->METAR KJFK 240151Z 11004KT 10SM SCT250 12/06 A3027 RMK AO2 SLP251 T01220056=
24/05/2023 00:51->METAR KJFK 240051Z 12004KT 10SM BKN250 13/06 A3027 RMK AO2 SLP249 T01280056=
23/05/2023 23:51->METAR KJFK 232351Z 12009KT 10SM BKN250 BKN300 13/05 A3027 RMK AO2 SLP250 FU BKN300 T01330050 10167 20133 56013=
23/05/2023 22:51->METAR KJFK 232251Z 12009KT 10SM BKN250 BKN300 15/04 A3028 RMK AO2 SLP252 FU BKN300 T01500039=
23/05/2023 21:51->METAR KJFK 232151Z 11009KT 10SM BKN250 BKN300 16/04 A3029 RMK AO2 SLP258 FU BKN300 T01560039=
23/05/2023 20:51->METAR KJFK 232051Z 13013KT 10SM BKN250 BKN300 16/08 A3031 RMK AO2 SLP263 FU BKN300 T01610078 58013=
23/05/2023 19:51->METAR KJFK 231951Z 12012G17KT 10SM FEW045 BKN250 BKN300 16/08 A3032 RMK AO2 SLP267 FU BKN300 T01610078=
23/05/2023 18:51->METAR KJFK 231851Z 14014KT 10SM FEW045 BKN250 16/09 A3034 RMK AO2 SLP274 T01610089=
23/05/2023 17:51->METAR KJFK 231751Z 15015KT 10SM FEW045 BKN250 17/09 A3035 RMK AO2 SLP275 T01670089 10183 20133 58001=
23/05/2023 16:51->METAR KJFK 231651Z 12012KT 10SM FEW045 BKN250 18/09 A3035 RMK AO2 SLP276 T01780089=
23/05/2023 15:51->METAR KJFK 231551Z 13014KT 10SM FEW040 SCT250 18/10 A3035 RMK AO2 SLP277 T01780100=
23/05/2023 14:51->METAR KJFK 231451Z 11008KT 10SM FEW075 BKN250 18/10 A3035 RMK AO2 SLP277 T01780100 58003=
23/05/2023 13:51->METAR KJFK 231351Z 09006KT 10SM FEW022 SCT075 BKN250 17/10 A3036 RMK AO2 SLP279 T01670100=
23/05/2023 12:51->METAR KJFK 231251Z 08005KT 10SM FEW018 SCT080 BKN250 16/10 A3036 RMK AO2 SLP280 T01560100=
23/05/2023 11:51->METAR KJFK 231151Z 07005KT 10SM FEW012 BKN085 BKN250 14/11 A3036 RMK AO2 SLP280 T01390106 10139 20117 51012=
23/05/2023 10:51->METAR KJFK 231051Z 06007KT 10SM FEW010 BKN080 BKN250 12/11 A3035 RMK AO2 SLP277 T01220106=
23/05/2023 09:51->METAR KJFK 230951Z 04005KT 10SM SCT010 BKN070 BKN100 OVC300 12/11 A3034 RMK AO2 SLP272 FU OVC300 T01170106=
23/05/2023 08:51->METAR KJFK 230851Z 04005KT 10SM FEW011 OVC100 12/11 A3032 RMK AO2 SLP268 T01220111 53005=
23/05/2023 07:51->METAR KJFK 230751Z 05005KT 10SM SCT090 BKN300 13/11 A3032 RMK AO2 SLP265 FU BKN300 T01280111=
23/05/2023 06:51->METAR KJFK 230651Z 04003KT 10SM FEW080 BKN300 12/11 A3031 RMK AO2 SLP263 FU BKN300 T01170106=
23/05/2023 05:51->METAR KJFK 230551Z 08004KT 10SM BKN300 12/11 A3031 RMK AO2 SLP263 FU BKN300 T01220106 10150 20122 51006=
23/05/2023 04:51->METAR KJFK 230451Z 09004KT 10SM BKN300 13/11 A3031 RMK AO2 SLP262 FU BKN300 T01280111 402330128=
23/05/2023 03:51->METAR KJFK 230351Z 09006KT 10SM BKN300 13/11 A3030 RMK AO2 SLP260 FU BKN300 T01280111=
23/05/2023 02:51->METAR KJFK 230251Z 11007KT 10SM FEW065 BKN300 13/11 A3029 RMK AO2 SLP257 FU BKN300 T01330111 51013=
23/05/2023 01:51->METAR KJFK 230151Z 12010KT 10SM FEW250 BKN300 14/11 A3029 RMK AO2 SLP256 FU BKN300 T01390106=
23/05/2023 00:51->METAR KJFK 230051Z 11009KT 10SM FEW250 BKN300 14/11 A3026 RMK AO2 SLP248 FU BKN300 T01390106=
22/05/2023 23:51->METAR KJFK 222351Z 12009KT 10SM FEW065 FEW250 BKN300 15/10 A3026 RMK AO2 SLP245 FU BKN300 T01500100 10211 20150 53018=
22/05/2023 22:51->METAR KJFK 222251Z 13011KT 10SM FEW065 BKN300 16/10 A3023 RMK AO2 SLP237 FU BKN300 T01610100=
22/05/2023 21:51->METAR KJFK 222151Z 12012G17KT 10SM FEW065 BKN300 17/11 A3022 RMK AO2 SLP231 FU BKN300 T01670111=
22/05/2023 20:51->METAR KJFK 222051Z 12012KT 10SM FEW065 FEW250 BKN300 18/11 A3020 RMK AO2 SLP227 FU BKN300 T01780111 51002=
22/05/2023 19:51->METAR KJFK 221951Z 14013KT 10SM FEW065 FEW250 BKN300 19/12 A3020 RMK AO2 SLP226 FU BKN300 T01890122=
22/05/2023 18:51->METAR KJFK 221851Z 13012KT 10SM FEW065 FEW250 BKN300 21/11 A3020 RMK AO2 SLP226 FU BKN300 T02060106=
22/05/2023 17:51->METAR KJFK 221751Z 15008KT 10SM SCT065 SCT250 BKN300 21/12 A3020 RMK AO2 SLP225 FU BKN300 T02110122 10233 20172 51008=
22/05/2023 16:51->METAR KJFK 221651Z 15009KT 10SM FEW050 BKN300 22/13 A3019 RMK AO2 SLP223 FU BKN300 T02220128=
22/05/2023 15:51->METAR KJFK 221551Z 11006KT 10SM FEW047 BKN300 22/12 A3018 RMK AO2 SLP220 FU BKN300 T02220117=
22/05/2023 14:51->METAR KJFK 221451Z 05008KT 10SM BKN300 21/12 A3017 RMK AO2 SLP217 FU BKN300 T02110117 51013=
22/05/2023 13:51->METAR KJFK 221351Z 03010KT 10SM BKN300 21/12 A3016 RMK AO2 SLP212 FU BKN300 T02060117=
22/05/2023 12:51->METAR KJFK 221251Z 02010KT 10SM FEW250 BKN300 19/11 A3015 RMK AO2 SLP210 FU BKN300 T01890111=
22/05/2023 11:51->METAR KJFK 221151Z 01007KT 10SM BKN300 17/11 A3013 RMK AO2 SLP204 FU BKN300 T01720111 10172 20144 53020 $=
22/05/2023 10:51->METAR KJFK 221051Z 01006KT 10SM BKN300 16/11 A3012 RMK AO2 SLP198 FU BKN300 T01560106 $=
22/05/2023 09:51->METAR KJFK 220951Z 35008KT 10SM SCT300 15/10 A3009 RMK AO2 SLP189 FU SCT300 T01500100 $=
22/05/2023 08:51->METAR KJFK 220851Z 36007KT 10SM FEW250 15/10 A3008 RMK AO2 SLP184 T01500100 53006 $=
22/05/2023 07:51->METAR KJFK 220751Z 01006KT 10SM FEW250 15/11 A3007 RMK AO2 SLP182 T01500106 $=
22/05/2023 06:51->METAR KJFK 220651Z 36007KT 10SM FEW250 16/11 A3006 RMK AO2 SLP179 T01560106 $=
22/05/2023 05:51->METAR KJFK 220551Z 35007KT 10SM FEW250 16/11 A3006 RMK AO2 SLP178 T01560106 10194 20156 50007 $=
22/05/2023 04:51->METAR KJFK 220451Z 35006KT 10SM SCT250 16/11 A3006 RMK AO2 SLP179 T01610106 402220133 $=
22/05/2023 03:51->METAR KJFK 220351Z 35005KT 10SM SCT250 18/11 A3005 RMK AO2 SLP175 T01780106 $=
22/05/2023 02:51->METAR KJFK 220251Z 32005KT 10SM SCT250 18/10 A3004 RMK AO2 SLP171 T01830100 51016 $=
22/05/2023 01:51->METAR KJFK 220151Z 34006KT 10SM SCT250 19/10 A3003 RMK AO2 SLP168 T01890100 $=
22/05/2023 00:51->METAR KJFK 220051Z 35008KT 10SM FEW055 SCT250 19/10 A3001 RMK AO2 SLP162 T01890100 $=
21/05/2023 23:51->METAR KJFK 212351Z 01006KT 10SM FEW055 SCT200 SCT250 19/10 A2999 RMK AO2 SLP155 T01940100 10222 20194 53015 $=
21/05/2023 22:51->METAR KJFK 212251Z 34013KT 10SM SCT055 BKN200 BKN250 21/10 A2997 RMK AO2 SLP149 T02110100 $=
21/05/2023 21:51->METAR KJFK 212151Z 33013G19KT 10SM BKN055 BKN200 BKN250 21/11 A2996 RMK AO2 SLP145 T02110106 $=
21/05/2023 20:51->METAR KJFK 212051Z 33012G21KT 10SM BKN055 BKN200 BKN250 21/10 A2994 RMK AO2 SLP140 T02110100 53002 $=
21/05/2023 19:51->METAR KJFK 211951Z 32009G19KT 10SM BKN049 BKN200 BKN250 22/10 A2994 RMK AO2 SLP137 T02170100 $=
21/05/2023 18:51->METAR KJFK 211851Z 31014G25KT 10SM BKN048 BKN200 BKN250 21/10 A2993 RMK AO2 SLP136 T02060100 $=
21/05/2023 17:51->METAR KJFK 211751Z 31011G20KT 10SM BKN046 BKN200 BKN250 21/10 A2994 RMK AO2 PK WND 30026/1708 SLP138 T02060100 10211 20139 53001 $=
21/05/2023 16:51->METAR KJFK 211651Z 33014G22KT 10SM SCT045 SCT200 BKN250 21/10 A2994 RMK AO2 SLP138 T02110100 $=
21/05/2023 15:51->METAR KJFK 211551Z 31014G22KT 10SM SCT040 SCT200 BKN250 19/09 A2993 RMK AO2 SLP136 T01940094 $=
21/05/2023 14:51->METAR KJFK 211451Z 32017G22KT 10SM FEW040 FEW100 SCT220 BKN250 18/09 A2994 RMK AO2 SLP137 T01830089 58007 $=
21/05/2023 13:51->METAR KJFK 211351Z 33016G21KT 10SM FEW040 FEW100 SCT200 BKN250 17/08 A2995 RMK AO2 SLP140 T01670083 $=
21/05/2023 12:51->METAR KJFK 211251Z 31012KT 10SM FEW100 SCT200 BKN250 16/08 A2995 RMK AO2 SLP143 T01560078 $=
21/05/2023 11:51->METAR KJFK 211151Z 31011KT 10SM FEW100 BKN200 BKN250 14/08 A2996 RMK AO2 SLP144 60000 70165 T01440078 10178 20133 53027 $=
21/05/2023 10:51->METAR KJFK 211051Z 31013G24KT 10SM FEW100 BKN200 BKN250 13/07 A2993 RMK AO2 SLP135 T01330072 $=
21/05/2023 09:51->METAR KJFK 210951Z 32017KT 10SM BKN200 13/07 A2990 RMK AO2 PK WND 33030/0857 SLP125 T01330072 $=
21/05/2023 08:51->METAR KJFK 210851Z 32017G25KT 10SM BKN039 OVC075 14/07 A2988 RMK AO2 SLP117 60000 T01440072 53006 $=
21/05/2023 07:51->METAR KJFK 210751Z 32014KT 10SM BKN029 OVC055 15/10 A2988 RMK AO2 RAB0653E12 SLP117 P0000 T01500100 $=
21/05/2023 06:51->METAR KJFK 210651Z 31014KT 10SM SCT025 OVC040 18/16 A2986 RMK AO2 SLP110 T01780161 $=
21/05/2023 05:51->METAR KJFK 210551Z 28008KT 10SM FEW013 SCT018 OVC026 17/17 A2986 RMK AO2 SLP111 60000 T01720172 10172 20156 56008 $=
21/05/2023 04:51->METAR KJFK 210451Z 22003KT 1/4SM R04R/1400V1800FT FG VV002 16/16 A2987 RMK AO2 SLP114 T01610161 401720139 $=
21/05/2023 03:51->METAR KJFK 210351Z 25006KT 1/4SM R04R/1600V1800FT FG VV002 16/16 A2987 RMK AO2 SFC VIS 1/2 DZE29 SLP113 P0000 T01610161 $=
21/05/2023 02:51->METAR KJFK 210251Z 22009KT 1/4SM R04R/2200V3500FT -DZ FG VV002 16/16 A2988 RMK AO2 SFC VIS 1/2 SLP119 P0000 60000 T01610161 55005 $=
21/05/2023 01:51->METAR KJFK 210151Z 18009KT 1/4SM R04R/2600V3500FT -DZ BR VV003 16/16 A2988 RMK AO2 SFC VIS 3/4 DZB45 SLP117 P0000 T01610161 $=
21/05/2023 00:51->METAR KJFK 210051Z 20009KT 1/4SM R04R/4500VP6000FT BR OVC003 16/16 A2988 RMK AO2 SFC VIS 1 SLP118 T01560156 $=
20/05/2023 23:51->METAR KJFK 202351Z 19013KT 1/4SM R04R/3500V5000FT BR OVC002 16/16 A2990 RMK AO2 SFC VIS 3/4 RAE2252 SLP124 P0000 60073 T01610161 10172 20161 55014 $=
20/05/2023 22:51->METAR KJFK 202251Z 18015KT 1 1/2SM -RA BR BKN004 OVC036 17/17 A2990 RMK AO2 SFC VIS 3 SLP124 P0009 T01670167 $=
20/05/2023 21:51->METAR KJFK 202151Z 18014KT 1SM R04R/P6000FT -RA BR OVC004 17/17 A2992 RMK AO2 SFC VIS 3 SLP132 P0010 T01670167 $=
20/05/2023 20:51->METAR KJFK 202051Z 18013KT 3SM R04R/4000VP6000FT +RA BR BKN005 OVC010 17/17 A2994 RMK AO2 SLP137 P0021 60054 T01670167 56024 $=
20/05/2023 19:51->METAR KJFK 201951Z 16014KT 1 1/2SM -RA BR OVC005 17/17 A2995 RMK AO2 SFC VIS 4 SLP142 P0016 T01670167 $=
20/05/2023 18:51->METAR KJFK 201851Z 19009KT 1SM R04R/3500VP6000FT -RA BR OVC004 17/17 A2998 RMK AO2 SFC VIS 2 1/2 SLP153 P0017 T01670167=
20/05/2023 17:51->METAR KJFK 201751Z 13006KT 2SM -RA BR OVC005 17/17 A3001 RMK AO2 SFC VIS 4 SLP161 P0014 60092 T01670167 10167 20156 58026=
20/05/2023 16:51->METAR KJFK 201651Z 11006KT 1 1/4SM R04R/4000VP6000FT +RA BR FEW005 BKN015 OVC024 16/16 A3004 RMK AO2 TWR VIS 1 1/2 SLP172 P0049 T01610161=
20/05/2023 15:51->METAR KJFK 201551Z 10007KT 1 1/2SM R04R/4000VP6000FT -RA BR OVC005 16/16 A3007 RMK AO2 SFC VIS 1 3/4 RAE1452B16 SLP182 P0002 T01610161=
20/05/2023 14:51->METAR KJFK 201451Z 10008KT 10SM -RA BKN007 OVC012 17/16 A3009 RMK AO2 SLP188 P0019 60027 T01670161 58013=
20/05/2023 13:51->METAR KJFK 201351Z 05007KT 2 1/2SM -RA BR OVC006 17/16 A3010 RMK AO2 SFC VIS 3 SLP193 P0007 T01670161=
20/05/2023 12:51->METAR KJFK 201251Z 07007KT 3SM RA BR OVC007 16/16 A3012 RMK AO2 RAB1156E17B28 SLP199 P0001 T01610156=
20/05/2023 11:51->METAR KJFK 201151Z 08008KT 7SM FEW016 BKN024 OVC033 16/14 A3013 RMK AO2 CIG 012 W SLP201 T01610139 10161 20139 57009=
20/05/2023 10:51->METAR KJFK 201051Z 08006KT 10SM FEW008 BKN019 OVC027 15/14 A3014 RMK AO2 SLP205 T01500139=
20/05/2023 09:51->METAR KJFK 200951Z 06006KT 10SM FEW018 BKN025 OVC029 14/14 A3014 RMK AO2 SLP207 T01440139=
20/05/2023 08:51->METAR KJFK 200851Z 06004KT 10SM FEW017 BKN024 OVC038 14/14 A3015 RMK AO2 SLP210 T01390139 58010=
20/05/2023 07:51->METAR KJFK 200751Z 12005KT 6SM BR OVC019 14/13 A3017 RMK AO2 CIG 014 W SLP215 T01390133=
20/05/2023 06:51->METAR KJFK 200651Z 14007KT 10SM BKN024 OVC030 14/13 A3018 RMK AO2 CIG 007 W SLP220 T01440133=
20/05/2023 05:51->METAR KJFK 200551Z 12004KT 10SM FEW020 BKN044 OVC250 14/12 A3020 RMK AO2 SLP228 T01440122 10144 20133 56022=
20/05/2023 04:51->METAR KJFK 200451Z 00000KT 10SM BKN050 OVC250 14/12 A3023 RMK AO2 SLP235 T01390117 401890106=
20/05/2023 03:51->METAR KJFK 200351Z 14008KT 10SM SCT060 BKN250 13/11 A3024 RMK AO2 SLP241 T01330111=
20/05/2023 02:51->METAR KJFK 200251Z 15010KT 10SM FEW100 SCT250 13/10 A3027 RMK AO2 SLP249 T01330100 58001=
20/05/2023 01:51->METAR KJFK 200151Z 15008KT 10SM FEW060 BKN250 13/10 A3028 RMK AO2 SLP252 T01330100=
20/05/2023 00:51->METAR KJFK 200051Z 16009KT 10SM SCT250 14/11 A3028 RMK AO2 SLP252 T01390111=
19/05/2023 23:51->METAR KJFK 192351Z 15009KT 10SM FEW055 SCT250 14/11 A3027 RMK AO2 SLP250 T01390106 10178 20139 58002=
19/05/2023 22:51->METAR KJFK 192251Z 16012KT 10SM FEW055 FEW180 SCT250 15/11 A3029 RMK AO2 SLP256 T01500106=
19/05/2023 21:51->METAR KJFK 192151Z 17017G23KT 10SM FEW027 FEW050 FEW180 SCT250 16/11 A3029 RMK AO2 PK WND 15026/2110 SLP255 T01560106=
19/05/2023 20:51->METAR KJFK 192051Z 15018G24KT 10SM FEW027 FEW050 SCT180 BKN230 17/10 A3028 RMK AO2 PK WND 16027/2005 SLP252 T01720100 58021=
19/05/2023 19:51->METAR KJFK 191951Z 16017G24KT 10SM FEW027 FEW050 SCT180 BKN250 17/10 A3030 RMK AO2 SLP260 T01720100=
19/05/2023 18:51->METAR KJFK 191851Z 17017G24KT 10SM FEW027 FEW050 BKN250 18/11 A3033 RMK AO2 SLP269 T01780111=
19/05/2023 17:51->METAR KJFK 191751Z 17016G22KT 10SM FEW050 BKN250 18/11 A3034 RMK AO2 SLP273 T01780106 10189 20139 58010=
19/05/2023 16:51->METAR KJFK 191651Z 17017G27KT 10SM FEW050 FEW095 BKN250 18/11 A3036 RMK AO2 PK WND 18027/1647 SLP279 T01830111=
19/05/2023 15:51->METAR KJFK 191551Z 18015G23KT 10SM SCT050 BKN250 17/11 A3036 RMK AO2 SLP281 T01720111=
19/05/2023 14:51->METAR KJFK 191451Z 19014KT 10SM FEW034 FEW050 BKN250 17/12 A3037 RMK AO2 SLP284 T01670117 50001=
19/05/2023 13:51->METAR KJFK 191351Z 17009KT 10SM FEW034 FEW045 BKN250 16/12 A3037 RMK AO2 SLP285 T01610117=
19/05/2023 12:51->METAR KJFK 191251Z 15008KT 10SM FEW028 FEW045 BKN250 15/11 A3037 RMK AO2 SLP284 T01500111=
19/05/2023 11:51->METAR KJFK 191151Z 16007KT 10SM FEW044 BKN250 14/10 A3037 RMK AO2 SLP282 T01390100 10139 20106 51008=
19/05/2023 10:51->METAR KJFK 191051Z 14006KT 10SM FEW044 BKN250 12/08 A3036 RMK AO2 SLP281 T01220083=
19/05/2023 09:51->METAR KJFK 190951Z 15006KT 10SM SCT040 BKN250 12/07 A3035 RMK AO2 SLP278 T01170072=
19/05/2023 08:51->METAR KJFK 190851Z 15006KT 10SM BKN250 11/07 A3034 RMK AO2 SLP274 T01110072 56006=
19/05/2023 07:51->METAR KJFK 190751Z 16006KT 10SM SCT250 11/07 A3035 RMK AO2 SLP276 T01060072=
19/05/2023 06:51->METAR KJFK 190651Z 17006KT 10SM FEW024 FEW250 11/07 A3035 RMK AO2 SLP276 T01060072=
19/05/2023 05:51->METAR KJFK 190551Z 17007KT 10SM FEW021 FEW250 11/07 A3036 RMK AO2 SLP280 T01110072 10117 20106 58005=
19/05/2023 04:51->METAR KJFK 190451Z 17006KT 10SM FEW030 FEW250 11/07 A3038 RMK AO2 SLP285 T01060072 401390056=
19/05/2023 03:51->METAR KJFK 190351Z 17007KT 10SM FEW250 11/07 A3037 RMK AO2 SLP285 T01110072=
19/05/2023 02:51->METAR KJFK 190251Z 17008KT 10SM FEW040 FEW250 11/07 A3038 RMK AO2 SLP285 T01110072 51013=
19/05/2023 01:51->METAR KJFK 190151Z 17007KT 10SM FEW250 11/07 A3037 RMK AO2 SLP284 T01110072=
19/05/2023 00:51->METAR KJFK 190051Z 15008KT 10SM FEW250 FEW300 11/07 A3035 RMK AO2 SLP276 FU FEW300 T01110067=
18/05/2023 23:51->METAR KJFK 182351Z 15008KT 10SM FEW250 FEW300 11/06 A3034 RMK AO2 SLP272 FU FEW300 T01110061 10139 20111 55000=
18/05/2023 22:51->METAR KJFK 182251Z 16012KT 10SM FEW250 FEW300 12/05 A3033 RMK AO2 SLP271 FU FEW300 T01170050=
18/05/2023 21:51->METAR KJFK 182151Z 18013KT 10SM FEW250 FEW300 13/04 A3034 RMK AO2 SLP272 FU FEW300 T01280044=
18/05/2023 20:51->METAR KJFK 182051Z 17011KT 10SM FEW300 13/04 A3034 RMK AO2 SLP272 FU FEW300 T01330044 58011=
18/05/2023 19:51->METAR KJFK 181951Z 17014KT 10SM FEW060 FEW300 13/03 A3035 RMK AO2 SLP275 FU FEW300 T01280033=
18/05/2023 18:51->METAR KJFK 181851Z 19012KT 10SM FEW060 FEW300 14/03 A3036 RMK AO2 SLP280 FU FEW300 T01390028=
18/05/2023 17:51->METAR KJFK 181751Z 17012G19KT 10SM FEW060 FEW300 13/01 A3037 RMK AO2 SLP283 FU FEW300 T01330011 10139 20094 51007=
18/05/2023 16:51->METAR KJFK 181651Z 18015KT 10SM FEW060 FEW300 13/M01 A3036 RMK AO2 SLP282 FU FEW300 T01331006=
18/05/2023 15:51->METAR KJFK 181551Z 15010KT 10SM FEW060 SCT300 13/M02 A3036 RMK AO2 SLP280 FU SCT300 T01281022=
18/05/2023 14:51->METAR KJFK 181451Z 17009KT 10SM FEW060 FEW300 13/M01 A3035 RMK AO2 SLP275 FU FEW300 T01281011 51017=
18/05/2023 13:51->METAR KJFK 181351Z VRB04KT 10SM FEW060 FEW300 12/M04 A3033 RMK AO2 SLP271 FU FEW300 T01221044=
18/05/2023 12:51->METAR KJFK 181251Z 06008KT 10SM FEW250 SCT300 11/M04 A3032 RMK AO2 SLP265 FU SCT300 T01111044=
18/05/2023 11:51->METAR KJFK 181151Z 08009KT 10SM SCT300 09/M03 A3030 RMK AO2 SLP258 FU SCT300 T00941033 10094 20056 53026=
18/05/2023 10:51->METAR KJFK 181051Z 07006KT 10SM SCT300 08/M02 A3027 RMK AO2 SLP249 FU SCT300 T00781022=
18/05/2023 09:51->METAR KJFK 180951Z 04006KT 10SM FEW300 06/M02 A3024 RMK AO2 SLP239 FU FEW300 T00611017=
18/05/2023 08:51->METAR KJFK 180851Z 04005KT 10SM FEW300 06/M02 A3022 RMK AO2 SLP232 FU FEW300 T00561022 52021=
18/05/2023 07:51->METAR KJFK 180751Z 04007KT 10SM FEW300 07/M03 A3020 RMK AO2 SLP225 FU FEW300 T00671033=
18/05/2023 06:51->METAR KJFK 180651Z 02009KT 10SM FEW300 08/M04 A3018 RMK AO2 SLP219 FU FEW300 T00781044=
18/05/2023 05:51->METAR KJFK 180551Z 02011KT 10SM FEW300 09/M06 A3016 RMK AO2 SLP211 FU FEW300 T00891061 10144 20089 51026=
18/05/2023 04:51->METAR KJFK 180451Z 02007KT 10SM FEW300 10/M06 A3014 RMK AO2 SLP204 FU FEW300 T01001061 402000100=
18/05/2023 03:51->METAR KJFK 180351Z 01008KT 10SM SCT300 11/M06 A3011 RMK AO2 SLP196 FU SCT300 T01061056=
18/05/2023 02:51->METAR KJFK 180251Z 01012KT 10SM SCT300 12/M07 A3008 RMK AO2 SLP185 FU SCT300 T01171067 51045=
18/05/2023 01:51->METAR KJFK 180151Z 01008KT 10SM FEW250 SCT300 13/M05 A3004 RMK AO2 SLP172 FU SCT300 T01281050=
18/05/2023 00:51->METAR KJFK 180051Z 35012KT 10SM SCT300 14/M06 A3000 RMK AO2 SLP158 FU SCT300 T01391061=
17/05/2023 23:51->METAR KJFK 172351Z 34012KT 10SM SCT300 14/M07 A2995 RMK AO2 SLP140 FU SCT300 T01441067 10189 20144 53029=
17/05/2023 22:51->METAR KJFK 172251Z 34017G23KT 10SM FEW250 SCT300 16/M06 A2991 RMK AO2 SLP129 FU SCT300 T01561061=
17/05/2023 21:51->METAR KJFK 172151Z 33016G21KT 10SM FEW250 17/M06 A2988 RMK AO2 PK WND 33027/2052 SLP119 T01721056=
17/05/2023 20:51->METAR KJFK 172051Z 34019G27KT 10SM FEW250 18/M06 A2986 RMK AO2 PK WND 30028/2004 SLP111 T01781056 53022=
17/05/2023 19:51->METAR KJFK 171951Z 32014G20KT 10SM FEW065 FEW250 19/M04 A2982 RMK AO2 PK WND 33026/1931 SLP098 T01891044=
17/05/2023 18:51->METAR KJFK 171851Z 35013G25KT 10SM FEW065 FEW250 18/M03 A2981 RMK AO2 SLP094 T01831033=
17/05/2023 17:51->METAR KJFK 171751Z 32013G18KT 10SM FEW060 FEW250 18/00 A2979 RMK AO2 SLP088 T01780000 10183 20122 50008=
17/05/2023 16:51->METAR KJFK 171651Z 35013G21KT 10SM FEW060 FEW250 17/M01 A2979 RMK AO2 SLP089 T01671011=
17/05/2023 15:51->METAR KJFK 171551Z 36016G24KT 10SM FEW055 FEW250 17/02 A2979 RMK AO2 SLP087 T01670022=
17/05/2023 14:51->METAR KJFK 171451Z 02018G24KT 10SM FEW050 FEW250 16/02 A2977 RMK AO2 SLP081 T01610022 51030=
17/05/2023 13:51->METAR KJFK 171351Z 35014G26KT 10SM SCT044 SCT250 14/03 A2974 RMK AO2 PK WND 36028/1320 SLP070 T01440028=
17/05/2023 12:51->METAR KJFK 171251Z 35019G26KT 10SM FEW035 FEW047 SCT250 13/04 A2971 RMK AO2 PK WND 36028/1203 SLP062 T01330039=
17/05/2023 11:51->METAR KJFK 171151Z 35018G29KT 10SM FEW045 SCT250 SCT300 13/04 A2968 RMK AO2 PK WND 36029/1143 SLP050 FU SCT300 T01330044 10200 20133 51039=
17/05/2023 10:51->METAR KJFK 171051Z 01019KT 10SM FEW042 FEW100 SCT250 SCT300 14/06 A2964 RMK AO2 SLP038 FU SCT300 T01390056=
17/05/2023 09:51->METAR KJFK 170951Z 35014KT 10SM FEW100 BKN250 16/05 A2961 RMK AO2 PK WND 33029/0922 SLP025 T01610050=
17/05/2023 08:51->METAR KJFK 170851Z 34014KT 10SM SCT100 OVC250 18/04 A2957 RMK AO2 SLP012 T01780044 53009=
17/05/2023 07:51->METAR KJFK 170751Z 33015KT 10SM FEW100 OVC250 19/04 A2955 RMK AO2 SLP007 T01890039=
17/05/2023 06:51->METAR KJFK 170651Z 31012KT 10SM OVC250 20/08 A2954 RMK AO2 SLP004 T02000078=
17/05/2023 05:51->METAR KJFK 170551Z 26010KT 10SM OVC240 19/13 A2954 RMK AO2 SLP002 T01940133 10228 20189 58001=
17/05/2023 04:51->METAR KJFK 170451Z 26011KT 10SM OVC240 20/14 A2954 RMK AO2 SLP004 T02000139 402560133=
17/05/2023 03:51->METAR KJFK 170351Z 24010KT 10SM FEW100 BKN250 19/14 A2954 RMK AO2 SLP002 T01890139=
17/05/2023 02:51->METAR KJFK 170251Z 25011KT 10SM BKN250 19/13 A2954 RMK AO2 SLP003 T01940128 50001=
17/05/2023 01:51->METAR KJFK 170151Z 24012KT 10SM FEW100 BKN240 20/12 A2955 RMK AO2 SLP007 T02000122=
17/05/2023 00:51->METAR KJFK 170051Z 24017KT 10SM FEW100 FEW210 BKN250 22/11 A2954 RMK AO2 SLP003 T02220106=
16/05/2023 23:51->METAR KJFK 162351Z 24012KT 10SM FEW100 SCT210 BKN250 23/09 A2954 RMK AO2 SLP002 T02280094 10256 20217 56015=
16/05/2023 22:51->METAR KJFK 162251Z 24017KT 10SM FEW100 BKN250 23/08 A2955 RMK AO2 SLP005 T02330083=
16/05/2023 21:51->METAR KJFK 162151Z 24016KT 10SM BKN250 24/09 A2956 RMK AO2 WSHFT 2048 SLP009 T02390089=
16/05/2023 20:51->METAR KJFK 162051Z 24012KT 10SM BKN250 24/08 A2958 RMK AO2 SLP017 T02440078 56037=
16/05/2023 19:51->METAR KJFK 161951Z 24014KT 10SM BKN250 25/08 A2961 RMK AO2 SLP027 T02500078=
16/05/2023 18:51->METAR KJFK 161851Z 17010KT 10SM BKN250 22/11 A2965 RMK AO2 SLP041 T02220111=
16/05/2023 17:51->METAR KJFK 161751Z 17011KT 10SM BKN250 22/09 A2969 RMK AO2 WSHFT 1708 SLP054 T02220094 10244 20161 56036=
16/05/2023 16:51->METAR KJFK 161651Z 23012KT 10SM BKN250 24/03 A2973 RMK AO2 SLP066 T02390028=
16/05/2023 15:51->METAR KJFK 161551Z 24013KT 10SM SCT250 23/06 A2976 RMK AO2 SLP078 T02280061=
16/05/2023 14:51->METAR KJFK 161451Z 24012KT 10SM FEW250 22/07 A2980 RMK AO2 SLP090 T02170072 58025=
16/05/2023 13:51->METAR KJFK 161351Z 26010KT 10SM FEW250 21/05 A2983 RMK AO2 SLP100 T02110050=
16/05/2023 12:51->METAR KJFK 161251Z 24011KT 10SM SCT250 18/10 A2985 RMK AO2 SLP109 T01830100=
16/05/2023 11:51->METAR KJFK 161151Z 24012KT 10SM SCT250 16/11 A2987 RMK AO2 SLP115 T01610106 10161 20133 56007=
16/05/2023 10:51->METAR KJFK 161051Z 25010KT 10SM FEW250 SCT300 14/09 A2988 RMK AO2 SLP117 FU SCT300 T01440094=
16/05/2023 09:51->METAR KJFK 160951Z 25010KT 10SM FEW250 SCT300 14/09 A2988 RMK AO2 SLP118 FU SCT300 T01390089=
16/05/2023 08:51->METAR KJFK 160851Z 25009KT 10SM FEW300 14/09 A2989 RMK AO2 SLP122 FU FEW300 T01440089 56017=
16/05/2023 07:51->METAR KJFK 160751Z 25011KT 10SM SCT300 14/09 A2991 RMK AO2 SLP128 FU SCT300 T01440094=
16/05/2023 06:51->METAR KJFK 160651Z 25010KT 10SM SCT300 16/09 A2992 RMK AO2 SLP131 FU SCT300 T01560089=
16/05/2023 05:51->METAR KJFK 160551Z 25009KT 10SM SCT300 16/08 A2994 RMK AO2 SLP139 FU SCT300 T01560083 10200 20156 58018=
16/05/2023 04:51->METAR KJFK 160451Z 24010KT 10SM SCT300 16/08 A2996 RMK AO2 SLP146 FU SCT300 T01610083 402220106=
16/05/2023 03:51->METAR KJFK 160351Z 26012KT 10SM SCT300 17/07 A2998 RMK AO2 SLP151 FU SCT300 T01720067=
16/05/2023 02:51->METAR KJFK 160251Z 25012KT 10SM FEW250 BKN300 17/07 A2999 RMK AO2 SLP157 FU BKN300 T01720072 58004=
16/05/2023 01:51->METAR KJFK 160151Z 24011KT 10SM SCT250 BKN300 18/07 A3001 RMK AO2 SLP161 FU BKN300 T01830067=
16/05/2023 00:51->METAR KJFK 160051Z 24012KT 10SM SCT250 BKN300 20/06 A3001 RMK AO2 SLP161 FU BKN300 T02000056=
15/05/2023 23:51->METAR KJFK 152351Z 24013KT 10SM BKN250 BKN300 19/07 A3001 RMK AO2 SLP161 FU BKN300 T01940067 10217 20183 56017=
15/05/2023 22:51->METAR KJFK 152251Z 24014G21KT 10SM BKN250 BKN300 21/07 A3001 RMK AO2 SLP162 FU BKN300 T02060067=
15/05/2023 21:51->METAR KJFK 152151Z 23013KT 10SM BKN250 BKN300 21/09 A3004 RMK AO2 SLP171 FU BKN300 T02060089=
15/05/2023 20:51->METAR KJFK 152051Z 19013KT 10SM BKN250 BKN300 19/09 A3006 RMK AO2 SLP178 FU BKN300 T01890094 56034=
15/05/2023 19:51->METAR KJFK 151951Z 19013KT 10SM BKN250 BKN300 18/08 A3009 RMK AO2 SLP189 FU BKN300 T01830083=
15/05/2023 18:51->METAR KJFK 151851Z 21015G22KT 10SM SCT250 BKN300 20/06 A3012 RMK AO2 SLP199 FU BKN300 T02000061=
15/05/2023 17:51->METAR KJFK 151751Z 23014G20KT 10SM FEW250 BKN300 22/04 A3016 RMK AO2 SLP211 FU BKN300 T02170039 10222 20156 58034=
15/05/2023 16:51->METAR KJFK 151651Z 25011KT 10SM FEW250 BKN300 20/03 A3019 RMK AO2 SLP223 FU BKN300 T02000033=
15/05/2023 15:51->METAR KJFK 151551Z 23013KT 10SM BKN300 19/04 A3023 RMK AO2 SLP237 FU BKN300 T01890039=
15/05/2023 14:51->METAR KJFK 151451Z 23010KT 10SM FEW250 BKN300 19/03 A3026 RMK AO2 SLP245 FU BKN300 T01890033 58013=
15/05/2023 13:51->METAR KJFK 151351Z 25007KT 10SM FEW250 19/01 A3028 RMK AO2 SLP252 T01890006=
15/05/2023 12:51->METAR KJFK 151251Z 32005KT 10SM FEW250 17/00 A3029 RMK AO2 SLP255 T01720000=
15/05/2023 11:51->METAR KJFK 151151Z 33008KT 10SM FEW250 16/01 A3029 RMK AO2 SLP258 T01560011 10156 20106 53004=
15/05/2023 10:51->METAR KJFK 151051Z 35005KT 10SM FEW250 13/02 A3029 RMK AO2 SLP256 T01330017=
15/05/2023 09:51->METAR KJFK 150951Z 36005KT 10SM FEW250 11/02 A3028 RMK AO2 SLP254 T01060017=
15/05/2023 08:51->METAR KJFK 150851Z 36007KT 10SM FEW250 12/01 A3028 RMK AO2 SLP254 T01170011 51009=
15/05/2023 07:51->METAR KJFK 150751Z 35009KT 10SM FEW250 13/01 A3028 RMK AO2 SLP253 T01280011=
15/05/2023 06:51->METAR KJFK 150651Z 36010KT 10SM SCT250 13/01 A3027 RMK AO2 SLP248 T01330011=
15/05/2023 05:51->METAR KJFK 150551Z 36010KT 10SM SCT250 14/01 A3026 RMK AO2 SLP245 T01440011 10156 20133 53006=
15/05/2023 04:51->METAR KJFK 150451Z 35008KT 10SM BKN250 15/01 A3025 RMK AO2 SLP244 T01500011 402060133=
15/05/2023 03:51->METAR KJFK 150351Z 35008KT 10SM SCT250 15/03 A3024 RMK AO2 SLP239 T01500033=
15/05/2023 02:51->METAR KJFK 150251Z 02004KT 10SM BKN250 16/04 A3024 RMK AO2 SLP239 T01560039 51019=
15/05/2023 01:51->METAR KJFK 150151Z 00000KT 10SM BKN250 13/10 A3023 RMK AO2 SLP237 T01330100=
15/05/2023 00:51->METAR KJFK 150051Z 00000KT 10SM BKN250 15/10 A3021 RMK AO2 SLP228 T01500100=
14/05/2023 23:51->METAR KJFK 142351Z 22003KT 10SM FEW180 BKN250 14/09 A3018 RMK AO2 SLP220 T01440094 10189 20144 53014=
14/05/2023 22:51->METAR KJFK 142251Z 19006KT 10SM FEW200 BKN250 16/10 A3016 RMK AO2 SLP212 T01560100=
14/05/2023 21:51->METAR KJFK 142151Z 20007KT 10SM FEW200 BKN250 17/09 A3015 RMK AO2 SLP210 T01670094=
14/05/2023 20:51->METAR KJFK 142051Z 20010KT 10SM FEW200 BKN250 17/11 A3014 RMK AO2 SLP206 T01720106 55007=
14/05/2023 19:51->METAR KJFK 141951Z 19009KT 10SM FEW200 SCT250 18/10 A3014 RMK AO2 SLP205 T01830100=
14/05/2023 18:51->METAR KJFK 141851Z 18008KT 10SM FEW200 FEW250 18/10 A3015 RMK AO2 SLP208 T01830100=
14/05/2023 17:51->METAR KJFK 141751Z 19010KT 10SM FEW040 FEW200 BKN250 18/10 A3016 RMK AO2 SLP213 T01830100 10206 20161 56012=
14/05/2023 16:51->METAR KJFK 141651Z 19008KT 10SM FEW200 BKN250 17/09 A3017 RMK AO2 SLP216 T01720094=
14/05/2023 15:51->METAR KJFK 141551Z VRB05KT 10SM FEW200 BKN250 18/08 A3018 RMK AO2 SLP220 T01830083=
14/05/2023 14:51->METAR KJFK 141451Z 01006KT 10SM FEW200 BKN250 19/02 A3020 RMK AO2 SLP225 T01890022 58002=
14/05/2023 13:51->METAR KJFK 141351Z 36007KT 10SM FEW200 BKN250 18/03 A3020 RMK AO2 SLP227 T01830028=
14/05/2023 12:51->METAR KJFK 141251Z 03008KT 10SM FEW200 BKN250 18/03 A3021 RMK AO2 SLP229 T01780033=
14/05/2023 11:51->METAR KJFK 141151Z 04008KT 10SM FEW200 BKN250 16/03 A3020 RMK AO2 SLP227 T01610033 10178 20144 51022=
14/05/2023 10:51->METAR KJFK 141051Z 04009KT 10SM FEW200 BKN250 15/03 A3019 RMK AO2 SLP224 T01500028=
14/05/2023 09:51->METAR KJFK 140951Z 01009KT 10SM BKN250 14/02 A3016 RMK AO2 SLP212 T01440022=
14/05/2023 08:51->METAR KJFK 140851Z 02012KT 10SM SCT250 16/02 A3014 RMK AO2 SLP205 T01560017 53015=
14/05/2023 07:51->METAR KJFK 140751Z 02009KT 10SM SCT250 16/01 A3013 RMK AO2 SLP201 T01610011=
14/05/2023 06:51->METAR KJFK 140651Z 01009KT 10SM SCT250 17/01 A3010 RMK AO2 SLP192 T01670006=
14/05/2023 05:51->METAR KJFK 140551Z 01011KT 10SM CLR 18/01 A3009 RMK AO2 SLP190 T01780006 10256 20178 51012=
14/05/2023 04:51->METAR KJFK 140451Z 36012KT 10SM CLR 19/01 A3009 RMK AO2 SLP188 T01940011 402670178=
14/05/2023 03:51->METAR KJFK 140351Z 01009KT 10SM CLR 20/02 A3008 RMK AO2 SLP185 T02000017=
14/05/2023 02:51->METAR KJFK 140251Z 36010KT 10SM CLR 21/03 A3006 RMK AO2 SLP179 T02110033 51027=
14/05/2023 01:51->METAR KJFK 140151Z 35010KT 10SM BKN250 23/03 A3004 RMK AO2 SLP170 T02280033=
14/05/2023 00:51->METAR KJFK 140051Z 36006KT 10SM FEW100 BKN250 24/04 A3000 RMK AO2 SLP160 T02390039=
13/05/2023 23:51->METAR KJFK 132351Z 33011KT 10SM FEW100 BKN250 26/03 A2998 RMK AO2 SLP151 T02560033 10267 20233 53009=
13/05/2023 22:51->METAR KJFK 132251Z 32010KT 10SM FEW100 BKN240 26/07 A2997 RMK AO2 SLP147 T02610067=
13/05/2023 21:51->METAR KJFK 132151Z 25009KT 10SM FEW090 BKN230 24/13 A2996 RMK AO2 SLP144 T02440133=
13/05/2023 20:51->METAR KJFK 132051Z 23012KT 10SM FEW070 SCT095 SCT200 OVC250 24/14 A2995 RMK AO2 SLP142 T02440139 56014=
13/05/2023 19:51->METAR KJFK 131951Z 23012KT 10SM FEW060 SCT200 OVC250 25/14 A2996 RMK AO2 SLP145 T02500144=
13/05/2023 18:51->METAR KJFK 131851Z 23010KT 10SM FEW060 FEW100 SCT200 OVC250 26/14 A2998 RMK AO2 SLP151 T02610144=
13/05/2023 17:51->METAR KJFK 131751Z 23004KT 10SM FEW100 OVC180 26/13 A2999 RMK AO2 SLP156 T02560128 10261 20206 58009=
13/05/2023 16:51->METAR KJFK 131651Z 31006KT 10SM SCT100 OVC170 26/12 A3001 RMK AO2 SLP161 T02610122=
13/05/2023 15:51->METAR KJFK 131551Z 30006KT 10SM SCT100 OVC170 26/12 A3002 RMK AO2 SLP164 T02610122=
13/05/2023 14:51->METAR KJFK 131451Z 03006KT 10SM SCT100 OVC200 25/11 A3002 RMK AO2 SLP165 T02500111 50002=
13/05/2023 13:51->METAR KJFK 131351Z 35006KT 10SM SCT100 OVC220 25/13 A3002 RMK AO2 SLP165 T02500128=
13/05/2023 12:51->METAR KJFK 131251Z 25007KT 10SM BKN110 OVC200 22/15 A3002 RMK AO2 SLP165 T02220150=
13/05/2023 11:51->METAR KJFK 131151Z 26006KT 10SM SCT100 OVC200 21/16 A3001 RMK AO2 SLP163 T02060156 10206 20178 53008=
13/05/2023 10:51->METAR KJFK 131051Z 26006KT 10SM BKN100 19/16 A3001 RMK AO2 SLP161 T01940161=
13/05/2023 09:51->METAR KJFK 130951Z 23008KT 10SM FEW105 BKN150 OVC220 18/16 A2999 RMK AO2 SLP155 T01830156=
13/05/2023 08:51->METAR KJFK 130851Z 22009KT 10SM SCT070 SCT220 18/16 A2999 RMK AO2 SLP155 T01830156 56002=
13/05/2023 07:51->METAR KJFK 130751Z 22009KT 10SM SCT160 BKN220 19/14 A2999 RMK AO2 SLP155 T01890144=
13/05/2023 06:51->METAR KJFK 130651Z 21008KT 10SM FEW160 BKN250 18/14 A2999 RMK AO2 SLP155 T01830144=
13/05/2023 05:51->METAR KJFK 130551Z 23007KT 10SM FEW180 SCT250 19/13 A3000 RMK AO2 SLP158 T01940133 10233 20172 58006=
13/05/2023 04:51->METAR KJFK 130451Z 24006KT 10SM FEW100 SCT230 19/14 A3001 RMK AO2 SLP161 T01940139 402830133=
13/05/2023 03:51->METAR KJFK 130351Z 25013KT 10SM FEW100 BKN240 23/12 A3001 RMK AO2 SLP163 T02330122=
13/05/2023 02:51->METAR KJFK 130251Z 23010KT 10SM FEW060 SCT250 20/12 A3002 RMK AO2 SLP163 T02000122 50006=
13/05/2023 01:51->METAR KJFK 130151Z 20005KT 10SM FEW060 BKN250 18/13 A3002 RMK AO2 SLP165 T01830128=
13/05/2023 00:51->METAR KJFK 130051Z 20005KT 10SM FEW100 BKN250 18/13 A3001 RMK AO2 SLP162 T01830133=
12/05/2023 23:51->METAR KJFK 122351Z 18005KT 10SM FEW070 FEW100 BKN250 18/14 A3000 RMK AO2 SLP158 T01830139 10278 20183 53002=
12/05/2023 22:51->METAR KJFK 122251Z 19009KT 10SM FEW100 BKN250 21/14 A2999 RMK AO2 SLP155 T02060139=
12/05/2023 21:51->METAR KJFK 122151Z 24011KT 10SM FEW100 BKN250 27/12 A2999 RMK AO2 SLP154 T02670122=
12/05/2023 20:51->METAR KJFK 122051Z 19011KT 10SM SCT100 BKN250 23/14 A2999 RMK AO2 SLP156 T02280139 58018=
12/05/2023 19:51->METAR KJFK 121951Z 18011KT 10SM FEW070 SCT100 BKN250 24/14 A3002 RMK AO2 SLP164 T02390144=
12/05/2023 18:51->METAR KJFK 121851Z 19016KT 10SM FEW070 BKN250 25/14 A3003 RMK AO2 SLP170 T02500139=
12/05/2023 17:51->METAR KJFK 121751Z 19010KT 10SM FEW065 BKN250 28/11 A3005 RMK AO2 SLP174 T02780111 10283 20183 58016=
12/05/2023 16:51->METAR KJFK 121651Z 21010KT 10SM FEW065 BKN250 28/11 A3007 RMK AO2 SLP181 T02780106=
12/05/2023 15:51->METAR KJFK 121551Z 24011KT 10SM FEW060 BKN250 27/13 A3009 RMK AO2 SLP188 T02720128=
12/05/2023 14:51->METAR KJFK 121451Z 23010KT 10SM BKN250 25/13 A3009 RMK AO2 SLP190 T02500133 53001=
12/05/2023 13:51->METAR KJFK 121351Z 22008KT 10SM BKN250 23/14 A3009 RMK AO2 SLP188 T02280139=
12/05/2023 12:51->METAR KJFK 121251Z 23003KT 10SM FEW100 BKN250 22/13 A3009 RMK AO2 SLP189 T02170128=
12/05/2023 11:51->METAR KJFK 121151Z 24004KT 10SM FEW100 BKN250 18/13 A3009 RMK AO2 SLP190 T01830128 10183 20133 51011=
12/05/2023 10:51->METAR KJFK 121051Z 25005KT 10SM BKN100 BKN250 16/13 A3009 RMK AO2 SLP189 T01610128=
12/05/2023 09:51->METAR KJFK 120951Z 25004KT 10SM BKN100 BKN250 14/12 A3008 RMK AO2 SLP184 T01440117=
12/05/2023 08:51->METAR KJFK 120851Z 22003KT 10SM FEW250 14/12 A3006 RMK AO2 SLP179 T01440122 56002=
12/05/2023 07:51->METAR KJFK 120751Z 22006KT 10SM FEW250 14/12 A3006 RMK AO2 SLP180 T01390117=
12/05/2023 06:51->METAR KJFK 120651Z 24006KT 10SM FEW250 15/12 A3006 RMK AO2 SLP179 T01500117=
12/05/2023 05:51->METAR KJFK 120551Z 25009KT 10SM FEW250 16/12 A3007 RMK AO2 SLP181 T01560117 10189 20156 50000=
12/05/2023 04:51->METAR KJFK 120451Z 25008KT 10SM FEW250 17/11 A3007 RMK AO2 SLP183 T01670106 402390106=
12/05/2023 03:51->METAR KJFK 120351Z 23009KT 10SM FEW250 17/10 A3007 RMK AO2 SLP182 T01720100=
12/05/2023 02:51->METAR KJFK 120251Z 24010KT 10SM FEW250 18/10 A3007 RMK AO2 SLP181 T01830100 51011=
12/05/2023 01:51->METAR KJFK 120151Z 18005KT 10SM FEW070 FEW250 16/12 A3006 RMK AO2 SLP179 T01610117=
12/05/2023 00:51->METAR KJFK 120051Z 19005KT 10SM FEW070 FEW250 17/11 A3005 RMK AO2 SLP174 T01720111=
11/05/2023 23:51->METAR KJFK 112351Z 20007KT 10SM FEW070 FEW250 19/12 A3003 RMK AO2 SLP170 T01890117 10239 20183 56004=
11/05/2023 22:51->METAR KJFK 112251Z 19009KT 10SM FEW070 FEW250 20/11 A3004 RMK AO2 SLP171 T02000111=
11/05/2023 21:51->METAR KJFK 112151Z 18011KT 10SM FEW070 FEW250 21/11 A3004 RMK AO2 SLP171 T02110111=
11/05/2023 20:51->METAR KJFK 112051Z 20012KT 10SM FEW065 SCT250 SCT300 21/12 A3005 RMK AO2 SLP174 FU SCT300 T02110117 58017=
11/05/2023 19:51->METAR KJFK 111951Z 20014KT 10SM SCT250 BKN300 22/11 A3006 RMK AO2 SLP179 FU BKN300 T02220106=
11/05/2023 18:51->METAR KJFK 111851Z 20014KT 10SM FEW250 BKN300 22/09 A3009 RMK AO2 SLP188 FU BKN300 T02170094=
11/05/2023 17:51->METAR KJFK 111751Z 21012KT 10SM SCT250 BKN300 23/07 A3010 RMK AO2 SLP191 FU BKN300 T02330072 10233 20172 56018=
11/05/2023 16:51->METAR KJFK 111651Z 21012KT 10SM SCT250 BKN300 22/07 A3011 RMK AO2 SLP197 FU BKN300 T02220072=
11/05/2023 15:51->METAR KJFK 111551Z 22010KT 10SM SCT250 SCT300 23/07 A3012 RMK AO2 SLP200 FU SCT300 T02280072=
11/05/2023 14:51->METAR KJFK 111451Z VRB06KT 10SM FEW250 SCT300 22/06 A3015 RMK AO2 SLP209 FU SCT300 T02220061 58001=
11/05/2023 13:51->METAR KJFK 111351Z 25009KT 10SM FEW250 SCT300 20/07 A3016 RMK AO2 SLP212 FU SCT300 T02000067=
11/05/2023 12:51->METAR KJFK 111251Z 24006KT 10SM FEW250 SCT300 18/08 A3016 RMK AO2 SLP211 FU SCT300 T01830083=
11/05/2023 11:51->METAR KJFK 111151Z 30006KT 10SM FEW250 BKN300 17/07 A3015 RMK AO2 SLP210 FU BKN300 T01720067 10172 20106 51016=
11/05/2023 10:51->METAR KJFK 111051Z 27008KT 10SM BKN300 13/08 A3014 RMK AO2 SLP207 FU BKN300 T01330078=
11/05/2023 09:51->METAR KJFK 110951Z 25007KT 10SM BKN300 11/07 A3012 RMK AO2 SLP200 FU BKN300 T01110067=
11/05/2023 08:51->METAR KJFK 110851Z 25003KT 10SM BKN300 12/08 A3010 RMK AO2 SLP194 FU BKN300 T01220078 58001=
11/05/2023 07:51->METAR KJFK 110751Z 21008KT 10SM BKN300 11/08 A3010 RMK AO2 SLP194 FU BKN300 T01110083=
11/05/2023 06:51->METAR KJFK 110651Z 25007KT 10SM BKN300 13/08 A3011 RMK AO2 SLP195 FU BKN300 T01280078=
11/05/2023 05:51->METAR KJFK 110551Z 25008KT 10SM BKN300 13/09 A3011 RMK AO2 SLP194 FU BKN300 T01280089 10139 20117 55000=
11/05/2023 04:51->METAR KJFK 110451Z 22007KT 10SM BKN300 13/09 A3011 RMK AO2 SLP194 FU BKN300 T01280094 401890067=
11/05/2023 03:51->METAR KJFK 110351Z 22005KT 10SM BKN300 13/10 A3010 RMK AO2 SLP193 FU BKN300 T01280100=
11/05/2023 02:51->METAR KJFK 110251Z 21005KT 10SM FEW250 BKN300 12/11 A3011 RMK AO2 SLP195 FU BKN300 T01220111 51007=
11/05/2023 01:51->METAR KJFK 110151Z 20007KT 10SM FEW250 BKN300 13/11 A3011 RMK AO2 SLP195 FU BKN300 T01280111=
11/05/2023 00:51->METAR KJFK 110051Z 21004KT 10SM BKN300 13/11 A3010 RMK AO2 SLP192 FU BKN300 T01330106=
10/05/2023 23:51->METAR KJFK 102351Z 19015KT 10SM BKN300 14/09 A3009 RMK AO2 SLP188 FU BKN300 T01390094 10189 20139 56005=
10/05/2023 22:51->METAR KJFK 102251Z 19017KT 10SM BKN300 15/08 A3009 RMK AO2 SLP188 FU BKN300 T01500078=
10/05/2023 21:51->METAR KJFK 102151Z 19017KT 10SM SCT300 16/07 A3009 RMK AO2 SLP190 FU SCT300 T01610072=
10/05/2023 20:51->METAR KJFK 102051Z 20020KT 10SM SCT300 17/08 A3010 RMK AO2 SLP193 FU SCT300 T01720083 56016=
10/05/2023 19:51->METAR KJFK 101951Z 19015KT 10SM BKN300 17/11 A3011 RMK AO2 SLP194 FU BKN300 T01720106=
10/05/2023 18:51->METAR KJFK 101851Z 18010KT 10SM BKN300 19/09 A3012 RMK AO2 SLP201 FU BKN300 T01890089=
10/05/2023 17:51->METAR KJFK 101751Z 19011KT 10SM FEW055 SCT300 17/08 A3015 RMK AO2 SLP208 FU SCT300 T01720083 10178 20122 56017=
10/05/2023 16:51->METAR KJFK 101651Z 21011KT 10SM FEW050 BKN300 17/08 A3016 RMK AO2 SLP214 FU BKN300 T01720083=
10/05/2023 15:51->METAR KJFK 101551Z 20009KT 10SM FEW050 BKN300 16/08 A3018 RMK AO2 SLP218 FU BKN300 T01560083=
10/05/2023 14:51->METAR KJFK 101451Z 20007KT 10SM FEW047 BKN300 16/09 A3020 RMK AO2 SLP225 FU BKN300 T01560089 50001=
10/05/2023 13:51->METAR KJFK 101351Z 20004KT 10SM BKN300 14/08 A3020 RMK AO2 SLP227 FU BKN300 T01440083=
10/05/2023 12:51->METAR KJFK 101251Z 21004KT 10SM BKN300 14/08 A3020 RMK AO2 SLP225 FU BKN300 T01390083=
10/05/2023 11:51->METAR KJFK 101151Z VRB03KT 10SM FEW250 BKN300 13/09 A3019 RMK AO2 SLP223 FU BKN300 T01280094 10128 20067 52017=
10/05/2023 10:51->METAR KJFK 101051Z 14003KT 10SM FEW250 SCT300 09/07 A3018 RMK AO2 SLP218 FU SCT300 FU PLUME N T00940072=
10/05/2023 09:51->METAR KJFK 100951Z 06003KT 10SM FEW250 07/05 A3016 RMK AO2 SLP212 T00670050=
10/05/2023 08:51->METAR KJFK 100851Z 12003KT 10SM SCT250 08/06 A3014 RMK AO2 SLP206 T00780056 52006=
10/05/2023 07:51->METAR KJFK 100751Z 00000KT 10SM SCT250 09/06 A3014 RMK AO2 SLP205 T00890056=
10/05/2023 06:51->METAR KJFK 100651Z 00000KT 10SM FEW250 09/06 A3013 RMK AO2 SLP202 T00890056=
10/05/2023 05:51->METAR KJFK 100551Z 21004KT 10SM SCT250 11/06 A3012 RMK AO2 SLP200 T01060061 10122 20100 51010=
10/05/2023 04:51->METAR KJFK 100451Z 17004KT 10SM FEW090 BKN250 11/06 A3012 RMK AO2 SLP200 T01060061 401720100=
10/05/2023 03:51->METAR KJFK 100351Z 14004KT 10SM FEW130 BKN250 11/07 A3012 RMK AO2 SLP198 T01060067=
10/05/2023 02:51->METAR KJFK 100251Z 14004KT 10SM BKN250 11/06 A3009 RMK AO2 SLP189 T01110061 51030=
10/05/2023 01:51->METAR KJFK 100151Z 14005KT 10SM SCT250 11/06 A3007 RMK AO2 SLP183 T01110056=
10/05/2023 00:51->METAR KJFK 100051Z 13005KT 10SM SCT250 SCT300 12/06 A3005 RMK AO2 SLP174 FU SCT300 T01170061=
09/05/2023 23:51->METAR KJFK 092351Z 15006KT 10SM FEW050 BKN250 BKN300 12/06 A3000 RMK AO2 SLP159 FU BKN300 T01220056 10172 20122 53010=
09/05/2023 22:51->METAR KJFK 092251Z 16007KT 10SM FEW050 BKN250 BKN300 14/04 A2999 RMK AO2 SLP155 FU BKN300 T01390039=
09/05/2023 21:51->METAR KJFK 092151Z 14010KT 10SM FEW050 FEW190 BKN250 BKN300 15/03 A2998 RMK AO2 SLP151 FU BKN300 T01500028=
09/05/2023 20:51->METAR KJFK 092051Z 16011KT 10SM FEW050 FEW070 SCT190 BKN250 16/02 A2997 RMK AO2 SLP149 T01560022 55003=
09/05/2023 19:51->METAR KJFK 091951Z 15010KT 10SM FEW050 FEW070 SCT180 BKN250 16/03 A2997 RMK AO2 SLP148 T01610028=
09/05/2023 18:51->METAR KJFK 091851Z 15011KT 10SM FEW050 FEW070 SCT160 BKN250 17/02 A2998 RMK AO2 SLP151 T01670022=
09/05/2023 17:51->METAR KJFK 091751Z 14008KT 10SM FEW050 SCT160 BKN250 17/02 A2998 RMK AO2 SLP152 T01670022 10172 20139 56001=
09/05/2023 16:51->METAR KJFK 091651Z 15009KT 10SM BKN160 BKN250 16/02 A2998 RMK AO2 SLP153 T01610022=
09/05/2023 15:51->METAR KJFK 091551Z 15007KT 10SM FEW130 BKN250 17/03 A2998 RMK AO2 SLP152 T01670028=
09/05/2023 14:51->METAR KJFK 091451Z 13004KT 10SM BKN130 BKN250 16/01 A2998 RMK AO2 SLP153 T01610011 51014=
09/05/2023 13:51->METAR KJFK 091351Z 09006KT 10SM BKN150 BKN250 16/02 A2997 RMK AO2 SLP149 T01560017=
09/05/2023 12:51->METAR KJFK 091251Z 06008KT 10SM BKN150 BKN250 15/03 A2996 RMK AO2 SLP145 T01500028=
09/05/2023 11:51->METAR KJFK 091151Z 04008KT 10SM BKN140 BKN250 14/04 A2994 RMK AO2 SLP140 T01440039 10161 20117 51015=
09/05/2023 10:51->METAR KJFK 091051Z 04007KT 10SM BKN150 BKN250 13/04 A2994 RMK AO2 SLP139 T01280039=
09/05/2023 09:51->METAR KJFK 090951Z 04006KT 10SM BKN160 BKN250 12/03 A2992 RMK AO2 SLP131 T01220033=
09/05/2023 08:51->METAR KJFK 090851Z 02007KT 10SM FEW200 BKN250 13/02 A2990 RMK AO2 SLP124 T01280017 53007=
09/05/2023 07:51->METAR KJFK 090751Z 01007KT 10SM FEW200 BKN250 13/01 A2989 RMK AO2 SLP122 T01330011=
09/05/2023 06:51->METAR KJFK 090651Z 04013G18KT 10SM FEW200 SCT250 14/01 A2988 RMK AO2 SLP119 T01440006=
09/05/2023 05:51->METAR KJFK 090551Z 02011KT 10SM SCT250 16/M01 A2988 RMK AO2 SLP117 T01611011 10217 20156 50005=
09/05/2023 04:51->METAR KJFK 090451Z 01007KT 10SM BKN250 17/04 A2989 RMK AO2 SLP121 T01670039 402560139=
09/05/2023 03:51->METAR KJFK 090351Z 01007KT 10SM BKN240 18/04 A2988 RMK AO2 SLP117 T01830039=
09/05/2023 02:51->METAR KJFK 090251Z 35008KT 10SM BKN250 19/04 A2986 RMK AO2 SLP112 T01940039 51028=
09/05/2023 01:51->METAR KJFK 090151Z 34010KT 10SM BKN250 21/04 A2984 RMK AO2 SLP106 T02060044=
09/05/2023 00:51->METAR KJFK 090051Z 34009KT 10SM BKN250 19/07 A2980 RMK AO2 SLP091 T01940072=
08/05/2023 23:51->METAR KJFK 082351Z 15006KT 10SM FEW075 BKN250 17/12 A2978 RMK AO2 SLP084 T01670117 10256 20161 53010=
08/05/2023 22:51->METAR KJFK 082251Z 18010KT 10SM FEW075 BKN250 19/12 A2976 RMK AO2 SLP077 T01890117=
08/05/2023 21:51->METAR KJFK 082151Z VRB03KT 10SM FEW075 BKN250 21/11 A2975 RMK AO2 SLP075 T02110111=
08/05/2023 20:51->METAR KJFK 082051Z 29012G20KT 10SM FEW075 BKN250 25/08 A2975 RMK AO2 SLP074 T02500078 56009=
08/05/2023 19:51->METAR KJFK 081951Z 28010KT 10SM FEW075 BKN250 24/08 A2975 RMK AO2 SLP074 T02440078=
08/05/2023 18:51->METAR KJFK 081851Z 28013G21KT 10SM SCT070 BKN250 24/09 A2976 RMK AO2 SLP078 T02440094=
08/05/2023 17:51->METAR KJFK 081751Z 34007KT 10SM FEW060 BKN250 24/09 A2978 RMK AO2 SLP083 T02390089 10239 20172 58005=
08/05/2023 16:51->METAR KJFK 081651Z 10SM FEW055 SCT250 23/09 A2979 RMK AO2 SLP087 T02280089=
08/05/2023 15:51->METAR KJFK 081551Z 01010KT 10SM FEW050 SCT250 22/09 A2980 RMK AO2 SLP090 T02170089=
08/05/2023 14:51->METAR KJFK 081451Z 32011KT 10SM FEW047 FEW250 21/09 A2979 RMK AO2 SLP088 T02060094 50003=
08/05/2023 13:51->METAR KJFK 081351Z 33013KT 10SM FEW047 SCT100 BKN250 19/11 A2979 RMK AO2 SLP088 T01890106=
08/05/2023 12:51->METAR KJFK 081251Z 33012KT 10SM FEW043 FEW100 BKN250 18/11 A2980 RMK AO2 SLP090 T01830111=
08/05/2023 11:51->METAR KJFK 081151Z 35008KT 10SM FEW040 FEW100 SCT250 17/11 A2978 RMK AO2 SLP085 60000 T01720106 10172 20139 53007=
08/05/2023 10:51->METAR KJFK 081051Z 34008KT 10SM FEW037 SCT100 SCT250 15/11 A2977 RMK AO2 SLP081 T01500106=
08/05/2023 09:51->METAR KJFK 080951Z 34006KT 10SM FEW037 FEW100 BKN250 14/11 A2977 RMK AO2 SLP079 T01440106=
08/05/2023 08:51->METAR KJFK 080851Z 33007KT 10SM FEW037 SCT065 OVC100 14/12 A2976 RMK AO2 RAB14E47 CIG 046 W SLP078 P0000 60000 T01440117 56000=
08/05/2023 07:51->METAR KJFK 080751Z 34007KT 10SM BKN050 16/12 A2977 RMK AO2 SLP080 T01560117=
08/05/2023 06:51->METAR KJFK 080651Z 02007KT 10SM BKN055 BKN095 15/12 A2975 RMK AO2 SLP072 T01500117=
08/05/2023 05:51->METAR KJFK 080551Z 36008KT 10SM BKN060 OVC075 17/12 A2976 RMK AO2 RAE0453 SLP078 P0000 60000 T01670122 10206 20156 56009=
08/05/2023 04:51->METAR KJFK 080451Z 01006KT 10SM -RA OVC065 18/14 A2978 RMK AO2 RAB37 SLP083 P0000 T01780139 402280117=
08/05/2023 03:51->METAR KJFK 080351Z 20005KT 10SM BKN060 OVC110 18/13 A2977 RMK AO2 RAE43 SLP080 P0000 T01780128=
08/05/2023 02:51->METAR KJFK 080251Z 29008KT 10SM -RA OVC090 20/12 A2979 RMK AO2 RAE15B46 SLP087 P0000 60000 T02000122 56013=
08/05/2023 01:51->METAR KJFK 080151Z 27013KT 10SM -RA OVC080 21/12 A2981 RMK AO2 RAB26 SLP093 P0000 T02060117=
08/05/2023 00:51->METAR KJFK 080051Z 24012KT 10SM BKN110 BKN150 BKN250 18/12 A2981 RMK AO2 SLP093 T01780122=
07/05/2023 23:51->METAR KJFK 072351Z 20010KT 10SM BKN110 BKN150 BKN250 16/12 A2983 RMK AO2 SLP100 T01610122 10228 20161 56017=
07/05/2023 22:51->METAR KJFK 072251Z 19011KT 10SM FEW090 BKN150 BKN250 17/12 A2984 RMK AO2 SLP104 T01670122=
07/05/2023 21:51->METAR KJFK 072151Z 18013KT 10SM FEW090 BKN200 OVC250 17/12 A2986 RMK AO2 SLP111 T01720122=
07/05/2023 20:51->METAR KJFK 072051Z 18014KT 10SM FEW090 BKN250 18/12 A2988 RMK AO2 SLP117 T01780122 58030=
07/05/2023 19:51->METAR KJFK 071951Z 17017KT 10SM FEW100 BKN250 19/11 A2991 RMK AO2 SLP128 T01940106=
07/05/2023 18:51->METAR KJFK 071851Z 17014KT 10SM FEW150 BKN250 20/07 A2994 RMK AO2 WSHFT 1810 SLP140 T02000067=
07/05/2023 17:51->METAR KJFK 071751Z 24012KT 10SM FEW150 BKN250 22/07 A2997 RMK AO2 SLP147 T02220067 10228 20156 58028=
07/05/2023 16:51->METAR KJFK 071651Z 20012KT 10SM FEW150 BKN250 21/07 A3000 RMK AO2 SLP157 T02110067=
07/05/2023 15:51->METAR KJFK 071551Z 22009KT 10SM FEW150 BKN250 21/06 A3003 RMK AO2 SLP167 T02060061=
07/05/2023 14:51->METAR KJFK 071451Z 23008KT 10SM FEW150 SCT250 21/06 A3005 RMK AO2 SLP176 T02060061 56013=
07/05/2023 13:51->METAR KJFK 071351Z 33004KT 10SM FEW250 19/06 A3006 RMK AO2 SLP180 T01940056=
07/05/2023 12:51->METAR KJFK 071251Z 34005KT 10SM FEW130 FEW250 18/06 A3007 RMK AO2 SLP184 T01830056=
07/05/2023 11:51->METAR KJFK 071151Z 24004KT 10SM FEW130 SCT250 16/07 A3009 RMK AO2 SLP189 T01560072 10156 20117 58004=
07/05/2023 10:51->METAR KJFK 071051Z 26006KT 10SM FEW130 SCT250 14/07 A3010 RMK AO2 SLP193 T01390067=
07/05/2023 09:51->METAR KJFK 070951Z 32006KT 10SM FEW250 12/04 A3010 RMK AO2 SLP191 T01220039=
07/05/2023 08:51->METAR KJFK 070851Z 31006KT 10SM FEW250 13/04 A3010 RMK AO2 SLP193 T01280044 56003=
07/05/2023 07:51->METAR KJFK 070751Z 30007KT 10SM FEW250 13/05 A3011 RMK AO2 SLP195 T01280050=
07/05/2023 06:51->METAR KJFK 070651Z VRB03KT 10SM FEW250 12/05 A3010 RMK AO2 SLP193 T01170050=
07/05/2023 05:51->METAR KJFK 070551Z 32006KT 10SM FEW250 14/06 A3011 RMK AO2 SLP196 T01440056 10150 20117 58009=
07/05/2023 04:51->METAR KJFK 070451Z 32006KT 10SM FEW095 FEW250 14/08 A3012 RMK AO2 SLP199 T01440083 402220089=
07/05/2023 03:51->METAR KJFK 070351Z 00000KT 10SM SCT090 14/11 A3013 RMK AO2 SLP203 T01390111=
07/05/2023 02:51->METAR KJFK 070251Z 21005KT 10SM BKN090 12/11 A3014 RMK AO2 SLP205 T01220111 50001=
07/05/2023 01:51->METAR KJFK 070151Z 20006KT 10SM SCT090 12/11 A3014 RMK AO2 SLP206 T01220111=
07/05/2023 00:51->METAR KJFK 070051Z 20007KT 10SM SCT090 14/11 A3014 RMK AO2 SLP206 T01390106=
06/05/2023 23:51->METAR KJFK 062351Z 20012KT 10SM FEW085 14/09 A3014 RMK AO2 SLP204 T01440094 10222 20144 55003=
06/05/2023 22:51->METAR KJFK 062251Z 19011KT 10SM SCT085 16/09 A3013 RMK AO2 SLP204 T01560089=
06/05/2023 21:51->METAR KJFK 062151Z 19012KT 10SM SCT080 17/09 A3014 RMK AO2 SLP205 T01670089=
06/05/2023 20:51->METAR KJFK 062051Z 19011KT 10SM BKN080 18/11 A3014 RMK AO2 SLP207 T01780106 56017=
06/05/2023 19:51->METAR KJFK 061951Z 19008KT 10SM SCT075 21/07 A3015 RMK AO2 SLP208 T02060067=
06/05/2023 18:51->METAR KJFK 061851Z 34008KT 10SM SCT070 22/06 A3017 RMK AO2 SLP216 T02220061=
06/05/2023 17:51->METAR KJFK 061751Z 31010G15KT 280V340 10SM SCT065 21/06 A3019 RMK AO2 SLP223 T02060061 10211 20139 58021=
06/05/2023 16:51->METAR KJFK 061651Z VRB04KT 10SM FEW060 19/06 A3021 RMK AO2 SLP230 T01940061=
06/05/2023 15:51->METAR KJFK 061551Z 32013KT 10SM FEW060 19/06 A3024 RMK AO2 SLP239 T01940061=
06/05/2023 14:51->METAR KJFK 061451Z 34008KT 10SM CLR 18/07 A3025 RMK AO2 SLP245 T01830067 58006=
06/05/2023 13:51->METAR KJFK 061351Z 35010KT 10SM CLR 17/07 A3027 RMK AO2 SLP248 T01720072=
06/05/2023 12:51->METAR KJFK 061251Z 32008KT 10SM CLR 16/07 A3027 RMK AO2 SLP250 T01560072=
06/05/2023 11:51->METAR KJFK 061151Z 32005KT 10SM CLR 14/08 A3027 RMK AO2 SLP251 T01390078 10139 20089 53006=
06/05/2023 10:51->METAR KJFK 061051Z 28005KT 10SM CLR 11/08 A3027 RMK AO2 SLP249 T01110083=
06/05/2023 09:51->METAR KJFK 060951Z 29005KT 10SM CLR 09/08 A3025 RMK AO2 SLP244 T00940078=
06/05/2023 08:51->METAR KJFK 060851Z 00000KT 10SM CLR 09/08 A3025 RMK AO2 SLP244 T00940078 53002=
06/05/2023 07:51->METAR KJFK 060751Z 27006KT 10SM CLR 10/08 A3025 RMK AO2 SLP242 T01000083=
06/05/2023 06:51->METAR KJFK 060651Z 25005KT 10SM FEW060 FEW080 10/08 A3025 RMK AO2 SLP241 T01000083=
06/05/2023 05:51->METAR KJFK 060551Z 26005KT 10SM FEW060 BKN080 11/09 A3025 RMK AO2 SLP242 T01110089 10111 20100 50001=
06/05/2023 04:51->METAR KJFK 060451Z 25007KT 10SM FEW050 FEW075 BKN150 11/09 A3026 RMK AO2 SLP246 T01110089 401610067=
06/05/2023 03:51->METAR KJFK 060351Z 23007KT 10SM FEW060 FEW110 11/09 A3025 RMK AO2 SLP244 T01060089=
06/05/2023 02:51->METAR KJFK 060251Z 19006KT 10SM FEW060 FEW075 10/08 A3025 RMK AO2 SLP242 T01000083 51004=
06/05/2023 01:51->METAR KJFK 060151Z 20006KT 10SM FEW050 SCT080 11/08 A3024 RMK AO2 SLP241 T01060083=
06/05/2023 00:51->METAR KJFK 060051Z 17004KT 10SM FEW055 SCT070 BKN120 BKN250 11/08 A3024 RMK AO2 SLP241 T01060078=
05/05/2023 23:51->METAR KJFK 052351Z 18006KT 10SM FEW050 SCT090 BKN110 BKN250 11/08 A3024 RMK AO2 SLP238 T01110078 10144 20111 51010=
05/05/2023 22:51->METAR KJFK 052251Z 19011KT 10SM FEW050 SCT090 SCT110 BKN250 12/07 A3022 RMK AO2 SLP233 T01170067=
05/05/2023 21:51->METAR KJFK 052151Z 18011KT 10SM FEW050 SCT090 SCT250 13/07 A3022 RMK AO2 SLP232 T01280072=
05/05/2023 20:51->METAR KJFK 052051Z 17008KT 10SM FEW050 SCT090 SCT250 14/07 A3020 RMK AO2 SLP227 T01390072 55003=
05/05/2023 19:51->METAR KJFK 051951Z 14006KT 10SM FEW050 BKN090 BKN250 13/07 A3020 RMK AO2 SLP226 T01330067=
05/05/2023 18:51->METAR KJFK 051851Z 18009KT 10SM SCT050 BKN080 BKN250 13/07 A3021 RMK AO2 SLP230 T01330072=
05/05/2023 17:51->METAR KJFK 051751Z 18009KT 10SM SCT050 BKN070 BKN250 14/08 A3021 RMK AO2 SLP231 T01390078 10161 20106 58002=
05/05/2023 16:51->METAR KJFK 051651Z 21011KT 10SM BKN050 BKN070 BKN250 14/08 A3022 RMK AO2 SLP233 T01390083=
05/05/2023 15:51->METAR KJFK 051551Z 20006KT 10SM FEW045 SCT070 SCT250 15/07 A3022 RMK AO2 SLP233 T01500067=
05/05/2023 14:51->METAR KJFK 051451Z VRB04KT 10SM SCT040 SCT065 SCT250 16/06 A3022 RMK AO2 SLP233 T01560056 51015=
05/05/2023 13:51->METAR KJFK 051351Z VRB06KT 10SM SCT034 BKN065 BKN250 14/06 A3021 RMK AO2 SLP229 T01440061=
05/05/2023 12:51->METAR KJFK 051251Z VRB06KT 10SM FEW028 SCT070 SCT250 13/07 A3020 RMK AO2 SLP226 T01280072=
05/05/2023 11:51->METAR KJFK 051151Z 04007KT 10SM FEW023 FEW070 FEW250 11/08 A3018 RMK AO2 SLP218 70002 T01060078 10106 20067 51022=
05/05/2023 10:51->METAR KJFK 051051Z 06003KT 9SM FEW016 FEW075 FEW250 09/08 A3016 RMK AO2 SLP212 T00890083=
05/05/2023 09:51->METAR KJFK 050951Z 04005KT 9SM FEW016 FEW075 SCT110 07/07 A3013 RMK AO2 SLP202 T00720067=
05/05/2023 08:51->METAR KJFK 050851Z 00000KT 10SM CLR 07/07 A3011 RMK AO2 SLP196 T00720067 53007=
05/05/2023 07:51->METAR KJFK 050751Z 00000KT 10SM FEW017 SCT110 07/07 A3010 RMK AO2 SLP193 T00720067=
05/05/2023 06:51->METAR KJFK 050651Z 00000KT 10SM FEW015 BKN110 09/08 A3009 RMK AO2 SLP190 T00890078=
05/05/2023 05:51->METAR KJFK 050551Z 03003KT 10SM FEW015 BKN100 09/08 A3009 RMK AO2 SLP189 T00940078 10111 20094 53010=
05/05/2023 04:51->METAR KJFK 050451Z 33004KT 10SM FEW020 BKN110 10/08 A3008 RMK AO2 SLP184 T01000078 401330083=
05/05/2023 03:51->METAR KJFK 050351Z 29005KT 10SM FEW025 BKN090 11/08 A3007 RMK AO2 SLP181 T01060078=
05/05/2023 02:51->METAR KJFK 050251Z 26007KT 10SM FEW030 BKN070 OVC085 11/08 A3006 RMK AO2 SLP178 T01060078 51016=
05/05/2023 01:51->METAR KJFK 050151Z 25009KT 10SM BKN060 OVC085 11/08 A3005 RMK AO2 SLP175 T01060078=
05/05/2023 00:51->METAR KJFK 050051Z 22009KT 10SM FEW040 BKN060 OVC085 11/08 A3003 RMK AO2 SLP168 T01060078=
04/05/2023 23:51->METAR KJFK 042351Z 21008KT 10SM FEW040 BKN065 BKN080 BKN250 10/07 A3001 RMK AO2 SLP163 60000 T01000072 10133 20100 53017=
04/05/2023 22:51->METAR KJFK 042251Z 19010KT 10SM FEW040 BKN075 BKN250 11/07 A2999 RMK AO2 SLP155 T01060072=
04/05/2023 21:51->METAR KJFK 042151Z 18011KT 10SM FEW044 SCT060 BKN075 BKN250 11/08 A2998 RMK AO2 SLP151 T01110078=
04/05/2023 20:51->METAR KJFK 042051Z 18009KT 10SM BKN044 OVC060 11/07 A2996 RMK AO2 RAB14E30 SLP145 P0000 60000 T01060072 53016=
04/05/2023 19:51->METAR KJFK 041951Z 17010KT 10SM BKN036 BKN048 BKN065 OVC250 11/07 A2994 RMK AO2 SLP138 VCSH W-NW T01060067=
04/05/2023 18:51->METAR KJFK 041851Z 06006KT 10SM FEW025 SCT033 BKN049 BKN250 13/05 A2993 RMK AO2 SLP133 T01280050=
04/05/2023 17:51->METAR KJFK 041751Z 05004KT 10SM FEW027 BKN033 BKN049 BKN250 12/06 A2991 RMK AO2 SLP129 60002 T01220056 10133 20089 51015=
04/05/2023 16:51->METAR KJFK 041651Z 02008KT 10SM FEW019 BKN028 BKN047 BKN250 13/07 A2990 RMK AO2 SLP124 T01280067=
04/05/2023 15:51->METAR KJFK 041551Z 03010KT 10SM FEW013 BKN028 OVC044 11/07 A2989 RMK AO2 SLP121 T01110072=
04/05/2023 14:51->METAR KJFK 041451Z 04009G18KT 10SM FEW011 BKN021 OVC035 09/08 A2987 RMK AO2 RAE12B38E49 SLP114 P0000 60002 T00940078 51017=
04/05/2023 13:51->METAR KJFK 041351Z 04006KT 10SM -RA FEW011 BKN036 BKN085 BKN160 09/08 A2984 RMK AO2 SLP105 P0000 T00940078=
04/05/2023 12:51->METAR KJFK 041251Z 03009KT 10SM -RA SCT009 BKN038 OVC048 09/08 A2982 RMK AO2 SLP097 P0002 T00940078=
04/05/2023 11:51->METAR KJFK 041151Z 02007KT 6SM -RA BR SCT009 OVC043 09/08 A2979 RMK AO2 SLP086 P0011 60014 70015 T00890078 10094 20083 51035=
04/05/2023 10:51->METAR KJFK 041051Z 06007KT 5SM RA BR BKN012 BKN042 OVC050 08/07 A2975 RMK AO2 RAB16 SLP075 VIS NE-SE 3 BKN012 V SCT P0003 T00830072=
04/05/2023 09:51->METAR KJFK 040951Z 03010KT 10SM OVC012 09/07 A2972 RMK AO2 RAB22E36 SLP063 P0000 T00940072=
04/05/2023 08:51->METAR KJFK 040851Z 36008KT 10SM FEW015 BKN050 OVC140 09/07 A2968 RMK AO2 SLP051 60000 T00890067 53020=
04/05/2023 07:51->METAR KJFK 040751Z 01009KT 10SM BKN050 OVC065 09/07 A2966 RMK AO2 RAE01 SLP042 P0000 T00890067=
04/05/2023 06:51->METAR KJFK 040651Z 36011KT 10SM -RA OVC060 09/06 A2964 RMK AO2 RAB47 SLP036 P0000 T00940061=
04/05/2023 05:51->METAR KJFK 040551Z 35010KT 10SM OVC060 09/06 A2963 RMK AO2 SLP031 60001 T00940056 10106 20094 53002=
04/05/2023 04:51->METAR KJFK 040451Z 33006KT 10SM BKN060 BKN090 OVC120 09/06 A2962 RMK AO2 SLP030 T00940056 401330083=
04/05/2023 03:51->METAR KJFK 040351Z 34008KT 10SM BKN041 OVC080 10/06 A2962 RMK AO2 RAB09E51 SLP029 P0000 T01000056=
04/05/2023 02:51->METAR KJFK 040251Z 30005KT 10SM OVC060 10/05 A2962 RMK AO2 RAE05B25E35 SLP029 P0000 60001 T01000050 51017=
04/05/2023 01:51->METAR KJFK 040151Z 30005KT 10SM -RA FEW042 BKN055 OVC070 10/04 A2961 RMK AO2 RAB21 SLP027 P0000 T01000044=
04/05/2023 00:51->METAR KJFK 040051Z 31005KT 10SM OVC045 11/04 A2959 RMK AO2 LTG DSNT S RAE24 SLP020 P0001 T01060044=
03/05/2023 23:51->METAR KJFK 032351Z 28008KT 10SM -RA BKN045 OVC060 11/04 A2957 RMK AO2 LTG DSNT S RAB31 SLP013 P0000 60000 T01060044 10133 20106 53019=
03/05/2023 22:51->METAR KJFK 032251Z 24012KT 10SM FEW040 BKN055 BKN110 BKN250 12/04 A2954 RMK AO2 SLP002 VCSH S AND NW T01170044=
03/05/2023 21:51->METAR KJFK 032151Z 17010KT 10SM FEW040 SCT055 BKN080 BKN250 11/06 A2953 RMK AO2 SLP000 VCSH S AND NW T01110056=
03/05/2023 20:51->METAR KJFK 032051Z 20009KT 10SM FEW040 BKN070 BKN140 BKN250 12/05 A2951 RMK AO2 SLP993 VCSH NW T01170050 53000=
03/05/2023 19:51->METAR KJFK 031951Z 19011KT 10SM FEW039 SCT060 SCT130 BKN250 12/06 A2950 RMK AO2 SLP988 T01220061=
03/05/2023 18:51->METAR KJFK 031851Z 18010KT 10SM FEW039 SCT060 SCT110 BKN170 BKN250 12/04 A2951 RMK AO2 SLP992 T01220044=
03/05/2023 17:51->METAR KJFK 031751Z 20012KT 10SM FEW039 BKN055 BKN170 13/04 A2951 RMK AO2 SLP993 T01280039 10133 20089 58002=
03/05/2023 16:51->METAR KJFK 031651Z 24009KT 10SM FEW039 SCT055 BKN170 BKN250 13/03 A2952 RMK AO2 SLP995 T01280033=
03/05/2023 15:51->METAR KJFK 031551Z 24009KT 10SM SCT039 BKN170 BKN250 12/04 A2952 RMK AO2 SLP996 T01220044=
03/05/2023 14:51->METAR KJFK 031451Z 24012G16KT 10SM SCT034 BKN170 BKN250 12/04 A2952 RMK AO2 SLP995 T01170044 51010=
03/05/2023 13:51->METAR KJFK 031351Z 26007KT 10SM SCT031 BKN170 BKN250 11/04 A2952 RMK AO2 SLP995 T01060039=
03/05/2023 12:51->METAR KJFK 031251Z 25009KT 10SM FEW025 SCT045 SCT100 BKN170 BKN250 10/04 A2950 RMK AO2 SLP991 T01000044=
03/05/2023 11:51->METAR KJFK 031151Z 27010KT 10SM FEW022 SCT100 BKN170 BKN250 09/04 A2949 RMK AO2 SLP986 70005 T00890044 10094 20083 51010=
03/05/2023 10:51->METAR KJFK 031051Z 25008KT 10SM FEW022 SCT065 SCT100 BKN140 08/04 A2948 RMK AO2 SLP982 T00830039=
03/05/2023 09:51->METAR KJFK 030951Z 28011KT 10SM BKN065 BKN120 BKN160 08/03 A2947 RMK AO2 SLP980 T00830033=
03/05/2023 08:51->METAR KJFK 030851Z 29007KT 10SM OVC065 08/03 A2946 RMK AO2 SLP975 T00830033 56008=
03/05/2023 07:51->METAR KJFK 030751Z 28010KT 10SM FEW065 BKN110 OVC160 08/03 A2946 RMK AO2 SLP976 T00830028=
03/05/2023 06:51->METAR KJFK 030651Z 28011KT 10SM FEW065 BKN160 OVC250 09/03 A2947 RMK AO2 SLP978 T00890028=
03/05/2023 05:51->METAR KJFK 030551Z 27012KT 10SM FEW075 BKN150 OVC250 09/03 A2948 RMK AO2 SLP983 T00940028 10117 20094 58003=
03/05/2023 04:51->METAR KJFK 030451Z 26014KT 10SM FEW075 BKN130 OVC250 10/03 A2949 RMK AO2 SLP987 T01000033 401390078=
03/05/2023 03:51->METAR KJFK 030351Z 27014KT 10SM SCT080 BKN130 OVC250 10/03 A2949 RMK AO2 SLP986 T01000028=
03/05/2023 02:51->METAR KJFK 030251Z 25013KT 10SM FEW080 OVC130 11/03 A2949 RMK AO2 SLP986 T01060033 50011=
03/05/2023 01:51->METAR KJFK 030151Z 25013KT 10SM FEW045 OVC130 11/03 A2949 RMK AO2 SLP986 T01110033=
03/05/2023 00:51->METAR KJFK 030051Z 26012KT 10SM FEW040 SCT080 BKN250 11/03 A2948 RMK AO2 SLP981 T01110033=
02/05/2023 23:51->METAR KJFK 022351Z 26012KT 10SM FEW040 FEW060 SCT080 BKN250 12/03 A2946 RMK AO2 SLP975 T01170033 10139 20111 53016=
02/05/2023 22:51->METAR KJFK 022251Z 25017KT 10SM FEW040 FEW060 BKN080 BKN250 12/03 A2944 RMK AO2 SLP968 T01220028=
02/05/2023 21:51->METAR KJFK 022151Z 24018KT 10SM FEW040 BKN055 BKN075 BKN250 13/03 A2943 RMK AO2 SLP964 T01280033=
02/05/2023 20:51->METAR KJFK 022051Z 25018KT 10SM FEW045 SCT060 BKN075 BKN250 13/03 A2941 RMK AO2 SLP959 T01330028 50002=
02/05/2023 19:51->METAR KJFK 021951Z 25017G25KT 10SM FEW045 BKN060 BKN075 BKN250 12/03 A2942 RMK AO2 SLP960 VCSH NW T01170028=
02/05/2023 18:51->METAR KJFK 021851Z 25016KT 10SM FEW030 FEW048 BKN070 12/02 A2941 RMK AO2 SLP958 VCSH E-S T01220022=
02/05/2023 17:51->METAR KJFK 021751Z 26010KT 10SM FEW030 BKN065 BKN085 BKN250 11/04 A2941 RMK SLP957 60005 T01110044 10122 20078 53002=
02/05/2023 16:51->METAR KJFK 021651Z 26015G22KT 10SM FEW032 SCT055 BKN090 BKN250 12/04 A2940 RMK SLP956 VCSH SE-S AND NW-N T01170044=
02/05/2023 15:51->METAR KJFK 021551Z 25018G23KT 10SM FEW030 BKN060 BKN110 BKN250 11/05 A2940 RMK RAB23E37 SLP957 VCSH S AND NW P0001 T01060050=
02/05/2023 14:51->METAR KJFK 021451Z 24015KT 10SM SCT031 BKN075 BKN100 BKN250 11/06 A2940 RMK RAE30 SLP956 P0000 60004 T01060056 56007=
02/05/2023 13:51->METAR KJFK 021351Z 23011KT 10SM -RA SCT028 BKN060 OVC100 09/06 A2940 RMK RAB45 SLP956 P0000 T00940061=
02/05/2023 12:51->METAR KJFK 021251Z 22006KT 10SM FEW021 SCT048 OVC100 08/06 A2940 RMK RAE36 SLP956 VCSH NE-E P0004 T00830056=
02/05/2023 11:51->METAR KJFK 021151Z 26015KT 6SM -RA BR FEW024 BKN034 OVC065 09/07 A2942 RMK SLP963 P0002 60005 70005 T00890067 10111 20078 53011=
02/05/2023 10:51->METAR KJFK 021051Z 20009KT 10SM -RA FEW045 BKN070 OVC095 10/07 A2940 RMK RAB29 SLP955 P0000 T01000067=
02/05/2023 09:51->METAR KJFK 020951Z 18006KT 10SM FEW045 BKN150 BKN220 09/07 A2939 RMK SLP952 T00940067=
02/05/2023 08:51->METAR KJFK 020851Z 17004KT 10SM FEW035 SCT100 BKN250 08/06 A2939 RMK SLP952 6003 T00830056 5610=
02/05/2023 07:51->METAR KJFK 020751Z 18012KT 10SM FEW030 BKN065 OVC095 09/06 A2940 RMK RAB32E51 SLP955 P0003 T00940061=
02/05/2023 06:51->METAR KJFK 020651Z 23006KT 10SM SCT050 BKN070 OVC090 10/06 A2940 RMK SLP954 T01000056=
02/05/2023 05:51->METAR KJFK 020551Z 26008KT 10SM BKN085 OVC110 11/04 A2942 RMK PK WND 24027/0511 WSHFT 0503 SLP962 T01110044 10139 20111 56008=
02/05/2023 04:51->METAR KJFK 020451Z 17014KT 10SM BKN090 BKN120 BKN250 12/09 A2942 RMK SLP964 T01170089 401670094=
02/05/2023 03:51->METAR KJFK 020351Z 17011KT 10SM FEW110 SCT116 SCT250 12/07 A2943 RMK SLP966 T01170067=
02/05/2023 02:51->METAR KJFK 020251Z 19007KT 10SM SCT085 SCT250 12/06 A2944 RMK SLP971 T01170056 50005=
02/05/2023 01:51->METAR KJFK 020151Z 22010KT 10SM SCT070 BKN250 13/04 A2946 RMK SLP975 T01280044=
02/05/2023 00:51->METAR KJFK 020051Z 24016KT 10SM SCT060 SCT075 BKN250 14/04 A2945 RMK SLP973 T01390039=
01/05/2023 23:51->METAR KJFK 012351Z 23011KT 10SM FEW080 BKN110 BKN250 14/04 A2943 RMK SLP965 VIRGA NW T01390044 10167 20122 51015=
01/05/2023 22:51->METAR KJFK 012251Z 18012KT 10SM FEW080 SCT110 BKN250 13/08 A2941 RMK SLP960 VIRGA NW T01330083=
01/05/2023 21:51->METAR KJFK 012151Z 18015KT 10SM BKN080 BKN100 BKN250 14/08 A2940 RMK SLP957 T01390083=
01/05/2023 20:51->METAR KJFK 012051Z 18013KT 10SM FEW075 BKN090 14/07 A2938 RMK SLP950 T01390072 51003=
01/05/2023 19:51->METAR KJFK 011951Z 22016KT 10SM FEW060 SCT080 BKN100 16/03 A2938 RMK SLP949 T01610033=
01/05/2023 18:51->METAR KJFK 011851Z 24017KT 10SM SCT060 BKN100 15/03 A2938 RMK SLP948 T01500028=
01/05/2023 17:51->METAR KJFK 011751Z 24020KT 10SM SCT060 BKN085 14/03 A2938 RMK PK WND 24026/1727 SLP947 T01440028 10161 20106 51004=
01/05/2023 16:51->METAR KJFK 011651Z 24018KT 10SM SCT060 BKN085 15/04 A2937 RMK SLP947 T01500039=
01/05/2023 15:51->METAR KJFK 011551Z 24015KT 10SM SCT050 16/06 A2937 RMK PK WND 24026/1537 SLP945 T01560056=
01/05/2023 14:51->METAR KJFK 011451Z 23018KT 10SM SCT047 15/06 A2936 RMK SLP942 T01500061 51015=
01/05/2023 13:51->METAR KJFK 011351Z 24015KT 10SM SCT044 SCT110 14/06 A2935 RMK SLP937 T01390056=
01/05/2023 12:51->METAR KJFK 011251Z 27017KT 10SM FEW041 FEW110 13/04 A2934 RMK PK WND 27027/1235 SLP934 T01280044=
01/05/2023 11:51->METAR KJFK 011151Z 26018G25KT 10SM FEW028 SCT041 SCT110 11/04 A2932 RMK PK WND 26028/1116 SLP927 60000 70139 T01060039 10133 20094 51048=
01/05/2023 10:51->METAR KJFK 011051Z 26019G28KT 10SM FEW024 BKN041 BKN110 10/05 A2928 RMK PK WND 26028/1027 SLP915 T01000050=
01/05/2023 09:51->METAR KJFK 010951Z 27019KT 10SM FEW030 BKN110 10/06 A2923 RMK PK WND 25028/0923 SLP898 T01000056=
01/05/2023 08:51->METAR KJFK 010851Z 27016G19KT 10SM FEW060 SCT110 10/06 A2917 RMK PRESRR SLP879 60000 T01000061 51050=
01/05/2023 07:51->METAR KJFK 010751Z 28021G27KT 10SM FEW025 BKN080 11/07 A2915 RMK PK WND 29034/0707 PRESRR SLP870 T01060072=
01/05/2023 06:51->METAR KJFK 010651Z 28019G27KT 10SM OVC015 12/10 A2908 RMK PK WND 27031/0632 RAE40 SLP847 P0000 T01220100=
01/05/2023 05:51->METAR KJFK 010551Z 25014KT 3SM -RA SCT003 OVC018 13/13 A2903 RMK SFC VIS 7 DZE21RAB21 SLP829 P0003 60010 T01330133 10150 20128 55010=
01/05/2023 04:51->METAR KJFK 010451Z 19007KT 1/4SM R04R/3500V4500FT -DZ BR OVC003 13/13 A2902 RMK SFC VIS 3/4 DZB44 SLP826 P0000 T01330133 401500100=
01/05/2023 03:51->METAR KJFK 010351Z 13007KT 1 1/2SM BR OVC003 14/14 A2903 RMK SFC VIS 3 RAE0254B26E37 SLP831 P0001 T01390139=
01/05/2023 02:51->METAR KJFK 010251Z 12008KT 10SM -RA OVC005 15/15 A2906 RMK RAB02 SLP839 P0003 60006 T01500150 58050=
01/05/2023 01:51->METAR KJFK 010151Z 10013KT 10SM OVC005 15/15 A2910 RMK RAE19 PRESFR SLP855 P0003 T01500150=
01/05/2023 00:51->METAR KJFK 010051Z 08009KT 1 1/2SM -RA BR BKN002 OVC018 14/14 A2918 RMK SFC VIS 5 PRESFR SLP881 P0000 T01440144=
