01/09/2023 23:51->METAR KJFK 012351Z 15007KT 10SM CLR 18/13 A3027 RMK AO2 SLP250 T01780128 10239 20178 55000=
01/09/2023 22:51->METAR KJFK 012251Z 15007KT 10SM CLR 19/13 A3027 RMK AO2 SLP250 T01940128=
01/09/2023 21:51->METAR KJFK 012151Z 15008KT 10SM FEW250 21/13 A3026 RMK AO2 SLP248 T02060128=
01/09/2023 20:51->METAR KJFK 012051Z 17009KT 10SM FEW250 22/13 A3027 RMK AO2 SLP250 T02170128 56011=
01/09/2023 19:51->METAR KJFK 011951Z 19007KT 10SM FEW055 FEW250 22/13 A3027 RMK AO2 SLP251 T02220128=
01/09/2023 18:51->METAR KJFK 011851Z 18006KT 10SM FEW055 FEW250 22/13 A3029 RMK AO2 SLP255 T02220133=
01/09/2023 17:51->METAR KJFK 011751Z 07007KT 10SM FEW055 24/09 A3030 RMK AO2 SLP261 T02390094 10244 20172 55000=
01/09/2023 16:51->METAR KJFK 011651Z 00000KT 10SM FEW050 FEW250 23/09 A3030 RMK AO2 SLP260 T02280094=
01/09/2023 15:51->METAR KJFK 011551Z VRB05KT 10SM FEW047 FEW250 23/11 A3030 RMK AO2 SLP261 T02280106=
01/09/2023 14:51->METAR KJFK 011451Z 03009KT 10SM FEW045 FEW250 22/10 A3030 RMK AO2 SLP261 T02170100 53019=
01/09/2023 13:51->METAR KJFK 011351Z 03008KT 10SM FEW250 21/10 A3029 RMK AO2 SLP255 T02060100=
01/09/2023 12:51->METAR KJFK 011251Z 03012KT 10SM FEW250 19/10 A3026 RMK AO2 SLP248 T01890100=
01/09/2023 11:51->METAR KJFK 011151Z 03010KT 10SM FEW250 17/09 A3025 RMK AO2 SLP243 T01720094 10178 20150 51015=
01/09/2023 10:51->METAR KJFK 011051Z 02008KT 10SM FEW250 16/09 A3024 RMK AO2 SLP240 T01560089=
01/09/2023 09:51->METAR KJFK 010951Z 02007KT 10SM FEW250 16/09 A3022 RMK AO2 SLP234 T01560089=
01/09/2023 08:51->METAR KJFK 010851Z 02010KT 10SM FEW250 16/09 A3021 RMK AO2 SLP228 T01610089 53013=
01/09/2023 07:51->METAR KJFK 010751Z 02007KT 10SM FEW250 16/09 A3019 RMK AO2 SLP223 T01610089=
01/09/2023 06:51->METAR KJFK 010651Z 02010KT 10SM FEW250 17/08 A3018 RMK AO2 SLP219 T01720083=
01/09/2023 05:51->METAR KJFK 010551Z 02009KT 10SM FEW250 18/09 A3017 RMK AO2 SLP216 T01780089 10217 20167 51023=
01/09/2023 04:51->METAR KJFK 010451Z 03008KT 10SM BKN250 18/10 A3015 RMK AO2 SLP209 T01780100 402500172=
01/09/2023 03:51->METAR KJFK 010351Z 03007KT 10SM FEW250 18/10 A3012 RMK AO2 SLP200 T01780100=
01/09/2023 02:51->METAR KJFK 010251Z 04009KT 10SM FEW250 19/09 A3010 RMK AO2 SLP192 T01940094 53023=
01/09/2023 01:51->METAR KJFK 010151Z 03011KT 10SM FEW250 20/09 A3007 RMK AO2 SLP183 T02000089=
01/09/2023 00:51->METAR KJFK 010051Z 01010KT 10SM FEW250 21/09 A3005 RMK AO2 SLP177 T02110094=
31/08/2023 23:51->METAR KJFK 312351Z 36010KT 10SM FEW250 22/10 A3003 RMK AO2 SLP169 T02170100 10250 20217 53019=
31/08/2023 22:51->METAR KJFK 312251Z 01012KT 10SM SCT250 23/10 A3000 RMK AO2 SLP158 T02280100=
31/08/2023 21:51->METAR KJFK 312151Z 02011G16KT 10SM SCT250 24/10 A2999 RMK AO2 SLP154 T02390100=
31/08/2023 20:51->METAR KJFK 312051Z 02012KT 10SM SCT250 24/10 A2997 RMK AO2 SLP150 T02440100 53006=
31/08/2023 19:51->METAR KJFK 311951Z 03014G20KT 10SM FEW200 SCT250 24/10 A2995 RMK AO2 SLP141 T02440100=
31/08/2023 18:51->METAR KJFK 311851Z 05013KT 10SM FEW200 SCT250 25/11 A2995 RMK AO2 SLP143 T02500106=
31/08/2023 17:51->METAR KJFK 311751Z 02015G18KT 10SM FEW190 SCT250 24/11 A2996 RMK AO2 SLP144 T02440106 10244 20178 53006=
31/08/2023 16:51->METAR KJFK 311651Z 03016G21KT 10SM FEW190 SCT250 23/09 A2994 RMK AO2 SLP140 T02330094=
31/08/2023 15:51->METAR KJFK 311551Z 03016G22KT 10SM SCT250 22/09 A2994 RMK AO2 SLP139 T02220094=
31/08/2023 14:51->METAR KJFK 311451Z 01014G25KT 10SM FEW043 BKN250 21/11 A2994 RMK AO2 SLP138 T02060111 51016=
31/08/2023 13:51->METAR KJFK 311351Z 36017G22KT 10SM FEW040 BKN250 20/12 A2992 RMK AO2 SLP130 T02000117=
31/08/2023 12:51->METAR KJFK 311251Z 02015KT 10SM FEW037 BKN250 18/12 A2992 RMK AO2 PK WND 01027/1204 SLP131 T01830117=
31/08/2023 11:51->METAR KJFK 311151Z 01017G23KT 10SM FEW035 BKN250 18/12 A2989 RMK AO2 SLP122 70013 T01780117 10194 20178 52019=
31/08/2023 10:51->METAR KJFK 311051Z 01013G19KT 10SM FEW035 FEW190 BKN250 18/12 A2988 RMK AO2 SLP116 T01780122=
31/08/2023 09:51->METAR KJFK 310951Z 02012KT 10SM BKN250 18/13 A2985 RMK AO2 SLP108 T01830128=
31/08/2023 08:51->METAR KJFK 310851Z 35010KT 10SM BKN250 19/13 A2983 RMK AO2 SLP102 T01890133 53004=
31/08/2023 07:51->METAR KJFK 310751Z 34007KT 10SM BKN250 19/13 A2983 RMK AO2 SLP099 T01890133=
31/08/2023 06:51->METAR KJFK 310651Z 35010KT 10SM BKN250 19/13 A2982 RMK AO2 SLP096 T01940133=
31/08/2023 05:51->METAR KJFK 310551Z 34011KT 10SM BKN250 19/13 A2982 RMK AO2 SLP099 T01940133 10256 20194 51014=
31/08/2023 04:51->METAR KJFK 310451Z 34010KT 10SM FEW120 BKN250 21/13 A2982 RMK AO2 SLP096 T02060133 402940206=
31/08/2023 03:51->METAR KJFK 310351Z 34011KT 10SM FEW130 SCT250 21/14 A2980 RMK AO2 SLP091 T02060139=
31/08/2023 02:51->METAR KJFK 310251Z 34013G19KT 10SM SCT250 22/14 A2978 RMK AO2 SLP085 T02220139 51022=
31/08/2023 01:51->METAR KJFK 310151Z 34014KT 10SM FEW100 BKN250 23/13 A2976 RMK AO2 SLP078 T02330133=
31/08/2023 00:51->METAR KJFK 310051Z 33015G20KT 10SM FEW065 BKN250 25/14 A2975 RMK AO2 SLP073 T02500139=
30/08/2023 23:51->METAR KJFK 302351Z 32011KT 10SM FEW065 BKN250 26/13 A2972 RMK AO2 SLP063 T02560133 10294 20256 53017=
30/08/2023 22:51->METAR KJFK 302251Z 30014KT 10SM FEW065 BKN250 27/14 A2969 RMK AO2 SLP055 T02670144=
30/08/2023 21:51->METAR KJFK 302151Z 30010KT 10SM SCT065 BKN250 28/15 A2968 RMK AO2 SLP049 T02780150=
30/08/2023 20:51->METAR KJFK 302051Z 30014KT 10SM SCT065 BKN250 28/16 A2967 RMK AO2 SLP046 T02830156 56007=
30/08/2023 19:51->METAR KJFK 301951Z 28010KT 10SM SCT055 SCT070 BKN250 29/16 A2967 RMK AO2 SLP046 T02890161=
30/08/2023 18:51->METAR KJFK 301851Z 26012KT 10SM SCT049 BKN250 29/18 A2967 RMK AO2 SLP048 T02940183=
30/08/2023 17:51->METAR KJFK 301751Z 18009KT 10SM FEW033 FEW090 SCT250 26/22 A2969 RMK AO2 SLP053 60013 T02610217 10272 20206 56013=
30/08/2023 16:51->METAR KJFK 301651Z 23007KT 10SM FEW028 SCT080 BKN130 BKN250 24/22 A2970 RMK AO2 SLP056 T02390217=
30/08/2023 15:51->METAR KJFK 301551Z 25005KT 10SM SCT025 SCT075 BKN110 BKN140 22/20 A2972 RMK AO2 SLP062 T02220200=
30/08/2023 14:51->METAR KJFK 301451Z 21003KT 9SM FEW010 SCT028 BKN075 BKN140 21/20 A2973 RMK AO2 RAE48 SLP066 VCSH NE-S P0007 60013 T02110200 58001=
30/08/2023 13:51->METAR KJFK 301351Z 28008KT 7SM -RA BKN007 BKN032 OVC045 23/22 A2973 RMK AO2 RAB34 SLP069 BKN007 V SCT P0006 T02280222=
30/08/2023 12:51->METAR KJFK 301251Z 22007KT 10SM BKN007 OVC028 23/22 A2973 RMK AO2 SLP065 T02280222=
30/08/2023 11:51->METAR KJFK 301151Z 21005KT 10SM BKN010 OVC130 22/22 A2973 RMK AO2 SLP066 CIG 008V012 T02220217 10222 20211 55005=
30/08/2023 10:51->METAR KJFK 301051Z 20006KT 10SM BKN007 BKN022 BKN130 22/22 A2972 RMK AO2 SLP065 T02170217=
30/08/2023 09:51->METAR KJFK 300951Z 21006KT 9SM OVC002 22/22 A2974 RMK AO2 SLP069 T02170217=
30/08/2023 08:51->METAR KJFK 300851Z 17004KT 1 3/4SM BR OVC002 22/22 A2974 RMK AO2 SLP072 T02170217 56017=
30/08/2023 07:51->METAR KJFK 300751Z 17004KT 9SM BKN004 OVC016 22/22 A2975 RMK AO2 SLP075 T02170217=
30/08/2023 06:51->METAR KJFK 300651Z 18003KT 8SM BKN003 OVC015 22/22 A2978 RMK AO2 SLP083 T02170217=
30/08/2023 05:51->METAR KJFK 300551Z 16004KT 10SM BKN009 BKN014 OVC030 22/22 A2979 RMK AO2 SLP089 T02220222 10228 20222 58017=
30/08/2023 04:51->METAR KJFK 300451Z 00000KT 10SM BKN008 BKN012 OVC028 23/22 A2982 RMK AO2 SLP097 T02280222 402720194=
30/08/2023 03:51->METAR KJFK 300351Z 12003KT 10SM SCT008 BKN022 OVC150 22/22 A2983 RMK AO2 SLP101 T02220217=
30/08/2023 02:51->METAR KJFK 300251Z 10003KT 10SM FEW009 BKN023 OVC170 22/22 A2985 RMK AO2 SLP106 T02220217 58001=
30/08/2023 01:51->METAR KJFK 300151Z 12005KT 10SM SCT014 BKN030 BKN160 BKN220 23/22 A2985 RMK AO2 SLP109 T02280217=
30/08/2023 00:51->METAR KJFK 300051Z 12005KT 10SM SCT013 BKN035 BKN170 BKN250 23/22 A2986 RMK AO2 SLP110 T02280217=
29/08/2023 23:51->METAR KJFK 292351Z 10007KT 10SM SCT014 BKN032 BKN230 22/21 A2985 RMK AO2 SLP107 SCT V BKN T02220211 10272 20222 58012=
29/08/2023 22:51->METAR KJFK 292251Z 13005KT 10SM BKN012 BKN020 BKN120 BKN250 23/21 A2986 RMK AO2 SLP111 T02330211=
29/08/2023 21:51->METAR KJFK 292151Z 11006KT 10SM BKN016 BKN035 BKN120 BKN250 24/21 A2987 RMK AO2 SLP116 T02390206=
29/08/2023 20:51->METAR KJFK 292051Z 13008KT 10SM BKN016 BKN035 BKN140 BKN250 23/21 A2989 RMK AO2 SLP120 T02330206 56017=
29/08/2023 19:51->METAR KJFK 291951Z 00000KT 10SM BKN017 BKN035 BKN140 BKN250 24/21 A2990 RMK AO2 SLP124 T02440211=
29/08/2023 18:51->METAR KJFK 291851Z 10005KT 10SM BKN018 BKN035 BKN140 BKN250 24/21 A2991 RMK AO2 SLP130 T02390206=
29/08/2023 17:51->METAR KJFK 291751Z 13009KT 10SM BKN027 BKN140 BKN250 27/21 A2994 RMK AO2 SLP137 T02670206 10267 20206 58014=
29/08/2023 16:51->METAR KJFK 291651Z 13007KT 10SM FEW018 BKN028 BKN047 BKN250 26/21 A2995 RMK AO2 SLP142 BKN028 V SCT T02560211=
29/08/2023 15:51->METAR KJFK 291551Z 12006KT 10SM BKN023 BKN047 BKN250 24/21 A2996 RMK AO2 SLP146 T02440206=
29/08/2023 14:51->METAR KJFK 291451Z 07006KT 10SM BKN019 BKN045 BKN250 24/20 A2998 RMK AO2 SLP151 T02440200 58002=
29/08/2023 13:51->METAR KJFK 291351Z 06007KT 10SM BKN015 BKN045 BKN250 23/19 A2999 RMK AO2 SLP154 T02330194=
29/08/2023 12:51->METAR KJFK 291251Z 06006KT 10SM BKN011 BKN055 BKN250 22/19 A2999 RMK AO2 SLP154 T02170189=
29/08/2023 11:51->METAR KJFK 291151Z 05007KT 10SM BKN011 BKN250 21/18 A2998 RMK AO2 SLP153 CIG 009V013 T02060183 10206 20194 58000=
29/08/2023 10:51->METAR KJFK 291051Z 05005KT 10SM BKN010 BKN050 BKN250 20/18 A2999 RMK AO2 SLP156 CIG 008V012 T02000183=
29/08/2023 09:51->METAR KJFK 290951Z 03005KT 10SM BKN011 OVC055 19/18 A2999 RMK AO2 SLP154 T01940178=
29/08/2023 08:51->METAR KJFK 290851Z 06004KT 10SM FEW017 SCT060 BKN250 19/18 A2998 RMK AO2 SLP153 T01940183 56015=
29/08/2023 07:51->METAR KJFK 290751Z 03004KT 10SM FEW019 BKN150 BKN250 19/18 A2999 RMK AO2 SLP156 T01940178=
29/08/2023 06:51->METAR KJFK 290651Z 05006KT 10SM FEW018 SCT160 BKN250 20/18 A3001 RMK AO2 SLP160 T02000178=
29/08/2023 05:51->METAR KJFK 290551Z 06006KT 10SM BKN014 BKN150 BKN220 21/18 A3003 RMK AO2 SLP168 T02060178 10211 20194 58007=
29/08/2023 04:51->METAR KJFK 290451Z 07003KT 10SM BKN016 BKN150 21/18 A3005 RMK AO2 SLP174 T02060183 402330194=
29/08/2023 03:51->METAR KJFK 290351Z 07006KT 10SM FEW019 SCT022 BKN180 20/18 A3004 RMK AO2 SLP173 T02000178=
29/08/2023 02:51->METAR KJFK 290251Z 07005KT 10SM FEW014 OVC019 21/18 A3005 RMK AO2 SLP175 T02060183 51003=
29/08/2023 01:51->METAR KJFK 290151Z 12004KT 10SM FEW013 OVC020 21/18 A3005 RMK AO2 SLP175 T02110183=
29/08/2023 00:51->METAR KJFK 290051Z 10007KT 10SM SCT015 OVC022 21/18 A3005 RMK AO2 SLP174 T02060183=
28/08/2023 23:51->METAR KJFK 282351Z 11006KT 10SM FEW013 OVC025 21/18 A3004 RMK AO2 SLP172 T02110183 10233 20211 58000=
28/08/2023 22:51->METAR KJFK 282251Z 11009KT 10SM OVC020 21/18 A3005 RMK AO2 SLP175 T02110183=
28/08/2023 21:51->METAR KJFK 282151Z 12008KT 10SM BKN018 BKN140 BKN250 22/18 A3004 RMK AO2 SLP173 T02170178=
28/08/2023 20:51->METAR KJFK 282051Z 12008KT 10SM BKN020 OVC140 22/18 A3004 RMK AO2 SLP173 T02220183 55008=
28/08/2023 19:51->METAR KJFK 281951Z 12009KT 10SM BKN021 OVC140 23/19 A3004 RMK AO2 SLP171 T02280189=
28/08/2023 18:51->METAR KJFK 281851Z 12010KT 10SM BKN019 BKN110 BKN250 23/18 A3005 RMK AO2 SLP174 T02280183=
28/08/2023 17:51->METAR KJFK 281751Z 11009KT 10SM SCT017 OVC025 23/19 A3006 RMK AO2 SLP180 T02280189 10233 20206 56003=
28/08/2023 16:51->METAR KJFK 281651Z 11010KT 10SM OVC019 22/18 A3007 RMK AO2 SLP181 T02170183=
28/08/2023 15:51->METAR KJFK 281551Z 10009KT 10SM OVC019 22/18 A3007 RMK AO2 SLP181 T02170178=
28/08/2023 14:51->METAR KJFK 281451Z 12010KT 10SM OVC021 22/18 A3007 RMK AO2 SLP184 T02220183 53008=
28/08/2023 13:51->METAR KJFK 281351Z 10009KT 10SM SCT015 OVC023 22/19 A3006 RMK AO2 SLP180 T02170189=
28/08/2023 12:51->METAR KJFK 281251Z 11010KT 10SM SCT012 OVC023 21/19 A3005 RMK AO2 SLP175 T02110189 $=
28/08/2023 11:51->METAR KJFK 281151Z 10005KT 10SM SCT011 OVC025 21/19 A3005 RMK AO2 SLP175 T02060194 10211 20200 51009 $=
28/08/2023 10:51->METAR KJFK 281051Z 05004KT 10SM SCT013 OVC020 21/20 A3004 RMK AO2 SLP171 T02060200 $=
28/08/2023 09:51->METAR KJFK 280951Z 01005KT 10SM BKN014 OVC100 21/19 A3002 RMK AO2 SLP166 T02060194 $=
28/08/2023 08:51->METAR KJFK 280851Z 00000KT 10SM SCT012 OVC110 21/19 A3002 RMK AO2 CIG 012 W SLP164 T02060194 53005 $=
28/08/2023 07:51->METAR KJFK 280751Z 08005KT 10SM FEW010 SCT055 BKN260 20/19 A3001 RMK AO2 SLP160 T02000194 $=
28/08/2023 06:51->METAR KJFK 280651Z 07004KT 10SM FEW008 SCT060 BKN250 20/19 A3001 RMK AO2 SLP160 T02000194 $=
28/08/2023 05:51->METAR KJFK 280551Z 11004KT 10SM BKN007 BKN060 20/20 A3000 RMK AO2 SLP160 T02000200 10233 20200 53003 $=
28/08/2023 04:51->METAR KJFK 280451Z 08005KT 9SM SCT070 SCT250 20/19 A3000 RMK AO2 SLP158 T02000194 402830200 $=
28/08/2023 03:51->METAR KJFK 280351Z 07004KT 10SM FEW008 BKN065 BKN250 21/20 A3000 RMK AO2 SLP157 T02060200 $=
28/08/2023 02:51->METAR KJFK 280251Z 10005KT 10SM SCT007 SCT060 BKN250 21/21 A2999 RMK AO2 SLP156 T02110206 53007 $=
28/08/2023 01:51->METAR KJFK 280151Z 14005KT 10SM FEW007 FEW070 SCT250 22/21 A2998 RMK AO2 SLP152 T02170211 $=
28/08/2023 00:51->METAR KJFK 280051Z 13006KT 10SM FEW060 FEW075 BKN250 23/18 A2997 RMK AO2 SLP149 T02280183 $=
27/08/2023 23:51->METAR KJFK 272351Z 15004KT 10SM FEW065 FEW075 BKN250 23/18 A2995 RMK AO2 SLP141 T02280178 10283 20228 51010 $=
27/08/2023 22:51->METAR KJFK 272251Z 18005KT 10SM SCT065 SCT075 BKN250 24/19 A2993 RMK AO2 SLP136 T02390189 $=
27/08/2023 21:51->METAR KJFK 272151Z 19008KT 10SM SCT060 BKN250 25/19 A2993 RMK AO2 SLP135 T02500189 $=
27/08/2023 20:51->METAR KJFK 272051Z 18010KT 10SM SCT050 BKN065 BKN250 26/19 A2992 RMK AO2 SLP130 T02610194 55001 $=
27/08/2023 19:51->METAR KJFK 271951Z 35006KT 10SM SCT055 BKN070 BKN250 28/17 A2991 RMK AO2 SLP126 T02830167 $=
27/08/2023 18:51->METAR KJFK 271851Z 01006KT 10SM SCT047 BKN060 BKN250 27/17 A2991 RMK AO2 SLP128 T02670167 $=
27/08/2023 17:51->METAR KJFK 271751Z VRB04KT 10SM SCT046 SCT250 28/18 A2992 RMK AO2 SLP131 T02780178 10283 20211 56009 $=
27/08/2023 16:51->METAR KJFK 271651Z 01010KT 10SM FEW050 SCT250 27/17 A2992 RMK AO2 SLP132 T02720172 $=
27/08/2023 15:51->METAR KJFK 271551Z 36009KT 10SM FEW050 FEW130 SCT250 27/17 A2994 RMK AO2 SLP138 T02670172 $=
27/08/2023 14:51->METAR KJFK 271451Z 35006KT 10SM FEW050 FEW130 SCT250 25/17 A2994 RMK AO2 SLP140 T02500172 53007 $=
27/08/2023 13:51->METAR KJFK 271351Z 02009KT 10SM FEW130 FEW250 24/18 A2993 RMK AO2 SLP136 T02440178 $=
27/08/2023 12:51->METAR KJFK 271251Z 01008KT 10SM SCT130 SCT250 23/18 A2993 RMK AO2 SLP133 T02280178 $=
27/08/2023 11:51->METAR KJFK 271151Z 36008KT 10SM SCT130 SCT250 21/18 A2992 RMK AO2 SLP132 70004 T02110178 10222 20200 53018 $=
27/08/2023 10:51->METAR KJFK 271051Z 01004KT 10SM FEW130 SCT250 20/17 A2990 RMK AO2 SLP125 T02000172 $=
27/08/2023 09:51->METAR KJFK 270951Z 01006KT 10SM SCT150 20/17 A2988 RMK AO2 SLP118 T02000172 $=
27/08/2023 08:51->METAR KJFK 270851Z 36009KT 10SM SCT150 21/17 A2987 RMK AO2 SLP115 T02060172 53002 $=
27/08/2023 07:51->METAR KJFK 270751Z 01008KT 10SM SCT150 22/17 A2986 RMK AO2 SLP111 T02170172 $=
27/08/2023 06:51->METAR KJFK 270651Z 01008KT 10SM BKN200 22/18 A2986 RMK AO2 SLP111 T02170183 $=
27/08/2023 05:51->METAR KJFK 270551Z 01004KT 10SM BKN150 22/19 A2986 RMK AO2 SLP113 T02170189 10233 20217 58001 $=
27/08/2023 04:51->METAR KJFK 270451Z 01004KT 10SM FEW065 FEW150 23/19 A2987 RMK AO2 SLP113 T02280194 403000206 $=
27/08/2023 03:51->METAR KJFK 270351Z 25005KT 10SM FEW065 FEW080 BKN150 22/19 A2987 RMK AO2 SLP114 T02220194 $=
27/08/2023 02:51->METAR KJFK 270251Z 21005KT 10SM FEW065 SCT150 22/20 A2987 RMK AO2 SLP113 T02220200 51009 $=
27/08/2023 01:51->METAR KJFK 270151Z 21004KT 10SM FEW050 SCT250 22/20 A2986 RMK AO2 SLP111 T02220200 $=
27/08/2023 00:51->METAR KJFK 270051Z 20004KT 10SM SCT060 SCT250 22/21 A2986 RMK AO2 SLP111 T02220206 $=
26/08/2023 23:51->METAR KJFK 262351Z 14005KT 10SM SCT055 SCT250 23/20 A2984 RMK AO2 SLP104 T02330200 10300 20233 51009 $=
26/08/2023 22:51->METAR KJFK 262251Z 14006KT 10SM SCT050 SCT250 25/19 A2983 RMK AO2 SLP102 T02500189 $=
26/08/2023 21:51->METAR KJFK 262151Z 18006KT 10SM SCT045 BKN060 BKN250 26/21 A2982 RMK AO2 SLP098 T02610206 $=
26/08/2023 20:51->METAR KJFK 262051Z 20008KT 10SM BKN045 BKN060 BKN250 26/21 A2981 RMK AO2 SLP095 T02610206 55007 $=
26/08/2023 19:51->METAR KJFK 261951Z 22006KT 10SM BKN055 BKN250 28/21 A2981 RMK AO2 SLP093 T02780211 $=
26/08/2023 18:51->METAR KJFK 261851Z 20010KT 10SM BKN040 BKN060 BKN250 27/21 A2983 RMK AO2 SLP100 T02670211 $=
26/08/2023 17:51->METAR KJFK 261751Z 10SM FEW039 SCT060 SCT110 BKN250 29/21 A2983 RMK AO2 SLP102 60004 T02940206 10300 20217 56011 $=
26/08/2023 16:51->METAR KJFK 261651Z 02006KT 10SM FEW035 FEW110 SCT180 BKN250 28/21 A2984 RMK AO2 SLP105 T02830206 $=
26/08/2023 15:51->METAR KJFK 261551Z 02005KT 10SM FEW025 FEW110 SCT180 27/21 A2985 RMK AO2 SLP109 T02720206 $=
26/08/2023 14:51->METAR KJFK 261451Z 04007KT 10SM FEW016 SCT110 BKN180 25/21 A2987 RMK AO2 SLP113 60004 T02500211 50007 $=
26/08/2023 13:51->METAR KJFK 261351Z 04008KT 10SM FEW040 SCT110 BKN190 22/21 A2987 RMK AO2 LTG DSNT E RAE16 SLP115 P0000 T02220211 $=
26/08/2023 12:51->METAR KJFK 261251Z 01006KT 7SM -RA FEW007 SCT040 BKN110 22/22 A2985 RMK AO2 LTG DSNT E SLP108 P0004 T02220222 $=
26/08/2023 11:51->METAR KJFK 261151Z 31010KT 7SM -RA FEW008 BKN021 OVC032 23/23 A2985 RMK AO2 RAB1057 SLP106 P0007 60007 70025 T02280228 10228 20206 53012 $=
26/08/2023 10:51->METAR KJFK 261051Z 26005KT 9SM SCT085 BKN110 BKN250 22/22 A2983 RMK AO2 SLP102 T02220222 $=
26/08/2023 09:51->METAR KJFK 260951Z 21003KT 9SM BKN250 21/21 A2982 RMK AO2 SLP096 T02110211 $=
26/08/2023 08:51->METAR KJFK 260851Z 00000KT 7SM FEW025 SCT060 BKN150 21/21 A2981 RMK AO2 SLP094 T02110211 56005 $=
26/08/2023 07:51->METAR KJFK 260751Z 19003KT 8SM FEW060 SCT150 22/22 A2981 RMK AO2 SLP094 T02170217 $=
26/08/2023 06:51->METAR KJFK 260651Z 00000KT 9SM SCT060 BKN200 22/22 A2982 RMK AO2 SLP096 T02220222 $=
26/08/2023 05:51->METAR KJFK 260551Z 19003KT 8SM FEW060 BKN075 BKN150 22/22 A2982 RMK AO2 SLP099 T02220222 10228 20217 58006 $=
26/08/2023 04:51->METAR KJFK 260451Z 21003KT 10SM SCT050 BKN150 22/22 A2984 RMK AO2 SLP103 T02220217 402500211 $=
26/08/2023 03:51->METAR KJFK 260351Z 23004KT 10SM FEW075 SCT200 22/22 A2984 RMK AO2 SLP104 T02220217 $=
26/08/2023 02:51->METAR KJFK 260251Z 19003KT 10SM FEW080 SCT200 22/22 A2984 RMK AO2 SLP105 T02170217 53003 $=
26/08/2023 01:51->METAR KJFK 260151Z 18003KT 10SM FEW065 22/22 A2984 RMK AO2 SLP103 T02220217 $=
26/08/2023 00:51->METAR KJFK 260051Z 18007KT 10SM SCT060 22/22 A2984 RMK AO2 SLP103 T02220217 $=
25/08/2023 23:51->METAR KJFK 252351Z 19011KT 10SM FEW020 FEW033 SCT060 23/22 A2983 RMK AO2 SLP102 T02280217 10250 20228 57005 $=
25/08/2023 22:51->METAR KJFK 252251Z 19013KT 10SM FEW020 FEW033 BKN060 23/22 A2983 RMK AO2 SLP102 T02330217 $=
25/08/2023 21:51->METAR KJFK 252151Z 20015KT 10SM FEW016 FEW033 BKN060 24/22 A2985 RMK AO2 SLP106 T02390222 $=
25/08/2023 20:51->METAR KJFK 252051Z 19015KT 10SM FEW029 SCT037 BKN060 24/22 A2985 RMK AO2 SLP107 T02390222 56003 $=
25/08/2023 19:51->METAR KJFK 251951Z 19016KT 10SM FEW009 BKN027 OVC060 24/22 A2985 RMK AO2 SLP107 T02390222 $=
25/08/2023 18:51->METAR KJFK 251851Z 19014KT 10SM SCT009 BKN027 OVC035 24/22 A2986 RMK AO2 SLP110 T02390222 $=
25/08/2023 17:51->METAR KJFK 251751Z 18015KT 10SM SCT009 BKN018 BKN055 BKN140 24/22 A2987 RMK AO2 SLP115 60018 T02440222 10250 20211 56012 $=
25/08/2023 16:51->METAR KJFK 251651Z 18013KT 10SM FEW009 SCT049 BKN065 BKN140 23/23 A2987 RMK AO2 RAE18 SLP116 P0000 T02330228=
25/08/2023 15:51->METAR KJFK 251551Z 20011KT 7SM -RA SCT008 BKN028 BKN055 OVC140 22/22 A2990 RMK AO2 RAB04 SLP123 P0003 T02220222=
25/08/2023 14:51->METAR KJFK 251451Z 20017KT 10SM FEW007 SCT019 BKN110 OVC140 22/22 A2990 RMK AO2 RAE1357B16E48 SLP126 P0000 60015 T02220217 55002=
25/08/2023 13:51->METAR KJFK 251351Z 18014KT 10SM -RA FEW008 SCT013 BKN026 OVC140 22/22 A2990 RMK AO2 SLP123 P0001 T02220217=
25/08/2023 12:51->METAR KJFK 251251Z 19015KT 8SM -RA SCT026 BKN050 BKN095 OVC140 22/22 A2990 RMK AO2 LTG DSNT SW SLP126 P0014 T02170217=
25/08/2023 11:51->METAR KJFK 251151Z 18012KT 2SM R04R/4000VP6000FT +RA BR FEW007 BKN019CB OVC041 21/21 A2991 RMK AO2 SFC VIS 3 LTG DSNT S TSB1058E33 SLP128 OCNL LTGIC SE-S CB SE-S MOV E P0023 60023 70025 T02110211 10228 20211 56008=
25/08/2023 10:51->METAR KJFK 251051Z 20014KT 8SM -RA BKN026 BKN047 OVC100 22/21 A2993 RMK AO2 LTG DSNT SW AND W RAB31 SLP133 OCNL LTGIC DSNT SW-W CB DSNT SW-W MOV E P0000 T02220211=
25/08/2023 09:51->METAR KJFK 250951Z 18013KT 10SM SCT018 OVC044 23/21 A2992 RMK AO2 SLP130 T02280206=
25/08/2023 08:51->METAR KJFK 250851Z 18011KT 10SM FEW018 OVC044 22/20 A2993 RMK AO2 RAE0754B14E23 SLP136 P0000 60000 T02170200 58015=
25/08/2023 07:51->METAR KJFK 250751Z 18010KT 10SM -RA FEW020 OVC043 22/20 A2995 RMK AO2 RAB32 SLP142 P0000 T02170200=
25/08/2023 06:51->METAR KJFK 250651Z 19013KT 10SM OVC045 22/19 A2997 RMK AO2 SLP147 T02220189=
25/08/2023 05:51->METAR KJFK 250551Z 18014KT 10SM FEW024 SCT032 OVC045 22/20 A2998 RMK AO2 SLP151 60000 T02170200 10217 20211 55005=
25/08/2023 04:51->METAR KJFK 250451Z 17018KT 10SM SCT025 OVC055 22/20 A2997 RMK AO2 SLP149 T02170200 402280200=
25/08/2023 03:51->METAR KJFK 250351Z 16014KT 10SM BKN028 BKN035 OVC055 22/19 A2999 RMK AO2 SLP154 T02170194=
25/08/2023 02:51->METAR KJFK 250251Z 16014KT 10SM FEW022 OVC055 21/19 A2999 RMK AO2 SLP156 60000 T02110194 58016=
25/08/2023 01:51->METAR KJFK 250151Z 17010KT 10SM FEW015 OVC055 22/18 A3003 RMK AO2 RAE0053 SLP169 P0000 T02170178=
25/08/2023 00:51->METAR KJFK 250051Z 18011KT 10SM -RA FEW017 OVC042 21/18 A3005 RMK AO2 RAB42 SLP176 P0000 T02110183=
24/08/2023 23:51->METAR KJFK 242351Z 16011KT 10SM FEW017 SCT038 OVC055 22/17 A3004 RMK AO2 RAB32E42 SLP172 P0000 60002 T02170172 10222 20200 55001=
24/08/2023 22:51->METAR KJFK 242251Z 15013KT 10SM FEW017 SCT039 OVC060 22/17 A3004 RMK AO2 SLP171 T02170172=
24/08/2023 21:51->METAR KJFK 242151Z 15011KT 10SM FEW016 BKN039 OVC060 22/17 A3004 RMK AO2 SLP171 T02170172=
24/08/2023 20:51->METAR KJFK 242051Z 16013KT 10SM SCT016 BKN036 OVC065 22/17 A3004 RMK AO2 SLP173 60002 T02170172 57011=
24/08/2023 19:51->METAR KJFK 241951Z 15014KT 10SM SCT017 SCT028CB OVC050 21/18 A3005 RMK AO2 RAE48 SLP176 CB W-NW MOV N VCSH W-NW P0002 T02110183=
24/08/2023 18:51->METAR KJFK 241851Z 17004KT 4SM R04R/5000VP6000FT -RA BR FEW017 BKN036 OVC046 20/19 A3007 RMK AO2 SLP182 P0000 T02000189=
24/08/2023 17:51->METAR KJFK 241751Z 16011KT 10SM -RA FEW021 BKN050 OVC075 21/17 A3008 RMK AO2 RAB51 SLP184 VCSH SE-S P0000 60000 T02060167 10228 20206 56006=
24/08/2023 16:51->METAR KJFK 241651Z 17010KT 10SM SCT021 BKN044 OVC070 22/18 A3008 RMK AO2 RAB1554E12 SLP185 VCSH S-W P0000 T02170183=
24/08/2023 15:51->METAR KJFK 241551Z 15013G19KT 10SM SCT023 BKN032 OVC070 22/18 A3008 RMK AO2 SLP186 T02220178=
24/08/2023 14:51->METAR KJFK 241451Z 16013KT 10SM BKN030 BKN041 OVC080 22/18 A3009 RMK AO2 SLP190 T02220178 53009=
24/08/2023 13:51->METAR KJFK 241351Z 16013KT 10SM SCT029 OVC080 22/18 A3008 RMK AO2 SLP186 T02170178=
24/08/2023 12:51->METAR KJFK 241251Z 15010KT 10SM FEW028 BKN085 OVC140 22/17 A3008 RMK AO2 SLP184 T02170172=
24/08/2023 11:51->METAR KJFK 241151Z 16009KT 10SM FEW025 BKN090 BKN140 22/18 A3007 RMK AO2 SLP182 T02170178 10217 20206 53001=
24/08/2023 10:51->METAR KJFK 241051Z 15009KT 10SM FEW026 BKN095 OVC140 21/18 A3006 RMK AO2 SLP180 T02110178=
24/08/2023 09:51->METAR KJFK 240951Z 13006KT 10SM FEW034 OVC100 21/17 A3006 RMK AO2 SLP179 T02110172=
24/08/2023 08:51->METAR KJFK 240851Z 14006KT 10SM FEW032 OVC110 21/17 A3006 RMK AO2 SLP180 T02110167 50001=
24/08/2023 07:51->METAR KJFK 240751Z 16005KT 10SM OVC110 21/17 A3007 RMK AO2 SLP182 T02060172=
24/08/2023 06:51->METAR KJFK 240651Z 15007KT 10SM OVC110 21/17 A3007 RMK AO2 SLP181 T02060167=
24/08/2023 05:51->METAR KJFK 240551Z 14006KT 10SM BKN120 21/16 A3006 RMK AO2 SLP180 T02060161 10211 20206 58009=
24/08/2023 04:51->METAR KJFK 240451Z 15005KT 10SM BKN120 OVC150 21/15 A3009 RMK AO2 SLP188 T02060150 402500172=
24/08/2023 03:51->METAR KJFK 240351Z 16006KT 10SM OVC130 21/15 A3009 RMK AO2 SLP189 T02060150=
24/08/2023 02:51->METAR KJFK 240251Z 15008KT 10SM BKN140 BKN250 21/15 A3009 RMK AO2 SLP189 T02060150 50006=
24/08/2023 01:51->METAR KJFK 240151Z 16005KT 10SM OVC140 21/15 A3010 RMK AO2 SLP194 T02060150=
24/08/2023 00:51->METAR KJFK 240051Z 13006KT 10SM OVC140 21/16 A3009 RMK AO2 SLP189 T02060156=
23/08/2023 23:51->METAR KJFK 232351Z 13011KT 10SM BKN150 BKN250 21/16 A3007 RMK AO2 SLP183 T02060156 10244 20206 56010=
23/08/2023 22:51->METAR KJFK 232251Z 13010KT 10SM FEW055 BKN140 BKN250 21/15 A3007 RMK AO2 SLP183 T02110150=
23/08/2023 21:51->METAR KJFK 232151Z 15008KT 10SM FEW055 SCT150 SCT250 21/15 A3009 RMK AO2 SLP190 T02110150=
23/08/2023 20:51->METAR KJFK 232051Z 16008KT 10SM FEW055 SCT160 SCT250 22/16 A3010 RMK AO2 SLP193 T02220156 58008=
23/08/2023 19:51->METAR KJFK 231951Z 18009KT 10SM FEW055 SCT160 SCT250 23/16 A3011 RMK AO2 SLP197 T02330156=
23/08/2023 18:51->METAR KJFK 231851Z 19008KT 10SM FEW055 FEW170 SCT250 24/16 A3012 RMK AO2 SLP198 T02390156=
23/08/2023 17:51->METAR KJFK 231751Z 18009KT 10SM FEW060 FEW170 SCT250 24/14 A3013 RMK AO2 SLP201 T02390144 10250 20189 55013=
23/08/2023 16:51->METAR KJFK 231651Z 18010KT 10SM FEW060 SCT170 SCT250 24/14 A3012 RMK AO2 SLP199 T02390139=
23/08/2023 15:51->METAR KJFK 231551Z 05005KT 10SM FEW060 SCT170 SCT250 24/12 A3014 RMK AO2 SLP206 T02390122=
23/08/2023 14:51->METAR KJFK 231451Z 00000KT 10SM FEW060 BKN170 BKN250 23/13 A3016 RMK AO2 SLP214 T02330128 50001=
23/08/2023 13:51->METAR KJFK 231351Z 05008KT 10SM BKN170 BKN250 21/12 A3017 RMK AO2 SLP214 T02110122=
23/08/2023 12:51->METAR KJFK 231251Z 03009KT 10SM BKN170 BKN250 20/12 A3016 RMK AO2 SLP214 T02000117=
23/08/2023 11:51->METAR KJFK 231151Z 03010KT 10SM FEW060 BKN180 BKN250 19/11 A3016 RMK AO2 SLP213 T01940106 10200 20172 51011=
23/08/2023 10:51->METAR KJFK 231051Z 01007KT 10SM FEW060 BKN180 BKN250 18/11 A3016 RMK AO2 SLP212 T01780106=
23/08/2023 09:51->METAR KJFK 230951Z 03008KT 10SM FEW060 SCT250 17/11 A3014 RMK AO2 SLP206 T01720106=
23/08/2023 08:51->METAR KJFK 230851Z 03009KT 10SM FEW065 SCT250 18/11 A3013 RMK AO2 SLP202 T01780111 53007=
23/08/2023 07:51->METAR KJFK 230751Z 02009KT 10SM SCT070 SCT250 19/11 A3012 RMK AO2 SLP199 T01890111=
23/08/2023 06:51->METAR KJFK 230651Z 02011KT 10SM SCT065 BKN250 19/12 A3012 RMK AO2 SLP199 T01940117=
23/08/2023 05:51->METAR KJFK 230551Z 04007KT 10SM SCT060 SCT250 19/13 A3011 RMK AO2 SLP196 T01940133 10233 20183 52001=
23/08/2023 04:51->METAR KJFK 230451Z 06004KT 10SM FEW065 SCT250 19/13 A3011 RMK AO2 SLP195 T01890128 402610189=
23/08/2023 03:51->METAR KJFK 230351Z 36008KT 10SM FEW070 SCT250 21/12 A3011 RMK AO2 SLP196 T02110122=
23/08/2023 02:51->METAR KJFK 230251Z 36007KT 10SM FEW065 BKN250 22/13 A3011 RMK AO2 SLP195 T02170128 51009=
23/08/2023 01:51->METAR KJFK 230151Z 35007KT 10SM FEW060 SCT250 22/13 A3010 RMK AO2 SLP194 T02220133=
23/08/2023 00:51->METAR KJFK 230051Z 02005KT 10SM SCT250 23/11 A3010 RMK AO2 SLP192 T02280111=
22/08/2023 23:51->METAR KJFK 222351Z 04005KT 10SM FEW060 BKN250 23/12 A3008 RMK AO2 SLP186 T02330117 10261 20228 51006=
22/08/2023 22:51->METAR KJFK 222251Z 36009KT 10SM FEW060 BKN250 24/13 A3008 RMK AO2 SLP186 T02440128=
22/08/2023 21:51->METAR KJFK 222151Z 01009KT 10SM FEW055 BKN250 26/13 A3007 RMK AO2 SLP182 T02560128=
22/08/2023 20:51->METAR KJFK 222051Z 02012G18KT 10SM FEW055 BKN250 26/13 A3006 RMK AO2 SLP180 T02560128 56007=
22/08/2023 19:51->METAR KJFK 221951Z 01008G16KT 10SM FEW055 BKN250 26/13 A3006 RMK AO2 SLP180 T02560128=
22/08/2023 18:51->METAR KJFK 221851Z 01009G17KT 10SM FEW050 BKN250 26/13 A3008 RMK AO2 SLP185 T02560128=
22/08/2023 17:51->METAR KJFK 221751Z 01013KT 10SM SCT050 BKN250 24/13 A3009 RMK AO2 SLP188 T02440128 10250 20194 58004=
22/08/2023 16:51->METAR KJFK 221651Z 02008G17KT 350V050 10SM FEW050 BKN250 24/13 A3009 RMK AO2 SLP189 T02390133=
22/08/2023 15:51->METAR KJFK 221551Z 02012KT 10SM FEW050 BKN250 23/13 A3010 RMK AO2 SLP193 T02330133=
22/08/2023 14:51->METAR KJFK 221451Z 03012G19KT 10SM FEW043 BKN250 22/12 A3010 RMK AO2 SLP192 T02170122 53007=
22/08/2023 13:51->METAR KJFK 221351Z 02014KT 10SM FEW170 BKN250 21/12 A3009 RMK AO2 SLP188 T02110117=
22/08/2023 12:51->METAR KJFK 221251Z 02014KT 10SM FEW120 SCT170 BKN250 20/11 A3008 RMK AO2 SLP186 T02000111=
22/08/2023 11:51->METAR KJFK 221151Z 01014KT 10SM SCT120 SCT170 BKN250 19/12 A3008 RMK AO2 SLP185 T01940117 10239 20194 53020=
22/08/2023 10:51->METAR KJFK 221051Z 01015KT 10SM SCT120 BKN250 21/12 A3006 RMK AO2 SLP178 T02060117=
22/08/2023 09:51->METAR KJFK 220951Z 02009KT 10SM SCT120 BKN150 BKN250 21/13 A3003 RMK AO2 SLP169 T02110128=
22/08/2023 08:51->METAR KJFK 220851Z 36012KT 10SM FEW070 BKN140 BKN250 22/15 A3002 RMK AO2 SLP165 T02170150 55001=
22/08/2023 07:51->METAR KJFK 220751Z 36013KT 10SM SCT065 BKN250 22/16 A3001 RMK AO2 SLP162 T02220161=
22/08/2023 06:51->METAR KJFK 220651Z 35013KT 10SM SCT033 BKN060 BKN250 23/17 A3001 RMK AO2 SLP161 T02280167=
22/08/2023 05:51->METAR KJFK 220551Z 01013G19KT 10SM FEW033 BKN075 BKN250 24/18 A3002 RMK AO2 SLP166 T02390178 10289 20239 52006=
22/08/2023 04:51->METAR KJFK 220451Z 02008KT 10SM BKN250 25/19 A3001 RMK AO2 SLP163 T02500194 403110144=
22/08/2023 03:51->METAR KJFK 220351Z 36007KT 10SM BKN250 26/19 A3001 RMK AO2 SLP162 T02610189=
22/08/2023 02:51->METAR KJFK 220251Z 33011KT 10SM BKN250 27/18 A3000 RMK AO2 SLP159 T02720183 50002=
22/08/2023 01:51->METAR KJFK 220151Z 35007KT 10SM BKN250 28/19 A3001 RMK AO2 SLP161 T02780189=
22/08/2023 00:51->METAR KJFK 220051Z 31008KT 10SM FEW055 BKN250 28/19 A3000 RMK AO2 SLP159 T02830189=
21/08/2023 23:51->METAR KJFK 212351Z 35008KT 10SM FEW055 BKN250 29/19 A3000 RMK AO2 SLP157 T02890189 10311 20289 53003=
21/08/2023 22:51->METAR KJFK 212251Z 32013KT 10SM FEW055 BKN250 29/18 A2999 RMK AO2 SLP156 T02940183=
21/08/2023 21:51->METAR KJFK 212151Z 34013G19KT 10SM FEW055 BKN250 31/19 A2999 RMK AO2 SLP154 T03060194=
21/08/2023 20:51->METAR KJFK 212051Z 32012KT 10SM SCT048 BKN250 31/20 A2999 RMK AO2 SLP154 T03060200 56010=
21/08/2023 19:51->METAR KJFK 211951Z 24005KT 10SM BKN055 BKN250 29/21 A2999 RMK AO2 SLP155 T02940206=
21/08/2023 18:51->METAR KJFK 211851Z 33007KT 10SM SCT055 BKN250 30/21 A3000 RMK AO2 SLP159 T03000206=
21/08/2023 17:51->METAR KJFK 211751Z 32011KT 10SM FEW055 BKN250 31/21 A3002 RMK AO2 SLP164 T03060206 10311 20233 58016=
21/08/2023 16:51->METAR KJFK 211651Z 29009G18KT 260V320 10SM FEW055 BKN250 31/20 A3004 RMK AO2 SLP171 T03110200=
21/08/2023 15:51->METAR KJFK 211551Z 24005KT 10SM FEW075 FEW100 BKN250 30/20 A3005 RMK AO2 SLP175 T03000200=
21/08/2023 14:51->METAR KJFK 211451Z 25007KT 10SM FEW075 SCT100 BKN250 28/20 A3006 RMK AO2 SLP180 T02780200 58002=
21/08/2023 13:51->METAR KJFK 211351Z 25006KT 10SM FEW095 BKN250 26/19 A3007 RMK AO2 SLP182 T02610194=
21/08/2023 12:51->METAR KJFK 211251Z 25006KT 10SM BKN090 BKN250 24/19 A3007 RMK AO2 SLP183 T02440194 $=
21/08/2023 11:51->METAR KJFK 211151Z 24006KT 10SM SCT120 BKN250 23/19 A3007 RMK AO2 SLP182 T02330194 10233 20211 50003 $=
21/08/2023 10:51->METAR KJFK 211051Z 25007KT 10SM FEW130 BKN250 22/19 A3007 RMK AO2 SLP183 T02170194 $=
21/08/2023 09:51->METAR KJFK 210951Z 25007KT 10SM SCT130 BKN250 22/20 A3006 RMK AO2 SLP179 T02170200 $=
21/08/2023 08:51->METAR KJFK 210851Z 24009KT 10SM BKN250 22/19 A3006 RMK AO2 SLP179 T02220194 55005=
21/08/2023 07:51->METAR KJFK 210751Z 24009KT 10SM BKN250 22/19 A3006 RMK AO2 SLP178 T02220194=
21/08/2023 06:51->METAR KJFK 210651Z 24008KT 10SM BKN250 22/19 A3006 RMK AO2 SLP179 T02170189=
21/08/2023 05:51->METAR KJFK 210551Z 24009KT 10SM SCT250 23/19 A3008 RMK AO2 SLP184 T02280189 10250 20228 56005=
21/08/2023 04:51->METAR KJFK 210451Z 25009KT 10SM BKN250 23/19 A3008 RMK AO2 SLP185 T02330189 402780172=
21/08/2023 03:51->METAR KJFK 210351Z 25008KT 10SM BKN250 23/20 A3009 RMK AO2 SLP187 T02330200=
21/08/2023 02:51->METAR KJFK 210251Z 26008KT 10SM FEW200 BKN250 24/18 A3009 RMK AO2 SLP190 T02440178 51008=
21/08/2023 01:51->METAR KJFK 210151Z 24008KT 10SM FEW200 BKN250 24/18 A3008 RMK AO2 SLP186 T02440178=
21/08/2023 00:51->METAR KJFK 210051Z 24006KT 10SM SCT200 BKN250 23/20 A3008 RMK AO2 SLP185 T02330200=
20/08/2023 23:51->METAR KJFK 202351Z 19006KT 10SM SCT200 BKN250 24/21 A3007 RMK AO2 SLP181 T02390206 10278 20239 56001=
20/08/2023 22:51->METAR KJFK 202251Z 21008KT 10SM SCT200 BKN250 26/18 A3007 RMK AO2 SLP182 T02560183=
20/08/2023 21:51->METAR KJFK 202151Z 19008KT 10SM SCT200 BKN250 26/19 A3007 RMK AO2 SLP181 T02560189=
20/08/2023 20:51->METAR KJFK 202051Z 19010KT 10SM SCT200 BKN250 27/19 A3007 RMK AO2 SLP182 T02670189 56010=
20/08/2023 19:51->METAR KJFK 201951Z 19011KT 10SM SCT200 SCT250 27/18 A3008 RMK AO2 SLP185 T02670183=
20/08/2023 18:51->METAR KJFK 201851Z 19011KT 10SM FEW200 FEW250 27/18 A3009 RMK AO2 WSHFT 1753 SLP188 T02670178=
20/08/2023 17:51->METAR KJFK 201751Z 24012KT 10SM FEW250 28/16 A3010 RMK AO2 SLP191 T02780156 10278 20206 56011=
20/08/2023 16:51->METAR KJFK 201651Z 24014KT 10SM FEW250 27/15 A3010 RMK AO2 SLP193 T02670150=
20/08/2023 15:51->METAR KJFK 201551Z 23010KT 10SM FEW250 27/14 A3012 RMK AO2 SLP200 T02670144=
20/08/2023 14:51->METAR KJFK 201451Z 23009KT 10SM FEW250 26/15 A3013 RMK AO2 SLP203 T02560150 50004=
20/08/2023 13:51->METAR KJFK 201351Z 25005KT 10SM FEW250 24/16 A3014 RMK AO2 SLP204 T02390156=
20/08/2023 12:51->METAR KJFK 201251Z 24005KT 10SM FEW190 FEW250 22/15 A3013 RMK AO2 SLP201 T02220150=
20/08/2023 11:51->METAR KJFK 201151Z 23004KT 10SM SCT190 SCT250 21/15 A3012 RMK AO2 SLP199 T02060150 10206 20172 51014=
20/08/2023 10:51->METAR KJFK 201051Z 27005KT 10SM FEW190 SCT250 19/15 A3011 RMK AO2 SLP196 T01890150=
20/08/2023 09:51->METAR KJFK 200951Z 27006KT 10SM SCT200 BKN250 18/13 A3010 RMK AO2 SLP191 T01830133=
20/08/2023 08:51->METAR KJFK 200851Z 29007KT 10SM BKN250 19/13 A3008 RMK AO2 SLP185 T01940133 52007=
20/08/2023 07:51->METAR KJFK 200751Z 26011KT 10SM BKN250 20/14 A3007 RMK AO2 SLP182 T02000139=
20/08/2023 06:51->METAR KJFK 200651Z 25007KT 10SM FEW250 20/16 A3007 RMK AO2 SLP181 T02000156=
20/08/2023 05:51->METAR KJFK 200551Z 25008KT 10SM FEW250 20/16 A3006 RMK AO2 SLP178 T02000156 10244 20194 50005=
20/08/2023 04:51->METAR KJFK 200451Z 24006KT 10SM FEW250 20/14 A3006 RMK AO2 SLP180 T02000139 402610172=
20/08/2023 03:51->METAR KJFK 200351Z 26007KT 10SM FEW250 22/13 A3005 RMK AO2 SLP176 T02170128=
20/08/2023 02:51->METAR KJFK 200251Z 25008KT 10SM CLR 22/14 A3004 RMK AO2 SLP173 T02170139 51018=
20/08/2023 01:51->METAR KJFK 200151Z 26009KT 10SM CLR 23/13 A3003 RMK AO2 SLP169 T02330128=
20/08/2023 00:51->METAR KJFK 200051Z 27010KT 10SM FEW250 23/13 A3002 RMK AO2 SLP166 T02330133=
19/08/2023 23:51->METAR KJFK 192351Z 27014KT 10SM FEW065 FEW250 24/13 A2999 RMK AO2 SLP155 T02440128 10261 20239 53010=
19/08/2023 22:51->METAR KJFK 192251Z 26013KT 10SM FEW065 FEW250 24/13 A2998 RMK AO2 SLP151 T02440133=
19/08/2023 21:51->METAR KJFK 192151Z 27013KT 10SM SCT065 BKN250 24/13 A2997 RMK AO2 SLP148 T02440128=
19/08/2023 20:51->METAR KJFK 192051Z 25011KT 10SM SCT065 BKN250 25/14 A2996 RMK AO2 SLP144 T02500139 56010=
19/08/2023 19:51->METAR KJFK 191951Z 26014KT 10SM SCT060 BKN250 26/13 A2997 RMK AO2 SLP147 T02560128=
19/08/2023 18:51->METAR KJFK 191851Z 25015G19KT 10SM SCT055 BKN250 24/12 A2998 RMK AO2 SLP150 T02390122=
19/08/2023 17:51->METAR KJFK 191751Z 31011G18KT 10SM SCT050 BKN250 24/13 A2999 RMK AO2 SLP155 T02440133 10244 20189 58007=
19/08/2023 16:51->METAR KJFK 191651Z 28011G15KT 10SM BKN049 BKN250 24/13 A3000 RMK AO2 SLP158 T02440133=
19/08/2023 15:51->METAR KJFK 191551Z 10SM BKN048 BKN250 23/12 A3001 RMK AO2 SLP161 T02280122=
19/08/2023 14:51->METAR KJFK 191451Z 28013KT 10SM SCT040 SCT150 SCT250 22/13 A3001 RMK AO2 SLP161 T02220128 51008=
19/08/2023 13:51->METAR KJFK 191351Z 28012G16KT 10SM SCT030 SCT150 SCT250 21/12 A3000 RMK AO2 SLP159 T02110122=
19/08/2023 12:51->METAR KJFK 191251Z 26013KT 10SM FEW030 FEW150 19/12 A3000 RMK AO2 SLP158 T01940117=
19/08/2023 11:51->METAR KJFK 191151Z 27013KT 10SM FEW150 19/12 A2999 RMK AO2 SLP153 T01890117 10200 20172 53019=
19/08/2023 10:51->METAR KJFK 191051Z 27011KT 10SM FEW150 18/12 A2997 RMK AO2 SLP147 T01780117=
19/08/2023 09:51->METAR KJFK 190951Z 26013KT 10SM FEW150 18/11 A2994 RMK AO2 SLP137 T01780111=
19/08/2023 08:51->METAR KJFK 190851Z 28011KT 10SM FEW250 18/11 A2993 RMK AO2 SLP135 T01780111 53004=
19/08/2023 07:51->METAR KJFK 190751Z 28008G19KT 10SM FEW250 19/11 A2992 RMK AO2 SLP132 T01890106=
19/08/2023 06:51->METAR KJFK 190651Z 31013KT 10SM FEW250 19/11 A2991 RMK AO2 SLP128 T01940106=
19/08/2023 05:51->METAR KJFK 190551Z 29013G21KT 10SM FEW250 20/10 A2992 RMK AO2 SLP130 T02000100 10250 20200 51011=
19/08/2023 04:51->METAR KJFK 190451Z 30012G23KT 10SM FEW250 21/10 A2991 RMK AO2 SLP128 T02110100 402830200=
19/08/2023 03:51->METAR KJFK 190351Z 27010KT 10SM FEW250 22/11 A2990 RMK AO2 SLP125 T02170111=
19/08/2023 02:51->METAR KJFK 190251Z 29011KT 10SM FEW085 23/11 A2988 RMK AO2 SLP119 T02280106 51028=
19/08/2023 01:51->METAR KJFK 190151Z 27013KT 10SM FEW075 BKN090 24/11 A2987 RMK AO2 SLP114 T02390106=
19/08/2023 00:51->METAR KJFK 190051Z 28017G23KT 10SM FEW060 24/11 A2983 RMK AO2 SLP102 T02440106 $=
18/08/2023 23:51->METAR KJFK 182351Z 28015G25KT 10SM FEW060 25/10 A2980 RMK AO2 PK WND 28028/2331 SLP091 T02500100 10283 20250 53022 $=
18/08/2023 22:51->METAR KJFK 182251Z 28018G25KT 10SM SCT060 26/11 A2977 RMK AO2 PK WND 26027/2224 SLP082 T02610106 $=
18/08/2023 21:51->METAR KJFK 182151Z 27019G26KT 10SM SCT060 SCT250 27/12 A2976 RMK AO2 PK WND 28029/2133 SLP076 T02670122 $=
18/08/2023 20:51->METAR KJFK 182051Z 26021G27KT 10SM SCT060 SCT250 27/14 A2974 RMK AO2 PK WND 28028/2033 SLP069 T02720139 51004 $=
18/08/2023 19:51->METAR KJFK 181951Z 26016G23KT 10SM SCT055 SCT250 28/16 A2973 RMK AO2 SLP068 T02780156 $=
18/08/2023 18:51->METAR KJFK 181851Z 29014G20KT 10SM SCT049 SCT250 27/16 A2973 RMK AO2 SLP068 T02670161 $=
18/08/2023 17:51->METAR KJFK 181751Z 28012G21KT 10SM SCT044 SCT250 26/17 A2973 RMK AO2 SLP065 T02610167 10267 20206 55001 $=
18/08/2023 16:51->METAR KJFK 181651Z 30014G20KT 10SM FEW044 SCT110 SCT250 27/16 A2972 RMK AO2 SLP062 FROPA T02670161 $=
18/08/2023 15:51->METAR KJFK 181551Z 26011KT 10SM FEW041 BKN110 BKN140 26/18 A2973 RMK AO2 WSHFT 1454 SLP066 T02560183 $=
18/08/2023 14:51->METAR KJFK 181451Z 23008KT 10SM FEW041 SCT090 BKN140 24/19 A2973 RMK AO2 SLP067 T02440194 53006 $=
18/08/2023 13:51->METAR KJFK 181351Z 32005KT 10SM FEW037 SCT065 BKN085 BKN140 23/19 A2973 RMK AO2 SLP065 T02280189 $=
18/08/2023 12:51->METAR KJFK 181251Z 04005KT 10SM FEW033 BKN100 BKN140 BKN250 22/20 A2971 RMK AO2 SLP060 T02170200 $=
18/08/2023 11:51->METAR KJFK 181151Z 36008KT 10SM FEW013 SCT027 BKN055 BKN140 21/19 A2971 RMK AO2 PK WND 31031/1115 WSHFT 1110 RAB21E47 SLP061 CB DSNT E-SE MOV NE TCU DSNT S VCSH E-SE AND NW P0000 60031 70031 T02060189 10239 20200 53014 $=
18/08/2023 10:51->METAR KJFK 181051Z 22006KT 10SM FEW008 BKN017 BKN032 BKN140 23/22 A2968 RMK AO2 RAE28 TSE15 SLP052 CB DSNT W-N MOV NE P0004 T02280217 $=
18/08/2023 09:51->METAR KJFK 180951Z 26006KT 10SM TSRA BKN006CB BKN028 OVC043 22/21 A2968 RMK AO2 WSHFT 0924 LTG DSNT NW-NE SLP052 OCNL LTGICCG OHD TS OHD MOV E P0020 T02170211 $=
18/08/2023 08:51->METAR KJFK 180851Z 17014KT 5SM TSRA BR BKN005 BKN009 OVC012 24/24 A2967 RMK AO2 LTG DSNT W RAB31 TSB39 PRESFR SLP047 OCNL LTGICCG OHD TS OHD MOV E P0007 60007 T02390239 58040=
18/08/2023 07:51->METAR KJFK 180751Z 15009KT 7SM BKN005 BKN008 BKN015 24/24 A2972 RMK AO2 SLP063 T02390239=
18/08/2023 06:51->METAR KJFK 180651Z 13007KT 8SM BKN006 BKN008 BKN010 24/23 A2975 RMK AO2 SLP074 T02390233=
18/08/2023 05:51->METAR KJFK 180551Z 13006KT 10SM BKN009 BKN015 BKN026 23/23 A2979 RMK AO2 SLP087 T02330233 10233 20217 57020=
18/08/2023 04:51->METAR KJFK 180451Z 12006KT 10SM BKN007 BKN015 BKN022 23/23 A2980 RMK AO2 SLP092 T02330233 402440217=
18/08/2023 03:51->METAR KJFK 180351Z 13006KT 8SM BKN007 BKN017 BKN020 23/23 A2983 RMK AO2 SLP102 T02280228=
18/08/2023 02:51->METAR KJFK 180251Z 12007KT 8SM BKN004 BKN011 BKN020 23/22 A2985 RMK AO2 SLP107 T02280222 58014=
18/08/2023 01:51->METAR KJFK 180151Z 11009KT 3/4SM R04R/P6000FT BKN004 OVC015 22/22 A2987 RMK AO2 SFC VIS 10 SLP113 T02220222=
18/08/2023 00:51->METAR KJFK 180051Z 11008KT 3/4SM R04R/P6000FT OVC003 22/22 A2988 RMK AO2 SFC VIS 7 SLP116 T02170217=
17/08/2023 23:51->METAR KJFK 172351Z 11012KT 10SM OVC006 22/22 A2989 RMK AO2 SLP121 T02220217 10239 20217 56006=
17/08/2023 22:51->METAR KJFK 172251Z 12010KT 10SM OVC007 22/21 A2989 RMK AO2 SLP122 T02220211=
17/08/2023 21:51->METAR KJFK 172151Z 10011KT 10SM BKN008 OVC016 23/22 A2990 RMK AO2 SLP123 T02280217=
17/08/2023 20:51->METAR KJFK 172051Z 11012KT 9SM OVC005 22/21 A2991 RMK AO2 SLP127 T02170211 56013=
17/08/2023 19:51->METAR KJFK 171951Z 12013KT 10SM BKN009 OVC016 23/21 A2992 RMK AO2 SLP130 T02280211=
17/08/2023 18:51->METAR KJFK 171851Z 11011KT 10SM BKN010 OVC021 23/21 A2994 RMK AO2 SLP137 T02330211=
17/08/2023 17:51->METAR KJFK 171751Z 11012KT 10SM BKN011 OVC021 24/22 A2995 RMK AO2 SLP140 T02390217 10244 20222 58014=
17/08/2023 16:51->METAR KJFK 171651Z 11009KT 10SM BKN011 BKN018 24/22 A2996 RMK AO2 SLP146 T02390217=
17/08/2023 15:51->METAR KJFK 171551Z 10013KT 10SM BKN010 BKN029TCU 24/22 A2997 RMK AO2 SLP149 CIG 008V012 TCU DSNT NW T02390217=
17/08/2023 14:51->METAR KJFK 171451Z 12009KT 10SM BKN010 BKN027 23/22 A2999 RMK AO2 SLP154 CIG 008V012 T02330217 55000=
17/08/2023 13:51->METAR KJFK 171351Z 11012KT 10SM BKN008 BKN014 23/22 A2999 RMK AO2 SLP154 T02330217=
17/08/2023 12:51->METAR KJFK 171251Z 09011KT 10SM BKN006 22/22 A2999 RMK AO2 SLP153 T02220217=
17/08/2023 11:51->METAR KJFK 171151Z 09007KT 10SM OVC008 23/22 A2999 RMK AO2 SLP154 60000 T02280217 10228 20217 51006=
17/08/2023 10:51->METAR KJFK 171051Z 07005KT 10SM OVC007 22/21 A2998 RMK AO2 SLP152 T02220211=
17/08/2023 09:51->METAR KJFK 170951Z 09006KT 10SM BKN007 OVC060 22/22 A2998 RMK AO2 RAB0854E04 SLP151 P0000 T02220217=
17/08/2023 08:51->METAR KJFK 170851Z 08008KT 10SM OVC008 22/21 A2997 RMK AO2 SLP147 T02220211 56005=
17/08/2023 07:51->METAR KJFK 170751Z 09006KT 10SM BKN009 OVC015 22/21 A2997 RMK AO2 SLP148 T02220211=
17/08/2023 06:51->METAR KJFK 170651Z 08005KT 10SM BKN009 OVC014 22/21 A2998 RMK AO2 SLP150 T02170206=
17/08/2023 05:51->METAR KJFK 170551Z 08005KT 10SM BKN014 OVC019 22/21 A2998 RMK AO2 SLP153 T02220206 10228 20222 50001=
17/08/2023 04:51->METAR KJFK 170451Z 09006KT 10SM OVC012 22/21 A2999 RMK AO2 SLP154 T02220206 402720206=
17/08/2023 03:51->METAR KJFK 170351Z 10004KT 10SM BKN011 BKN042 BKN090 22/21 A2998 RMK AO2 SLP153 T02220211=
17/08/2023 02:51->METAR KJFK 170251Z 10006KT 10SM BKN011 BKN055 BKN080 22/21 A2998 RMK AO2 SLP152 T02220211 50008=
17/08/2023 01:51->METAR KJFK 170151Z 12006KT 10SM BKN012 BKN060 BKN075 22/21 A2999 RMK AO2 SLP154 T02220206=
17/08/2023 00:51->METAR KJFK 170051Z 11009KT 10SM FEW015 FEW055 BKN075 BKN250 22/21 A2997 RMK AO2 SLP149 T02220206=
16/08/2023 23:51->METAR KJFK 162351Z 11009KT 10SM FEW015 FEW040 BKN080 BKN250 23/21 A2996 RMK AO2 SLP144 T02280206 10261 20228 53014=
16/08/2023 22:51->METAR KJFK 162251Z 13009KT 10SM FEW023 SCT040 SCT110 SCT250 23/21 A2993 RMK AO2 SLP136 T02330206=
16/08/2023 21:51->METAR KJFK 162151Z 15010KT 10SM FEW027 SCT040 SCT110 SCT250 24/21 A2993 RMK AO2 SLP135 T02440211=
16/08/2023 20:51->METAR KJFK 162051Z 12011KT 10SM FEW027 SCT040 SCT250 26/21 A2992 RMK AO2 SLP130 T02560211 58003=
16/08/2023 19:51->METAR KJFK 161951Z 13008KT 10SM FEW027 SCT040 SCT250 26/22 A2993 RMK AO2 SLP134 T02610217=
16/08/2023 18:51->METAR KJFK 161851Z 16011KT 10SM SCT027 SCT040 25/22 A2993 RMK AO2 SLP135 T02500217=
16/08/2023 17:51->METAR KJFK 161751Z 18006KT 10SM BKN027 26/22 A2993 RMK AO2 SLP133 BKN V SCT T02560222 10272 20211 58003=
16/08/2023 16:51->METAR KJFK 161651Z 35004KT 10SM BKN027 BKN250 26/21 A2993 RMK AO2 SLP134 T02610206=
16/08/2023 15:51->METAR KJFK 161551Z 00000KT 10SM BKN025 BKN041 BKN095 BKN250 27/21 A2994 RMK AO2 SLP138 T02670211=
16/08/2023 14:51->METAR KJFK 161451Z 36003KT 10SM BKN017 BKN095 BKN250 24/21 A2993 RMK AO2 SLP136 T02440206 51013=
16/08/2023 13:51->METAR KJFK 161351Z 01003KT 10SM BKN012 BKN100 BKN250 23/21 A2992 RMK AO2 SLP133 T02330206=
16/08/2023 12:51->METAR KJFK 161251Z 02006KT 10SM BKN007 BKN037 BKN085 22/21 A2991 RMK AO2 SLP128 BKN007 V SCT VCSH SE T02170206=
16/08/2023 11:51->METAR KJFK 161151Z 11006KT 10SM FEW020 SCT044 BKN060 BKN140 21/21 A2990 RMK AO2 RAE46 SLP123 VCSH NE-S P0013 60040 70048 T02110206 10217 20206 51009=
16/08/2023 10:51->METAR KJFK 161051Z 00000KT 8SM -RA FEW012 SCT033 BKN060 21/21 A2989 RMK AO2 RAB03 SLP122 P0001 T02110211=
16/08/2023 09:51->METAR KJFK 160951Z 07006KT 10SM BKN038 OVC065 21/21 A2987 RMK AO2 RAE43 SLP116 P0005 T02060206=
16/08/2023 08:51->METAR KJFK 160851Z 04006KT 3SM RA BR BKN007 BKN032 OVC038 21/21 A2987 RMK AO2 LTG DSNT NE RAB25 SLP114 P0021 60021 T02060206 53006=
16/08/2023 07:51->METAR KJFK 160751Z 10007KT 10SM OVC008 21/21 A2985 RMK AO2 SLP107 T02110206=
16/08/2023 06:51->METAR KJFK 160651Z 08004KT 10SM BKN008 OVC016 21/21 A2985 RMK AO2 SLP107 T02110211=
16/08/2023 05:51->METAR KJFK 160551Z 05006KT 10SM BKN009 OVC014 21/21 A2985 RMK AO2 SLP108 60008 T02110211 10239 20211 55001=
16/08/2023 04:51->METAR KJFK 160451Z 07007KT 10SM BKN007 OVC085 22/21 A2984 RMK AO2 SLP106 T02170211 402720217=
16/08/2023 03:51->METAR KJFK 160351Z 09007KT 10SM BKN007 OVC090 22/22 A2985 RMK AO2 RAE25 SLP107 P0001 T02170217=
16/08/2023 02:51->METAR KJFK 160251Z 10008KT 7SM -RA FEW006 BKN040 OVC095 22/21 A2985 RMK AO2 CIG 031 W SLP109 P0005 60007 T02170211 50017=
16/08/2023 01:51->METAR KJFK 160151Z 13009KT 10SM -RA FEW010 BKN016 BKN075 OVC150 22/21 A2986 RMK AO2 RAB24 SLP111 P0002 T02220211=
16/08/2023 00:51->METAR KJFK 160051Z 12008KT 10SM SCT010 BKN022 BKN080 BKN250 23/22 A2984 RMK AO2 LTG DSNT SE RAE2355 SLP105 P0000 T02280217=
15/08/2023 23:51->METAR KJFK 152351Z 07005KT 10SM -RA SCT021 BKN033 BKN120 BKN160 BKN250 24/21 A2981 RMK AO2 LTG DSNT S RAB43 SLP093 P0000 60000 T02390206 10267 20239 53006=
15/08/2023 22:51->METAR KJFK 152251Z 07008KT 10SM FEW026 FEW050 SCT160 BKN250 25/21 A2978 RMK AO2 LTG DSNT SW SLP084 T02500206=
15/08/2023 21:51->METAR KJFK 152151Z 35010KT 10SM FEW026 FEW050 SCT140 BKN250 26/21 A2979 RMK AO2 SLP087 T02560206=
15/08/2023 20:51->METAR KJFK 152051Z 35010KT 10SM FEW026 FEW050 SCT160 SCT250 27/21 A2979 RMK AO2 SLP086 T02670206 50000=
15/08/2023 19:51->METAR KJFK 151951Z 36009KT 10SM SCT024 SCT030 BKN180 BKN250 26/21 A2979 RMK AO2 SLP088 SCT030 V BKN T02560206=
15/08/2023 18:51->METAR KJFK 151851Z 34008KT 310V010 10SM FEW020 FEW044 SCT200 BKN250 27/21 A2979 RMK AO2 SLP087 T02670211=
15/08/2023 17:51->METAR KJFK 151751Z 36008KT 10SM FEW017 BKN023 BKN250 24/21 A2978 RMK AO2 SLP086 T02440211 10272 20222 51008=
15/08/2023 16:51->METAR KJFK 151651Z 35011KT 10SM FEW018 BKN032 BKN250 25/21 A2978 RMK AO2 SLP083 T02500211=
15/08/2023 15:51->METAR KJFK 151551Z 28008KT 10SM BKN022 BKN030 BKN180 BKN250 26/21 A2977 RMK AO2 SLP081 T02610211=
15/08/2023 14:51->METAR KJFK 151451Z 33012KT 10SM FEW013 BKN021 BKN250 25/21 A2976 RMK AO2 SLP077 T02500211 51006=
15/08/2023 13:51->METAR KJFK 151351Z 26009KT 10SM FEW010 BKN017 BKN250 24/22 A2976 RMK AO2 SLP077 T02440217=
15/08/2023 12:51->METAR KJFK 151251Z 28005KT 10SM BKN008 BKN023 BKN250 23/22 A2976 RMK AO2 SLP076 CIG 006V010 T02330222=
15/08/2023 11:51->METAR KJFK 151151Z 07004KT 9SM SCT007 BKN014 BKN140 BKN250 22/22 A2974 RMK AO2 RAE1054 SLP071 P0000 60025 70025 T02220222 10239 20217 53010=
15/08/2023 10:51->METAR KJFK 151051Z 07006KT 8SM -RA BKN008 OVC025 22/22 A2973 RMK AO2 SLP068 CIG 006V010 P0000 T02170217=
15/08/2023 09:51->METAR KJFK 150951Z 07008KT 6SM -RA BR OVC006 22/22 A2972 RMK AO2 RAB0857E08B35 SLP063 P0000 T02170217=
15/08/2023 08:51->METAR KJFK 150851Z 02009KT 9SM BKN006 OVC014 23/23 A2971 RMK AO2 SLP061 60025 T02280228 58025=
15/08/2023 07:51->METAR KJFK 150751Z 15003KT 10SM BKN012 OVC017 23/23 A2974 RMK AO2 SLP071 T02330233=
15/08/2023 06:51->METAR KJFK 150651Z 14005KT 10SM SCT015 BKN023 OVC048 24/24 A2976 RMK AO2 RAE11B15E47 TSB0554E10 CIG 015 W SLP078 P0025 T02390239=
15/08/2023 05:51->METAR KJFK 150551Z 14014KT 6SM R04R/3500VP6000FT VCTS -RA BR FEW007 BKN011 OVC022 24/23 A2978 RMK AO2 LTG DSNT SE RAE41B50 TSE39 SLP085 P0000 60000 T02390233 10250 20239 58037=
15/08/2023 04:51->METAR KJFK 150451Z 08006KT 9SM -RA FEW033 BKN070 OVC090 24/22 A2984 RMK AO2 RAB49 SLP103 P0000 T02440222 402830206=
15/08/2023 03:51->METAR KJFK 150351Z 15006KT 10SM FEW055 OVC070 24/23 A2987 RMK AO2 SLP113 T02440228=
15/08/2023 02:51->METAR KJFK 150251Z 16008KT 10SM BKN075 BKN110 OVC150 24/22 A2989 RMK AO2 SLP123 60000 T02440222 58003=
15/08/2023 01:51->METAR KJFK 150151Z 16008KT 10SM FEW075 BKN100 OVC160 24/22 A2990 RMK AO2 RAB35E46 SLP124 P0000 T02440217=
15/08/2023 00:51->METAR KJFK 150051Z 17009KT 10SM FEW055 SCT110 OVC170 25/21 A2991 RMK AO2 SLP128 T02500206=
14/08/2023 23:51->METAR KJFK 142351Z 18013KT 10SM FEW055 BKN140 BKN190 BKN250 25/20 A2990 RMK AO2 SLP126 T02500200 10283 20250 58006=
14/08/2023 22:51->METAR KJFK 142251Z 18011KT 10SM FEW055 BKN140 BKN180 BKN250 26/20 A2992 RMK AO2 SLP130 T02560200=
14/08/2023 21:51->METAR KJFK 142151Z 18011KT 10SM FEW055 BKN190 BKN250 26/19 A2991 RMK AO2 SLP129 T02610189=
14/08/2023 20:51->METAR KJFK 142051Z 17010KT 10SM FEW055 BKN180 BKN250 28/19 A2992 RMK AO2 SLP132 T02830189 58016=
14/08/2023 19:51->METAR KJFK 141951Z 18010KT 10SM FEW055 SCT150 BKN250 28/20 A2994 RMK AO2 SLP138 T02780200=
14/08/2023 18:51->METAR KJFK 141851Z 19011KT 10SM FEW055 FEW150 BKN250 28/20 A2995 RMK AO2 SLP143 T02830200=
14/08/2023 17:51->METAR KJFK 141751Z 20011KT 10SM FEW055 FEW170 BKN250 28/19 A2997 RMK AO2 SLP148 T02780189 10278 20228 58015=
14/08/2023 16:51->METAR KJFK 141651Z 20007KT 10SM FEW055 FEW110 SCT170 BKN250 27/19 A2998 RMK AO2 SLP153 T02670189=
14/08/2023 15:51->METAR KJFK 141551Z 14004KT 10SM FEW110 BKN170 OVC240 26/18 A3000 RMK AO2 SLP160 T02560178=
14/08/2023 14:51->METAR KJFK 141451Z 21005KT 10SM FEW110 SCT170 BKN240 26/18 A3001 RMK AO2 SLP163 T02560178 51013=
14/08/2023 13:51->METAR KJFK 141351Z 22004KT 10SM FEW050 SCT170 BKN240 25/19 A3000 RMK AO2 SLP159 T02500189=
14/08/2023 12:51->METAR KJFK 141251Z 00000KT 10SM SCT170 BKN240 23/20 A2999 RMK AO2 SLP156 T02330200=
14/08/2023 11:51->METAR KJFK 141151Z 22006KT 10SM SCT150 BKN240 23/20 A2998 RMK AO2 SLP150 T02280200 10239 20206 51008 $=
14/08/2023 10:51->METAR KJFK 141051Z 17004KT 10SM FEW095 SCT150 BKN220 22/19 A2997 RMK AO2 SLP149 T02220189 $=
14/08/2023 09:51->METAR KJFK 140951Z 00000KT 10SM SCT100 BKN150 BKN240 23/16 A2996 RMK AO2 SLP145 T02280161 $=
14/08/2023 08:51->METAR KJFK 140851Z 15003KT 10SM SCT150 SCT250 21/18 A2995 RMK AO2 SLP142 T02110183 58005 $=
14/08/2023 07:51->METAR KJFK 140751Z 00000KT 10SM FEW150 FEW250 23/18 A2996 RMK AO2 SLP144 T02280183 $=
14/08/2023 06:51->METAR KJFK 140651Z 26005KT 10SM FEW090 SCT150 SCT250 23/19 A2996 RMK AO2 SLP146 OCNL LTGIC DSNT S CB DSNT S T02280194 $=
14/08/2023 05:51->METAR KJFK 140551Z 25007KT 10SM SCT150 SCT250 23/21 A2996 RMK AO2 SLP146 T02330206 10289 20228 58002 $=
14/08/2023 04:51->METAR KJFK 140451Z 23007KT 10SM FEW150 FEW250 23/21 A2997 RMK AO2 SLP148 T02280206 403170200 $=
14/08/2023 03:51->METAR KJFK 140351Z 24008KT 10SM SCT250 24/20 A2997 RMK AO2 SLP149 T02440200 $=
14/08/2023 02:51->METAR KJFK 140251Z 28008KT 10SM FEW150 FEW250 27/18 A2997 RMK AO2 SLP149 T02670178 51021 $=
14/08/2023 01:51->METAR KJFK 140151Z 31009KT 10SM BKN065 BKN080 BKN250 27/17 A2996 RMK AO2 SLP145 T02720167 $=
14/08/2023 00:51->METAR KJFK 140051Z 29009KT 10SM FEW080 SCT250 28/17 A2993 RMK AO2 SLP136 T02830172 $=
13/08/2023 23:51->METAR KJFK 132351Z 31015KT 10SM FEW070 FEW250 28/17 A2991 RMK AO2 SLP127 T02830167 10317 20278 53012 $=
13/08/2023 22:51->METAR KJFK 132251Z 30010KT 10SM FEW065 SCT085 29/18 A2989 RMK AO2 SLP120 T02940178 $=
13/08/2023 21:51->METAR KJFK 132151Z 29014KT 10SM FEW055 SCT070 30/17 A2988 RMK AO2 SLP118 T03000172 $=
13/08/2023 20:51->METAR KJFK 132051Z 28013KT 10SM SCT060 SCT085 SCT250 31/18 A2987 RMK AO2 SLP116 T03060178 53006 $=
13/08/2023 19:51->METAR KJFK 131951Z 31012G19KT 10SM SCT060 SCT250 32/18 A2986 RMK AO2 SLP111 T03170178 $=
13/08/2023 18:51->METAR KJFK 131851Z 28013KT 10SM FEW050 BKN075 BKN250 31/19 A2986 RMK AO2 SLP113 T03060189 $=
13/08/2023 17:51->METAR KJFK 131751Z 25014KT 10SM SCT041 BKN050 BKN110 BKN250 28/22 A2986 RMK AO2 SLP110 T02830222 10294 20222 56002 $=
13/08/2023 16:51->METAR KJFK 131651Z 24012KT 10SM SCT040 SCT110 SCT250 29/23 A2986 RMK AO2 SLP110 T02890228 $=
13/08/2023 15:51->METAR KJFK 131551Z 23007KT 10SM FEW040 SCT110 SCT250 28/22 A2986 RMK AO2 SLP110 T02780222 $=
13/08/2023 14:51->METAR KJFK 131451Z 24006KT 10SM FEW035 FEW085 BKN110 BKN250 26/22 A2986 RMK AO2 SLP112 T02610222 51002 $=
13/08/2023 13:51->METAR KJFK 131351Z 23006KT 10SM FEW030 FEW085 BKN100 BKN250 26/22 A2986 RMK AO2 SLP112 T02560222 $=
13/08/2023 12:51->METAR KJFK 131251Z 00000KT 10SM FEW030 BKN075 BKN110 BKN250 23/22 A2987 RMK AO2 SLP114 T02330222 $=
13/08/2023 11:51->METAR KJFK 131151Z 09004KT 9SM FEW030 SCT085 BKN110 BKN250 22/22 A2986 RMK AO2 SLP110 60063 70078 T02220217 10233 20200 51013 $=
13/08/2023 10:51->METAR KJFK 131051Z 08004KT 8SM FEW040 SCT065 BKN100 BKN250 22/21 A2985 RMK AO2 LTG DSNT E SLP107 T02170211 $=
13/08/2023 09:51->METAR KJFK 130951Z 36005KT 10SM SCT065 BKN095 BKN120 BKN250 22/21 A2984 RMK AO2 SLP105 T02170211 $=
13/08/2023 08:51->METAR KJFK 130851Z 15006KT 10SM FEW080 SCT140 SCT250 21/20 A2982 RMK AO2 WSHFT 0803 RAE25 TSE25 SLP097 OCNL LTGIC DSNT N CB DSNT N P0000 60063 T02110200 58017 $=
13/08/2023 07:51->METAR KJFK 130751Z 05004KT 10SM -TSRA SCT050CB BKN150 BKN250 21/21 A2982 RMK AO2 SLP098 CONS LTGICCA E TS E MOV E P0063 T02060206 $=
13/08/2023 06:51->METAR KJFK 130651Z 28016KT 3/4SM R04R/2600VP6000FT TSRA BR SCT040 SCT070 BKN100 BKN250 21/20 A2989 RMK AO2 TSB51 SLP121 CONS LTGICCA OHD TS OHD MOV S P0000 T02060200 $=
13/08/2023 05:51->METAR KJFK 130551Z 11006KT 10SM -RA BKN060 BKN080 BKN100 BKN250 23/22 A2987 RMK AO2 RAB09 SLP114 P0000 60000 T02330222 10239 20228 50000 $=
13/08/2023 04:51->METAR KJFK 130451Z 08004KT 10SM BKN060 BKN070 BKN150 BKN250 23/23 A2987 RMK AO2 RAB09E21 SLP116 P0000 T02330228 402720189 $=
13/08/2023 03:51->METAR KJFK 130351Z 19008KT 10SM FEW047 BKN090 BKN150 BKN250 23/23 A2988 RMK AO2 SLP117 OCNL LTGIC DSNT NW CB DSNT NW T02280228 $=
13/08/2023 02:51->METAR KJFK 130251Z 19010KT 10SM FEW047 FEW100 FEW250 23/22 A2987 RMK AO2 SLP114 FRQ LTGIC DSNT SW CB DSNT SW T02280222 50003 $=
13/08/2023 01:51->METAR KJFK 130151Z 19010KT 10SM FEW047 SCT070 BKN250 23/23 A2987 RMK AO2 SLP115 OCNL LTGIC DSNT N CB DSNT N T02330228 $=
13/08/2023 00:51->METAR KJFK 130051Z 19015KT 10SM FEW047 SCT130 BKN250 23/22 A2986 RMK AO2 PK WND 18026/0001 SLP112 OCNL LTGIC DSNT N CB DSNT N T02330222 $=
12/08/2023 23:51->METAR KJFK 122351Z 19020G25KT 10SM SCT047 SCT070 SCT150 BKN250 24/23 A2986 RMK AO2 PK WND 19029/2310 SLP111 CB DSNT NW TCU DSNT N 60010 T02390228 10272 20228 55000 $=
12/08/2023 22:51->METAR KJFK 122251Z 19019KT 10SM FEW045 SCT060 BKN150 BKN250 24/23 A2986 RMK AO2 PK WND 20026/2238 SLP109 T02440228 $=
12/08/2023 21:51->METAR KJFK 122151Z 18017KT 10SM FEW035 FEW065 SCT100 BKN250 25/22 A2985 RMK AO2 PK WND 19026/2053 SLP108 CB DSNT NW T02500217 $=
12/08/2023 20:51->METAR KJFK 122051Z 18019G23KT 10SM FEW035 FEW065 FEW100 SCT250 26/21 A2986 RMK AO2 SLP111 60010 T02610211 58008 $=
12/08/2023 19:51->METAR KJFK 121951Z 17015KT 10SM SCT035 SCT075 SCT100 BKN140 BKN250 25/21 A2986 RMK AO2 PK WND 22029/1913 RAB16E37 TSB06E45 SLP110 CB DSNT E-SE AND CB DSNT NW-N P0010 T02500211 $=
12/08/2023 18:51->METAR KJFK 121851Z 19018G22KT 10SM SCT033 SCT075 SCT100 BKN150 BKN250 27/22 A2989 RMK AO2 SLP121 CB DSNT S TCU DSNT W-NW T02670217 $=
12/08/2023 17:51->METAR KJFK 121751Z 17009KT 10SM SCT065 SCT110 BKN250 26/23 A2988 RMK AO2 LTG DSNT S SLP119 CU DSNT SE-S 60005 T02610228 10267 20222 58011 $=
12/08/2023 16:51->METAR KJFK 121651Z 17007KT 10SM SCT055 BKN110 BKN250 26/22 A2990 RMK AO2 SLP124 T02610222 $=
12/08/2023 15:51->METAR KJFK 121551Z 17004KT 4SM BR FEW027 BKN070 BKN100 24/23 A2991 RMK AO2 RAB36RAEMM SLP129 P0005 T02390228 $=
12/08/2023 14:51->METAR KJFK 121451Z 17009KT 10SM FEW075 BKN130 BKN250 26/19 A2992 RMK AO2 SLP130 T02560194 55002=
12/08/2023 13:51->METAR KJFK 121351Z 13006KT 10SM FEW070 SCT095 BKN250 26/20 A2991 RMK AO2 SLP129 T02560200=
12/08/2023 12:51->METAR KJFK 121251Z 11006KT 10SM FEW180 SCT250 24/20 A2992 RMK AO2 SLP130 T02390200=
12/08/2023 11:51->METAR KJFK 121151Z 09006KT 10SM FEW075 SCT180 BKN250 22/19 A2992 RMK AO2 SLP132 7//// T02220189 10222 20189 53006=
12/08/2023 10:51->METAR KJFK 121051Z 10004KT 10SM FEW200 SCT250 21/17 A2992 RMK AO2 SLP130 T02060167=
12/08/2023 09:51->METAR KJFK 120951Z 08005KT 10SM SCT150 SCT250 19/16 A2991 RMK AO2 SLP128 T01940161=
12/08/2023 08:51->METAR KJFK 120851Z 07004KT 10SM FEW150 FEW250 19/17 A2990 RMK AO2 SLP126 T01940167 51004=
12/08/2023 07:51->METAR KJFK 120751Z 06004KT 10SM FEW250 20/17 A2990 RMK AO2 SLP126 T02000172=
12/08/2023 06:51->METAR KJFK 120651Z 00000KT 10SM SCT070 SCT250 21/18 A2990 RMK AO2 SLP126 T02060178=
12/08/2023 05:51->METAR KJFK 120551Z 06003KT 10SM FEW070 FEW250 22/17 A2989 RMK AO2 SLP122 T02170172 10272 20211 53006=
12/08/2023 04:51->METAR KJFK 120451Z 07003KT 10SM FEW070 FEW250 22/18 A2988 RMK AO2 SLP119 T02220178 403000194=
12/08/2023 03:51->METAR KJFK 120351Z 26005KT 10SM FEW070 FEW250 23/18 A2988 RMK AO2 SLP118 T02330178=
12/08/2023 02:51->METAR KJFK 120251Z 24007KT 10SM SCT070 SCT150 24/18 A2987 RMK AO2 SLP116 T02390178 51018=
12/08/2023 01:51->METAR KJFK 120151Z 26005KT 10SM FEW070 FEW250 24/16 A2986 RMK AO2 SLP112 T02440161=
12/08/2023 00:51->METAR KJFK 120051Z 24007KT 10SM SCT070 SCT250 26/16 A2984 RMK AO2 SLP105 T02560156=
11/08/2023 23:51->METAR KJFK 112351Z 26010KT 10SM SCT065 SCT250 27/15 A2982 RMK AO2 SLP098 6//// T02720150 10300 20267 53011=
11/08/2023 22:51->METAR KJFK 112251Z 26011KT 10SM SCT065 SCT250 28/15 A2980 RMK AO2 SLP092 T02830150=
11/08/2023 21:51->METAR KJFK 112151Z 26014KT 10SM FEW060 SCT075 SCT250 29/15 A2980 RMK AO2 SLP089 T02890150=
11/08/2023 20:51->METAR KJFK 112051Z 26015KT 10SM FEW060 FEW075 SCT250 29/15 A2979 RMK AO2 SLP087 6//// T02940150 56003=
11/08/2023 19:51->METAR KJFK 111951Z 26014KT 10SM FEW060 SCT075 BKN250 29/16 A2979 RMK AO2 SLP087 T02890161 PNO $=
11/08/2023 18:51->METAR KJFK 111851Z 25019G25KT 10SM SCT060 BKN250 29/16 A2979 RMK AO2 SLP088 T02890161 PNO $=
11/08/2023 17:51->METAR KJFK 111751Z 20014KT 10SM SCT049 SCT060 BKN250 27/19 A2980 RMK AO2 SLP090 6//// T02670194 10278 20217 56002 PNO $=
11/08/2023 16:51->METAR KJFK 111651Z 23012KT 10SM BKN042 BKN250 27/19 A2980 RMK AO2 SLP090 T02670194 $=
11/08/2023 15:51->METAR KJFK 111551Z 23008KT 10SM SCT048 SCT250 25/18 A2980 RMK AO2 SLP091 T02500183 $=
11/08/2023 14:51->METAR KJFK 111451Z 25008KT 10SM FEW050 SCT250 24/18 A2980 RMK AO2 SLP092 T02440178 53014 $=
11/08/2023 13:51->METAR KJFK 111351Z 24009KT 10SM FEW090 SCT250 23/18 A2979 RMK AO2 SLP086 T02330183 $=
11/08/2023 12:51->METAR KJFK 111251Z 27008KT 10SM SCT250 23/18 A2977 RMK AO2 SLP081 T02330178 $=
11/08/2023 11:51->METAR KJFK 111151Z 29007KT 10SM SCT250 22/18 A2976 RMK AO2 SLP078 70026 T02170183 10217 20194 53020 $=
11/08/2023 10:51->METAR KJFK 111051Z 27010KT 10SM FEW250 20/19 A2975 RMK AO2 SLP074 T02000189 $=
11/08/2023 09:51->METAR KJFK 110951Z 27009KT 10SM CLR 20/18 A2972 RMK AO2 SLP063 T02000183 $=
11/08/2023 08:51->METAR KJFK 110851Z 27008KT 10SM CLR 20/19 A2970 RMK AO2 SLP059 T02000189 53016 $=
11/08/2023 07:51->METAR KJFK 110751Z 27006KT 10SM CLR 21/18 A2968 RMK AO2 SLP050 T02060183 $=
11/08/2023 06:51->METAR KJFK 110651Z 29006KT 10SM CLR 21/19 A2967 RMK AO2 SLP046 T02110189 $=
11/08/2023 05:51->METAR KJFK 110551Z 30009KT 10SM FEW015 21/19 A2966 RMK AO2 SLP042 T02110194 10217 20211 53010 $=
11/08/2023 04:51->METAR KJFK 110451Z 28005KT 10SM CLR 21/21 A2964 RMK AO2 SLP037 T02110206 402560206 $=
11/08/2023 03:51->METAR KJFK 110351Z 28007KT 8SM CLR 21/21 A2963 RMK AO2 SLP033 T02110206 $=
11/08/2023 02:51->METAR KJFK 110251Z 28008KT 9SM FEW010 21/21 A2963 RMK AO2 SLP032 T02110206 50007 $=
11/08/2023 01:51->METAR KJFK 110151Z 26006KT 9SM FEW010 FEW080 SCT250 21/21 A2963 RMK AO2 SLP033 T02110206 $=
11/08/2023 00:51->METAR KJFK 110051Z 32005KT 10SM FEW010 FEW032 BKN075 BKN250 21/21 A2962 RMK AO2 SLP028 T02110206 $=
10/08/2023 23:51->METAR KJFK 102351Z 00000KT 10SM FEW011 SCT029 BKN041 21/21 A2961 RMK AO2 LTG DSNT S RAE34 SLP025 P0001 60025 T02110206 10233 20206 58004 $=
10/08/2023 22:51->METAR KJFK 102251Z 14003KT 5SM -RA BR SCT009 BKN026 OVC032 21/21 A2961 RMK AO2 SLP026 P0005 T02110206 $=
10/08/2023 21:51->METAR KJFK 102151Z 16006KT 5SM -RA BR FEW007 FEW028 OVC047 21/21 A2962 RMK AO2 SLP029 P0007 T02110211 $=
10/08/2023 20:51->METAR KJFK 102051Z 20011KT 4SM +RA BR SCT012 SCT030 OVC065 22/21 A2965 RMK AO2 LTG DSNT W SLP040 P0010 60012 T02170211 55016 $=
10/08/2023 19:51->METAR KJFK 101951Z 16008KT 5SM -RA BR FEW021 SCT095 OVC120 23/22 A2964 RMK AO2 PRESFR SLP037 P0002 T02280222 $=
10/08/2023 18:51->METAR KJFK 101851Z 20009KT 5SM RA BR FEW018 FEW050 OVC110 23/23 A2968 RMK AO2 SLP051 P0000 T02330228 $=
10/08/2023 17:51->METAR KJFK 101751Z 20007KT 7SM -RA BKN090 OVC110 23/22 A2970 RMK AO2 SLP056 P0001 60001 T02330222 10256 20222 56018 $=
10/08/2023 16:51->METAR KJFK 101651Z 17010KT 9SM -RA SCT080 BKN100 BKN150 OVC250 24/22 A2971 RMK AO2 RAB47 SLP061 P0000 T02440222 $=
10/08/2023 15:51->METAR KJFK 101551Z 15008KT 10SM BKN080 BKN100 BKN160 OVC250 25/21 A2973 RMK AO2 SLP066 T02500211 $=
10/08/2023 14:51->METAR KJFK 101451Z 18008KT 10SM BKN075 BKN150 OVC250 25/22 A2975 RMK AO2 SLP074 T02500217 53000 $=
10/08/2023 13:51->METAR KJFK 101351Z 19005KT 10SM SCT120 BKN190 BKN250 24/21 A2975 RMK AO2 SLP075 T02390206=
10/08/2023 12:51->METAR KJFK 101251Z 16003KT 10SM CLR 23/19 A2974 RMK AO2 SLP070 T02330194=
10/08/2023 11:51->METAR KJFK 101151Z 21005KT 10SM BKN150 BKN220 22/19 A2975 RMK AO2 SLP074 6//// 7//// T02220194 10228 20206 55002 PNO $=
10/08/2023 10:51->METAR KJFK 101051Z 23004KT 10SM SCT100 BKN150 BKN250 21/19 A2974 RMK AO2 SLP071 T02110194 PNO $=
10/08/2023 09:51->METAR KJFK 100951Z 22005KT 10SM FEW110 BKN250 21/18 A2976 RMK AO2 SLP076 T02110183 PNO $=
10/08/2023 08:51->METAR KJFK 100851Z 24005KT 10SM SCT120 BKN250 21/18 A2976 RMK AO2 SLP077 6//// T02110178 56008 PNO $=
10/08/2023 07:51->METAR KJFK 100751Z 24005KT 10SM SCT100 BKN250 21/18 A2976 RMK AO2 SLP078 T02110178 PNO $=
10/08/2023 06:51->METAR KJFK 100651Z 23005KT 10SM FEW110 SCT250 21/17 A2977 RMK AO2 SLP081 T02110172 PNO $=
10/08/2023 05:51->METAR KJFK 100551Z 26007KT 10SM FEW110 SCT250 22/16 A2978 RMK AO2 SLP085 6//// T02220161 10278 20222 58006 PNO $=
10/08/2023 04:51->METAR KJFK 100451Z 27008KT 10SM FEW110 FEW250 24/14 A2979 RMK AO2 SLP087 T02390139 403060206 PNO $=
10/08/2023 03:51->METAR KJFK 100351Z 28009KT 10SM FEW250 24/14 A2980 RMK AO2 SLP090 T02390144 PNO $=
10/08/2023 02:51->METAR KJFK 100251Z 28010KT 10SM FEW250 25/13 A2980 RMK AO2 SLP091 6//// T02500128 51017 PNO $=
10/08/2023 01:51->METAR KJFK 100151Z 25011KT 10SM FEW110 FEW250 25/16 A2979 RMK AO2 SLP086 T02500156 PNO $=
10/08/2023 00:51->METAR KJFK 100051Z 28011KT 10SM SCT110 SCT250 27/14 A2977 RMK AO2 SLP079 T02670144 PNO $=
09/08/2023 23:51->METAR KJFK 092351Z 28015KT 10SM FEW075 SCT110 SCT250 28/14 A2975 RMK AO2 SLP074 6//// T02780144 10306 20278 53004 PNO $=
09/08/2023 22:51->METAR KJFK 092251Z 27015KT 10SM FEW075 FEW100 BKN250 28/16 A2973 RMK AO2 SLP066 T02830156 PNO $=
09/08/2023 21:51->METAR KJFK 092151Z 28013G21KT 10SM FEW080 SCT250 30/14 A2973 RMK AO2 SLP066 T03000144 PNO $=
09/08/2023 20:51->METAR KJFK 092051Z 28015G21KT 10SM FEW075 FEW250 30/14 A2974 RMK AO2 SLP069 6//// T03000139 53002 PNO $=
09/08/2023 19:51->METAR KJFK 091951Z 28018KT 10SM FEW075 FEW250 31/14 A2974 RMK AO2 SLP070 T03060144 PNO $=
09/08/2023 18:51->METAR KJFK 091851Z 29012G23KT 10SM FEW070 SCT250 29/14 A2972 RMK AO2 SLP064 T02940139 PNO $=
09/08/2023 17:51->METAR KJFK 091751Z 32014KT 10SM FEW070 SCT100 SCT250 29/13 A2973 RMK AO2 WSHFT 1654 SLP067 6//// T02940133 10294 20222 58005 PNO $=
09/08/2023 16:51->METAR KJFK 091651Z 32013G20KT 10SM FEW065 SCT080 SCT250 29/14 A2974 RMK AO2 SLP069 T02940139 PNO $=
09/08/2023 15:51->METAR KJFK 091551Z 33016G26KT 10SM FEW080 FEW100 FEW250 28/14 A2974 RMK AO2 PK WND 33026/1545 SLP071 T02830144 PNO $=
09/08/2023 14:51->METAR KJFK 091451Z 32014G27KT 10SM FEW150 FEW250 27/15 A2974 RMK AO2 PK WND 29029/1433 SLP071 6//// T02720150 50004 PNO $=
09/08/2023 13:51->METAR KJFK 091351Z 32017G22KT 10SM FEW150 FEW250 25/16 A2975 RMK AO2 SLP075 T02500156 PNO $=
09/08/2023 12:51->METAR KJFK 091251Z 30016G21KT 10SM FEW150 FEW250 23/16 A2974 RMK AO2 SLP072 T02330156 PNO $=
09/08/2023 11:51->METAR KJFK 091151Z 29015G23KT 10SM FEW150 FEW250 22/15 A2973 RMK AO2 SLP068 6//// 7//// T02220150 10228 20206 53015 PNO $=
09/08/2023 10:51->METAR KJFK 091051Z 29011KT 10SM FEW150 FEW250 21/15 A2972 RMK AO2 SLP063 T02110150 PNO $=
09/08/2023 09:51->METAR KJFK 090951Z 29013KT 10SM FEW095 FEW250 21/15 A2970 RMK AO2 SLP058 T02110150 PNO $=
09/08/2023 08:51->METAR KJFK 090851Z 29011KT 10SM FEW080 FEW100 22/15 A2969 RMK AO2 SLP053 6//// T02170150 55001 PNO $=
09/08/2023 07:51->METAR KJFK 090751Z 28011G18KT 10SM FEW085 FEW110 22/15 A2969 RMK AO2 SLP052 T02170150 PNO $=
09/08/2023 06:51->METAR KJFK 090651Z 29015G21KT 10SM FEW100 BKN110 22/15 A2968 RMK AO2 SLP051 T02220150 PNO $=
09/08/2023 05:51->METAR KJFK 090551Z 29016G23KT 10SM BKN085 BKN120 23/15 A2969 RMK AO2 SLP054 6//// T02280150 10239 20228 58003 PNO $=
09/08/2023 04:51->METAR KJFK 090451Z 27018G23KT 10SM BKN080 BKN130 23/15 A2970 RMK AO2 SLP057 T02280150 402780217 PNO $=
09/08/2023 03:51->METAR KJFK 090351Z 29014G23KT 10SM FEW050 BKN075 OVC140 23/15 A2970 RMK AO2 SLP057 T02330150 PNO $=
09/08/2023 02:51->METAR KJFK 090251Z 27015G23KT 10SM FEW045 FEW065 BKN095 23/16 A2970 RMK AO2 PK WND 30026/0217 SLP057 6//// T02330156 53012 PNO $=
09/08/2023 01:51->METAR KJFK 090151Z 28015KT 10SM FEW040 FEW060 BKN090 23/16 A2968 RMK AO2 PK WND 29027/0112 SLP052 T02330156 PNO $=
09/08/2023 00:51->METAR KJFK 090051Z 30016G32KT 10SM FEW040 BKN090 BKN250 23/16 A2968 RMK AO2 PK WND 29032/0042 SLP049 T02330156 PNO $=
08/08/2023 23:51->METAR KJFK 082351Z 31018G30KT 10SM FEW044 SCT060 SCT250 24/16 A2967 RMK AO2 PK WND 30031/2340 SLP045 6//// T02390156 10278 20239 53011 PNO $=
08/08/2023 22:51->METAR KJFK 082251Z 29015G26KT 10SM FEW042 SCT055 BKN250 25/16 A2963 RMK AO2 PK WND 30032/2214 SLP035 T02500161 PNO $=
08/08/2023 21:51->METAR KJFK 082151Z 29018G25KT 10SM SCT043 BKN055 BKN250 26/16 A2963 RMK AO2 PK WND 27030/2054 SLP034 T02560161 PNO $=
08/08/2023 20:51->METAR KJFK 082051Z 28020G27KT 10SM SCT043 SCT060 BKN250 27/17 A2963 RMK AO2 PK WND 27029/1958 SLP035 6//// T02670167 53007 PNO $=
08/08/2023 19:51->METAR KJFK 081951Z 28021G29KT 10SM SCT043 BKN065 BKN250 26/17 A2962 RMK AO2 PK WND 27029/1948 SLP031 T02610172 PNO $=
08/08/2023 18:51->METAR KJFK 081851Z 26019G26KT 10SM SCT044 BKN060 27/17 A2962 RMK AO2 PK WND 27026/1843 SLP028 T02670172 PNO $=
08/08/2023 17:51->METAR KJFK 081751Z 26017KT 10SM SCT042 BKN070 27/18 A2961 RMK AO2 SLP028 6//// T02720178 10272 20222 56012 PNO $=
08/08/2023 16:51->METAR KJFK 081651Z 29017KT 10SM FEW027 BKN039 BKN060 25/18 A2962 RMK AO2 SLP028 T02500178 $=
08/08/2023 15:51->METAR KJFK 081551Z 26015KT 10SM FEW022 SCT041 BKN065 BKN160 26/19 A2963 RMK AO2 SLP033 SCT V BKN T02560194 $=
08/08/2023 14:51->METAR KJFK 081451Z 27011KT 10SM FEW009 BKN021 BKN047 BKN160 23/22 A2965 RMK AO2 RAE08 SLP039 P0000 6//// T02330217 58011 $=
08/08/2023 13:51->METAR KJFK 081351Z 25012KT 7SM -RA SCT008 BKN024 OVC070 23/22 A2966 RMK AO2 RAB48 SLP043 T02280217 PNO $=
08/08/2023 12:51->METAR KJFK 081251Z 24011KT 10SM FEW008 BKN015 OVC080 22/22 A2967 RMK AO2 SLP047 CIG 013V017 T02220217 $=
08/08/2023 11:51->METAR KJFK 081151Z 25010KT 10SM BKN015 BKN038 BKN085 23/22 A2968 RMK AO2 SLP050 VCSH SW 6//// 7//// T02280217 10228 20217 53004 $=
08/08/2023 10:51->METAR KJFK 081051Z 26007KT 10SM SCT016 BKN036 BKN080 BKN250 22/21 A2968 RMK AO2 SLP050 T02220211 PNO $=
08/08/2023 09:51->METAR KJFK 080951Z 25003KT 10SM FEW046 BKN060 BKN080 22/21 A2967 RMK AO2 RAB0854E44 SLP046 P0000 T02170211 $=
08/08/2023 08:51->METAR KJFK 080851Z 00000KT 10SM BKN039 BKN049 OVC065 22/21 A2967 RMK AO2 RAE11 SLP046 P0003 60003 T02170211 58017 $=
08/08/2023 07:51->METAR KJFK 080751Z 22005KT 3SM +RA BR SCT049 BKN075 BKN090 BKN150 22/21 A2969 RMK AO2 RAB45 SLP053 P0000 T02170211 $=
08/08/2023 06:51->METAR KJFK 080651Z 21007KT 10SM FEW033 FEW085 BKN140 22/21 A2970 RMK AO2 SLP057 T02220211 $=
08/08/2023 05:51->METAR KJFK 080551Z 19011KT 10SM SCT080 BKN100 BKN120 22/21 A2972 RMK AO2 SLP063 60008 T02220211 10244 20211 56012 $=
08/08/2023 04:51->METAR KJFK 080451Z 19011KT 10SM FEW022 BKN110 BKN120 22/21 A2973 RMK AO2 RAB07E30 SLP066 P0000 T02170206 402610200 $=
08/08/2023 03:51->METAR KJFK 080351Z 19014KT 10SM FEW028 SCT110 OVC150 22/21 A2974 RMK AO2 RAE04 SLP071 P0000 T02170206 $=
08/08/2023 02:51->METAR KJFK 080251Z 19012KT 10SM -RA FEW026 FEW110 OVC140 21/21 A2975 RMK AO2 RAE10B34 SLP075 P0000 60008 T02110206 58014 $=
08/08/2023 01:51->METAR KJFK 080151Z 22014KT 10SM -RA FEW015 FEW070 OVC120 22/21 A2979 RMK AO2 WSHFT 0113 SLP086 P0008 T02170211 $=
08/08/2023 00:51->METAR KJFK 080051Z 17018G25KT 10SM -RA BKN015 BKN055 OVC085 24/23 A2980 RMK AO2 PK WND 15026/0036 RAB42 SLP090 OCNL LTGIC DSNT SW CB DSNT SW P0000 T02390233 $=
07/08/2023 23:51->METAR KJFK 072351Z 17015KT 10SM FEW012 SCT024 BKN049 BKN250 24/23 A2980 RMK AO2 SLP089 60000 T02440228 10256 20239 55004 $=
07/08/2023 22:51->METAR KJFK 072251Z 16017G21KT 10SM SCT009 SCT047 BKN250 24/23 A2978 RMK AO2 SLP083 T02440233 $=
07/08/2023 21:51->METAR KJFK 072151Z 16016KT 10SM FEW009 BKN041 BKN250 25/23 A2980 RMK AO2 SLP090 T02500233 $=
07/08/2023 20:51->METAR KJFK 072051Z 16016KT 10SM FEW009 SCT024 BKN038 25/23 A2981 RMK AO2 SLP093 60000 T02500233 58022 $=
07/08/2023 19:51->METAR KJFK 071951Z 17017KT 10SM FEW009 OVC026 25/23 A2984 RMK AO2 SLP103 T02500228 $=
07/08/2023 18:51->METAR KJFK 071851Z 17014KT 10SM SCT030 OVC045 25/23 A2985 RMK AO2 RAB41E50 SLP108 P0000 T02500228 $=
07/08/2023 17:51->METAR KJFK 071751Z 18019G27KT 10SM BKN031 BKN044 26/21 A2987 RMK AO2 PK WND 18027/1746 SLP115 60000 T02560211 10261 20211 56018 $=
07/08/2023 16:51->METAR KJFK 071651Z 17015KT 10SM FEW023 SCT031 BKN100 BKN160 26/20 A2988 RMK AO2 SLP119 T02560200 $=
07/08/2023 15:51->METAR KJFK 071551Z 19013KT 10SM FEW021 BKN065 BKN080 BKN160 24/22 A2990 RMK AO2 SLP126 T02440217 $=
07/08/2023 14:51->METAR KJFK 071451Z 19017KT 10SM BKN016 OVC038 23/22 A2992 RMK AO2 RAB1357E34 SLP133 P0000 60000 T02280222 56007 $=
07/08/2023 13:51->METAR KJFK 071351Z 17016KT 10SM SCT017 BKN026 OVC046 23/22 A2993 RMK AO2 RAE1257 SLP135 P0000 T02280217 $=
07/08/2023 12:51->METAR KJFK 071251Z 17015KT 8SM -RA FEW008 BKN027 OVC060 22/21 A2993 RMK AO2 RAE1156B30 SLP134 P0000 T02220206 $=
07/08/2023 11:51->METAR KJFK 071151Z 17013KT 8SM -RA FEW006 OVC032 21/21 A2994 RMK AO2 SLP140 60009 70009 T02110206 10233 20200 52002 PNO $=
07/08/2023 10:51->METAR KJFK 071051Z 19011KT 2SM R04R/4000VP6000FT +RA BR FEW006 BKN024 OVC035 20/20 A2994 RMK AO2 SFC VIS 2 1/2 SLP137 P0004 T02000200 $=
07/08/2023 09:51->METAR KJFK 070951Z 23009KT 3SM +RA BR SCT011 BKN027 OVC049 21/21 A2994 RMK AO2 VIS 1 3/4 W SLP140 P0005 T02110206 $=
07/08/2023 08:51->METAR KJFK 070851Z 18008KT 10SM -RA FEW016 BKN023 OVC060 23/22 A2994 RMK AO2 SLP137 P0000 60000 T02280222 58009 $=
07/08/2023 07:51->METAR KJFK 070751Z 17008KT 10SM -RA FEW017 OVC055 23/22 A2995 RMK AO2 RAB35 SLP142 P0000 T02330222 $=
07/08/2023 06:51->METAR KJFK 070651Z 15008KT 10SM BKN065 OVC075 23/22 A2996 RMK AO2 SLP144 T02330217 $=
07/08/2023 05:51->METAR KJFK 070551Z 16006KT 10SM BKN060 OVC075 23/22 A2997 RMK AO2 SLP147 T02330217 10233 20228 58007 $=
07/08/2023 04:51->METAR KJFK 070451Z 18009KT 10SM BKN065 BKN250 23/22 A2999 RMK AO2 SLP154 T02330217 402720194 $=
07/08/2023 03:51->METAR KJFK 070351Z 17011KT 10SM SCT060 BKN250 23/21 A2999 RMK AO2 SLP153 T02330211 $=
07/08/2023 02:51->METAR KJFK 070251Z 16012KT 10SM FEW060 SCT200 SCT250 23/21 A2999 RMK AO2 SLP154 T02330211 50000 $=
07/08/2023 01:51->METAR KJFK 070151Z 16009KT 10SM FEW200 SCT250 23/20 A2999 RMK AO2 SLP157 T02280200 $=
07/08/2023 00:51->METAR KJFK 070051Z 16009KT 10SM FEW200 SCT250 23/20 A2999 RMK AO2 SLP154 T02280200 $=
06/08/2023 23:51->METAR KJFK 062351Z 17008KT 10SM FEW034 FEW200 SCT250 23/19 A2999 RMK AO2 SLP154 T02330194 10272 20233 55001 $=
06/08/2023 22:51->METAR KJFK 062251Z 17009KT 10SM FEW034 FEW200 SCT250 25/18 A2998 RMK AO2 SLP153 T02500183 $=
06/08/2023 21:51->METAR KJFK 062151Z 15009KT 10SM FEW038 FEW200 SCT250 26/17 A2998 RMK AO2 SLP152 T02610172 $=
06/08/2023 20:51->METAR KJFK 062051Z 17011KT 10SM FEW040 FEW200 SCT250 26/17 A2999 RMK AO2 SLP154 T02610172 58012 $=
06/08/2023 19:51->METAR KJFK 061951Z 18011KT 10SM FEW043 FEW200 SCT250 27/17 A3000 RMK AO2 SLP158 T02720167 $=
06/08/2023 18:51->METAR KJFK 061851Z 18011KT 10SM FEW046 FEW200 SCT250 27/16 A3001 RMK AO2 SLP163 T02670161 $=
06/08/2023 17:51->METAR KJFK 061751Z 17011KT 10SM FEW050 FEW200 SCT250 27/16 A3002 RMK AO2 SLP166 T02670161 10272 20233 58002 $=
06/08/2023 16:51->METAR KJFK 061651Z 19011KT 10SM FEW050 FEW200 SCT250 27/14 A3003 RMK AO2 SLP169 T02670144 $=
06/08/2023 15:51->METAR KJFK 061551Z 17009KT 10SM FEW050 SCT200 SCT250 27/13 A3004 RMK AO2 SLP171 T02720128 $=
06/08/2023 14:51->METAR KJFK 061451Z 20007KT 10SM FEW200 BKN250 26/14 A3003 RMK AO2 SLP168 T02610139 58002 $=
06/08/2023 13:51->METAR KJFK 061351Z 15005KT 10SM FEW200 BKN250 26/14 A3004 RMK AO2 SLP170 T02560144 $=
06/08/2023 12:51->METAR KJFK 061251Z 00000KT 10SM FEW200 BKN250 26/15 A3003 RMK AO2 SLP170 T02560150 $=
06/08/2023 11:51->METAR KJFK 061151Z 02006KT 10SM FEW200 SCT250 23/16 A3004 RMK AO2 SLP171 T02330156 10233 20194 51010 $=
06/08/2023 10:51->METAR KJFK 061051Z 01004KT 10SM FEW080 SCT200 SCT250 21/16 A3003 RMK AO2 SLP168 T02060156 $=
06/08/2023 09:51->METAR KJFK 060951Z 36006KT 10SM FEW250 20/15 A3002 RMK AO2 SLP165 T02000150 $=
06/08/2023 08:51->METAR KJFK 060851Z 36006KT 10SM SCT250 21/15 A3001 RMK AO2 SLP161 T02060150 52004 $=
06/08/2023 07:51->METAR KJFK 060751Z 04004KT 10SM SCT250 21/15 A3001 RMK AO2 SLP160 T02110150 $=
06/08/2023 06:51->METAR KJFK 060651Z 02006KT 10SM SCT250 22/16 A3000 RMK AO2 SLP158 T02170156 $=
06/08/2023 05:51->METAR KJFK 060551Z 36006KT 10SM BKN250 23/16 A3000 RMK AO2 SLP157 T02280156 10267 20228 53005 $=
06/08/2023 04:51->METAR KJFK 060451Z 01005KT 10SM BKN250 23/15 A2999 RMK AO2 SLP154 T02330150 402890206 $=
06/08/2023 03:51->METAR KJFK 060351Z 01006KT 10SM BKN250 24/15 A2999 RMK AO2 SLP154 T02390150 $=
06/08/2023 02:51->METAR KJFK 060251Z 36009KT 10SM BKN250 24/14 A2998 RMK AO2 SLP152 T02440144 51004 $=
06/08/2023 01:51->METAR KJFK 060151Z 36006KT 10SM BKN250 25/14 A2998 RMK AO2 SLP152 T02500144 $=
06/08/2023 00:51->METAR KJFK 060051Z 36007KT 10SM BKN240 26/14 A2997 RMK AO2 SLP149 T02610144 $=
05/08/2023 23:51->METAR KJFK 052351Z 36008KT 10SM FEW055 BKN240 27/14 A2997 RMK AO2 SLP148 T02670139 10289 20267 53005 $=
05/08/2023 22:51->METAR KJFK 052251Z 36010KT 10SM FEW055 OVC250 27/15 A2996 RMK AO2 SLP144 T02720150 $=
05/08/2023 21:51->METAR KJFK 052151Z 36008KT 10SM FEW055 OVC250 28/16 A2996 RMK AO2 SLP145 T02780161 $=
05/08/2023 20:51->METAR KJFK 052051Z 00000KT 10SM FEW040 SCT055 BKN250 28/17 A2995 RMK AO2 SLP142 T02830167 55004 $=
05/08/2023 19:51->METAR KJFK 051951Z 18010KT 10SM FEW038 BKN055 BKN075 BKN250 27/18 A2995 RMK AO2 SLP142 T02720183 $=
05/08/2023 18:51->METAR KJFK 051851Z 21010KT 10SM FEW035 SCT055 BKN250 28/19 A2996 RMK AO2 SLP146 T02780189 $=
05/08/2023 17:51->METAR KJFK 051751Z 21010KT 10SM FEW028 SCT044 BKN055 BKN250 27/19 A2996 RMK AO2 SLP146 T02720194 10278 20239 58003 $=
05/08/2023 16:51->METAR KJFK 051651Z 20011KT 10SM FEW030 SCT044 BKN250 27/20 A2997 RMK AO2 SLP147 T02670200 $=
05/08/2023 15:51->METAR KJFK 051551Z 22009KT 10SM FEW025 SCT038 BKN250 27/20 A2997 RMK AO2 SLP149 T02670200 $=
05/08/2023 14:51->METAR KJFK 051451Z 03007KT 10SM FEW038 SCT250 28/18 A2997 RMK AO2 SLP149 T02780183 51008 $=
05/08/2023 13:51->METAR KJFK 051351Z 35006KT 10SM FEW025 FEW250 25/19 A2997 RMK AO2 SLP147 T02500189 $=
05/08/2023 12:51->METAR KJFK 051251Z 02005KT 10SM FEW032 FEW250 25/19 A2996 RMK AO2 SLP144 T02500189 $=
05/08/2023 11:51->METAR KJFK 051151Z 36003KT 10SM FEW032 24/19 A2995 RMK AO2 SLP141 T02390194 10239 20206 51005 $=
05/08/2023 10:51->METAR KJFK 051051Z 36003KT 10SM FEW015 SCT032 BKN250 22/20 A2995 RMK AO2 SLP141 T02170200 $=
05/08/2023 09:51->METAR KJFK 050951Z 26004KT 10SM SCT015 BKN024 BKN250 21/20 A2995 RMK AO2 SLP142 T02060200 $=
05/08/2023 08:51->METAR KJFK 050851Z 22006KT 10SM FEW017 SCT020 BKN250 21/20 A2994 RMK AO2 SLP137 T02060200 56004 $=
05/08/2023 07:51->METAR KJFK 050751Z 25008KT 10SM BKN017 BKN250 22/20 A2994 RMK AO2 SLP140 T02170200 $=
05/08/2023 06:51->METAR KJFK 050651Z 24009KT 10SM BKN014 OVC019 22/20 A2994 RMK AO2 SLP137 T02170200 $=
05/08/2023 05:51->METAR KJFK 050551Z 24013KT 10SM OVC011 21/20 A2995 RMK AO2 SLP140 60000 T02110200 10217 20211 55004 $=
05/08/2023 04:51->METAR KJFK 050451Z 22010KT 10SM OVC012 22/20 A2994 RMK AO2 SLP138 T02170200 402440211 $=
05/08/2023 03:51->METAR KJFK 050351Z 24008KT 10SM OVC012 22/20 A2996 RMK AO2 SLP146 T02170200 $=
05/08/2023 02:51->METAR KJFK 050251Z 21010KT 10SM BKN015 BKN250 22/20 A2996 RMK AO2 LTG DSNT N SLP144 CB DSNT N 60000 T02170200 50003 $=
05/08/2023 01:51->METAR KJFK 050151Z 23011KT 10SM SCT014 BKN022 BKN040 BKN250 22/20 A2996 RMK AO2 SLP146 FRQ LTGIC DSNT NW CB DSNT NW T02170200 $=
05/08/2023 00:51->METAR KJFK 050051Z 21008KT 10SM BKN018 OVC036 22/20 A2996 RMK AO2 RAB16E37 SLP144 P0000 T02170200 $=
04/08/2023 23:51->METAR KJFK 042351Z 20014KT 10SM FEW019 BKN032 OVC045 22/20 A2995 RMK AO2 SLP141 T02170200 10239 20217 52005 $=
04/08/2023 22:51->METAR KJFK 042251Z 19015KT 10SM FEW013 BKN029 OVC040 22/20 A2994 RMK AO2 SLP137 T02170200 $=
04/08/2023 21:51->METAR KJFK 042151Z 19015KT 10SM SCT026 BKN036 OVC048 22/20 A2993 RMK AO2 SLP136 T02220200 $=
04/08/2023 20:51->METAR KJFK 042051Z 20017KT 10SM FEW013 SCT043 OVC060 23/19 A2994 RMK AO2 SLP138 T02330194 56010 $=
04/08/2023 19:51->METAR KJFK 041951Z 19013KT 10SM FEW027 SCT041 OVC055 23/20 A2995 RMK AO2 SLP141 T02280200 $=
04/08/2023 18:51->METAR KJFK 041851Z 19015KT 10SM BKN037 BKN046 OVC090 23/19 A2995 RMK AO2 SLP143 T02280194 $=
04/08/2023 17:51->METAR KJFK 041751Z 18013KT 10SM SCT029 BKN041 BKN090 23/19 A2997 RMK AO2 RAB13E23 SLP149 P0000 60000 T02280194 10244 20211 58002 $=
04/08/2023 16:51->METAR KJFK 041651Z 19011KT 10SM BKN039 OVC090 23/18 A2998 RMK AO2 SLP151 T02280183 $=
04/08/2023 15:51->METAR KJFK 041551Z 19012KT 10SM FEW035 BKN044 BKN095 OVC250 23/18 A2998 RMK AO2 SLP151 T02330183 $=
04/08/2023 14:51->METAR KJFK 041451Z 19011KT 10SM FEW035 BKN047 BKN250 24/19 A2998 RMK AO2 SLP151 T02390189 58002 $=
04/08/2023 13:51->METAR KJFK 041351Z 22009KT 10SM BKN042 BKN075 BKN250 22/18 A2998 RMK AO2 SLP152 T02220183 $=
04/08/2023 12:51->METAR KJFK 041251Z 22010KT 10SM SCT035 BKN075 BKN250 22/18 A2998 RMK AO2 SLP153 T02170183=
04/08/2023 11:51->METAR KJFK 041151Z 22011KT 10SM FEW027 BKN040 BKN080 BKN250 21/17 A2998 RMK AO2 SLP153 T02110172 10217 20211 55002 $=
04/08/2023 10:51->METAR KJFK 041051Z 22011KT 10SM FEW029 SCT036 BKN095 BKN250 21/17 A2998 RMK AO2 SLP153 T02110172 $=
04/08/2023 09:51->METAR KJFK 040951Z 22012KT 10SM BKN036 BKN095 BKN250 22/17 A2998 RMK AO2 SLP152 T02170172 $=
04/08/2023 08:51->METAR KJFK 040851Z 22011KT 10SM BKN037 BKN090 BKN250 22/17 A2999 RMK AO2 SLP155 T02170172 58004 $=
04/08/2023 07:51->METAR KJFK 040751Z 23014KT 10SM BKN042 BKN095 BKN250 22/17 A3000 RMK AO2 SLP157 T02170172 $=
04/08/2023 06:51->METAR KJFK 040651Z 22010KT 10SM BKN055 BKN100 BKN250 21/17 A3000 RMK AO2 SLP158 T02110172 $=
04/08/2023 05:51->METAR KJFK 040551Z 21011KT 10SM BKN036 BKN090 BKN250 22/16 A3000 RMK AO2 RAB14E26 SLP159 P0000 60000 T02170161 10222 20211 58012 $=
04/08/2023 04:51->METAR KJFK 040451Z 20012KT 10SM BKN037 BKN120 BKN250 22/17 A3002 RMK AO2 SLP165 T02220172 402560172 $=
04/08/2023 03:51->METAR KJFK 040351Z 19012KT 10SM BKN042 BKN110 BKN250 22/17 A3003 RMK AO2 SLP169 T02220172 $=
04/08/2023 02:51->METAR KJFK 040251Z 19011KT 10SM BKN039 BKN049 BKN120 BKN250 22/17 A3004 RMK AO2 SLP171 T02220172 58000 $=
04/08/2023 01:51->METAR KJFK 040151Z 19013KT 10SM SCT043 BKN055 BKN110 OVC250 22/17 A3005 RMK AO2 SLP176 T02220167 $=
04/08/2023 00:51->METAR KJFK 040051Z 19013KT 10SM BKN049 BKN065 BKN085 BKN250 22/16 A3005 RMK AO2 SLP175 T02220161 $=
03/08/2023 23:51->METAR KJFK 032351Z 19017KT 10SM SCT060 BKN085 BKN250 BKN300 22/16 A3004 RMK AO2 SLP171 FU BKN300 T02220156 10256 20222 56010 $=
03/08/2023 22:51->METAR KJFK 032251Z 18017KT 10SM SCT055 SCT100 BKN250 BKN300 23/15 A3004 RMK AO2 SLP173 FU BKN300 T02280150 $=
03/08/2023 21:51->METAR KJFK 032151Z 18016G24KT 10SM SCT055 BKN100 BKN250 BKN300 23/15 A3006 RMK AO2 SLP178 FU BKN300 T02280150 $=
03/08/2023 20:51->METAR KJFK 032051Z 18017G22KT 10SM SCT055 BKN070 BKN250 BKN300 23/15 A3007 RMK AO2 SLP182 FU BKN300 T02330150 58012 $=
03/08/2023 19:51->METAR KJFK 031951Z 17018KT 10SM FEW045 SCT065 BKN250 BKN300 24/14 A3008 RMK AO2 SLP186 FU BKN300 T02390144 $=
03/08/2023 18:51->METAR KJFK 031851Z 17018KT 10SM FEW045 SCT250 BKN300 25/15 A3009 RMK AO2 SLP190 FU BKN300 T02500150 $=
03/08/2023 17:51->METAR KJFK 031751Z 18018KT 10SM FEW045 FEW070 SCT250 BKN300 24/15 A3010 RMK AO2 SLP194 FU BKN300 T02440150 10250 20211 56013 $=
03/08/2023 16:51->METAR KJFK 031651Z 19015KT 10SM FEW045 FEW065 SCT250 OVC300 24/16 A3011 RMK AO2 SLP196 FU OVC300 T02440156 $=
03/08/2023 15:51->METAR KJFK 031551Z 19014KT 10SM FEW044 FEW100 SCT250 OVC300 24/16 A3013 RMK AO2 SLP201 FU OVC300 T02440156 $=
03/08/2023 14:51->METAR KJFK 031451Z 18011KT 10SM FEW038 FEW100 SCT220 BKN300 24/16 A3014 RMK AO2 SLP207 FU BKN300 T02440156 58008 $=
03/08/2023 13:51->METAR KJFK 031351Z 19011KT 10SM FEW100 SCT200 BKN250 23/15 A3016 RMK AO2 SLP212 T02330150 $=
03/08/2023 12:51->METAR KJFK 031251Z 19010KT 10SM FEW100 FEW200 BKN250 23/14 A3016 RMK AO2 SLP212 T02280139 $=
03/08/2023 11:51->METAR KJFK 031151Z 22008KT 10SM FEW085 SCT170 BKN250 21/14 A3017 RMK AO2 SLP215 T02110144 10211 20172 53005 $=
03/08/2023 10:51->METAR KJFK 031051Z 23007KT 10SM FEW085 BKN250 19/14 A3016 RMK AO2 SLP212 T01940144 $=
03/08/2023 09:51->METAR KJFK 030951Z 25007KT 10SM FEW085 SCT250 18/14 A3016 RMK AO2 SLP211 T01780139 $=
03/08/2023 08:51->METAR KJFK 030851Z 23007KT 10SM SCT250 17/14 A3015 RMK AO2 SLP210 T01720139 56010 $=
03/08/2023 07:51->METAR KJFK 030751Z 22006KT 10SM SCT250 18/13 A3016 RMK AO2 SLP211 T01830133 $=
03/08/2023 06:51->METAR KJFK 030651Z 22005KT 10SM SCT250 18/14 A3017 RMK AO2 SLP214 T01830139 $=
03/08/2023 05:51->METAR KJFK 030551Z 23007KT 10SM SCT250 19/13 A3018 RMK AO2 SLP220 T01890133 10217 20189 58005 $=
03/08/2023 04:51->METAR KJFK 030451Z 23008KT 10SM FEW250 19/14 A3020 RMK AO2 SLP225 T01940139 402560167 $=
03/08/2023 03:51->METAR KJFK 030351Z 22008KT 10SM FEW075 FEW250 21/14 A3020 RMK AO2 SLP227 T02060139 $=
03/08/2023 02:51->METAR KJFK 030251Z 20010KT 10SM SCT250 21/13 A3020 RMK AO2 SLP225 T02060133 53002 $=
03/08/2023 01:51->METAR KJFK 030151Z 20009KT 10SM FEW070 SCT250 21/13 A3020 RMK AO2 SLP225 T02060128 $=
03/08/2023 00:51->METAR KJFK 030051Z 18009KT 10SM FEW070 SCT250 21/13 A3018 RMK AO2 SLP221 T02110128 $=
02/08/2023 23:51->METAR KJFK 022351Z 19010KT 10SM FEW070 SCT250 21/13 A3019 RMK AO2 SLP222 T02110128 10250 20211 53001 $=
02/08/2023 22:51->METAR KJFK 022251Z 18009KT 10SM FEW070 SCT250 22/12 A3018 RMK AO2 SLP219 T02220122 $=
02/08/2023 21:51->METAR KJFK 022151Z 15009KT 10SM FEW070 SCT250 23/13 A3017 RMK AO2 SLP217 T02330133 $=
02/08/2023 20:51->METAR KJFK 022051Z 17007KT 10SM SCT070 SCT250 24/12 A3019 RMK AO2 SLP222 T02440122 58012 $=
02/08/2023 19:51->METAR KJFK 021951Z 18009KT 10SM SCT070 SCT250 24/13 A3020 RMK AO2 SLP225 T02390128 $=
02/08/2023 18:51->METAR KJFK 021851Z 20011KT 10SM SCT070 SCT250 25/13 A3021 RMK AO2 SLP230 T02500128 $=
02/08/2023 17:51->METAR KJFK 021751Z 18008KT 10SM SCT065 SCT140 BKN250 23/13 A3022 RMK AO2 SLP233 T02330128 10256 20206 58001 $=
02/08/2023 16:51->METAR KJFK 021651Z VRB06KT 10SM SCT060 SCT250 25/09 A3022 RMK AO2 SLP232 T02500089 $=
02/08/2023 15:51->METAR KJFK 021551Z 02009G14KT 10SM FEW055 SCT250 24/09 A3023 RMK AO2 SLP236 T02440089 $=
02/08/2023 14:51->METAR KJFK 021451Z 03007KT 10SM FEW050 SCT250 24/09 A3022 RMK AO2 SLP234 T02440094 58005 $=
02/08/2023 13:51->METAR KJFK 021351Z 01008KT 10SM FEW047 SCT250 24/09 A3023 RMK AO2 SLP237 T02390094 $=
02/08/2023 12:51->METAR KJFK 021251Z 03006KT 10SM FEW040 FEW250 22/11 A3024 RMK AO2 SLP239 T02220111 $=
02/08/2023 11:51->METAR KJFK 021151Z 03006KT 10SM FEW035 FEW250 21/12 A3024 RMK AO2 SLP239 T02060122 10206 20167 53017 $=
02/08/2023 10:51->METAR KJFK 021051Z 02004KT 10SM FEW033 FEW250 18/12 A3022 RMK AO2 SLP233 T01780122 $=
02/08/2023 09:51->METAR KJFK 020951Z 01004KT 10SM FEW250 17/12 A3020 RMK AO2 SLP228 T01670117 $=
02/08/2023 08:51->METAR KJFK 020851Z 01005KT 10SM FEW250 17/12 A3019 RMK AO2 SLP222 T01670122 53002 $=
02/08/2023 07:51->METAR KJFK 020751Z 01006KT 10SM FEW250 18/12 A3018 RMK AO2 SLP220 T01780117 $=
02/08/2023 06:51->METAR KJFK 020651Z 01005KT 10SM FEW250 18/12 A3018 RMK AO2 SLP219 T01830117 $=
02/08/2023 05:51->METAR KJFK 020551Z 01004KT 10SM FEW250 19/11 A3018 RMK AO2 SLP220 T01890106 10228 20189 58000 $=
02/08/2023 04:51->METAR KJFK 020451Z 02006KT 10SM FEW110 FEW250 19/11 A3018 RMK AO2 SLP221 T01940106 402720189 $=
02/08/2023 03:51->METAR KJFK 020351Z 02004KT 10SM SCT080 SCT250 21/11 A3019 RMK AO2 SLP222 T02060111 $=
02/08/2023 02:51->METAR KJFK 020251Z 07004KT 10SM SCT085 SCT250 21/12 A3018 RMK AO2 SLP220 T02110117 51017 $=
02/08/2023 01:51->METAR KJFK 020151Z 22004KT 10SM SCT080 SCT250 22/14 A3018 RMK AO2 SLP218 T02170144 $=
02/08/2023 00:51->METAR KJFK 020051Z 24005KT 10SM BKN070 BKN090 BKN250 22/14 A3016 RMK AO2 SLP212 T02170139 $=
01/08/2023 23:51->METAR KJFK 012351Z 17004KT 10SM SCT065 BKN085 BKN250 23/13 A3013 RMK AO2 SLP203 T02280133 10272 20222 53006 $=
01/08/2023 22:51->METAR KJFK 012251Z 14006KT 10SM SCT070 BKN090 BKN250 23/13 A3011 RMK AO2 SLP195 T02280133 $=
01/08/2023 21:51->METAR KJFK 012151Z 19008KT 10SM SCT075 BKN100 BKN250 24/14 A3010 RMK AO2 SLP193 T02390139 $=
01/08/2023 20:51->METAR KJFK 012051Z 19010KT 10SM FEW070 BKN095 BKN250 23/13 A3012 RMK AO2 SLP198 T02330133 55001 $=
01/08/2023 19:51->METAR KJFK 011951Z 21011KT 10SM FEW065 BKN080 BKN250 25/13 A3011 RMK SLP196 T02500128=
01/08/2023 18:51->METAR KJFK 011851Z 01007KT 330V040 10SM SCT065 SCT080 BKN250 25/09 A3012 RMK SLP199 T02500089=
01/08/2023 17:51->METAR KJFK 011751Z 30005KT 10SM SCT065 SCT250 27/09 A3012 RMK SLP199 T02670094 10267 20211 58006=
01/08/2023 16:51->METAR KJFK 011651Z 34010KT 10SM SCT065 SCT250 26/09 A3013 RMK SLP201 T02610094=
01/08/2023 15:51->METAR KJFK 011551Z 03010KT 10SM FEW065 SCT250 26/09 A3014 RMK SLP205 T02560094=
01/08/2023 14:51->METAR KJFK 011451Z 03010G18KT 10SM FEW065 FEW250 24/09 A3014 RMK SLP205 T02440094 51007=
01/08/2023 13:51->METAR KJFK 011351Z 02011KT 10SM FEW110 FEW250 24/12 A3013 RMK SLP202 T02390117=
01/08/2023 12:51->METAR KJFK 011251Z 04011KT 10SM FEW110 FEW250 23/13 A3013 RMK SLP202 T02280128=
01/08/2023 11:51->METAR KJFK 011151Z 36012KT 10SM SCT110 SCT250 21/13 A3012 RMK SLP198 T02110133 10222 20194 53017=
01/08/2023 10:51->METAR KJFK 011051Z 36012KT 10SM FEW075 BKN110 BKN250 19/13 A3010 RMK SLP192 T01940133=
01/08/2023 09:51->METAR KJFK 010951Z 36010KT 10SM BKN090 BKN120 BKN250 20/13 A3008 RMK SLP186 T02000133=
01/08/2023 08:51->METAR KJFK 010851Z 36007KT 10SM BKN090 BKN250 21/14 A3007 RMK SLP181 T02060144 53005=
01/08/2023 07:51->METAR KJFK 010751Z 34007KT 10SM FEW080 FEW120 BKN250 20/14 A3005 RMK SLP176 T02000139=
01/08/2023 06:51->METAR KJFK 010651Z 01008KT 10SM BKN090 BKN110 BKN250 21/14 A3005 RMK SLP175 T02060139=
01/08/2023 05:51->METAR KJFK 010551Z 35008KT 10SM BKN110 BKN250 22/13 A3005 RMK SLP176 T02220128 10228 20211 51004=
01/08/2023 04:51->METAR KJFK 010451Z 36008KT 10SM FEW110 SCT250 22/12 A3005 RMK SLP175 T02170122 402830178=
01/08/2023 03:51->METAR KJFK 010351Z 02005KT 10SM FEW080 FEW120 FEW250 22/14 A3005 RMK SLP174 T02170139=
01/08/2023 02:51->METAR KJFK 010251Z 08003KT 10SM FEW090 FEW110 FEW250 22/18 A3004 RMK SLP172 T02170183 51020=
01/08/2023 01:51->METAR KJFK 010151Z 06005KT 10SM FEW070 FEW110 FEW250 22/18 A3003 RMK SLP167 T02220183=
01/08/2023 00:51->METAR KJFK 010051Z 20012KT 10SM FEW070 FEW110 SCT250 23/18 A3000 RMK SLP159 T02280183=
31/07/2023 23:51->METAR KJFK 312351Z 20011KT 10SM FEW075 FEW110 SCT250 23/18 A2998 RMK SLP152 T02330178 10272 20233 51008=
31/07/2023 22:51->METAR KJFK 312251Z 20015KT 10SM FEW075 SCT110 SCT250 23/17 A2997 RMK SLP150 T02330167=
31/07/2023 21:51->METAR KJFK 312151Z 21017KT 10SM SCT075 BKN110 24/14 A2997 RMK SLP147 T02440144=
31/07/2023 20:51->METAR KJFK 312051Z 21016KT 10SM SCT075 SCT090 26/15 A2996 RMK SLP144 T02610150 55002=
31/07/2023 19:51->METAR KJFK 311951Z 20015KT 10SM SCT075 SCT090 26/14 A2995 RMK SLP141 T02610139=
31/07/2023 18:51->METAR KJFK 311851Z 19015KT 10SM SCT075 SCT090 27/15 A2995 RMK SLP142 T02670150=
31/07/2023 17:51->METAR KJFK 311751Z 20013KT 10SM SCT075 26/13 A2996 RMK WSHFT 1643 SLP146 T02560122 10283 20228 58008=
31/07/2023 16:51->METAR KJFK 311651Z 20013 KT 10SM SCT070 SCT095 27/12 A2997 RMK SLP150 T02670122=
31/07/2023 15:51->METAR KJFK 311551Z 32010KT 10SM FEW075 FEW220 28/10 A2998 RMK SLP153 T02780100=
31/07/2023 14:51->METAR KJFK 311451Z 35008KT 10SM FEW075 27/09 A2999 RMK SLP155 T02670094 51003=
31/07/2023 13:51->METAR KJFK 311351Z 32009G15KT 10SM FEW075 SCT220 26/09 A2999 RMK SLP155 T02610094=
31/07/2023 12:51->METAR KJFK 311251Z 32007KT 10SM SCT075 SCT220 24/11 A2999 RMK SLP157 T02390111=
31/07/2023 11:51->METAR KJFK 311151Z 34008KT 10SM FEW070 SCT220 23/12 A2998 RMK SLP152 T02280122 10228 20178 53013=
31/07/2023 10:51->METAR KJFK 311051Z 34006KT 10SM FEW070 FEW220 20/13 A2996 RMK SLP145 T02000128=
31/07/2023 09:51->METAR KJFK 310951Z 33005KT 10SM SCT220 19/12 A2994 RMK SLP139 T01890122=
31/07/2023 08:51->METAR KJFK 310851Z 00000KT 10SM SCT250 19/13 A2994 RMK SLP139 T01940128 55002=
31/07/2023 07:51->METAR KJFK 310751Z 00000KT 10SM FEW080 SCT220 21/13 A2994 RMK SLP138 T02060128=
31/07/2023 06:51->METAR KJFK 310651Z 00000KT 10SM FEW075 SCT250 18/13 A2994 RMK SLP138 T018330133=
31/07/2023 05:51->METAR KJFK 310551Z 33004KT 10SM FEW250 21/11 A2995 RMK SLP140 T02060111 10244 20194 58003=
31/07/2023 04:51->METAR KJFK 310451Z 36005KT 10SM FEW250 21/11 A2996 RMK SLP144 T02060111 402720189=
31/07/2023 03:51->METAR KJFK 310351Z 01004KT 10SM FEW250 22/11 A2995 RMK SLP142 T02170111=
31/07/2023 02:51->METAR KJFK 310251Z 35005KT 10SM FEW075 FEW250 23/10 A2995 RMK SLP143 T02280100 5007=
31/07/2023 01:51->METAR KJFK 310151Z 34006KT 10SM FEW070 FEW250 23/10 A2995 RMK SLP143 T02280100=
31/07/2023 00:51->METAR KJFK 310051Z 34007KT 10SM FEW070 SCT250 24/11 A2994 RMK SLP139 T02390106=
30/07/2023 23:51->METAR KJFK 302351Z 35011KT 10SM SCT070 SCT250 24/11 A2993 RMK SLP136 T02440106 10272 20244 53009=
30/07/2023 22:51->METAR KJFK 302251Z 33010KT 10SM BKN065 BKN250 26/11 A2992 RMK SLP132 T02560111=
30/07/2023 21:51->METAR KJFK 302151Z 34014G18KT 10SM FEW060 BKN070 BKN250 26/11 A2991 RMK SLP128 T02560111=
30/07/2023 20:51->METAR KJFK 302051Z 34012KT 10SM FEW060 BKN070 BKN250 26/12 A2991 RMK SLP127 T02610122 56011=
30/07/2023 19:51->METAR KJFK 301951Z 33011G27KT 10SM FEW060 BKN070 BKN250 27/13 A2991 RMK PK WND 35027/1947 SLP129 T02720133=
30/07/2023 18:51->METAR KJFK 301851Z 31009G17KT 10SM BKN050 BKN250 24/13 A2993 RMK SLP134 T02440128=
30/07/2023 17:51->METAR KJFK 301751Z 31014G19KT 10SM BKN050 BKN200 BKN250 26/13 A2994 RMK SLP138 T02560133 10256 20194 56010=
30/07/2023 16:51->METAR KJFK 301651Z 35009KT 10SM SCT050 SCT250 24/13 A2994 RMK SLP139 T02440128=
30/07/2023 15:51->METAR KJFK 301551Z 35011G20KT 10SM SCT049 SCT250 23/12 A2996 RMK SLP145 T02330117=
30/07/2023 14:51->METAR KJFK 301451Z 35012G17KT 10SM SCT050 SCT250 23/12 A2997 RMK SLP148 T02280117 51010=
30/07/2023 13:51->METAR KJFK 301351Z 01011KT 10SM FEW030 FEW045 FEW250 22/12 A2996 RMK SLP145 T02220117=
30/07/2023 12:51->METAR KJFK 301251Z 36011KT 10SM FEW030 SCT045 SCT200 SCT250 21/12 A2995 RMK SLP142 T02110117=
30/07/2023 11:51->METAR KJFK 301151Z 36011G18KT 10SM FEW026 BKN041 BKN250 19/13 A2994 RMK SLP138 70064 T01940128 10211 20189 53029=
30/07/2023 10:51->METAR KJFK 301051Z 36012KT 10SM BKN024 BKN080 BKN250 19/16 A2991 RMK SLP127 T01940156=
30/07/2023 09:51->METAR KJFK 300951Z 35014KT 10SM FEW030 SCT075 SCT250 19/15 A2988 RMK SLP116 T01940150=
30/07/2023 08:51->METAR KJFK 300851Z 34016KT 10SM FEW015 FEW055 FEW080 SCT250 20/16 A2985 RMK SLP109 T02000156 51010=
30/07/2023 07:51->METAR KJFK 300751Z 34012KT 10SM FEW055 FEW080 SCT250 20/16 A2985 RMK SLP106 T02000156=
30/07/2023 06:51->METAR KJFK 300651Z 34015KT 10SM FEW055 BKN250 21/15 A2984 RMK SLP105 T02060150=
30/07/2023 05:51->METAR KJFK 300551Z 35018KT 10SM FEW055 SCT250 21/15 A2982 RMK SLP099 60064 T02110150 10294 20211 51022=
30/07/2023 04:51->METAR KJFK 300451Z 34013G21KT 10SM FEW044 SCT250 21/16 A2981 RMK PK WND 32026/0357 SLP094 T02110156 403220211=
30/07/2023 03:51->METAR KJFK 300351Z 33021G26KT 10SM FEW060 SCT250 23/18 A2979 RMK PK WND 33026/0331 SLP086 T02280178=
30/07/2023 02:51->METAR KJFK 300251Z 35011G21KT 10SM SCT041 BKN055 BKN250 24/18 A2976 RMK SLP077 60064 T02440183 51029=
30/07/2023 01:51->METAR KJFK 300151Z 35015KT 10SM FEW030 SCT050 BKN170 BKN250 26/21 A2975 RMK SLP072 T02610211=
30/07/2023 00:51->METAR KJFK 300051Z 28009KT 10SM FEW025 SCT045 BKN160 BKN250 27/23 A2970 RMK PK WND 27038/2358 RAB2353E21 TSB2355E49 SLP056 OCNL LTGIC DSNT E CB DSNT E P0064 T02670233=
29/07/2023 23:51->METAR KJFK 292351Z 25014KT 10SM BKN055CB BKN080 BKN140 BKN250 30/23 A2967 RMK PRESRR SLP048 CB OHD MOV E T03000233 10322 20294 55006=
29/07/2023 22:51->METAR KJFK 292251Z 24015KT 10SM SCT050 SCT140 BKN250 31/23 A2965 RMK SLP041 T03060228=
29/07/2023 21:51->METAR KJFK 292151Z 25017KT 10SM FEW045 FEW180 SCT250 32/23 A2965 RMK SLP041 T03220228=
29/07/2023 20:51->METAR KJFK 292051Z 24016KT 10SM FEW045 FEW180 SCT250 32/22 A2969 RMK SLP054 T03220222 56019=
29/07/2023 19:51->METAR KJFK 291951Z 23014KT 10SM FEW040 SCT150 BKN250 32/23 A2971 RMK SLP059 T03220228=
29/07/2023 18:51->METAR KJFK 291851Z 24015KT 10SM FEW038 SCT150 BKN250 31/22 A2973 RMK SLP066 T03110222=
29/07/2023 17:51->METAR KJFK 291751Z 24014KT 10SM FEW038 SCT150 BKN250 30/23 A2975 RMK SLP073 60000 T03000228 10306 20250 58025=
29/07/2023 16:51->METAR KJFK 291651Z 23019KT 10SM FEW050 SCT150 BKN250 30/23 A2978 RMK SLP083 T03000228=
29/07/2023 15:51->METAR KJFK 291551Z 23014KT 10SM FEW050 SCT080 BKN150 BKN250 28/23 A2980 RMK SLP092 T02830233=
29/07/2023 14:51->METAR KJFK 291451Z 24010KT 10SM FEW048 SCT080 BKN150 BKN250 26/23 A2982 RMK SLP098 60000 T02610228 58015=
29/07/2023 13:51->METAR KJFK 291351Z 24010KT 10SM FEW048 SCT080 BKN160 BKN250 26/22 A2984 RMK RAB33E42 SLP105 P0000 T02610222=
29/07/2023 12:51->METAR KJFK 291251Z 21011KT 10SM FEW038 SCT080 BKN150 BKN250 25/22 A2986 RMK SLP110 T02500222=
29/07/2023 11:51->METAR KJFK 291151Z 24006KT 10SM FEW065 SCT080 BKN130 BKN250 26/22 A2987 RMK SLP113 T02560217 10261 20233 50002=
29/07/2023 10:51->METAR KJFK 291051Z 24012KT 10SM FEW090 SCT130 BKN250 24/22 A2988 RMK SLP116 T02440222=
29/07/2023 09:51->METAR KJFK 290951Z 23007KT 10SM FEW090 BKN150 BKN250 24/22 A2986 RMK SLP112 T02390217=
29/07/2023 08:51->METAR KJFK 290851Z 22004KT 10SM BKN250 24/21 A2986 RMK SLP111 T02390211 58014=
29/07/2023 07:51->METAR KJFK 290751Z 21012KT 10SM BKN250 24/21 A2989 RMK SLP122 T02440211=
29/07/2023 06:51->METAR KJFK 290651Z 23007KT 10SM FEW110 BKN250 25/22 A2989 RMK SLP121 T02500217=
29/07/2023 05:51->METAR KJFK 290551Z 25013KT 10SM BKN200 26/21 A2990 RMK SLP125 T02610211 10283 20256 58015=
29/07/2023 04:51->METAR KJFK 290451Z 27010KT 10SM BKN200 28/22 A2992 RMK TSB0357E18 SLP132 T02780217 403280244=
29/07/2023 03:51->METAR KJFK 290351Z 19005KT 10SM FEW045 BKN200 27/24 A2994 RMK SLP138 T02720239=
29/07/2023 02:51->METAR KJFK 290251Z 00000KT 10SM FEW060 BKN200 26/24 A2995 RMK SLP140 T02610239 50004=
29/07/2023 01:51->METAR KJFK 290151Z 14003KT 10SM FEW060 BKN250 26/24 A2995 RMK SLP142 T02560239=
29/07/2023 00:51->METAR KJFK 290051Z 14003KT 10SM SCT250 26/24 A2994 RMK SLP138 T02560239=
28/07/2023 23:51->METAR KJFK 282351Z 17009KT 10SM FEW050 FEW250 26/24 A2993 RMK SLP136 T02610239 10328 20261 56005=
28/07/2023 22:51->METAR KJFK 282251Z 18012KT 10SM FEW050 28/24 A2994 RMK SLP137 T02780239=
28/07/2023 21:51->METAR KJFK 282151Z 18013KT 10SM FEW050 29/23 A2994 RMK SLP138 T02940233=
28/07/2023 20:51->METAR KJFK 282051Z 18014KT 10SM FEW048 FEW250 30/23 A2995 RMK SLP141 T03000233 58012=
28/07/2023 19:51->METAR KJFK 281951Z 19013KT 10SM FEW048 SCT250 30/23 A2997 RMK SLP147 T03000233=
28/07/2023 18:51->METAR KJFK 281851Z 20012KT 10SM SCT048 31/22 A2998 RMK SLP151 T03110222=
28/07/2023 17:51->METAR KJFK 281751Z 21013KT 10SM SCT048 32/22 A2998 RMK SLP153 T03220222 10322 20278 58009=
28/07/2023 16:51->METAR KJFK 281651Z 20010KT 10SM SCT046 31/23 A3000 RMK SLP158 T03060228=
28/07/2023 15:51->METAR KJFK 281551Z 22012KT 10SM FEW043 SCT050 31/22 A3001 RMK SLP163 T03060222=
28/07/2023 14:51->METAR KJFK 281451Z 31005KT 10SM SCT050 31/22 A3001 RMK SLP161 T03110217 58002=
28/07/2023 13:51->METAR KJFK 281351Z 32006KT 10SM FEW031 SCT048 29/22 A3001 RMK SLP162 T02890222=
28/07/2023 12:51->METAR KJFK 281251Z VRB03KT 10SM FEW030 SCT045 29/23 A3001 RMK SLP163 T02890228=
28/07/2023 11:51->METAR KJFK 281151Z 30006KT 10SM FEW049 SCT250 28/22 A3001 RMK SLP163 60001 70006 T02720217 10278 20244 51018=
28/07/2023 10:51->METAR KJFK 281051Z 32003KT 10SM SCT049 SCT085 SCT250 27/24 A3000 RMK SLP159 T02670239=
28/07/2023 09:51->METAR KJFK 280951Z 00000KT 10SM SCT085 SCT250 24/22 A2998 RMK SLP152 T02440222=
28/07/2023 08:51->METAR KJFK 280851Z 00000KT 10SM FEW075 SCT250 26/22 A2996 RMK SLP146 60001 T02440228 53002=
28/07/2023 07:51->METAR KJFK 280751Z 31004KT 10SM FEW080 FEW140 SCT250 26/22 A2995 RMK SLP141 T02560217=
28/07/2023 06:51->METAR KJFK 280651Z 00000KT 10SM FEW070 SCT085 BKN250 26/24 A2994 RMK AO2 RAE07 SLP139 P0001 T02560239 $=
28/07/2023 05:51->METAR KJFK 280551Z 25008KT 9SM -RA FEW041 BKN070 OVC085 25/24 A2995 RMK AO2 RAB33 TSB08E46 SLP143 P0003 60005 T02500239 10306 20250 53000 $=
28/07/2023 04:51->METAR KJFK 280451Z 00000KT 10SM BKN060 BKN070 BKN250 26/24 A2995 RMK AO2 LTG DSNT SE AND W RAE07 SLP141 P0002 T02560244 403330228 $=
28/07/2023 03:51->METAR KJFK 280351Z 00000KT 6SM -RA BKN047 BKN095 BKN250 27/23 A2996 RMK AO2 RAB49 SLP144 P0000 T02720233 $=
28/07/2023 02:51->METAR KJFK 280251Z 03006KT 10SM FEW030 SCT055 BKN100 26/23 A2995 RMK AO2 LTG DSNT N-E TSE43 SLP143 FRQ LTGICCC DSNT NE CB DSNT NE T02610228 52011 $=
28/07/2023 01:51->METAR KJFK 280151Z 16007KT 10SM TS SCT055CB BKN075 BKN090 BKN250 29/24 A2992 RMK AO2 LTG DSNT W-N TSB47 SLP132 FRQ LTGIC W-NW TS W-NW MOV SE T02890239 $=
28/07/2023 00:51->METAR KJFK 280051Z 23010KT 10SM BKN055 BKN080 BKN250 30/24 A2992 RMK AO2 LTG DSNT N AND NE SLP132 TCU DSNT N-NE T03000239 $=
27/07/2023 23:51->METAR KJFK 272351Z 24014KT 10SM SCT050 SCT100 BKN250 30/24 A2990 RMK AO2 LTG DSNT N AND NW SLP125 CB DSNT NW TCU DSNT W-NW T03000239 10333 20294 53006 $=
27/07/2023 22:51->METAR KJFK 272251Z 24014KT 10SM FEW050 BKN250 32/23 A2989 RMK AO2 SLP120 T03170233 $=
27/07/2023 21:51->METAR KJFK 272151Z 25017KT 10SM FEW045 BKN250 33/23 A2988 RMK AO2 SLP118 CB DSNT NW T03330228 $=
27/07/2023 20:51->METAR KJFK 272051Z 23014KT 10SM FEW045 FEW170 BKN250 32/24 A2988 RMK AO2 SLP118 CB DSNT NW T03170239 56016 $=
27/07/2023 19:51->METAR KJFK 271951Z 19014KT 10SM SCT045 SCT170 BKN250 29/24 A2989 RMK AO2 SLP121 T02940239 $=
27/07/2023 18:51->METAR KJFK 271851Z 19012KT 10SM FEW028 FEW043 SCT170 SCT250 29/24 A2990 RMK AO2 SLP124 T02940244 $=
27/07/2023 17:51->METAR KJFK 271751Z 19014KT 10SM FEW043 SCT180 SCT250 29/24 A2993 RMK AO2 SLP134 T02940244 10300 20250 58012 $=
27/07/2023 16:51->METAR KJFK 271651Z 19013KT 10SM FEW040 FEW120 BKN180 BKN250 29/24 A2994 RMK AO2 SLP139 T02940244 $=
27/07/2023 15:51->METAR KJFK 271551Z 20013KT 10SM FEW038 SCT120 SCT160 BKN250 29/24 A2996 RMK AO2 SLP145 T02890244 $=
27/07/2023 14:51->METAR KJFK 271451Z 19017G21KT 10SM FEW110 FEW160 BKN250 28/24 A2996 RMK AO2 SLP146 T02830244 56013 $=
27/07/2023 13:51->METAR KJFK 271351Z 19013KT 10SM SCT110 BKN250 26/24 A2998 RMK AO2 SLP151 T02610239 $=
27/07/2023 12:51->METAR KJFK 271251Z 19011KT 10SM FEW010 SCT120 BKN250 26/24 A2998 RMK AO2 SLP153 T02610239 $=
27/07/2023 11:51->METAR KJFK 271151Z 19008KT 10SM SCT007 BKN250 25/24 A3000 RMK AO2 SLP159 T02500239 10250 20228 50002 $=
27/07/2023 10:51->METAR KJFK 271051Z 21011KT 9SM BKN008 BKN250 24/24 A3000 RMK AO2 SLP159 BKN008 V SCT T02390239 $=
27/07/2023 09:51->METAR KJFK 270951Z 20010KT 10SM FEW035 SCT140 BKN250 24/23 A3000 RMK AO2 SLP158 T02390233 $=
27/07/2023 08:51->METAR KJFK 270851Z 19008KT 10SM BKN250 23/22 A3000 RMK AO2 SLP157 T02330222 56016 $=
27/07/2023 07:51->METAR KJFK 270751Z 23008KT 10SM BKN250 23/22 A3001 RMK AO2 SLP162 T02280222 $=
27/07/2023 06:51->METAR KJFK 270651Z 21011KT 10SM BKN250 23/22 A3003 RMK AO2 SLP167 T02330222 $=
27/07/2023 05:51->METAR KJFK 270551Z 22009KT 10SM SCT250 23/22 A3004 RMK AO2 SLP173 T02330222 10250 20233 50000 $=
27/07/2023 04:51->METAR KJFK 270451Z 21011KT 10SM SCT250 23/22 A3006 RMK AO2 SLP177 T02330222 402890200 $=
27/07/2023 03:51->METAR KJFK 270351Z 20013KT 10SM SCT250 23/22 A3004 RMK AO2 SLP173 T02330222 $=
27/07/2023 02:51->METAR KJFK 270251Z 19016KT 10SM SCT250 24/22 A3004 RMK AO2 SLP172 T02390222 58007 $=
27/07/2023 01:51->METAR KJFK 270151Z 19013KT 10SM BKN250 24/22 A3006 RMK AO2 SLP179 T02440217 $=
27/07/2023 00:51->METAR KJFK 270051Z 18016KT 10SM FEW050 BKN250 25/19 A3007 RMK AO2 SLP181 T02500194 $=
26/07/2023 23:51->METAR KJFK 262351Z 19016KT 10SM FEW055 BKN250 25/21 A3006 RMK AO2 SLP180 T02500211 10289 20250 55002 $=
26/07/2023 22:51->METAR KJFK 262251Z 19015KT 10SM FEW055 SCT250 26/21 A3005 RMK AO2 SLP174 T02610206 $=
26/07/2023 21:51->METAR KJFK 262151Z 18014KT 10SM FEW055 SCT250 27/20 A3005 RMK AO2 SLP175 T02720200 $=
26/07/2023 20:51->METAR KJFK 262051Z 18016KT 10SM FEW055 SCT250 28/21 A3007 RMK AO2 SLP182 T02780211 58008 $=
26/07/2023 19:51->METAR KJFK 261951Z 19012KT 10SM FEW055 SCT250 28/20 A3008 RMK AO2 SLP185 T02830200 $=
26/07/2023 18:51->METAR KJFK 261851Z 20013KT 10SM FEW050 FEW250 28/21 A3009 RMK AO2 SLP188 T02780206 $=
26/07/2023 17:51->METAR KJFK 261751Z 19011KT 10SM FEW050 FEW250 29/19 A3009 RMK AO2 SLP190 T02890189 10289 20233 58010 $=
26/07/2023 16:51->METAR KJFK 261651Z 21011KT 10SM FEW050 FEW250 28/20 A3010 RMK AO2 SLP193 T02830200 $=
26/07/2023 15:51->METAR KJFK 261551Z 22006KT 10SM FEW047 FEW250 28/19 A3012 RMK AO2 SLP199 T02830194 $=
26/07/2023 14:51->METAR KJFK 261451Z 23006KT 10SM FEW250 27/19 A3012 RMK AO2 SLP200 T02720194 50003 $=
26/07/2023 13:51->METAR KJFK 261351Z 33004KT 10SM FEW250 27/19 A3012 RMK AO2 SLP201 T02670194 $=
26/07/2023 12:51->METAR KJFK 261251Z 26007KT 10SM SCT250 24/20 A3014 RMK AO2 SLP204 T02390200 $=
26/07/2023 11:51->METAR KJFK 261151Z 26004KT 10SM FEW250 23/19 A3012 RMK AO2 SLP198 70024 T02330194 10233 20200 53009 $=
26/07/2023 10:51->METAR KJFK 261051Z 28006KT 9SM FEW023 FEW160 SCT250 21/19 A3010 RMK AO2 SLP193 T02110189 $=
26/07/2023 09:51->METAR KJFK 260951Z 27004KT 10SM FEW020 SCT250 20/19 A3009 RMK AO2 SLP190 T02000189 $=
26/07/2023 08:51->METAR KJFK 260851Z 28005KT 10SM SCT250 21/19 A3009 RMK AO2 SLP189 T02060189 53003 $=
26/07/2023 07:51->METAR KJFK 260751Z 00000KT 10SM FEW013 SCT250 21/19 A3007 RMK AO2 SLP181 T02060189 $=
26/07/2023 06:51->METAR KJFK 260651Z 00000KT 7SM FEW025 BKN250 20/19 A3007 RMK AO2 SLP183 T02000194 $=
26/07/2023 05:51->METAR KJFK 260551Z 01005KT 8SM FEW015 FEW120 SCT250 21/20 A3008 RMK AO2 SLP186 T02060200 10217 20206 50002 $=
26/07/2023 04:51->METAR KJFK 260451Z 33004KT 10SM BKN013 BKN250 22/19 A3008 RMK AO2 SLP187 T02170194 402890206 $=
26/07/2023 03:51->METAR KJFK 260351Z 25006KT 10SM SCT015 SCT130 BKN250 21/19 A3008 RMK AO2 SLP184 T02110194 $=
26/07/2023 02:51->METAR KJFK 260251Z 00000KT 10SM FEW025 FEW120 BKN250 21/19 A3008 RMK AO2 SLP186 T02110194 51006 $=
26/07/2023 01:51->METAR KJFK 260151Z 24004KT 10SM FEW014 FEW100 BKN250 21/20 A3008 RMK AO2 SLP185 T02110200 $=
26/07/2023 00:51->METAR KJFK 260051Z 29005KT 10SM FEW014 FEW055 SCT100 BKN250 22/20 A3008 RMK AO2 SLP184 T02170200 $=
25/07/2023 23:51->METAR KJFK 252351Z 27006KT 10SM FEW025 FEW055 FEW150 BKN250 22/19 A3007 RMK AO2 RAB02E13 SLP181 P0000 60024 T02170189 10283 20206 56010 $=
25/07/2023 22:51->METAR KJFK 252251Z 00000KT 10SM FEW011 FEW025 SCT055 BKN150 BKN250 22/19 A3007 RMK AO2 RAE16 SLP182 P0001 T02170194 $=
25/07/2023 21:51->METAR KJFK 252151Z 00000KT 10SM -RA FEW013 SCT055 OVC120 21/20 A3008 RMK AO2 TSE22 SLP186 P0006 T02110200 $=
25/07/2023 20:51->METAR KJFK 252051Z 00000KT 5SM -TSRA BR FEW013 SCT040CB OVC060 21/20 A3010 RMK AO2 PK WND 23031/1953 WSHFT 1943 RAB01 SLP191 OCNL LTGICCG NE-SW TS NE-SW MOV NE P0017 60017 T02060200 50018 $=
25/07/2023 19:51->METAR KJFK 251951Z 23022G31KT 10SM TS SCT015 BKN050CB BKN100 BKN160 BKN250 25/22 A3007 RMK AO2 PK WND 24031/1951 TSB32 SLP182 FRQ LTGICCG SW-N TS SW-N MOV NE VCSH SW-N T02500217=
25/07/2023 18:51->METAR KJFK 251851Z 18016KT 10SM SCT050 BKN250 27/22 A3005 RMK AO2 SLP174 CB DSNT W-NW T02670217=
25/07/2023 17:51->METAR KJFK 251751Z 17014KT 10SM FEW050 FEW250 28/21 A3004 RMK AO2 SLP172 TCU DSNT NE T02780206 10289 20239 58019=
25/07/2023 16:51->METAR KJFK 251651Z 19011KT 10SM FEW048 FEW250 28/22 A3008 RMK AO2 SLP185 CB AND TCU DSNT NE T02780217=
25/07/2023 15:51->METAR KJFK 251551Z 19007KT 10SM FEW045 FEW250 28/21 A3010 RMK AO2 SLP192 TCU DSNT NE T02780211=
25/07/2023 14:51->METAR KJFK 251451Z 19008KT 10SM FEW042 FEW250 26/21 A3010 RMK AO2 SLP191 T02610206 51003=
25/07/2023 13:51->METAR KJFK 251351Z 21005KT 10SM FEW037 FEW120 SCT250 27/21 A3009 RMK AO2 SLP189 T02670206=
25/07/2023 12:51->METAR KJFK 251251Z VRB03KT 10SM SCT120 SCT250 26/20 A3009 RMK AO2 SLP190 T02560200=
25/07/2023 11:51->METAR KJFK 251151Z 22005KT 10SM FEW140 FEW250 24/21 A3009 RMK AO2 SLP188 T02390206 10239 20217 53006=
25/07/2023 10:51->METAR KJFK 251051Z 22005KT 10SM FEW140 FEW250 23/21 A3008 RMK AO2 SLP186 T02280206=
25/07/2023 09:51->METAR KJFK 250951Z 20005KT 10SM FEW250 22/20 A3007 RMK AO2 SLP181 T02170200=
25/07/2023 08:51->METAR KJFK 250851Z 22006KT 10SM SCT250 22/20 A3007 RMK AO2 SLP182 T02170200 58008=
25/07/2023 07:51->METAR KJFK 250751Z 23006KT 10SM FEW250 22/19 A3008 RMK AO2 SLP185 T02220194=
25/07/2023 06:51->METAR KJFK 250651Z 23008KT 10SM FEW250 23/19 A3009 RMK AO2 SLP188 T02330194=
25/07/2023 05:51->METAR KJFK 250551Z 23007KT 10SM SCT250 23/22 A3009 RMK AO2 SLP190 T02330217 10244 20233 55001=
25/07/2023 04:51->METAR KJFK 250451Z 21009KT 10SM FEW045 SCT250 24/21 A3009 RMK AO2 SLP189 T02390211 402830217=
25/07/2023 03:51->METAR KJFK 250351Z 20010KT 10SM FEW045 FEW140 FEW250 24/23 A3010 RMK AO2 SLP191 T02390228=
25/07/2023 02:51->METAR KJFK 250251Z 18010KT 10SM FEW050 FEW150 SCT250 24/23 A3010 RMK AO2 SLP191 T02390228 52005=
25/07/2023 01:51->METAR KJFK 250151Z 18012KT 10SM FEW040 FEW130 FEW250 24/22 A3009 RMK AO2 SLP188 T02440222=
25/07/2023 00:51->METAR KJFK 250051Z 16009KT 10SM FEW050 FEW100 FEW250 24/22 A3009 RMK AO2 SLP188 T02440217=
24/07/2023 23:51->METAR KJFK 242351Z 17010KT 10SM FEW025 FEW050 FEW100 SCT250 24/21 A3008 RMK AO2 SLP185 T02440211 10283 20244 58001=
24/07/2023 22:51->METAR KJFK 242251Z 15014KT 10SM FEW045 FEW100 FEW250 26/21 A3008 RMK AO2 SLP186 T02560206=
24/07/2023 21:51->METAR KJFK 242151Z 15014KT 10SM FEW045 FEW100 FEW250 27/20 A3008 RMK AO2 SLP187 T02670200=
24/07/2023 20:51->METAR KJFK 242051Z 17012KT 10SM FEW045 FEW100 FEW150 SCT250 27/20 A3008 RMK AO2 SLP187 T02720200 56015=
24/07/2023 19:51->METAR KJFK 241951Z 17013KT 10SM FEW025 FEW043 SCT150 SCT250 27/21 A3010 RMK AO2 SLP191 T02720211=
24/07/2023 18:51->METAR KJFK 241851Z 17012KT 10SM FEW025 FEW043 BKN150 BKN250 28/21 A3010 RMK AO2 SLP194 T02780206=
24/07/2023 17:51->METAR KJFK 241751Z 19013KT 10SM FEW043 BKN150 BKN250 28/21 A3013 RMK AO2 SLP201 T02780206 10278 20239 58001=
24/07/2023 16:51->METAR KJFK 241651Z 19008KT 10SM FEW043 SCT170 BKN250 27/21 A3013 RMK AO2 SLP203 T02670206=
24/07/2023 15:51->METAR KJFK 241551Z 19007KT 9SM FEW040 SCT170 BKN250 26/18 A3013 RMK AO2 SLP203 T02610183=
24/07/2023 14:51->METAR KJFK 241451Z 20006KT 10SM FEW130 BKN170 BKN250 26/19 A3013 RMK AO2 SLP203 T02560189 53007=
24/07/2023 13:51->METAR KJFK 241351Z 20004KT 10SM FEW140 BKN190 OVC250 24/18 A3012 RMK AO2 SLP199 T02440183=
24/07/2023 12:51->METAR KJFK 241251Z 18004KT 10SM FEW150 SCT210 OVC250 24/19 A3011 RMK AO2 SLP197 T02440194=
24/07/2023 11:51->METAR KJFK 241151Z 20006KT 10SM FEW150 FEW200 BKN250 24/19 A3011 RMK AO2 SLP195 T02390194 10239 20217 53007=
24/07/2023 10:51->METAR KJFK 241051Z 23005KT 10SM FEW200 BKN250 23/19 A3010 RMK AO2 SLP192 T02280189=
24/07/2023 09:51->METAR KJFK 240951Z 23007KT 10SM FEW200 SCT250 22/18 A3009 RMK AO2 SLP188 T02220178=
24/07/2023 08:51->METAR KJFK 240851Z 24006KT 10SM SCT250 22/18 A3009 RMK AO2 SLP188 T02170183 53006=
24/07/2023 07:51->METAR KJFK 240751Z 24006KT 10SM FEW250 22/18 A3007 RMK AO2 SLP184 T02170178=
24/07/2023 06:51->METAR KJFK 240651Z 22006KT 10SM FEW250 22/17 A3007 RMK AO2 SLP181 T02220167=
24/07/2023 05:51->METAR KJFK 240551Z 22009KT 10SM SCT250 23/16 A3007 RMK AO2 SLP182 T02330161 10250 20233 51005=
24/07/2023 04:51->METAR KJFK 240451Z 23009KT 10SM FEW070 SCT250 24/16 A3006 RMK AO2 SLP180 T02390161 403000200=
24/07/2023 03:51->METAR KJFK 240351Z 21010KT 10SM SCT075 24/18 A3006 RMK AO2 SLP179 T02440178=
24/07/2023 02:51->METAR KJFK 240251Z 20012KT 10SM SCT075 25/18 A3005 RMK AO2 SLP177 T02500178 51019=
24/07/2023 01:51->METAR KJFK 240151Z 19008KT 10SM SCT070 24/19 A3005 RMK AO2 SLP174 T02440194=
24/07/2023 00:51->METAR KJFK 240051Z 19010KT 10SM FEW070 SCT095 24/21 A3001 RMK AO2 SLP163 T02440211=
23/07/2023 23:51->METAR KJFK 232351Z 19013KT 10SM SCT070 SCT090 25/19 A3000 RMK AO2 SLP157 T02500194 10300 20250 53011=
23/07/2023 22:51->METAR KJFK 232251Z 19011KT 10SM SCT070 BKN090 26/18 A2998 RMK AO2 SLP152 T02560178=
23/07/2023 21:51->METAR KJFK 232151Z 20016KT 10SM SCT075 SCT095 27/19 A2997 RMK AO2 SLP150 T02670189=
23/07/2023 20:51->METAR KJFK 232051Z 18011KT 10SM SCT070 28/17 A2996 RMK AO2 SLP146 T02780172 55002=
23/07/2023 19:51->METAR KJFK 231951Z 18010KT 10SM FEW070 29/17 A2996 RMK AO2 SLP144 T02890172=
23/07/2023 18:51->METAR KJFK 231851Z 21010KT 10SM SCT070 29/17 A2996 RMK AO2 SLP147 T02940172=
23/07/2023 17:51->METAR KJFK 231751Z 21011KT 10SM SCT070 29/16 A2997 RMK AO2 SLP148 T02940161 10300 20244 58004=
23/07/2023 16:51->METAR KJFK 231651Z 22005KT 10SM SCT065 29/15 A2998 RMK AO2 SLP151 T02890150=
23/07/2023 15:51->METAR KJFK 231551Z VRB06KT 10SM FEW060 FEW180 29/15 A2998 RMK AO2 SLP151 T02940150=
23/07/2023 14:51->METAR KJFK 231451Z 36008KT 10SM FEW060 FEW200 FEW250 28/14 A2998 RMK AO2 SLP152 T02830139 51012=
23/07/2023 13:51->METAR KJFK 231351Z 01007KT 10SM FEW200 FEW250 27/14 A2998 RMK AO2 SLP152 T02720144=
23/07/2023 12:51->METAR KJFK 231251Z 02008KT 10SM FEW250 26/14 A2997 RMK AO2 SLP148 T02610144=
23/07/2023 11:51->METAR KJFK 231151Z 02008KT 10SM FEW250 24/15 A2995 RMK AO2 SLP141 T02440150 10244 20200 52016=
23/07/2023 10:51->METAR KJFK 231051Z 01005KT 10SM FEW250 22/17 A2993 RMK AO2 SLP136 T02170167=
23/07/2023 09:51->METAR KJFK 230951Z 36006KT 10SM CLR 20/17 A2991 RMK AO2 SLP129 T02000172=
23/07/2023 08:51->METAR KJFK 230851Z 36004KT 10SM FEW150 21/18 A2990 RMK AO2 SLP124 T02060178 53008=
23/07/2023 07:51->METAR KJFK 230751Z 01004KT 10SM CLR 21/17 A2988 RMK AO2 SLP117 T02060167=
23/07/2023 06:51->METAR KJFK 230651Z 05003KT 10SM CLR 21/16 A2987 RMK AO2 SLP116 T02110156=
23/07/2023 05:51->METAR KJFK 230551Z 02004KT 10SM FEW150 SCT250 22/16 A2988 RMK AO2 SLP116 T02170161 10272 20211 53010=
23/07/2023 04:51->METAR KJFK 230451Z 18003KT 10SM FEW150 SCT250 22/17 A2987 RMK AO2 SLP113 T02220167 403000211=
23/07/2023 03:51->METAR KJFK 230351Z 13003KT 10SM FEW150 SCT250 22/17 A2985 RMK AO2 SLP108 T02220167=
23/07/2023 02:51->METAR KJFK 230251Z 00000KT 10SM FEW150 SCT250 23/13 A2984 RMK AO2 SLP106 T02330133 51008=
23/07/2023 01:51->METAR KJFK 230151Z 00000KT 10SM SCT250 25/13 A2984 RMK AO2 SLP105 T02500133=
23/07/2023 00:51->METAR KJFK 230051Z 01005KT 10SM BKN250 26/13 A2983 RMK AO2 SLP100 T02610128=
22/07/2023 23:51->METAR KJFK 222351Z 04005KT 10SM BKN250 27/12 A2982 RMK AO2 SLP097 T02720122 10300 20272 53005=
22/07/2023 22:51->METAR KJFK 222251Z 33007KT 10SM BKN250 28/12 A2980 RMK AO2 SLP092 T02780117=
22/07/2023 21:51->METAR KJFK 222151Z 34010KT 10SM SCT075 BKN250 29/13 A2979 RMK AO2 SLP089 T02940128=
22/07/2023 20:51->METAR KJFK 222051Z 33012G16KT 10SM BKN065 BKN250 29/13 A2980 RMK AO2 SLP092 T02890133 53001=
22/07/2023 19:51->METAR KJFK 221951Z 35007KT 10SM BKN065 BKN250 28/14 A2980 RMK AO2 SLP090 T02780144=
22/07/2023 18:51->METAR KJFK 221851Z 10SM SCT060 BKN250 28/14 A2980 RMK AO2 SLP091 T02830144=
22/07/2023 17:51->METAR KJFK 221751Z VRB05KT 10SM SCT050 BKN250 27/16 A2980 RMK AO2 SLP091 T02670156 10278 20222 58004=
22/07/2023 16:51->METAR KJFK 221651Z 34008KT 10SM SCT047 BKN250 27/16 A2981 RMK AO2 SLP093 T02670156=
22/07/2023 15:51->METAR KJFK 221551Z 35009KT 10SM SCT045 SCT250 27/16 A2981 RMK AO2 SLP095 T02670161=
22/07/2023 14:51->METAR KJFK 221451Z 02011KT 10SM FEW044 SCT250 26/16 A2981 RMK AO2 SLP095 T02610161 51005=
22/07/2023 13:51->METAR KJFK 221351Z 01010KT 10SM FEW042 SCT250 25/16 A2981 RMK AO2 SLP094 T02500156=
22/07/2023 12:51->METAR KJFK 221251Z 33011KT 10SM FEW037 SCT250 24/16 A2980 RMK AO2 SLP092 T02390161=
22/07/2023 11:51->METAR KJFK 221151Z 34011KT 10SM BKN250 22/16 A2980 RMK AO2 SLP090 70001 T02220156 10233 20211 53014=
22/07/2023 10:51->METAR KJFK 221051Z 34012KT 10SM SCT250 22/16 A2978 RMK AO2 SLP084 T02170156=
22/07/2023 09:51->METAR KJFK 220951Z 34008KT 10SM FEW150 SCT250 21/16 A2977 RMK AO2 SLP080 T02110156=
22/07/2023 08:51->METAR KJFK 220851Z 34010KT 10SM FEW150 22/16 A2976 RMK AO2 SLP076 T02170161 55001=
22/07/2023 07:51->METAR KJFK 220751Z 34012KT 10SM FEW150 22/16 A2975 RMK AO2 SLP074 T02220156=
22/07/2023 06:51->METAR KJFK 220651Z 34009KT 10SM FEW150 23/16 A2975 RMK AO2 SLP075 T02280156=
22/07/2023 05:51->METAR KJFK 220551Z 33010KT 10SM FEW150 23/16 A2976 RMK AO2 SLP077 T02330161 10272 20233 53004=
22/07/2023 04:51->METAR KJFK 220451Z 33011KT 10SM FEW150 24/16 A2975 RMK AO2 SLP074 T02390161 402830228=
22/07/2023 03:51->METAR KJFK 220351Z 33013KT 10SM CLR 25/16 A2974 RMK AO2 SLP072 T02500156=
22/07/2023 02:51->METAR KJFK 220251Z 35010KT 10SM FEW040 26/18 A2975 RMK AO2 SLP073 T02610178 51010=
22/07/2023 01:51->METAR KJFK 220151Z 30009KT 10SM FEW050 FEW080 FEW250 26/18 A2974 RMK AO2 SLP070 T02610178=
22/07/2023 00:51->METAR KJFK 220051Z 27013KT 10SM FEW055 FEW080 FEW250 27/18 A2973 RMK AO2 SLP068 T02670178=
21/07/2023 23:51->METAR KJFK 212351Z 24013KT 10SM FEW055 FEW080 FEW250 27/20 A2972 RMK AO2 SLP063 T02670200 10283 20261 55002=
21/07/2023 22:51->METAR KJFK 212251Z 20011KT 10SM FEW055 FEW100 FEW250 27/22 A2971 RMK AO2 SLP061 T02670222=
21/07/2023 21:51->METAR KJFK 212151Z 20013KT 10SM SCT055 SCT100 SCT250 27/23 A2972 RMK AO2 SLP063 T02720228=
21/07/2023 20:51->METAR KJFK 212051Z 19012KT 10SM SCT045TCU SCT110 SCT250 28/22 A2972 RMK AO2 SLP064 TCU OHD T02780222 56010=
21/07/2023 19:51->METAR KJFK 211951Z 18013KT 10SM SCT045 SCT110 SCT250 28/22 A2973 RMK AO2 SLP067 T02830222=
21/07/2023 18:51->METAR KJFK 211851Z 19008KT 10SM FEW023 SCT042 SCT110 28/22 A2973 RMK AO2 LTG DSNT E SLP068 CB DSNT NE-E T02780222=
21/07/2023 17:51->METAR KJFK 211751Z 21009KT 10SM FEW023 SCT042 BKN110 27/23 A2975 RMK AO2 SLP074 CB DSNT E-SE MOV NE 60001 T02720228 10278 20233 58004=
21/07/2023 16:51->METAR KJFK 211651Z 21007KT 10SM FEW020 FEW037CB BKN100 BKN140 27/22 A2977 RMK AO2 SLP080 CB SE-S MOV NE T02670222=
21/07/2023 15:51->METAR KJFK 211551Z 23009KT 10SM FEW019 FEW035 BKN110 BKN170 26/22 A2978 RMK AO2 SLP083 T02610222=
21/07/2023 14:51->METAR KJFK 211451Z 19005KT 10SM FEW015 FEW035 SCT120 SCT170 26/23 A2976 RMK AO2 SLP078 60001 T02560228 56010=
21/07/2023 13:51->METAR KJFK 211351Z 24005KT 10SM FEW012 FEW032 BKN110 BKN230 24/22 A2977 RMK AO2 RAE21 SLP079 P0001 T02440222=
21/07/2023 12:51->METAR KJFK 211251Z 20010KT 10SM -RA FEW016 FEW027 BKN110 OVC200 24/22 A2979 RMK AO2 RAB45 SLP086 P0000 T02390217=
21/07/2023 11:51->METAR KJFK 211151Z 18012KT 10SM FEW012 SCT022 BKN100 OVC200 24/23 A2979 RMK AO2 RAE37 SLP089 SCT V BKN P0000 60003 70003 T02390228 10239 20228 56011 $=
21/07/2023 10:51->METAR KJFK 211051Z 16010KT 9SM -RA FEW012 SCT039 BKN070 OVC200 23/23 A2979 RMK AO2 LTG DSNT N-E TSB0958E42 SLP089 CB DSNT NE-SE MOV E P0003 T02330228 $=
21/07/2023 09:51->METAR KJFK 210951Z 20008KT 10SM +RA BKN037CB BKN080 OVC090 23/22 A2982 RMK AO2 VIS 2 1/2 W LTG DSNT W-N RAB49 SLP097 CB OHD-W-NW MOV E P0000 T02330222 $=
21/07/2023 08:51->METAR KJFK 210851Z 18005KT 10SM SCT017 BKN043 BKN250 23/22 A2983 RMK AO2 SLP100 T02330222 56010 $=
21/07/2023 07:51->METAR KJFK 210751Z 18006KT 10SM SCT018 SCT250 23/22 A2983 RMK AO2 SLP100 T02280222 $=
21/07/2023 06:51->METAR KJFK 210651Z 19007KT 10SM BKN016 BKN220 23/22 A2984 RMK AO2 SLP104 T02330222 $=
21/07/2023 05:51->METAR KJFK 210551Z 18006KT 10SM SCT027 SCT250 23/22 A2986 RMK AO2 SLP110 T02280217 10244 20228 56015 $=
21/07/2023 04:51->METAR KJFK 210451Z 16005KT 9SM SCT021 SCT250 23/22 A2987 RMK AO2 SLP114 T02280217 402890211=
21/07/2023 03:51->METAR KJFK 210351Z 18005KT 7SM FEW012 SCT250 23/22 A2989 RMK AO2 SLP120 T02280222=
21/07/2023 02:51->METAR KJFK 210251Z 20007KT 8SM FEW190 SCT250 23/22 A2990 RMK AO2 SLP125 T02330222 58006=
21/07/2023 01:51->METAR KJFK 210151Z 19006KT 9SM FEW250 23/22 A2991 RMK AO2 SLP127 T02330217=
21/07/2023 00:51->METAR KJFK 210051Z 18008KT 9SM FEW095 SCT250 24/22 A2992 RMK AO2 SLP130 T02390217=
20/07/2023 23:51->METAR KJFK 202351Z 19009KT 10SM FEW095 BKN100 24/21 A2992 RMK AO2 SLP131 T02440211 10283 20244 55013=
20/07/2023 22:51->METAR KJFK 202251Z 16006KT 10SM FEW095 BKN250 26/18 A2992 RMK AO2 SLP131 T02560178=
20/07/2023 21:51->METAR KJFK 202151Z 15006KT 10SM FEW095 BKN250 27/17 A2993 RMK AO2 SLP134 T02670172=
20/07/2023 20:51->METAR KJFK 202051Z 16007KT 10SM FEW055 SCT095 BKN250 27/17 A2996 RMK AO2 SLP144 T02670172 58006=
20/07/2023 19:51->METAR KJFK 201951Z 18008KT 10SM FEW055 SCT100 BKN250 28/17 A2997 RMK AO2 SLP149 T02780172=
20/07/2023 18:51->METAR KJFK 201851Z 17009KT 10SM FEW055 SCT100 SCT230 28/19 A2997 RMK AO2 SLP149 T02780194=
20/07/2023 17:51->METAR KJFK 201751Z 15011KT 10SM SCT055 SCT100 BKN250 28/18 A2998 RMK AO2 SLP151 T02830178 10289 20239 58008=
20/07/2023 16:51->METAR KJFK 201651Z 19011KT 10SM FEW055 FEW100 BKN250 28/19 A2999 RMK AO2 SLP154 T02780194=
20/07/2023 15:51->METAR KJFK 201551Z 17010KT 10SM FEW050 SCT095 SCT250 27/21 A3000 RMK AO2 SLP159 T02670206=
20/07/2023 14:51->METAR KJFK 201451Z 08007KT 10SM FEW050 SCT100 SCT250 28/17 A3000 RMK AO2 SLP158 T02780172 58005=
20/07/2023 13:51->METAR KJFK 201351Z 03005KT 10SM SCT100 SCT250 27/17 A3001 RMK AO2 SLP161 T02670172=
20/07/2023 12:51->METAR KJFK 201251Z 05007KT 10SM SCT085 SCT250 26/18 A3001 RMK AO2 SLP163 T02560178=
20/07/2023 11:51->METAR KJFK 201151Z 02007KT 6SM HZ FEW015 SCT250 24/21 A3001 RMK AO2 SLP163 70012 T02390206 10239 20211 53008 $=
20/07/2023 10:51->METAR KJFK 201051Z 36004KT 2 1/2SM BR FEW012 SCT250 22/22 A3000 RMK AO2 SLP158 T02220217 $=
20/07/2023 09:51->METAR KJFK 200951Z 36005KT 3SM BR FEW012 SCT250 21/21 A2999 RMK AO2 SLP157 T02110211 $=
20/07/2023 08:51->METAR KJFK 200851Z 01004KT 5SM BR FEW021 SCT250 21/21 A2999 RMK AO2 SLP155 T02110206 58006 $=
20/07/2023 07:51->METAR KJFK 200751Z 00000KT 5SM BR FEW020 SCT250 22/21 A3000 RMK AO2 SLP157 T02220211 $=
20/07/2023 06:51->METAR KJFK 200651Z 33005KT 5SM BR FEW022 SCT250 22/21 A3001 RMK AO2 SLP161 T02170211 $=
20/07/2023 05:51->METAR KJFK 200551Z 00000KT 7SM FEW025 SCT250 22/21 A3001 RMK AO2 SLP161 T02170211 10233 20217 56007 $=
20/07/2023 04:51->METAR KJFK 200451Z 23004KT 8SM BKN250 22/21 A3002 RMK AO2 SLP164 T02170211 402560211 $=
20/07/2023 03:51->METAR KJFK 200351Z 19003KT 8SM FEW020 FEW050 SCT250 22/21 A3002 RMK AO2 SLP164 T02220211 $=
20/07/2023 02:51->METAR KJFK 200251Z 22003KT 8SM FEW055 SCT100 SCT250 23/21 A3003 RMK AO2 SLP168 T02280211 50005 $=
20/07/2023 01:51->METAR KJFK 200151Z 00000KT 9SM FEW050 FEW090 SCT250 23/21 A3003 RMK AO2 SLP170 T02280211 $=
20/07/2023 00:51->METAR KJFK 200051Z 17006KT 9SM FEW050 SCT090 23/21 A3002 RMK AO2 SLP164 T02330211 $=
19/07/2023 23:51->METAR KJFK 192351Z 18006KT 10SM FEW030 SCT070 SCT250 23/21 A3001 RMK AO2 SLP163 60000 T02330211 10256 20222 53003=
19/07/2023 22:51->METAR KJFK 192251Z 18007KT 10SM FEW030 FEW050 SCT250 24/21 A3000 RMK AO2 SLP158 T02440211 $=
19/07/2023 21:51->METAR KJFK 192151Z 19007KT 10SM SCT030 SCT230 24/21 A3000 RMK AO2 SLP158 T02440211 $=
19/07/2023 20:51->METAR KJFK 192051Z 22005KT 10SM SCT020 SCT039 SCT090 26/21 A3000 RMK AO2 SLP160 60000 T02560206 56014 $=
19/07/2023 19:51->METAR KJFK 191951Z 21007KT 10SM FEW014 SCT039 SCT090 BKN130 25/21 A3002 RMK AO2 SLP164 T02500211 $=
19/07/2023 18:51->METAR KJFK 191851Z 16004KT 9SM SCT011 BKN035 BKN046 BKN130 23/21 A3003 RMK AO2 RAE1756 SLP168 P0000 T02330211 $=
19/07/2023 17:51->METAR KJFK 191751Z 15003KT 6SM -RA BR FEW006 BKN023 BKN041 OVC130 22/21 A3004 RMK AO2 SLP174 P0011 60012 T02220211 10250 20211 50003 $=
19/07/2023 16:51->METAR KJFK 191651Z 19007KT 4SM R04R/6000VP6000FT RA BR FEW014 SCT027 BKN055 OVC130 22/21 A3006 RMK AO2 RAB43 SLP179 VIS S-SW 2 1/2 P0001 T02170206 $=
19/07/2023 15:51->METAR KJFK 191551Z 13005KT 7SM BKN055CB BKN130 OVC190 24/19 A3005 RMK AO2 LTG DSNT SE AND S SLP175 CB S MOV E VCSH SE-SW T02440194 $=
19/07/2023 14:51->METAR KJFK 191451Z 06005KT 7SM FEW060 BKN130 BKN190 OVC250 25/19 A3004 RMK AO2 SLP171 60000 T02500194 50002 $=
19/07/2023 13:51->METAR KJFK 191351Z 19004KT 6SM HZ FEW060 SCT110 OVC220 24/20 A3004 RMK AO2 RAB1257E07 SLP172 P0000 T02390200 $=
19/07/2023 12:51->METAR KJFK 191251Z 16004KT 6SM HZ FEW065 OVC085 23/21 A3004 RMK AO2 SLP172 T02330206 $=
19/07/2023 11:51->METAR KJFK 191151Z 00000KT 6SM HZ FEW060 BKN100 OVC250 23/19 A3003 RMK AO2 SLP169 70139 T02330194 10244 20217 53014 $=
19/07/2023 10:51->METAR KJFK 191051Z 00000KT 6SM HZ FEW055 SCT090 SCT140 BKN250 23/20 A3001 RMK AO2 SLP162 T02280200 $=
19/07/2023 09:51->METAR KJFK 190951Z 29003KT 6SM BR SCT250 22/20 A2999 RMK AO2 SLP156 T02220200 $=
19/07/2023 08:51->METAR KJFK 190851Z 26008KT 7SM FEW250 22/20 A2999 RMK AO2 SLP155 T02220200 53007 $=
19/07/2023 07:51->METAR KJFK 190751Z 27006KT 8SM FEW250 22/19 A2998 RMK AO2 SLP151 T02220189 $=
19/07/2023 06:51->METAR KJFK 190651Z 27005KT 8SM FEW250 23/19 A2997 RMK AO2 SLP147 T02330189 $=
19/07/2023 05:51->METAR KJFK 190551Z 28008KT 8SM FEW250 24/19 A2997 RMK AO2 SLP147 T02440194 10244 20228 50002=
19/07/2023 04:51->METAR KJFK 190451Z 28008KT 9SM FEW250 24/21 A2997 RMK AO2 SLP150 T02440206 402830211=
19/07/2023 03:51->METAR KJFK 190351Z 25008KT 10SM FEW250 24/23 A2998 RMK AO2 SLP151 T02390228=
19/07/2023 02:51->METAR KJFK 190251Z 24007KT 10SM R04R/2400VP6000FT FEW045 SCT250 23/22 A2996 RMK AO2 SLP145 T02330222 53013=
19/07/2023 01:51->METAR KJFK 190151Z 22005KT 10SM R04R/0800VP6000FT FEW035 FEW250 23/22 A2995 RMK AO2 SLP141 T02330217=
19/07/2023 00:51->METAR KJFK 190051Z 00000KT 10SM FEW035 FEW250 24/22 A2993 RMK AO2 SLP134 TCU DSNT E-SE T02390217=
18/07/2023 23:51->METAR KJFK 182351Z 19006KT 9SM FEW035 FEW075 SCT100 SCT250 24/21 A2992 RMK AO2 SLP132 TCU DSNT S 60017 T02390211 10256 20217 55006=
18/07/2023 22:51->METAR KJFK 182251Z 17012KT 10SM FEW033 SCT095 SCT170 SCT250 25/22 A2992 RMK AO2 RAE2155 SLP131 P0000 T02500217=
18/07/2023 21:51->METAR KJFK 182151Z 16014KT 10SM -RA FEW017 SCT033 BKN120 BKN170 BKN250 26/24 A2991 RMK AO2 RAE17B36 SLP128 P0000 T02560239=
18/07/2023 20:51->METAR KJFK 182051Z 18012KT 10SM -RA SCT033CB SCT060 BKN100 BKN250 25/23 A2994 RMK AO2 VIS 2 1/2 W LTG DSNT S AND NW RAE03B29 SLP138 CB SW MOV NE CB DSNT NW P0000 60017 T02500228 55010=
18/07/2023 19:51->METAR KJFK 181951Z 15012KT 8SM -RA FEW021 SCT033 BKN100 OVC140 23/23 A2994 RMK AO2 LTG DSNT SW RAB04 SLP137 CB DSNT E-SE P0006 T02330228=
18/07/2023 18:51->METAR KJFK 181851Z 16007KT 9SM FEW016 SCT033 BKN090 BKN140 BKN250 23/22 A2996 RMK AO2 LTG DSNT ALQDS RAE50 TSE13 SLP145 CB DSNT E P0011 T02330222=
18/07/2023 17:51->METAR KJFK 181751Z 17007KT 2SM -TSRA BR SCT011 BKN022CB OVC050 21/21 A2997 RMK AO2 WSHFT 1659 LTG DSNT ALQDS RAB1658 SLP148 OCNL LTGICCG E TS E MOV E P0122 60122 T02110211 10283 20211 55005=
18/07/2023 16:51->METAR KJFK 181651Z 18011KT 7SM TS BKN009 BKN020CB BKN040 BKN250 27/24 A2997 RMK AO2 LTG DSNT SW-N TSB44 SLP147 OCNL LTGICCG W TS W MOV E T02670239=
18/07/2023 15:51->METAR KJFK 181551Z 17013KT 10SM SCT009 SCT038 BKN180 BKN250 28/24 A2998 RMK AO2 LTG DSNT W AND NW SLP150 T02780244=
18/07/2023 14:51->METAR KJFK 181451Z 19012KT 10SM SCT007 BKN040 BKN180 BKN250 27/24 A2998 RMK AO2 SLP153 T02670244 51006=
18/07/2023 13:51->METAR KJFK 181351Z 17009KT 10SM BKN008 BKN180 BKN250 26/24 A2998 RMK AO2 SLP151 T02610244=
18/07/2023 12:51->METAR KJFK 181251Z 18007KT 10SM SCT009 BKN180 BKN250 26/24 A2997 RMK AO2 SLP149 T02610239=
18/07/2023 11:51->METAR KJFK 181151Z 18005KT 10SM SCT180 BKN250 25/24 A2997 RMK AO2 SLP147 T02500239 10256 20233 51007=
18/07/2023 10:51->METAR KJFK 181051Z 18005KT 10SM SCT180 BKN250 24/23 A2996 RMK AO2 SLP145 T02440233=
18/07/2023 09:51->METAR KJFK 180951Z 19006KT 10SM SCT120 BKN250 23/23 A2995 RMK AO2 SLP142 T02330228=
18/07/2023 08:51->METAR KJFK 180851Z 22004KT 10SM SCT065 BKN250 23/23 A2994 RMK AO2 SLP140 T02330228 56008=
18/07/2023 07:51->METAR KJFK 180751Z 24005KT 10SM SCT110 BKN250 24/23 A2995 RMK AO2 SLP141 T02390228=
18/07/2023 06:51->METAR KJFK 180651Z 22005KT 10SM FEW047 BKN250 24/22 A2996 RMK AO2 SLP145 T02390222=
18/07/2023 05:51->METAR KJFK 180551Z 21005KT 10SM BKN250 24/21 A2997 RMK AO2 SLP148 T02390206 10256 20239 50001=
18/07/2023 04:51->METAR KJFK 180451Z 21010KT 10SM BKN250 25/21 A2998 RMK AO2 SLP153 T02500206 403110233=
18/07/2023 03:51->METAR KJFK 180351Z 20006KT 10SM BKN250 24/23 A2997 RMK AO2 SLP150 T02440228=
18/07/2023 02:51->METAR KJFK 180251Z 21007KT 10SM FEW065 BKN250 25/22 A2997 RMK AO2 SLP147 T02500222 51012=
18/07/2023 01:51->METAR KJFK 180151Z 19012KT 10SM FEW060 BKN250 25/22 A2996 RMK AO2 SLP145 T02500217=
18/07/2023 00:51->METAR KJFK 180051Z 19014KT 10SM BKN250 26/22 A2995 RMK AO2 SLP141 T02560222=
17/07/2023 23:51->METAR KJFK 172351Z 18012KT 10SM FEW009 BKN250 26/23 A2993 RMK AO2 SLP136 T02560233 10294 20256 52004=
17/07/2023 22:51->METAR KJFK 172251Z 18015KT 10SM FEW009 FEW050 BKN250 26/24 A2993 RMK AO2 SLP134 T02560239=
17/07/2023 21:51->METAR KJFK 172151Z 18013KT 10SM FEW050 BKN250 27/24 A2992 RMK AO2 SLP133 T02670239=
17/07/2023 20:51->METAR KJFK 172051Z 18009KT 10SM FEW060 BKN250 28/23 A2992 RMK AO2 SLP131 T02830233 58010=
17/07/2023 19:51->METAR KJFK 171951Z 17010KT 10SM FEW060 SCT250 29/23 A2994 RMK AO2 SLP137 T02890228=
17/07/2023 18:51->METAR KJFK 171851Z 17010KT 10SM FEW060 SCT250 29/23 A2995 RMK AO2 SLP140 T02890233=
17/07/2023 17:51->METAR KJFK 171751Z 20011KT 10SM FEW080 FEW250 29/23 A2995 RMK AO2 SLP142 T02890233 10311 20250 50005=
17/07/2023 16:51->METAR KJFK 171651Z 21011KT 10SM SCT015 29/23 A2996 RMK AO2 SLP143 T02940233=
17/07/2023 15:51->METAR KJFK 171551Z VRB04KT 10SM FEW080 SCT150 30/19 A2995 RMK AO2 SLP142 T03000194=
17/07/2023 14:51->METAR KJFK 171451Z 01006KT 10SM FEW040 FEW065 FEW200 29/20 A2994 RMK AO2 SLP137 T02940200 53006=
17/07/2023 13:51->METAR KJFK 171351Z 01004KT 10SM FEW055 28/23 A2993 RMK AO2 SLP135 T02780228=
17/07/2023 12:51->METAR KJFK 171251Z 34006KT 10SM FEW014 26/23 A2992 RMK AO2 SLP131 T02610228=
17/07/2023 11:51->METAR KJFK 171151Z 32004KT 10SM BKN013 BKN020 25/23 A2992 RMK AO2 SLP131 70011 T02500233 10250 20233 53019=
17/07/2023 10:51->METAR KJFK 171051Z 26004KT 8SM OVC009 24/23 A2990 RMK AO2 SLP124 T02390233=
17/07/2023 09:51->METAR KJFK 170951Z 27004KT 5SM BR BKN007 OVC010 23/23 A2988 RMK AO2 SLP117 T02330233=
17/07/2023 08:51->METAR KJFK 170851Z 24007KT 10SM BKN007 BKN250 23/23 A2986 RMK AO2 SLP112 T02330233 53007=
17/07/2023 07:51->METAR KJFK 170751Z 25008KT 10SM BKN009 BKN250 24/24 A2984 RMK AO2 SLP106 T02390239=
17/07/2023 06:51->METAR KJFK 170651Z 22006KT 10SM BKN008 BKN250 24/23 A2985 RMK AO2 SLP107 T02390233=
17/07/2023 05:51->METAR KJFK 170551Z 25004KT 10SM SCT008 BKN055 BKN250 24/23 A2984 RMK AO2 SLP105 T02390233 10244 20233 51006=
17/07/2023 04:51->METAR KJFK 170451Z 25005KT 10SM SCT009 BKN050 24/24 A2984 RMK AO2 SLP104 T02440239 402720233=
17/07/2023 03:51->METAR KJFK 170351Z 24003KT 10SM SCT025 SCT120 SCT250 24/23 A2983 RMK AO2 SLP101 T02390233=
17/07/2023 02:51->METAR KJFK 170251Z 21003KT 10SM FEW028 FEW080 FEW110 SCT250 24/24 A2982 RMK AO2 SLP099 T02390239 50012=
17/07/2023 01:51->METAR KJFK 170151Z 20004KT 10SM FEW022 FEW080 SCT110 24/24 A2983 RMK AO2 SLP100 T02390239=
17/07/2023 00:51->METAR KJFK 170051Z 20007KT 10SM FEW007 BKN028 OVC110 24/24 A2981 RMK AO2 SLP095 T02440239=
16/07/2023 23:51->METAR KJFK 162351Z 00000KT 10SM SCT005 BKN010 OVC140 24/24 A2979 RMK AO2 SLP088 60003 T02390239 10272 20239 58001=
16/07/2023 22:51->METAR KJFK 162251Z 15003KT 10SM FEW005 SCT017 BKN039 OVC180 24/24 A2979 RMK AO2 RAE42 SLP088 P0000 T02440239=
16/07/2023 21:51->METAR KJFK 162151Z 18006KT 10SM -RA BKN018 OVC110 24/24 A2979 RMK AO2 SLP089 P0003 T02440239=
16/07/2023 20:51->METAR KJFK 162051Z 20006KT 10SM -RA FEW037 BKN050 OVC120 25/24 A2979 RMK AO2 RAB02 SLP088 P0000 60000 T02500239 56005=
16/07/2023 19:51->METAR KJFK 161951Z 18005KT 10SM FEW014 BKN060 OVC250 26/24 A2979 RMK AO2 SLP088 T02560239=
16/07/2023 18:51->METAR KJFK 161851Z 25006KT 10SM FEW014 SCT075 BKN160 BKN250 27/24 A2981 RMK AO2 RAB1757E07 SLP093 P0000 T02720239=
16/07/2023 17:51->METAR KJFK 161751Z 20006KT 10SM FEW015 BKN037 BKN055 BKN140 BKN170 BKN250 26/24 A2981 RMK AO2 RAE49 SLP094 P0002 60008 T02610244 10261 20244 58010=
16/07/2023 16:51->METAR KJFK 161651Z 19009KT 3SM -RA BR FEW015 SCT021 OVC095 25/24 A2983 RMK AO2 SFC VIS 6 RAB37 SLP103 P0000 T02500239=
16/07/2023 15:51->METAR KJFK 161551Z 18010KT 3SM BR FEW010 SCT026 BKN055 BKN180 BKN250 26/24 A2984 RMK AO2 SFC VIS 6 CIG 023 W SLP104 T02610244=
16/07/2023 14:51->METAR KJFK 161451Z 19008KT 3SM BR FEW004 BKN012 BKN024 BKN200 BKN250 25/25 A2984 RMK AO2 SFC VIS 6 RAE12 SLP104 P0000 60006 T02500250 51003=
16/07/2023 13:51->METAR KJFK 161351Z 22010KT 2 1/2SM -RA BR BKN008 BKN012 OVC041 24/24 A2983 RMK AO2 SFC VIS 5 RAB1259 SLP102 P0006 T02440244=
16/07/2023 12:51->METAR KJFK 161251Z 21013KT 9SM BKN005 BKN012 OVC060 24/24 A2984 RMK AO2 RAB09E19 SLP103 P0000 T02440244=
16/07/2023 11:51->METAR KJFK 161151Z 19009KT 10SM FEW042 OVC070 24/23 A2983 RMK AO2 RAE12 CIG 035 W SLP101 P0005 60034 70034 T02440233 10256 20239 55001=
16/07/2023 10:51->METAR KJFK 161051Z 17016G23KT 1 3/4SM R04R/3500VP6000FT RA BR SCT007 BKN016 OVC024 24/23 A2982 RMK AO2 SFC VIS 2 SLP098 CB DSNT SE P0029 T02390233=
16/07/2023 09:51->METAR KJFK 160951Z 17015KT 10SM -RA BKN007 BKN013 OVC250 25/25 A2983 RMK AO2 LTG DSNT SW RAB44 SLP100 CB DSNT SW P0000 T02500250=
16/07/2023 08:51->METAR KJFK 160851Z 16013G20KT 10SM SCT006 OVC016 25/25 A2983 RMK AO2 CIG 006 W SLP102 T02500250 57020=
16/07/2023 07:51->METAR KJFK 160751Z 17016G21KT 10SM BKN006 BKN010 OVC250 25/25 A2985 RMK AO2 SLP109 T02500250=
16/07/2023 06:51->METAR KJFK 160651Z 17014G21KT 10SM BKN006 BKN015 OVC250 26/25 A2987 RMK AO2 SLP115 T02560250=
16/07/2023 05:51->METAR KJFK 160551Z 17011KT 10SM OVC006 26/25 A2989 RMK AO2 SLP122 T02560250 10256 20250 58008=
16/07/2023 04:51->METAR KJFK 160451Z 17009KT 10SM OVC009 26/24 A2991 RMK AO2 SLP127 T02560244 403000222=
16/07/2023 03:51->METAR KJFK 160351Z 16011KT 10SM OVC009 26/25 A2991 RMK AO2 SLP129 T02560250=
16/07/2023 02:51->METAR KJFK 160251Z 17012KT 10SM BKN007 BKN017 OVC250 26/25 A2991 RMK AO2 SLP130 T02560250 58002=
16/07/2023 01:51->METAR KJFK 160151Z 17012KT 10SM BKN007 OVC250 26/25 A2992 RMK AO2 SLP132 T02560250=
16/07/2023 00:51->METAR KJFK 160051Z 17010KT 10SM OVC006 26/25 A2992 RMK AO2 SLP131 T02560250=
15/07/2023 23:51->METAR KJFK 152351Z 18014KT 10SM BKN007 BKN250 26/25 A2992 RMK AO2 SLP131 T02560250 10294 20256 50001=
15/07/2023 22:51->METAR KJFK 152251Z 16013KT 10SM BKN008 BKN050 OVC250 26/24 A2992 RMK AO2 LTG DSNT SW AND W SLP132 CB DSNT SW-W T02560244=
15/07/2023 21:51->METAR KJFK 152151Z 17014KT 10SM BKN006 BKN050 BKN250 26/24 A2993 RMK AO2 LTG DSNT SW AND W SLP133 CB DSNT SW-W T02610244=
15/07/2023 20:51->METAR KJFK 152051Z 16011KT 10SM FEW035 SCT050 BKN250 27/24 A2992 RMK AO2 LTG DSNT SW AND W SLP131 CB DSNT SW-W T02720244 58010=
15/07/2023 19:51->METAR KJFK 151951Z 17013KT 10SM FEW050 BKN250 28/23 A2994 RMK AO2 SLP137 TCU DSNT N T02830228=
15/07/2023 18:51->METAR KJFK 151851Z 17014KT 10SM FEW050 BKN250 28/24 A2996 RMK AO2 SLP144 TCU DSNT N T02830239=
15/07/2023 17:51->METAR KJFK 151751Z 17010KT 10SM FEW024 SCT050 BKN250 29/24 A2995 RMK AO2 SLP141 T02940239 10300 20244 58008=
15/07/2023 16:51->METAR KJFK 151651Z 18007KT 10SM FEW016 SCT026 BKN250 29/24 A2996 RMK AO2 SLP146 T02940239=
15/07/2023 15:51->METAR KJFK 151551Z VRB06KT 10SM FEW016 SCT025 SCT250 29/24 A2996 RMK AO2 SLP146 T02890239=
15/07/2023 14:51->METAR KJFK 151451Z 18007KT 10SM FEW016 SCT025 BKN250 28/24 A2997 RMK AO2 SLP149 T02780239 51007=
15/07/2023 13:51->METAR KJFK 151351Z 24004KT 10SM BKN015 BKN250 27/23 A2997 RMK AO2 SLP148 T02670233=
15/07/2023 12:51->METAR KJFK 151251Z 20004KT 10SM SCT008 BKN016 26/24 A2996 RMK AO2 SLP146 T02560239=
15/07/2023 11:51->METAR KJFK 151151Z 00000KT 10SM FEW006 SCT014 BKN047 BKN250 24/23 A2995 RMK AO2 SLP143 T02440233 10244 20222 53015=
15/07/2023 10:51->METAR KJFK 151051Z 03003KT 10SM FEW047 SCT250 23/22 A2994 RMK AO2 SLP138 T02330222=
15/07/2023 09:51->METAR KJFK 150951Z 04003KT 10SM FEW010 SCT047 BKN250 23/22 A2992 RMK AO2 SLP131 T02280217=
15/07/2023 08:51->METAR KJFK 150851Z 00000KT 10SM FEW200 SCT250 22/21 A2991 RMK AO2 SLP128 T02220211 58008=
15/07/2023 07:51->METAR KJFK 150751Z 00000KT 10SM SCT250 22/21 A2992 RMK AO2 SLP131 T02220211=
15/07/2023 06:51->METAR KJFK 150651Z 23003KT 10SM FEW080 SCT250 22/21 A2993 RMK AO2 SLP134 T02220206=
15/07/2023 05:51->METAR KJFK 150551Z 00000KT 10SM BKN200 23/21 A2994 RMK AO2 SLP137 60000 T02280211 10261 20228 55002=
15/07/2023 04:51->METAR KJFK 150451Z 10004KT 10SM SCT200 23/20 A2993 RMK AO2 SLP135 T02330200 402890217=
15/07/2023 03:51->METAR KJFK 150351Z 34008KT 10SM VCTS SCT035 BKN045 BKN250 24/21 A2994 RMK AO2 WSHFT 0326 LTG DSNT ALQDS RAE0257 TSB04E24 SLP138 CB DSNT N AND NW P0000 T02440211=
15/07/2023 02:51->METAR KJFK 150251Z 00000KT 10SM VCTS -RA SCT030 BKN043 OVC100 26/22 A2993 RMK AO2 LTG DSNT W-N RAB45 TSE46 SLP133 CB DSNT W-N MOV NE P0000 60000 T02610222 53006=
15/07/2023 01:51->METAR KJFK 150151Z 24006KT 10SM BKN041 BKN250 24/23 A2991 RMK AO2 SLP129 OCNL LTGIC DSNT NW-N CB DSNT NW-N MOV NE T02440228=
15/07/2023 00:51->METAR KJFK 150051Z 19011KT 10SM FEW044 BKN140 BKN250 24/22 A2990 RMK AO2 SLP126 OCNL LTGIC DSNT NW CB DSNT NW-N MOV NE T02390222=
14/07/2023 23:51->METAR KJFK 142351Z 18014KT 10SM FEW042 BKN120 BKN250 24/23 A2991 RMK AO2 SLP127 OCNL LTGIC DSNT NW CB DSNT NW MOV NE T02440228 10289 20244 53002=
14/07/2023 22:51->METAR KJFK 142251Z 18014KT 10SM FEW041 BKN120 BKN250 25/23 A2990 RMK AO2 SLP125 T02500228=
14/07/2023 21:51->METAR KJFK 142151Z 14007KT 10SM FEW040 BKN120 BKN170 BKN250 26/23 A2990 RMK AO2 SLP124 CB DSNT W AND NW MOV NE T02610228=
14/07/2023 20:51->METAR KJFK 142051Z 13011KT 10SM FEW035 BKN160 27/23 A2990 RMK AO2 SLP125 CB DSNT NW MOV NE T02720228 55006=
14/07/2023 19:51->METAR KJFK 141951Z 14009KT 10SM FEW016 SCT035 SCT130 29/23 A2990 RMK AO2 SLP123 T02890233=
14/07/2023 18:51->METAR KJFK 141851Z 11012KT 10SM FEW015 FEW033 BKN130 29/23 A2990 RMK AO2 SLP125 TCU DSNT SW AND W T02890233=
14/07/2023 17:51->METAR KJFK 141751Z 09011G17KT 10SM BKN013 BKN030 OVC110 26/22 A2992 RMK AO2 SLP131 T02610217 10278 20228 51006=
14/07/2023 16:51->METAR KJFK 141651Z 11015KT 10SM BKN015 BKN041 BKN100 26/22 A2992 RMK AO2 SLP130 CIG 013V017 T02610222=
14/07/2023 15:51->METAR KJFK 141551Z 10013KT 10SM BKN015 BKN110 26/23 A2991 RMK AO2 SLP128 CIG 012V018 T02610228 $=
14/07/2023 14:51->METAR KJFK 141451Z 06009KT 10SM BKN017 BKN110 BKN250 26/22 A2990 RMK AO2 SLP126 T02610217 51012 $=
14/07/2023 13:51->METAR KJFK 141351Z 10007KT 10SM FEW014 BKN028 BKN060 BKN250 26/22 A2990 RMK AO2 LTG DSNT NE AND E SLP126 T02560217 $=
14/07/2023 12:51->METAR KJFK 141251Z 02009KT 10SM SCT012 BKN020 BKN095 BKN250 24/22 A2991 RMK AO2 LTG DSNT N AND NE TSE10 SLP127 T02390217 $=
14/07/2023 11:51->METAR KJFK 141151Z 10006KT 10SM TS FEW013 BKN025CB BKN085 BKN250 23/22 A2987 RMK AO2 TSB30 SLP114 OCNL LTGICCG W-NW TS W-NW MOV NE CB DSNT SW MOV NE TCU SE-S VCSH W-NW 60012 70012 T02280217 10244 20217 53002 $=
14/07/2023 10:51->METAR KJFK 141051Z 10010KT 10SM FEW037 BKN090 BKN120 OVC250 23/21 A2986 RMK AO2 RAE19 TSE16 SLP112 P0012 T02280211=
14/07/2023 09:51->METAR KJFK 140951Z 11006KT 10SM -TSRA SCT028CB BKN040 BKN110 24/18 A2986 RMK AO2 RAB44 TSB35 SLP111 OCNL LTGICCC S TS S MOV NE P0000 T02390183=
14/07/2023 08:51->METAR KJFK 140851Z 07010KT 10SM BKN024 BKN040 24/18 A2986 RMK AO2 LTG DSNT SE TSB33E48 SLP112 T02440178 51005 $=
14/07/2023 07:51->METAR KJFK 140751Z 04011KT 10SM BKN007 BKN075 BKN250 24/18 A2986 RMK AO2 LTG DSNT N SLP112 T02390183 $=
14/07/2023 06:51->METAR KJFK 140651Z 21003KT 10SM BKN007 BKN050 BKN250 24/24 A2985 RMK AO2 LTG DSNT N AND NE SLP108 T02390239 $=
14/07/2023 05:51->METAR KJFK 140551Z 20011KT 10SM FEW055 BKN250 24/24 A2985 RMK AO2 SLP106 FRQ LTGIC DSNT N-NE CB DSNT N-NE T02440239 10256 20244 53004 $=
14/07/2023 04:51->METAR KJFK 140451Z 18013KT 10SM SCT060 BKN250 24/24 A2983 RMK AO2 SLP100 FRQ LTGICCC DSNT N CB DSNT N T02440239 402940222 $=
14/07/2023 03:51->METAR KJFK 140351Z 19014KT 10SM SCT055 SCT250 24/24 A2984 RMK AO2 SLP103 FRQ LTGIC DSNT N CB DSNT N T02440239 $=
14/07/2023 02:51->METAR KJFK 140251Z 18015KT 10SM FEW055 SCT250 24/24 A2983 RMK AO2 SLP103 CB DSNT NW-N T02440239 51008 $=
14/07/2023 01:51->METAR KJFK 140151Z 19015KT 10SM FEW045 FEW250 25/24 A2983 RMK AO2 SLP101 OCNL LTGIC DSNT NW CB DSNT NW T02500239 $=
14/07/2023 00:51->METAR KJFK 140051Z 19018KT 10SM FEW045 SCT250 25/24 A2981 RMK AO2 PK WND 19026/2358 SLP096 T02500239 $=
13/07/2023 23:51->METAR KJFK 132351Z 18019G24KT 10SM FEW045 FEW250 26/24 A2981 RMK AO2 PK WND 19028/2322 SLP094 T02560239 10294 20256 55002 $=
13/07/2023 22:51->METAR KJFK 132251Z 19021G28KT 10SM FEW045 FEW100 FEW250 27/24 A2980 RMK AO2 PK WND 18030/2152 SLP090 TCU DSNT NW T02670239 $=
13/07/2023 21:51->METAR KJFK 132151Z 19022G28KT 10SM FEW045 FEW080 FEW250 28/24 A2980 RMK AO2 PK WND 19030/2135 SLP092 TCU DSNT NW T02780239 $=
13/07/2023 20:51->METAR KJFK 132051Z 18020G31KT 10SM FEW045 FEW080 FEW160 SCT250 28/24 A2982 RMK AO2 PK WND 17031/2047 SLP097 T02830244 56014=
13/07/2023 19:51->METAR KJFK 131951Z 18018G26KT 10SM FEW010 FEW043 SCT160 SCT200 BKN250 29/25 A2983 RMK AO2 PK WND 17029/1935 SLP102 T02890250=
13/07/2023 18:51->METAR KJFK 131851Z 17019G25KT 10SM FEW011 SCT043 SCT160 BKN190 BKN250 28/24 A2984 RMK AO2 LTG DSNT S AND SW SLP104 TCU DSNT W T02830244=
13/07/2023 17:51->METAR KJFK 131751Z 16014KT 10SM FEW043 FEW070 BKN160 BKN250 29/24 A2986 RMK AO2 SLP110 T02940244 10294 20250 58015=
13/07/2023 16:51->METAR KJFK 131651Z 17016G21KT 10SM FEW040 FEW070 BKN190 BKN250 28/24 A2987 RMK AO2 SLP116 T02780239=
13/07/2023 15:51->METAR KJFK 131551Z 17013KT 10SM FEW037 FEW070 BKN250 29/24 A2989 RMK AO2 SLP120 T02890239=
13/07/2023 14:51->METAR KJFK 131451Z 18012KT 10SM FEW033 FEW075 BKN250 28/23 A2990 RMK AO2 SLP125 T02830233 58005=
13/07/2023 13:51->METAR KJFK 131351Z 18008KT 10SM FEW075 BKN250 27/22 A2991 RMK AO2 SLP128 T02670217=
13/07/2023 12:51->METAR KJFK 131251Z 18008KT 10SM FEW075 BKN250 26/22 A2992 RMK AO2 SLP131 T02610217=
13/07/2023 11:51->METAR KJFK 131151Z 19007KT 10SM SCT070 BKN250 25/21 A2992 RMK AO2 SLP130 T02500211 10256 20222 50002=
13/07/2023 10:51->METAR KJFK 131051Z 21005KT 10SM FEW065 SCT250 24/22 A2992 RMK AO2 SLP131 T02440217 $=
13/07/2023 09:51->METAR KJFK 130951Z 20004KT 10SM FEW065 SCT180 SCT250 23/21 A2991 RMK AO2 SLP129 T02280206 $=
13/07/2023 08:51->METAR KJFK 130851Z 22005KT 10SM FEW065 SCT250 23/21 A2991 RMK AO2 SLP128 T02280206 53002 $=
13/07/2023 07:51->METAR KJFK 130751Z 21006KT 10SM SCT250 23/21 A2990 RMK AO2 SLP125 T02280206 $=
13/07/2023 06:51->METAR KJFK 130651Z 19005KT 10SM SCT250 23/20 A2989 RMK AO2 SLP121 T02330200 $=
13/07/2023 05:51->METAR KJFK 130551Z 23006KT 10SM SCT250 24/21 A2990 RMK AO2 SLP126 T02440206 10261 20244 58006 $=
13/07/2023 04:51->METAR KJFK 130451Z 23009KT 10SM FEW200 SCT250 25/20 A2991 RMK AO2 SLP128 T02500200 403220222 $=
13/07/2023 03:51->METAR KJFK 130351Z 20005KT 10SM FEW075 SCT200 BKN250 24/21 A2992 RMK AO2 SLP131 T02440211 $=
13/07/2023 02:51->METAR KJFK 130251Z 00000KT 10SM FEW065 BKN250 25/22 A2992 RMK AO2 SLP132 T02500222 50002 $=
13/07/2023 01:51->METAR KJFK 130151Z 17003KT 10SM FEW190 BKN250 26/22 A2992 RMK AO2 SLP133 T02560222 $=
13/07/2023 00:51->METAR KJFK 130051Z 19007KT 10SM FEW060 BKN190 BKN250 26/22 A2992 RMK AO2 SLP131 T02560222 $=
12/07/2023 23:51->METAR KJFK 122351Z 19009KT 10SM FEW060 BKN240 26/22 A2992 RMK AO2 SLP131 T02610222 10322 20261 53002 $=
12/07/2023 22:51->METAR KJFK 122251Z 18016KT 10SM FEW060 BKN220 27/21 A2991 RMK AO2 SLP129 T02720206 $=
12/07/2023 21:51->METAR KJFK 122151Z 18016KT 10SM FEW060 BKN230 28/20 A2991 RMK AO2 SLP127 T02830200 $=
12/07/2023 20:51->METAR KJFK 122051Z 19015KT 10SM FEW060 SCT250 29/19 A2991 RMK AO2 SLP128 T02940194 55000 $=
12/07/2023 19:51->METAR KJFK 121951Z 19015KT 10SM FEW060 SCT250 32/19 A2991 RMK AO2 SLP127 T03170194 $=
12/07/2023 18:51->METAR KJFK 121851Z 19012KT 10SM FEW060 BKN250 31/19 A2991 RMK AO2 SLP128 T03110194 $=
12/07/2023 17:51->METAR KJFK 121751Z 22013KT 10SM FEW060 SCT250 32/17 A2991 RMK AO2 SLP129 T03220172 10322 20261 58010 $=
12/07/2023 16:51->METAR KJFK 121651Z 21011KT 10SM FEW060 SCT250 32/18 A2993 RMK AO2 SLP136 T03170183 $=
12/07/2023 15:51->METAR KJFK 121551Z 22010KT 10SM FEW060 SCT250 31/18 A2994 RMK AO2 SLP139 T03110183 $=
12/07/2023 14:51->METAR KJFK 121451Z 22008KT 10SM FEW055 FEW250 31/18 A2994 RMK AO2 SLP139 T03060183 58001 $=
12/07/2023 13:51->METAR KJFK 121351Z 24009KT 10SM FEW250 29/19 A2994 RMK AO2 SLP139 T02940189 $=
12/07/2023 12:51->METAR KJFK 121251Z 25007KT 10SM FEW160 FEW250 28/18 A2995 RMK AO2 SLP142 T02780183 $=
12/07/2023 11:51->METAR KJFK 121151Z 26007KT 10SM FEW250 26/18 A2995 RMK AO2 SLP140 T02610183 10261 20222 53010 $=
12/07/2023 10:51->METAR KJFK 121051Z 24005KT 10SM FEW160 FEW250 24/19 A2993 RMK AO2 SLP135 T02390189 $=
12/07/2023 09:51->METAR KJFK 120951Z 21004KT 10SM FEW250 22/19 A2992 RMK AO2 SLP132 T02220189 $=
12/07/2023 08:51->METAR KJFK 120851Z 25005KT 10SM CLR 23/18 A2992 RMK AO2 SLP131 T02280178 53005 $=
12/07/2023 07:51->METAR KJFK 120751Z 25006KT 10SM CLR 23/19 A2991 RMK AO2 SLP127 T02330189 $=
12/07/2023 06:51->METAR KJFK 120651Z 24007KT 10SM FEW250 23/21 A2991 RMK AO2 SLP127 T02330206 $=
12/07/2023 05:51->METAR KJFK 120551Z 22005KT 10SM FEW250 23/21 A2990 RMK AO2 SLP126 T02330206 10267 20233 58002 $=
12/07/2023 04:51->METAR KJFK 120451Z 22006KT 10SM FEW250 24/20 A2991 RMK AO2 SLP129 T02440200 403000211 $=
12/07/2023 03:51->METAR KJFK 120351Z 21006KT 10SM FEW250 24/20 A2991 RMK AO2 SLP127 T02440200 $=
12/07/2023 02:51->METAR KJFK 120251Z 25006KT 10SM FEW250 26/19 A2991 RMK AO2 SLP128 T02560189 53009 $=
12/07/2023 01:51->METAR KJFK 120151Z 24006KT 10SM FEW250 26/19 A2990 RMK AO2 SLP125 T02610189 $=
12/07/2023 00:51->METAR KJFK 120051Z 22007KT 10SM FEW060 FEW250 26/21 A2989 RMK AO2 SLP121 T02560206 $=
11/07/2023 23:51->METAR KJFK 112351Z 20011KT 10SM FEW060 FEW250 26/19 A2988 RMK AO2 SLP119 T02610194 10300 20261 53004=
11/07/2023 22:51->METAR KJFK 112251Z 20013KT 10SM FEW060 27/18 A2988 RMK AO2 SLP116 T02720183=
11/07/2023 21:51->METAR KJFK 112151Z 21014KT 10SM FEW060 28/19 A2987 RMK AO2 SLP116 T02830189=
11/07/2023 20:51->METAR KJFK 112051Z 19014KT 10SM FEW055 28/18 A2987 RMK AO2 SLP115 T02830183 58004=
11/07/2023 19:51->METAR KJFK 111951Z 19012KT 10SM FEW055 FEW250 29/18 A2988 RMK AO2 SLP117 T02890183=
11/07/2023 18:51->METAR KJFK 111851Z 21012KT 10SM FEW055 FEW250 30/18 A2988 RMK AO2 SLP119 T03000178=
11/07/2023 17:51->METAR KJFK 111751Z 20011KT 10SM FEW055 FEW250 29/17 A2988 RMK AO2 SLP119 T02940172 10300 20244 58004=
11/07/2023 16:51->METAR KJFK 111651Z 21012KT 10SM FEW050 FEW250 29/18 A2989 RMK AO2 SLP120 T02940183=
11/07/2023 15:51->METAR KJFK 111551Z 22010KT 10SM FEW047 FEW250 29/17 A2989 RMK AO2 SLP121 T02940172=
11/07/2023 14:51->METAR KJFK 111451Z 23008KT 10SM FEW250 28/16 A2989 RMK AO2 SLP122 T02830161 58005=
11/07/2023 13:51->METAR KJFK 111351Z 31007KT 10SM FEW250 27/16 A2990 RMK AO2 SLP124 T02720156=
11/07/2023 12:51->METAR KJFK 111251Z 33010KT 10SM FEW250 26/14 A2991 RMK AO2 SLP128 T02560139=
11/07/2023 11:51->METAR KJFK 111151Z 27005KT 10SM SCT250 24/14 A2991 RMK AO2 SLP127 T02440139 10244 20211 53017 $=
11/07/2023 10:51->METAR KJFK 111051Z 27005KT 10SM SCT250 23/13 A2989 RMK AO2 SLP121 T02280133 $=
11/07/2023 09:51->METAR KJFK 110951Z 30009KT 10SM SCT250 22/13 A2987 RMK AO2 SLP115 T02170128 $=
11/07/2023 08:51->METAR KJFK 110851Z 30010KT 10SM FEW250 22/13 A2986 RMK AO2 SLP111 T02170128 53004 $=
11/07/2023 07:51->METAR KJFK 110751Z 31007KT 10SM FEW250 22/12 A2985 RMK AO2 SLP109 T02170122 $=
11/07/2023 06:51->METAR KJFK 110651Z 31013KT 10SM FEW250 23/14 A2985 RMK AO2 SLP108 T02280139 $=
11/07/2023 05:51->METAR KJFK 110551Z 28008KT 10SM FEW250 23/13 A2985 RMK AO2 SLP107 T02330133 10272 20228 58001 $=
11/07/2023 04:51->METAR KJFK 110451Z 31009KT 10SM FEW250 24/13 A2986 RMK AO2 SLP110 T02390133 403060217 $=
11/07/2023 03:51->METAR KJFK 110351Z 32008KT 10SM FEW200 FEW250 24/14 A2986 RMK AO2 SLP111 T02440139 $=
11/07/2023 02:51->METAR KJFK 110251Z 34009KT 10SM FEW065 FEW200 SCT250 25/13 A2985 RMK AO2 SLP108 T02500133 51016 $=
11/07/2023 01:51->METAR KJFK 110151Z 34009KT 10SM FEW055 FEW100 FEW250 26/16 A2984 RMK AO2 SLP103 T02610156 $=
11/07/2023 00:51->METAR KJFK 110051Z 36006KT 10SM FEW055 FEW100 SCT250 26/18 A2982 RMK AO2 SLP099 T02610183 $=
10/07/2023 23:51->METAR KJFK 102351Z 36013KT 10SM SCT055 SCT100 SCT250 27/18 A2980 RMK AO2 SLP092 T02720183 10306 20267 53015 $=
10/07/2023 22:51->METAR KJFK 102251Z 36013KT 10SM SCT055 SCT100 BKN250 28/19 A2978 RMK AO2 SLP084 T02830189 $=
10/07/2023 21:51->METAR KJFK 102151Z 29012KT 10SM SCT050 BKN250 31/19 A2977 RMK AO2 SLP079 T03060189 $=
10/07/2023 20:51->METAR KJFK 102051Z 33009KT 10SM SCT047 SCT210 BKN250 30/19 A2976 RMK AO2 SLP078 T03000189 50000 $=
10/07/2023 19:51->METAR KJFK 101951Z 35008KT 10SM SCT042 SCT210 BKN250 29/19 A2976 RMK AO2 SLP078 T02890189 $=
10/07/2023 18:51->METAR KJFK 101851Z 34011KT 10SM SCT037 SCT050 SCT200 BKN250 28/19 A2977 RMK AO2 SLP081 T02780189 $=
10/07/2023 17:51->METAR KJFK 101751Z 35010KT 10SM SCT036 BKN180 BKN250 27/19 A2976 RMK AO2 SLP077 T02720189 10283 20239 58001 $=
10/07/2023 16:51->METAR KJFK 101651Z 35014KT 10SM SCT028 SCT046 BKN180 BKN250 28/20 A2976 RMK AO2 SLP078 T02780200 $=
10/07/2023 15:51->METAR KJFK 101551Z 34011KT 10SM BKN027 BKN170 BKN250 28/21 A2977 RMK AO2 SLP080 T02780206 $=
10/07/2023 14:51->METAR KJFK 101451Z 34010KT 10SM SCT022 BKN028 BKN170 BKN250 26/20 A2976 RMK AO2 SLP079 T02560200 53006 $=
10/07/2023 13:51->METAR KJFK 101351Z 33008KT 10SM SCT018 BKN160 BKN230 25/21 A2975 RMK AO2 SLP075 T02500206 $=
10/07/2023 12:51->METAR KJFK 101251Z 35007KT 10SM SCT025 SCT160 BKN230 24/21 A2975 RMK AO2 SLP075 T02440211 $=
10/07/2023 11:51->METAR KJFK 101151Z 35007KT 10SM FEW010 FEW025 BKN160 BKN230 24/22 A2975 RMK AO2 SLP073 60000 70053 T02390217 10239 20217 51012 $=
10/07/2023 10:51->METAR KJFK 101051Z 33006KT 10SM FEW012 BKN024 BKN130 BKN220 23/22 A2974 RMK AO2 SLP071 T02280217 $=
10/07/2023 09:51->METAR KJFK 100951Z 29006KT 10SM SCT035 SCT130 BKN220 22/21 A2972 RMK AO2 SLP065 T02220211 $=
10/07/2023 08:51->METAR KJFK 100851Z 28005KT 10SM FEW013 SCT021 BKN150 22/21 A2971 RMK AO2 SLP061 60000 T02220211 56010 $=
10/07/2023 07:51->METAR KJFK 100751Z 27008KT 10SM SCT011 BKN017 BKN035 23/22 A2972 RMK AO2 RAE0654 SLP063 P0000 T02280217 $=
10/07/2023 06:51->METAR KJFK 100651Z 00000KT 10SM -RA SCT009 BKN029 BKN039 23/23 A2972 RMK AO2 RAE0558B43 SLP063 P0000 T02330228 $=
10/07/2023 05:51->METAR KJFK 100551Z 13007KT 10SM -RA FEW010 BKN034 OVC055 23/22 A2974 RMK AO2 VIS 2 1/2 W RAB48 SLP072 P0000 60016 T02330222 10244 20233 56005 $=
10/07/2023 04:51->METAR KJFK 100451Z 12010KT 10SM FEW010 BKN047 OVC055 24/23 A2974 RMK AO2 SLP072 T02390233 402720233 $=
10/07/2023 03:51->METAR KJFK 100351Z 11011KT 10SM SCT010 SCT016 BKN080 24/23 A2974 RMK AO2 RAE04 SLP069 P0000 T02390233 $=
10/07/2023 02:51->METAR KJFK 100251Z 11011KT 10SM -RA FEW014 BKN090 OVC110 24/23 A2976 RMK AO2 LTG DSNT SE SLP077 P0016 60016 T02390233 56012 $=
10/07/2023 01:51->METAR KJFK 100151Z 13012KT 10SM -RA FEW012 SCT021 OVC140 24/23 A2978 RMK AO2 RAE0057B31 SLP083 P0000 T02390233 $=
10/07/2023 00:51->METAR KJFK 100051Z 13009KT 10SM -RA FEW012 BKN026 BKN060 OVC150 24/23 A2977 RMK AO2 RAB37 SLP082 P0000 T02440233 $=
09/07/2023 23:51->METAR KJFK 092351Z 14012KT 10SM SCT015 BKN023 BKN060 OVC130 24/23 A2979 RMK AO2 RAE2253 SLP089 P0000 60037 T02440233 10272 20233 56006 $=
09/07/2023 22:51->METAR KJFK 092251Z 17003KT 6SM -RA BR SCT016 BKN029 OVC070 23/23 A2980 RMK AO2 SLP089 P0028 T02330233 $=
09/07/2023 21:51->METAR KJFK 092151Z 11009KT 8SM -RA SCT013 BKN026 BKN055 OVC250 25/24 A2979 RMK AO2 RAB42 SLP088 P0001 T02500239 $=
09/07/2023 20:51->METAR KJFK 092051Z 14011KT 10SM SCT013 BKN022 BKN055 OVC250 25/24 A2981 RMK AO2 RAB00E27 SLP095 CB DSNT NE P0008 60008 T02500239 56002 $=
09/07/2023 19:51->METAR KJFK 091951Z 17008KT 10SM BKN018 BKN026 OVC250 26/22 A2981 RMK AO2 SLP095 VCSH SE T02610222 $=
09/07/2023 18:51->METAR KJFK 091851Z 16013KT 10SM BKN015 BKN022 BKN250 27/23 A2981 RMK AO2 SLP094 T02670228 $=
09/07/2023 17:51->METAR KJFK 091751Z 15012KT 10SM SCT016 BKN022 BKN028 BKN250 27/23 A2982 RMK AO2 CIG 015 W SLP097 T02670228 10272 20244 56014 $=
09/07/2023 16:51->METAR KJFK 091651Z 16014KT 10SM BKN014 BKN022 BKN050 BKN160 26/23 A2982 RMK AO2 SLP099 T02610228 $=
09/07/2023 15:51->METAR KJFK 091551Z 16011KT 10SM BKN016 BKN038 BKN047 26/22 A2983 RMK AO2 LTG DSNT N AND NW SLP102 T02610222 $=
09/07/2023 14:51->METAR KJFK 091451Z 17008KT 10SM BKN018 BKN027 BKN041 OVC160 26/22 A2986 RMK AO2 SLP111 T02610222 58001 $=
09/07/2023 13:51->METAR KJFK 091351Z 18006KT 10SM SCT013 BKN020 OVC160 26/23 A2986 RMK AO2 SLP110 T02610233 $=
09/07/2023 12:51->METAR KJFK 091251Z 20006KT 10SM SCT011 BKN021 BKN200 BKN250 26/23 A2986 RMK AO2 SLP112 T02560228 $=
09/07/2023 11:51->METAR KJFK 091151Z 17007KT 10SM FEW008 BKN013 OVC019 24/23 A2986 RMK AO2 SLP112 T02440233 10244 20233 53004 $=
09/07/2023 10:51->METAR KJFK 091051Z 18003KT 10SM FEW007 SCT015 BKN200 BKN250 24/23 A2985 RMK AO2 SLP107 T02390233 $=
09/07/2023 09:51->METAR KJFK 090951Z 17004KT 10SM SCT007 BKN018 BKN065 OVC250 24/23 A2985 RMK AO2 SLP107 T02390233 $=
09/07/2023 08:51->METAR KJFK 090851Z 20006KT 10SM SCT010 BKN065 23/23 A2984 RMK AO2 SLP105 T02330233 55003 $=
09/07/2023 07:51->METAR KJFK 090751Z 20007KT 10SM BKN019 24/23 A2984 RMK AO2 SLP104 T02390233 $=
09/07/2023 06:51->METAR KJFK 090651Z 20008KT 10SM BKN019 24/23 A2985 RMK AO2 SLP107 T02390233 $=
09/07/2023 05:51->METAR KJFK 090551Z 18007KT 10SM FEW013 SCT020 24/23 A2985 RMK AO2 SLP108 T02390233 10250 20239 51002 $=
09/07/2023 04:51->METAR KJFK 090451Z 18005KT 10SM SCT016 SCT060 24/23 A2985 RMK AO2 SLP108 T02390233 402890228 $=
09/07/2023 03:51->METAR KJFK 090351Z 18006KT 10SM FEW016 SCT060 24/23 A2985 RMK AO2 SLP109 T02440233 $=
09/07/2023 02:51->METAR KJFK 090251Z 16007KT 10SM FEW012 SCT070 24/23 A2984 RMK AO2 SLP106 T02440228 51003 $=
09/07/2023 01:51->METAR KJFK 090151Z 16006KT 10SM SCT012 SCT070 BKN250 24/23 A2984 RMK AO2 SLP105 T02440228 $=
09/07/2023 00:51->METAR KJFK 090051Z 18008KT 10SM FEW013 FEW025 SCT070 BKN220 24/23 A2984 RMK AO2 SLP105 T02440228 $=
08/07/2023 23:51->METAR KJFK 082351Z 21009KT 10SM BKN014 BKN070 BKN200 BKN250 25/23 A2984 RMK AO2 SLP103 T02500228 10289 20250 56002 $=
08/07/2023 22:51->METAR KJFK 082251Z 18007KT 10SM BKN014 BKN070 OVC230 25/23 A2984 RMK AO2 SLP103 T02500228 $=
08/07/2023 21:51->METAR KJFK 082151Z 17008KT 10SM FEW014 FEW030 SCT060 OVC230 26/23 A2984 RMK AO2 SLP104 T02560228 $=
08/07/2023 20:51->METAR KJFK 082051Z 17007KT 10SM FEW025 SCT055 BKN220 26/22 A2984 RMK AO2 SLP105 T02560222 58003 $=
08/07/2023 19:51->METAR KJFK 081951Z 16011KT 10SM FEW018 FEW030 SCT055 BKN220 26/22 A2984 RMK AO2 LTG DSNT N SLP106 CB DSNT N T02610222 $=
08/07/2023 18:51->METAR KJFK 081851Z 17009KT 10SM FEW015 FEW030 SCT055 BKN250 27/22 A2985 RMK AO2 LTG DSNT SW-N SLP108 CB DSNT NW T02720222 $=
08/07/2023 17:51->METAR KJFK 081751Z 15009KT 10SM FEW015 SCT030 SCT250 28/23 A2985 RMK AO2 SLP108 T02830228 10289 20250 58006 $=
08/07/2023 16:51->METAR KJFK 081651Z 18010KT 10SM FEW023 SCT030 BKN250 28/23 A2987 RMK AO2 SLP113 T02830233 $=
08/07/2023 15:51->METAR KJFK 081551Z 15008KT 10SM FEW023 SCT042 BKN250 28/22 A2987 RMK AO2 SLP114 T02780222 $=
08/07/2023 14:51->METAR KJFK 081451Z 16009KT 10SM FEW019 SCT026 BKN055 28/23 A2987 RMK AO2 SLP114 T02780228 58001 $=
08/07/2023 13:51->METAR KJFK 081351Z 18005KT 10SM FEW010 SCT017 BKN250 27/23 A2987 RMK AO2 SLP114 T02670228 $=
08/07/2023 12:51->METAR KJFK 081251Z 00000KT 10SM FEW010 BKN017 BKN250 27/23 A2988 RMK AO2 SLP117 T02670228 $=
08/07/2023 11:51->METAR KJFK 081151Z 00000KT 10SM FEW010 BKN014 OVC250 25/23 A2987 RMK AO2 SLP116 T02500228 10250 20228 51007 $=
08/07/2023 10:51->METAR KJFK 081051Z 14003KT 10SM FEW010 BKN016 OVC030 24/23 A2987 RMK AO2 SLP115 T02440233 $=
08/07/2023 09:51->METAR KJFK 080951Z 08003KT 10SM BKN014 BKN250 24/23 A2986 RMK AO2 SLP111 T02390233 $=
08/07/2023 08:51->METAR KJFK 080851Z 00000KT 10SM BKN013 BKN017 24/23 A2985 RMK AO2 SLP109 T02390233 56003 $=
08/07/2023 07:51->METAR KJFK 080751Z 16003KT 10SM BKN010 BKN017 23/23 A2986 RMK AO2 SLP110 T02330228 $=
08/07/2023 06:51->METAR KJFK 080651Z 18004KT 10SM SCT008 SCT012 23/23 A2986 RMK AO2 SLP110 T02330228 $=
08/07/2023 05:51->METAR KJFK 080551Z 21005KT 10SM SCT010 23/23 A2986 RMK AO2 SLP112 T02330228 10250 20233 53004 $=
08/07/2023 04:51->METAR KJFK 080451Z 19003KT 10SM SCT011 23/23 A2986 RMK AO2 SLP110 T02330228 402890233 $=
08/07/2023 03:51->METAR KJFK 080351Z 18005KT 10SM FEW010 SCT014 24/23 A2985 RMK AO2 SLP108 T02390228 $=
08/07/2023 02:51->METAR KJFK 080251Z 14004KT 10SM FEW018 FEW210 24/23 A2985 RMK AO2 SLP108 T02390228 50000 $=
08/07/2023 01:51->METAR KJFK 080151Z 14007KT 10SM SCT018 BKN210 BKN250 24/23 A2986 RMK AO2 SLP110 T02440228 $=
08/07/2023 00:51->METAR KJFK 080051Z 15006KT 10SM SCT015 BKN230 24/22 A2986 RMK AO2 SLP111 T02440222 $=
07/07/2023 23:51->METAR KJFK 072351Z 15005KT 10SM SCT014 BKN230 25/22 A2985 RMK AO2 SLP108 T02500222 10289 20250 53002 $=
07/07/2023 22:51->METAR KJFK 072251Z 15008KT 10SM SCT013 BKN250 25/22 A2985 RMK AO2 SLP107 T02500222=
07/07/2023 21:51->METAR KJFK 072151Z 14009KT 10SM SCT013 BKN250 26/22 A2984 RMK AO2 SLP103 T02560222=
07/07/2023 20:51->METAR KJFK 072051Z 15009KT 10SM SCT017 BKN250 27/23 A2985 RMK AO2 SLP106 T02670228 58006 $=
07/07/2023 19:51->METAR KJFK 071951Z 15010KT 10SM SCT019 SCT032 BKN250 28/23 A2985 RMK AO2 SLP109 T02780228 $=
07/07/2023 18:51->METAR KJFK 071851Z 15011KT 10SM SCT017 SCT029 BKN250 27/22 A2986 RMK AO2 SLP112 T02720222 $=
07/07/2023 17:51->METAR KJFK 071751Z 16010KT 10SM SCT022 SCT040 SCT170 BKN250 28/23 A2986 RMK AO2 SLP113 T02830228 10283 20250 56009 $=
07/07/2023 16:51->METAR KJFK 071651Z 16010KT 10SM FEW021 FEW040 SCT250 28/22 A2986 RMK AO2 SLP113 T02830222 $=
07/07/2023 15:51->METAR KJFK 071551Z 16009KT 10SM FEW020 FEW037 SCT250 28/22 A2988 RMK AO2 SLP119 T02830222 $=
07/07/2023 14:51->METAR KJFK 071451Z 17008KT 10SM SCT025 SCT250 28/22 A2989 RMK AO2 SLP121 T02780222 56003 $=
07/07/2023 13:51->METAR KJFK 071351Z 13007KT 10SM SCT025 SCT250 27/22 A2989 RMK AO2 SLP122 T02670217 $=
07/07/2023 12:51->METAR KJFK 071251Z 00000KT 10SM FEW013 SCT021 SCT180 SCT250 26/22 A2990 RMK AO2 SLP123 T02610217 $=
07/07/2023 11:51->METAR KJFK 071151Z 25003KT 10SM BKN021 BKN250 25/21 A2990 RMK AO2 SLP124 T02500211 10256 20233 53007 $=
07/07/2023 10:51->METAR KJFK 071051Z 00000KT 10SM SCT018 SCT250 24/22 A2988 RMK AO2 SLP119 T02440222 $=
07/07/2023 09:51->METAR KJFK 070951Z 00000KT 10SM SCT018 BKN250 23/22 A2987 RMK AO2 SLP115 T02330217 $=
07/07/2023 08:51->METAR KJFK 070851Z 00000KT 10SM BKN019 BKN250 23/22 A2988 RMK AO2 SLP117 T02330222 55004 $=
07/07/2023 07:51->METAR KJFK 070751Z 20003KT 10SM BKN016 BKN250 24/23 A2987 RMK AO2 SLP116 T02390228 $=
07/07/2023 06:51->METAR KJFK 070651Z 20005KT 10SM BKN013 BKN019 OVC250 24/22 A2988 RMK AO2 SLP118 T02390222 $=
07/07/2023 05:51->METAR KJFK 070551Z 19004KT 10SM BKN013 BKN130 BKN250 23/23 A2989 RMK AO2 SLP120 T02330228 10244 20228 58007 $=
07/07/2023 04:51->METAR KJFK 070451Z 20005KT 10SM BKN007 BKN120 BKN250 23/23 A2990 RMK AO2 SLP124 T02330228 402890217 $=
07/07/2023 03:51->METAR KJFK 070351Z 17005KT 10SM FEW010 FEW150 SCT250 23/23 A2990 RMK AO2 SLP126 T02330228 $=
07/07/2023 02:51->METAR KJFK 070251Z 19005KT 10SM FEW009 FEW100 FEW250 23/23 A2991 RMK AO2 SLP128 T02330228 50003 $=
07/07/2023 01:51->METAR KJFK 070151Z 16007KT 10SM FEW008 FEW055 FEW250 24/22 A2991 RMK AO2 SLP128 T02390222=
07/07/2023 00:51->METAR KJFK 070051Z 16009KT 10SM BKN008 BKN140 BKN250 24/23 A2990 RMK AO2 SLP126 T02390228=
06/07/2023 23:51->METAR KJFK 062351Z 16008KT 10SM FEW008 FEW050 SCT250 24/23 A2990 RMK AO2 SLP125 T02440233 10283 20244 55002=
06/07/2023 22:51->METAR KJFK 062251Z 15010KT 10SM FEW008 FEW045 SCT250 26/23 A2990 RMK AO2 SLP123 T02560228=
06/07/2023 21:51->METAR KJFK 062151Z 16010KT 10SM FEW008 FEW045 FEW250 27/23 A2989 RMK AO2 SLP122 T02670228=
06/07/2023 20:51->METAR KJFK 062051Z 17009KT 10SM FEW045 FEW250 28/23 A2991 RMK AO2 SLP127 CB DSNT NW T02780228 56015 $=
06/07/2023 19:51->METAR KJFK 061951Z 17009KT 10SM FEW045 FEW250 28/22 A2991 RMK AO2 SLP130 CB DSNT NW T02830222 $=
06/07/2023 18:51->METAR KJFK 061851Z 18009KT 10SM FEW008 FEW045 FEW250 27/23 A2993 RMK AO2 SLP136 CB DSNT W AND DSNT NW T02720228 $=
06/07/2023 17:51->METAR KJFK 061751Z 19010KT 10SM FEW008 FEW045 FEW250 28/22 A2995 RMK AO2 SLP142 T02830222 10289 20250 56008 $=
06/07/2023 16:51->METAR KJFK 061651Z 18010KT 10SM FEW043 FEW250 29/22 A2996 RMK AO2 SLP144 T02890222 $=
06/07/2023 15:51->METAR KJFK 061551Z 19009KT 10SM FEW040 FEW250 28/22 A2997 RMK AO2 SLP148 T02780222 $=
06/07/2023 14:51->METAR KJFK 061451Z 18006KT 10SM FEW007 FEW035 FEW250 26/23 A2998 RMK AO2 SLP150 T02610228 50003 $=
06/07/2023 13:51->METAR KJFK 061351Z 18009KT 10SM VCFG FEW006 FEW035 FEW250 27/23 A2998 RMK AO2 SLP151 VCFG S T02670228 $=
06/07/2023 12:51->METAR KJFK 061251Z 19006KT 10SM FEW032 FEW250 26/23 A2997 RMK AO2 SLP149 T02560228 $=
06/07/2023 11:51->METAR KJFK 061151Z 13003KT 9SM FEW250 26/23 A2997 RMK AO2 SLP148 T02560228 10256 20217 53002 $=
06/07/2023 10:51->METAR KJFK 061051Z 00000KT 10SM FEW250 24/22 A2995 RMK AO2 SLP142 T02390222 $=
06/07/2023 09:51->METAR KJFK 060951Z 19003KT 10SM FEW250 22/22 A2996 RMK AO2 SLP143 T02220222 $=
06/07/2023 08:51->METAR KJFK 060851Z 19006KT 10SM FEW250 22/22 A2996 RMK AO2 SLP146 T02220217 58006 $=
06/07/2023 07:51->METAR KJFK 060751Z 17004KT 10SM FEW250 22/22 A2996 RMK AO2 SLP147 T02220217 $=
06/07/2023 06:51->METAR KJFK 060651Z 18003KT 10SM FEW250 22/22 A2998 RMK AO2 SLP151 T02220217 $=
06/07/2023 05:51->METAR KJFK 060551Z 20004KT 10SM FEW250 23/22 A2998 RMK AO2 SLP152 T02330222 10250 20228 57001 $=
06/07/2023 04:51->METAR KJFK 060451Z 19005KT 10SM FEW250 23/22 A2998 RMK AO2 SLP153 T02280222 403110211 $=
06/07/2023 03:51->METAR KJFK 060351Z 19004KT 10SM FEW250 23/22 A2998 RMK AO2 SLP151 T02330222 $=
06/07/2023 02:51->METAR KJFK 060251Z 20004KT 10SM FEW055 FEW250 23/22 A2998 RMK AO2 SLP152 T02330217 53008 $=
06/07/2023 01:51->METAR KJFK 060151Z 19007KT 10SM FEW250 24/22 A2998 RMK AO2 SLP151 T02390217 $=
06/07/2023 00:51->METAR KJFK 060051Z 21007KT 10SM FEW055 SCT250 24/21 A2996 RMK AO2 SLP144 T02440211 $=
05/07/2023 23:51->METAR KJFK 052351Z 20009KT 10SM FEW050 SCT250 25/21 A2996 RMK AO2 SLP144 T02500211 10311 20250 55003 $=
05/07/2023 22:51->METAR KJFK 052251Z 19010KT 10SM FEW050 SCT250 26/22 A2995 RMK AO2 SLP142 T02610217 $=
05/07/2023 21:51->METAR KJFK 052151Z 19012KT 10SM FEW050 SCT250 27/22 A2995 RMK AO2 SLP141 T02720217=
05/07/2023 20:51->METAR KJFK 052051Z 18012KT 10SM FEW050 FEW250 28/22 A2997 RMK AO2 SLP147 T02830217 56008=
05/07/2023 19:51->METAR KJFK 051951Z 18010KT 10SM FEW050 FEW250 29/22 A2997 RMK AO2 SLP148 T02940217=
05/07/2023 18:51->METAR KJFK 051851Z 20009KT 10SM FEW050 FEW250 30/20 A2998 RMK AO2 SLP151 CB DSNT SW T03000200=
05/07/2023 17:51->METAR KJFK 051751Z 20010KT 9SM FEW050 FEW250 29/21 A2999 RMK AO2 SLP155 CB DSNT SW T02940211 10300 20256 56003=
05/07/2023 16:51->METAR KJFK 051651Z 20010KT 9SM FEW050 FEW250 28/22 A2999 RMK AO2 SLP155 T02830217=
05/07/2023 15:51->METAR KJFK 051551Z 20007KT 9SM FEW047 FEW250 30/21 A2999 RMK AO2 SLP155 T03000211=
05/07/2023 14:51->METAR KJFK 051451Z 21007KT 7SM FEW250 28/22 A3000 RMK AO2 SLP157 T02780217 51003=
05/07/2023 13:51->METAR KJFK 051351Z 06004KT 9SM FEW250 29/19 A3000 RMK AO2 SLP157 T02890194=
05/07/2023 12:51->METAR KJFK 051251Z 05008KT 8SM FEW250 27/19 A3000 RMK AO2 SLP159 T02720194=
05/07/2023 11:51->METAR KJFK 051151Z 36004KT 5SM HZ FEW250 26/21 A2999 RMK AO2 SLP154 70014 T02560206 10256 20211 53010 $=
05/07/2023 10:51->METAR KJFK 051051Z 00000KT 5SM BR FEW250 23/21 A2997 RMK AO2 SLP149 T02330211 $=
05/07/2023 09:51->METAR KJFK 050951Z 00000KT 3SM BR FEW250 21/21 A2996 RMK AO2 SLP145 T02110206 $=
05/07/2023 08:51->METAR KJFK 050851Z 06003KT 4SM BR FEW011 FEW110 FEW250 21/21 A2996 RMK AO2 SLP144 T02110206 55002 $=
05/07/2023 07:51->METAR KJFK 050751Z 05003KT 2SM BR FEW017 FEW120 FEW250 22/21 A2995 RMK AO2 SLP143 T02170211 $=
05/07/2023 06:51->METAR KJFK 050651Z 05005KT 2SM BR FEW110 FEW250 22/22 A2996 RMK AO2 SLP146 T02220217 $=
05/07/2023 05:51->METAR KJFK 050551Z 22005KT 2SM BR FEW120 SCT250 23/22 A2996 RMK AO2 SLP146 T02280217 10250 20222 53002 $=
05/07/2023 04:51->METAR KJFK 050451Z 22004KT 5SM BR FU FEW120 SCT250 23/22 A2996 RMK AO2 VIS 2 1/2 W SLP144 T02280222 402780222 $=
05/07/2023 03:51->METAR KJFK 050351Z 00000KT 4SM BR FU SCT120 SCT250 23/22 A2994 RMK AO2 SLP140 T02280222 $=
05/07/2023 02:51->METAR KJFK 050251Z 00000KT 3SM BR FEW035 SCT120 SCT250 24/22 A2996 RMK AO2 SLP144 T02390222 53015 $=
05/07/2023 01:51->METAR KJFK 050151Z 00000KT 10SM FEW004 FEW032 FEW060 SCT250 24/22 A2994 RMK AO2 SLP137 FU FEW004 T02390222 $=
05/07/2023 00:51->METAR KJFK 050051Z 21005KT 10SM FEW032 FEW060 FEW080 SCT250 23/22 A2992 RMK AO2 SLP130 T02330222 $=
04/07/2023 23:51->METAR KJFK 042351Z 19004KT 10SM FEW032 SCT080 BKN250 25/23 A2991 RMK AO2 SLP128 TCU DSNT W T02500228 10261 20233 53005 $=
04/07/2023 22:51->METAR KJFK 042251Z 09004KT 10SM FEW020 FEW032 SCT080 BKN250 26/23 A2990 RMK AO2 SLP126 TCU DSNT W AND DSNT NW T02610228 $=
04/07/2023 21:51->METAR KJFK 042151Z 13003KT 10SM FEW020 SCT032 SCT080 SCT210 BKN250 26/23 A2989 RMK AO2 SLP120 CB DSNT SW TCU DSNT SW-DSNT NW T02560228 $=
04/07/2023 20:51->METAR KJFK 042051Z 20006KT 10SM FEW020 SCT032CB SCT090 BKN250 24/22 A2990 RMK AO2 SLP123 CBMAM OHD-SW MOV SE CB DSNT NW TCU DSNT NW-N T02390222 51004 $=
04/07/2023 19:51->METAR KJFK 041951Z 21005KT 10SM FEW011 SCT032CB SCT090 BKN200 BKN250 24/22 A2989 RMK AO2 TSE38 SLP122 CBMAM OHD MOV SE CB DSNT W-NW TCU DSNT W VCSH W T02440217 $=
04/07/2023 18:51->METAR KJFK 041851Z 22007KT 10SM TS FEW013 SCT035CB SCT100 BKN200 BKN250 25/22 A2989 RMK AO2 TSB46 SLP121 OCNL LTGCG NW TS NW MOV SE TCU DSNT N T02500217 $=
04/07/2023 17:51->METAR KJFK 041751Z 00000KT 10SM FEW013 SCT032 BKN095 BKN250 25/22 A2988 RMK AO2 RAE38 TSE20 SLP119 CB DSNT SW-NW MOV SE P0005 60014 T02500222 10278 20228 58006 $=
04/07/2023 16:51->METAR KJFK 041651Z 28008KT 5SM R04R/4000VP6000FT TSRA BR FEW008 SCT024CB BKN090 BKN220 24/23 A2992 RMK AO2 RAB12 SLP130 VIS SE-S 2 1/2 FRQ LTGICCG OHD AND SE-SW TS OHD AND SE-SW MOV E P0009 T02390233 $=
04/07/2023 15:51->METAR KJFK 041551Z 22004KT 10SM TS SCT024CB BKN095 BKN140 BKN250 28/22 A2991 RMK AO2 TSB35 SLP127 FRQ LTGICCG W-NW TS W-NW MOV E VCSH W-NW T02780222 $=
04/07/2023 14:51->METAR KJFK 041451Z 24006KT 10SM FEW028 SCT100 BKN160 BKN250 27/22 A2990 RMK AO2 LTG DSNT W AND NW SLP125 CB DSNT W-NW MOV E T02670222 58002 $=
04/07/2023 13:51->METAR KJFK 041351Z 21011KT 10SM FEW027 SCT095 SCT160 SCT250 25/22 A2992 RMK AO2 SLP133 T02500217 $=
04/07/2023 12:51->METAR KJFK 041251Z 19012KT 10SM FEW025 SCT050 BKN085 BKN160 24/21 A2992 RMK AO2 SLP130 T02390211 $=
04/07/2023 11:51->METAR KJFK 041151Z 21013KT 10SM BKN065 BKN110 BKN250 23/22 A2991 RMK AO2 SLP127 70018 T02280217 10239 20228 53015 $=
04/07/2023 10:51->METAR KJFK 041051Z 19008KT 10SM SCT050 BKN065 BKN110 BKN250 23/22 A2989 RMK AO2 SLP121 T02330217 $=
04/07/2023 09:51->METAR KJFK 040951Z 21005KT 10SM SCT060 BKN110 BKN250 23/22 A2988 RMK AO2 SLP117 T02280217 $=
04/07/2023 08:51->METAR KJFK 040851Z 21006KT 10SM SCT080 SCT120 BKN220 23/22 A2986 RMK AO2 SLP112 T02330217 50001 $=
04/07/2023 07:51->METAR KJFK 040751Z 20004KT 10SM FEW055 FEW090 BKN250 23/23 A2986 RMK AO2 SLP113 T02280228 $=
04/07/2023 06:51->METAR KJFK 040651Z 00000KT 10SM FEW045 SCT085 BKN220 23/23 A2986 RMK AO2 SLP111 T02330228 $=
04/07/2023 05:51->METAR KJFK 040551Z 09003KT 10SM FEW050 SCT065 BKN250 23/23 A2986 RMK AO2 LTG DSNT NE RAE01 TSE06 SLP111 P0000 60018 T02330228 10278 20233 50003 $=
04/07/2023 04:51->METAR KJFK 040451Z 05004KT 7SM -TSRA FEW030 BKN048CB OVC090 24/22 A2987 RMK AO2 LTG DSNT NW RAB25 TSE20B26 SLP116 OCNL LTGICCC NW-N TS NW-N MOV NE P0003 T02390222 403060228 $=
04/07/2023 03:51->METAR KJFK 040351Z 06008KT 10SM FEW031 BKN050 BKN080 BKN250 24/23 A2985 RMK AO2 RAB13E27 SLP108 P0015 T02390228=
04/07/2023 02:51->METAR KJFK 040251Z 35008KT 10SM BKN050 BKN065 BKN120 BKN250 27/22 A2985 RMK AO2 LTG DSNT NE SLP108 T02670217 53011=
04/07/2023 01:51->METAR KJFK 040151Z 21008KT 10SM FEW050 BKN120 BKN250 26/21 A2985 RMK AO2 SLP107 T02610211=
04/07/2023 00:51->METAR KJFK 040051Z 19008KT 10SM SCT045 SCT140 BKN250 24/21 A2982 RMK AO2 LTG DSNT N SLP097 CB DSNT NW VCSH NW T02440211=
03/07/2023 23:51->METAR KJFK 032351Z 18007KT 10SM SCT045 SCT140 SCT250 25/22 A2982 RMK AO2 SLP098 T02500217 10300 20250 53001=
03/07/2023 22:51->METAR KJFK 032251Z 17010KT 10SM FEW045 SCT140 SCT250 27/22 A2980 RMK AO2 SLP092 T02670222=
03/07/2023 21:51->METAR KJFK 032151Z 16010KT 10SM FEW045 FEW160 SCT250 28/23 A2980 RMK AO2 SLP092 CB DSNT N T02830228=
03/07/2023 20:51->METAR KJFK 032051Z 18013KT 10SM FEW045 SCT160 BKN250 28/23 A2982 RMK AO2 SLP096 CB DSNT NW T02830228 58009=
03/07/2023 19:51->METAR KJFK 031951Z 16012KT 10SM FEW043 FEW140 SCT200 BKN250 29/21 A2983 RMK AO2 SLP100 T02940211=
03/07/2023 18:51->METAR KJFK 031851Z 17012KT 10SM FEW043 SCT190 BKN250 29/22 A2984 RMK AO2 SLP104 T02940217=
03/07/2023 17:51->METAR KJFK 031751Z 20011KT 10SM FEW043 FEW140 BKN200 BKN250 30/22 A2984 RMK AO2 SLP106 T03000217 10306 20244 56006=
03/07/2023 16:51->METAR KJFK 031651Z 22009KT 10SM FEW040 SCT140 BKN210 BKN250 30/22 A2984 RMK AO2 SLP106 T03000217=
03/07/2023 15:51->METAR KJFK 031551Z 19009KT 10SM BKN140 BKN210 BKN250 28/22 A2986 RMK AO2 SLP110 T02780217=
03/07/2023 14:51->METAR KJFK 031451Z 22009KT 10SM FEW080 SCT140 BKN200 BKN250 27/22 A2986 RMK AO2 SLP112 T02720217 52007=
03/07/2023 13:51->METAR KJFK 031351Z 18008KT 10SM FEW065 SCT110 SCT250 27/22 A2985 RMK AO2 SLP108 T02720217=
03/07/2023 12:51->METAR KJFK 031251Z 19005KT 10SM FEW048 SCT070 BKN110 BKN250 25/22 A2985 RMK AO2 SLP108 T02500217=
03/07/2023 11:51->METAR KJFK 031151Z 31004KT 10SM FEW050 BKN110 BKN250 26/21 A2984 RMK AO2 SLP105 70042 T02610211 10261 20228 53009=
03/07/2023 10:51->METAR KJFK 031051Z 27005KT 10SM FEW075 SCT110 BKN250 24/22 A2982 RMK AO2 SLP097 T02440217=
03/07/2023 09:51->METAR KJFK 030951Z 30007KT 10SM SCT110 SCT250 24/21 A2981 RMK AO2 SLP096 T02390211 $=
03/07/2023 08:51->METAR KJFK 030851Z 27006KT 10SM FEW055 SCT250 23/22 A2982 RMK AO2 SLP096 T02330217 55001 $=
03/07/2023 07:51->METAR KJFK 030751Z 25008KT 10SM SCT030 BKN259 23/22 A2981 RMK AO2 SLP096 T02330217 $=
03/07/2023 06:51->METAR KJFK 030651Z 23007KT 10SM SCT080 BKN220 23/22 A2981 RMK AO2 SLP095 T02330217 $=
03/07/2023 05:51->METAR KJFK 030551Z 23006KT 10SM FEW035 SCT100 SCT250 23/22 A2982 RMK AO2 RAE0458 SLP097 P0000 60000 T02330222 10250 20228 53002 $=
03/07/2023 04:51->METAR KJFK 030451Z 29004KT 10SM -RA FEW027 SCT055 BKN110 24/22 A2981 RMK AO2 RAB48 SLP095 OCNL LTGIC DSNT N CB DSNT N MOV E P0000 T02440222 402890206 $=
03/07/2023 03:51->METAR KJFK 030351Z 18005KT 7SM SCT038 BKN070 BKN220 23/22 A2980 RMK AO2 LTG DSNT W AND NW SLP091 FRQ LTGICCC DSNT W CB DSNT W MOV E T02280222 $=
03/07/2023 02:51->METAR KJFK 030251Z 18007KT 8SM FEW070 BKN120 OVC220 23/22 A2981 RMK AO2 LTG DSNT N AND NW RAB24E48 SLP096 P0000 60000 T02280222 53001 $=
03/07/2023 01:51->METAR KJFK 030151Z 18009KT 8SM FEW030 SCT060 BKN160 OVC200 23/22 A2981 RMK AO2 SLP094 T02280222 $=
03/07/2023 00:51->METAR KJFK 030051Z 18012G18KT 8SM FEW030 SCT060 SCT100 BKN250 23/22 A2980 RMK AO2 SLP092 T02280222 $=
02/07/2023 23:51->METAR KJFK 022351Z 17010KT 7SM FEW045 SCT080 SCT120 BKN180 BKN250 24/22 A2981 RMK AO2 SLP095 60042 T02390222 10289 20233 58005 $=
02/07/2023 22:51->METAR KJFK 022251Z 16006KT 7SM FEW030 SCT055 BKN250 25/23 A2981 RMK AO2 TSE24 SLP094 T02500228 $=
02/07/2023 21:51->METAR KJFK 022151Z 18008KT 6SM TS BR FEW028 SCT055CB BKN085 BKN250 24/23 A2984 RMK AO2 RAB07E41 TSB02 SLP104 OCNL LTGIC N TS N MOV E P0042 T02440233 $=
02/07/2023 20:51->METAR KJFK 022051Z 18013KT 6SM HZ BKN055TCU BKN110 BKN200 BKN250 26/22 A2983 RMK AO2 SLP100 TCU SW VCSH SW T02560222 57013 $=
02/07/2023 19:51->METAR KJFK 021951Z 18011KT 6SM HZ FEW045 SCT110 BKN140 BKN200 BKN250 26/22 A2984 RMK AO2 SLP105 T02610222 $=
02/07/2023 18:51->METAR KJFK 021851Z 17011KT 6SM HZ FEW045 SCT110 BKN160 BKN250 26/22 A2985 RMK AO2 SLP108 T02560222 $=
02/07/2023 17:51->METAR KJFK 021751Z 17011KT 8SM FEW020 SCT050 BKN200 BKN250 29/23 A2987 RMK AO2 SLP113 T02890228 10289 20222 58008 $=
02/07/2023 16:51->METAR KJFK 021651Z 18007KT 8SM SCT020 SCT050 BKN150 BKN250 28/22 A2988 RMK AO2 SLP118 T02780222 $=
02/07/2023 15:51->METAR KJFK 021551Z 23008KT 8SM BKN022 BKN050 BKN250 27/22 A2989 RMK AO2 SLP120 T02720217 $=
02/07/2023 14:51->METAR KJFK 021451Z 21008KT 6SM HZ FEW015 BKN026 BKN050 BKN140 BKN250 24/21 A2989 RMK AO2 SLP121 T02390211 55004 $=
02/07/2023 13:51->METAR KJFK 021351Z 19014KT 8SM BKN022 BKN045 BKN060 BKN140 BKN250 24/21 A2989 RMK AO2 SLP121 T02440211 $=
02/07/2023 12:51->METAR KJFK 021251Z 18012KT 10SM FEW025 SCT043 BKN060 BKN140 BKN210 23/22 A2989 RMK AO2 SLP121 T02330217 $=
02/07/2023 11:51->METAR KJFK 021151Z 17010KT 10SM FEW010 FEW027 BKN034 BKN140 OVC210 22/21 A2990 RMK AO2 RAB15E24 SLP125 P0000 60005 70005 T02220211 10222 20206 58001 $=
02/07/2023 10:51->METAR KJFK 021051Z 16005KT 10SM FEW010 BKN031 OVC050 22/21 A2991 RMK AO2 SLP128 T02170206 $=
02/07/2023 09:51->METAR KJFK 020951Z 14007KT 10SM FEW010 OVC036 22/22 A2990 RMK AO2 RAB17E28 SLP126 P0000 T02170217 $=
02/07/2023 08:51->METAR KJFK 020851Z 11004KT 10SM BKN030 BKN035 OVC042 21/20 A2991 RMK AO2 RAB15E49 SLP126 P0000 60005 T02060200 56017 $=
02/07/2023 07:51->METAR KJFK 020751Z 14009KT 10SM SCT008 BKN014 OVC047 22/21 A2991 RMK AO2 RAB0656E45 SLP128 P0005 T02170211 $=
02/07/2023 06:51->METAR KJFK 020651Z 14006KT 10SM SCT008 BKN014 OVC055 22/21 A2993 RMK AO2 SLP136 T02170206 $=
02/07/2023 05:51->METAR KJFK 020551Z 15005KT 10SM FEW008 BKN047 OVC065 22/21 A2996 RMK AO2 SLP143 T02170206 10222 20217 58008 $=
02/07/2023 04:51->METAR KJFK 020451Z 16006KT 10SM SCT009 OVC055 22/21 A2997 RMK AO2 CIG 009 W SLP148 T02170206 402670183 $=
02/07/2023 03:51->METAR KJFK 020351Z 15008KT 10SM SCT011 BKN050 BKN060 OVC250 22/20 A2997 RMK AO2 SLP150 T02170200 $=
02/07/2023 02:51->METAR KJFK 020251Z 17007KT 10SM BKN046 BKN055 OVC250 22/19 A2998 RMK AO2 SLP152 T02170194 56006 $=
02/07/2023 01:51->METAR KJFK 020151Z 15008KT 10SM BKN049 OVC200 22/19 A2999 RMK AO2 SLP155 T02170194 $=
02/07/2023 00:51->METAR KJFK 020051Z 16008KT 10SM SCT100 BKN250 22/18 A2999 RMK AO2 SLP154 T02170183 $=
01/07/2023 23:51->METAR KJFK 012351Z 16009KT 10SM FEW070 FEW100 BKN250 22/19 A3000 RMK AO2 SLP157 T02220189 10261 20222 55008 $=
01/07/2023 22:51->METAR KJFK 012251Z 17009KT 9SM FEW100 BKN250 23/18 A2999 RMK AO2 SLP155 T02280183 $=
01/07/2023 21:51->METAR KJFK 012151Z 18009KT 9SM BKN250 24/18 A3000 RMK AO2 SLP160 T02440178 $=
01/07/2023 20:51->METAR KJFK 012051Z 15010KT 9SM FEW075 BKN250 25/18 A3002 RMK AO2 SLP166 T02500178 56015 $=
01/07/2023 19:51->METAR KJFK 011951Z 17011KT 8SM FEW075 BKN250 25/17 A3003 RMK AO2 SLP168 T02500172 $=
01/07/2023 18:51->METAR KJFK 011851Z 18012KT 10SM FEW075 BKN250 26/17 A3004 RMK AO2 SLP173 T02560172 $=
01/07/2023 17:51->METAR KJFK 011751Z 17012KT 10SM BKN250 26/18 A3007 RMK AO2 SLP181 T02610183 10267 20217 56007 $=
01/07/2023 16:51->METAR KJFK 011651Z 16012KT 10SM FEW030 BKN250 25/19 A3007 RMK AO2 SLP181 T02500189 $=
01/07/2023 15:51->METAR KJFK 011551Z 18008KT 10SM BKN250 26/18 A3008 RMK AO2 SLP186 T02560183 $=
01/07/2023 14:51->METAR KJFK 011451Z 17008KT 10SM SCT080 BKN250 24/18 A3009 RMK AO2 SLP188 T02440183 51006 $=
01/07/2023 13:51->METAR KJFK 011351Z 20007KT 10SM BKN070 BKN250 24/18 A3008 RMK AO2 SLP186 T02390178 $=
01/07/2023 12:51->METAR KJFK 011251Z 21006KT 10SM SCT250 23/18 A3009 RMK AO2 SLP188 T02330183 $=
01/07/2023 11:51->METAR KJFK 011151Z 16005KT 9SM SCT250 22/18 A3007 RMK AO2 SLP183 T02220178 10222 20183 51006 $=
01/07/2023 10:51->METAR KJFK 011051Z 18003KT 7SM SCT250 21/18 A3007 RMK AO2 SLP181 T02060183 $=
01/07/2023 09:51->METAR KJFK 010951Z 23004KT 6SM BR FEW250 19/17 A3006 RMK AO2 SLP180 T01890172 $=
01/07/2023 08:51->METAR KJFK 010851Z 22003KT 8SM FEW250 19/17 A3005 RMK AO2 SLP177 T01890172 55001 $=
01/07/2023 07:51->METAR KJFK 010751Z 21004KT 9SM FEW250 19/17 A3005 RMK AO2 SLP176 T01890167 $=
01/07/2023 06:51->METAR KJFK 010651Z 19004KT 9SM FEW250 19/16 A3005 RMK AO2 SLP176 T01940161 $=
01/07/2023 05:51->METAR KJFK 010551Z 21006KT 9SM FEW250 19/17 A3006 RMK AO2 SLP178 T01940172 10222 20194 56005 $=
01/07/2023 04:51->METAR KJFK 010451Z 18007KT 9SM FEW250 20/19 A3006 RMK AO2 SLP179 T02000189 402830194 $=
01/07/2023 03:51->METAR KJFK 010351Z 19006KT 9SM FEW250 21/19 A3007 RMK AO2 SLP181 T02060189 $=
01/07/2023 02:51->METAR KJFK 010251Z 21007KT 10SM FEW250 21/18 A3007 RMK AO2 SLP183 T02060178 53007 $=
01/07/2023 01:51->METAR KJFK 010151Z 19008KT 7SM FEW250 21/18 A3007 RMK AO2 SLP181 T02110178=
01/07/2023 00:51->METAR KJFK 010051Z 18010KT 7SM FEW250 22/18 A3005 RMK AO2 SLP176 T02170178=
30/06/2023 23:51->METAR KJFK 302351Z 16009KT 7SM BKN250 22/18 A3005 RMK AO2 SLP176 T02220178 10278 20222 55000=
30/06/2023 22:51->METAR KJFK 302251Z 18010KT 7SM BKN250 24/18 A3005 RMK AO2 SLP175 T02390183=
30/06/2023 21:51->METAR KJFK 302151Z 18010KT 7SM BKN250 25/19 A3005 RMK AO2 SLP174 T02500189=
30/06/2023 20:51->METAR KJFK 302051Z 17012KT 6SM HZ FU FEW180 BKN250 26/19 A3005 RMK AO2 SLP176 T02560189 55004=
30/06/2023 19:51->METAR KJFK 301951Z 19012KT 6SM HZ FU FEW055 BKN250 25/19 A3005 RMK AO2 SLP175 T02500189 $=
30/06/2023 18:51->METAR KJFK 301851Z 18010KT 5SM HZ FU FEW055 BKN250 26/19 A3006 RMK AO2 SLP178 T02560194 $=
30/06/2023 17:51->METAR KJFK 301751Z 21011KT 4SM HZ FU FEW055 BKN250 28/18 A3006 RMK AO2 SLP180 T02780183 10283 20217 58005 $=
30/06/2023 16:51->METAR KJFK 301651Z 21009KT 4SM HZ FU FEW055 BKN250 28/16 A3007 RMK AO2 SLP182 T02830161 $=
30/06/2023 15:51->METAR KJFK 301551Z 21008KT 3SM HZ FU FEW055 BKN250 27/16 A3008 RMK AO2 SLP184 T02720161=
30/06/2023 14:51->METAR KJFK 301451Z 21006KT 3SM HZ FU SCT055 BKN250 27/17 A3008 RMK AO2 SLP184 T02670172 51005=
30/06/2023 13:51->METAR KJFK 301351Z 21005KT 3SM HZ FU SCT250 24/19 A3007 RMK AO2 SLP182 T02440189=
30/06/2023 12:51->METAR KJFK 301251Z VRB04KT 3SM HZ FU SCT250 23/19 A3007 RMK AO2 SLP182 T02330189=
30/06/2023 11:51->METAR KJFK 301151Z 21005KT 3SM BR FU SCT250 22/19 A3006 RMK AO2 SLP179 T02170194 10217 20194 53006 $=
30/06/2023 10:51->METAR KJFK 301051Z 16004KT 4SM BR FU SCT075 SCT250 20/19 A3005 RMK AO2 SLP175 T02000189 $=
30/06/2023 09:51->METAR KJFK 300951Z 23006KT 4SM BR FU BKN075 BKN250 20/19 A3005 RMK AO2 SLP175 T02000189 $=
30/06/2023 08:51->METAR KJFK 300851Z 21004KT 5SM BR FU SCT075 19/19 A3004 RMK AO2 SLP173 T01940189 53003 $=
30/06/2023 07:51->METAR KJFK 300751Z 20006KT 6SM BR FU FEW007 19/19 A3004 RMK AO2 SLP171 T01940189 $=
30/06/2023 06:51->METAR KJFK 300651Z 13003KT 6SM BR FU FEW007 19/19 A3004 RMK AO2 SLP170 T01940194 $=
30/06/2023 05:51->METAR KJFK 300551Z 17004KT 6SM BR FU CLR 20/19 A3004 RMK AO2 SLP170 T02000194 10222 20200 56004 $=
30/06/2023 04:51->METAR KJFK 300451Z 17004KT 6SM BR FU CLR 20/19 A3004 RMK AO2 SLP172 T02000194 402780183 $=
30/06/2023 03:51->METAR KJFK 300351Z 14005KT 6SM BR CLR 21/19 A3004 RMK AO2 SLP172 T02060194 $=
30/06/2023 02:51->METAR KJFK 300251Z 14005KT 7SM FEW060 21/19 A3005 RMK AO2 SLP174 T02060189 50006 $=
30/06/2023 01:51->METAR KJFK 300151Z 17005KT 7SM FEW065 FEW250 21/19 A3005 RMK AO2 SLP175 T02110189=
30/06/2023 00:51->METAR KJFK 300051Z 15007KT 7SM FEW065 FEW250 21/19 A3003 RMK AO2 SLP170 T02110189=
29/06/2023 23:51->METAR KJFK 292351Z 18009KT 7SM SCT060 SCT250 22/18 A3003 RMK AO2 SLP168 T02220183 10278 20222 53011=
29/06/2023 22:51->METAR KJFK 292251Z 19011KT 7SM FEW055 SCT070 SCT250 23/19 A3001 RMK AO2 SLP162 T02280189=
29/06/2023 21:51->METAR KJFK 292151Z 19011KT 7SM SCT055 BKN070 BKN250 24/19 A3001 RMK AO2 SLP161 T02390189=
29/06/2023 20:51->METAR KJFK 292051Z 19012KT 8SM SCT060 BKN075 BKN250 25/19 A3000 RMK AO2 SLP158 T02500189 58002=
29/06/2023 19:51->METAR KJFK 291951Z 19013KT 9SM SCT055 BKN070 BKN250 26/18 A3000 RMK AO2 SLP159 T02610183=
29/06/2023 18:51->METAR KJFK 291851Z 21011KT 10SM BKN065 BKN080 BKN250 26/17 A3000 RMK AO2 SLP159 T02610167=
29/06/2023 17:51->METAR KJFK 291751Z 18005KT 10SM BKN049 BKN085 BKN250 27/16 A3000 RMK AO2 SLP159 T02670161 10272 20211 58008=
29/06/2023 16:51->METAR KJFK 291651Z 22007KT 190V260 10SM BKN047 BKN250 26/17 A3001 RMK AO2 SLP163 T02610167=
29/06/2023 15:51->METAR KJFK 291551Z 23009KT 10SM SCT046 BKN250 24/16 A3002 RMK AO2 SLP166 SCT V BKN T02440161=
29/06/2023 14:51->METAR KJFK 291451Z 34007KT 310V020 10SM SCT038 SCT060 BKN250 26/16 A3003 RMK AO2 SLP168 T02560156 50004=
29/06/2023 13:51->METAR KJFK 291351Z 35004KT 9SM SCT035 SCT060 BKN250 24/16 A3003 RMK AO2 SLP169 T02390156=
29/06/2023 12:51->METAR KJFK 291251Z 36005KT 10SM SCT035 BKN060 BKN250 22/15 A3003 RMK AO2 SLP168 T02220150=
29/06/2023 11:51->METAR KJFK 291151Z 34006KT 9SM SCT032 BKN065 BKN250 21/16 A3001 RMK AO2 SLP163 70017 T02110156 10211 20183 51020=
29/06/2023 10:51->METAR KJFK 291051Z 33007KT 9SM FEW035 SCT065 20/15 A3000 RMK AO2 SLP159 T02000150=
29/06/2023 09:51->METAR KJFK 290951Z 31007KT 10SM FEW065 19/15 A2998 RMK AO2 SLP152 T01890150=
29/06/2023 08:51->METAR KJFK 290851Z 31009KT 10SM FEW060 19/14 A2996 RMK AO2 SLP143 T01890144 53005=
29/06/2023 07:51->METAR KJFK 290751Z 30008KT 10SM FEW060 19/14 A2994 RMK AO2 SLP139 T01890144=
29/06/2023 06:51->METAR KJFK 290651Z 31009KT 10SM SCT055 20/14 A2994 RMK AO2 SLP139 T02000139=
29/06/2023 05:51->METAR KJFK 290551Z 31010KT 10SM SCT049 21/14 A2994 RMK AO2 SLP138 60000 T02060144 10244 20206 53008=
29/06/2023 04:51->METAR KJFK 290451Z 32010KT 10SM SCT044 BKN085 22/15 A2993 RMK AO2 SLP135 T02170150 402830194=
29/06/2023 03:51->METAR KJFK 290351Z 34010KT 10SM FEW045 OVC090 22/16 A2992 RMK AO2 SLP132 T02220161=
29/06/2023 02:51->METAR KJFK 290251Z 34007KT 10SM OVC045 23/17 A2992 RMK AO2 WSHFT 0210 RAB08E18 SLP130 P0000 60000 T02330172 51024=
29/06/2023 01:51->METAR KJFK 290151Z VRB03KT 10SM BKN045 OVC065 23/21 A2990 RMK AO2 SLP124 T02280206=
29/06/2023 00:51->METAR KJFK 290051Z 32005KT 10SM SCT055 BKN070 BKN250 24/19 A2987 RMK AO2 SLP115 T02390194=
28/06/2023 23:51->METAR KJFK 282351Z 29005KT 10SM BKN045 BKN065 BKN250 24/19 A2984 RMK AO2 WSHFT 2308 RAB2252E36 SLP105 P0006 60017 T02390194 10278 20228 53014=
28/06/2023 22:51->METAR KJFK 282251Z 23006KT 10SM BKN046TCU BKN065 BKN250 23/21 A2983 RMK AO2 RAE11 SLP099 TCU NW P0000 T02330206=
28/06/2023 21:51->METAR KJFK 282151Z 00000KT 10SM -RA BKN038 OVC060 23/19 A2981 RMK AO2 RAB07 SLP095 P0011 T02330194=
28/06/2023 20:51->METAR KJFK 282051Z 20005KT 10SM BKN041 BKN060 BKN100 BKN250 24/20 A2980 RMK AO2 RAB31E46 SLP092 VCSH NE AND W P0000 60000 T02440200 50001=
28/06/2023 19:51->METAR KJFK 281951Z 21011KT 10SM SCT040 SCT100 SCT250 26/19 A2980 RMK AO2 SLP092 TCU DSNT W VCSH NW T02560189=
28/06/2023 18:51->METAR KJFK 281851Z 19012KT 10SM SCT040 SCT065 SCT130 SCT250 27/19 A2980 RMK AO2 SLP092 T02670194=
28/06/2023 17:51->METAR KJFK 281751Z 20012KT 10SM SCT038 SCT095 SCT250 27/19 A2980 RMK AO2 SLP091 T02720194 10283 20217 55004=
28/06/2023 16:51->METAR KJFK 281651Z 20010KT 10SM SCT034 SCT250 27/19 A2980 RMK AO2 SLP091 T02720189=
28/06/2023 15:51->METAR KJFK 281551Z 20011KT 10SM FEW028 BKN250 27/19 A2981 RMK AO2 SLP095 T02670194=
28/06/2023 14:51->METAR KJFK 281451Z 22006KT 10SM FEW027 FEW150 BKN250 26/18 A2981 RMK AO2 SLP095 T02560183 51007=
28/06/2023 13:51->METAR KJFK 281351Z 22005KT 10SM FEW022 FEW150 BKN250 23/18 A2981 RMK AO2 SLP093 T02280183=
28/06/2023 12:51->METAR KJFK 281251Z 30006KT 9SM SCT018 BKN160 BKN250 22/18 A2981 RMK AO2 SLP092 T02220183=
28/06/2023 11:51->METAR KJFK 281151Z 32005KT 8SM FEW011 SCT170 BKN230 22/19 A2979 RMK AO2 SLP088 T02170189 10217 20194 53013 $=
28/06/2023 10:51->METAR KJFK 281051Z 36003KT 8SM FEW008 SCT150 OVC250 20/19 A2978 RMK AO2 SLP084 T02000189 $=
28/06/2023 09:51->METAR KJFK 280951Z 00000KT 10SM FEW170 BKN250 19/18 A2977 RMK AO2 SLP079 T01940183 $=
28/06/2023 08:51->METAR KJFK 280851Z 34004KT 10SM FEW130 BKN250 20/18 A2976 RMK AO2 SLP076 T02000183 55002 $=
28/06/2023 07:51->METAR KJFK 280751Z 34005KT 10SM FEW007 BKN130 BKN250 20/19 A2976 RMK AO2 SLP076 T02000194 $=
28/06/2023 06:51->METAR KJFK 280651Z 00000KT 10SM SCT006 BKN130 20/19 A2975 RMK AO2 SLP074 T02000194 $=
28/06/2023 05:51->METAR KJFK 280551Z 20006KT 10SM SCT006 BKN130 20/20 A2976 RMK AO2 SLP079 60000 T02000200 10211 20194 56001 $=
28/06/2023 04:51->METAR KJFK 280451Z 18004KT 9SM SCT005 BKN120 21/20 A2977 RMK AO2 SLP080 T02060200 402560189 $=
28/06/2023 03:51->METAR KJFK 280351Z 21003KT 10SM FEW005 FEW060 BKN180 19/19 A2976 RMK AO2 SLP077 T01940194 $=
28/06/2023 02:51->METAR KJFK 280251Z 18007KT 10SM FEW005 SCT065 OVC170 21/20 A2977 RMK AO2 RAE0156 SLP080 P0000 60000 T02060200 50003 $=
28/06/2023 01:51->METAR KJFK 280151Z 17007KT 10SM -RA FEW010 SCT075 BKN110 OVC140 21/20 A2977 RMK AO2 RAB23 SLP081 P0000 T02060200 $=
28/06/2023 00:51->METAR KJFK 280051Z 19008KT 10SM FEW013 FEW035 SCT070 BKN140 OVC250 21/19 A2977 RMK AO2 SLP082 T02110189 $=
27/06/2023 23:51->METAR KJFK 272351Z 17013KT 10SM FEW013 BKN070 BKN250 21/19 A2976 RMK AO2 LTG DSNT NW SLP077 T02110194 10256 20211 51019 $=
27/06/2023 22:51->METAR KJFK 272251Z 16008KT 10SM FEW013 FEW040 BKN085 BKN250 22/19 A2975 RMK AO2 LTG DSNT W AND NW SLP072 T02170194 $=
27/06/2023 21:51->METAR KJFK 272151Z 17012KT 10SM FEW019 FEW040 SCT090 BKN250 24/19 A2973 RMK AO2 SLP067 T02440194 $=
27/06/2023 20:51->METAR KJFK 272051Z 17010KT 10SM SCT019 SCT040 SCT110 BKN250 24/19 A2970 RMK AO2 SLP058 T02440194 50000 $=
27/06/2023 19:51->METAR KJFK 271951Z 19011KT 10SM SCT021 SCT040 BKN110 BKN250 24/19 A2971 RMK AO2 SLP059 T02440194 $=
27/06/2023 18:51->METAR KJFK 271851Z 20012KT 10SM SCT017 SCT040 BKN250 24/19 A2971 RMK AO2 SLP060 SCT017 V BKN T02440194 $=
27/06/2023 17:51->METAR KJFK 271751Z 18011KT 10SM SCT015 BKN250 24/20 A2970 RMK AO2 SLP058 60000 T02390200 10244 20211 58008 $=
27/06/2023 16:51->METAR KJFK 271651Z 19012KT 10SM FEW027 FEW120 BKN250 23/19 A2972 RMK AO2 SLP064 T02280194 $=
27/06/2023 15:51->METAR KJFK 271551Z 18018KT 10SM FEW012 BKN090 BKN250 22/19 A2973 RMK AO2 SLP067 T02170189 $=
27/06/2023 14:51->METAR KJFK 271451Z 19016KT 10SM SCT010 BKN013 BKN090 OVC250 21/19 A2973 RMK AO2 SLP067 60000 T02110189 51019 $=
27/06/2023 13:51->METAR KJFK 271351Z 14012KT 10SM BKN012 BKN018 BKN110 OVC250 22/19 A2972 RMK AO2 RAB18E44 SLP062 P0000 T02170194 $=
27/06/2023 12:51->METAR KJFK 271251Z 09004KT 10SM FEW013 BKN020 OVC250 22/19 A2970 RMK AO2 RAB1158E26 SLP056 P0000 T02170194 $=
27/06/2023 11:51->METAR KJFK 271151Z 00000KT 10SM SCT019 BKN130 OVC250 21/19 A2967 RMK AO2 SLP048 60000 70002 T02110194 10211 20189 50009 $=
27/06/2023 10:51->METAR KJFK 271051Z 12005KT 9SM FEW010 BKN130 BKN250 21/20 A2968 RMK AO2 SLP050 T02060200 $=
27/06/2023 09:51->METAR KJFK 270951Z 19003KT 10SM BKN130 BKN250 20/20 A2968 RMK AO2 SLP051 T02000200 $=
27/06/2023 08:51->METAR KJFK 270851Z 28007KT 10SM BKN250 20/19 A2965 RMK AO2 SLP038 60000 T02000189 58014 $=
27/06/2023 07:51->METAR KJFK 270751Z 15007KT 10SM FEW050 SCT100 BKN170 21/20 A2966 RMK AO2 SLP044 OCNL LTGICCC DSNT E-SE CB DSNT E-SE MOV NE T02060200 $=
27/06/2023 06:51->METAR KJFK 270651Z 22007KT 10SM FEW050 SCT100 19/18 A2968 RMK AO2 RAE0557 TSE10 SLP051 FRQ LTGIC DSNT SE-S CB DSNT SE-S MOV NE P0000 T01940183 $=
27/06/2023 05:51->METAR KJFK 270551Z 25006KT 10SM -TSRA SCT050CB BKN100 20/18 A2969 RMK AO2 PK WND 25026/0500 WSHFT 0456 RAB0455 TSB16 SLP052 FRQ LTGICCA SE-S TS SE-S MOV NE P0002 60002 T02000183 10228 20200 58006 $=
27/06/2023 04:51->METAR KJFK 270451Z 22016KT 1SM R04R/P6000FT BR OVC003 21/21 A2971 RMK AO2 SFC VIS 2 1/2 LTG DSNT S-W SLP061 T02110211 402720200 $=
27/06/2023 03:51->METAR KJFK 270351Z 18013KT 6SM BR OVC005 22/21 A2971 RMK AO2 SLP059 T02170211 $=
27/06/2023 02:51->METAR KJFK 270251Z 14011KT 7SM OVC007 22/21 A2971 RMK AO2 SLP059 T02170206 58012 $=
27/06/2023 01:51->METAR KJFK 270151Z 14005KT 10SM OVC010 22/21 A2974 RMK AO2 SLP072 T02220206 $=
27/06/2023 00:51->METAR KJFK 270051Z VRB05KT 10SM OVC011 23/21 A2973 RMK AO2 SLP068 T02280206 $=
26/06/2023 23:51->METAR KJFK 262351Z 20004KT 10SM BKN009 BKN016 OVC065 23/21 A2974 RMK AO2 SLP071 T02280206 10272 20222 51009 $=
26/06/2023 22:51->METAR KJFK 262251Z 18009KT 10SM BKN009 BKN040 OVC085 23/21 A2974 RMK AO2 LTG DSNT W-N SLP069 T02280206 $=
26/06/2023 21:51->METAR KJFK 262151Z 16012G19KT 10SM FEW009 FEW045 BKN120 BKN160 OVC250 23/21 A2972 RMK AO2 LTG DSNT W AND NW SLP064 T02280206 $=
26/06/2023 20:51->METAR KJFK 262051Z 15013KT 10SM FEW009 BKN160 BKN250 23/21 A2971 RMK AO2 LTG DSNT NW SLP062 T02330206 56015 $=
26/06/2023 19:51->METAR KJFK 261951Z 16012KT 10SM FEW010 FEW047 SCT140 BKN180 BKN250 24/21 A2974 RMK AO2 LTG DSNT W-N SLP069 T02440206 $=
26/06/2023 18:51->METAR KJFK 261851Z 14012KT 10SM FEW011 FEW047 SCT065 BKN250 25/21 A2974 RMK AO2 LTG DSNT N SLP069 T02500206 $=
26/06/2023 17:51->METAR KJFK 261751Z 14010KT 10SM FEW011 FEW047 BKN160 BKN250 26/22 A2976 RMK AO2 LTG DSNT N AND NW SLP077 VCSH NW T02610217 10261 20211 58016 $=
26/06/2023 16:51->METAR KJFK 261651Z 13009KT 10SM FEW011 FEW045 SCT110 BKN170 BKN250 25/21 A2978 RMK AO2 LTG DSNT SW AND W SLP083 T02500211 $=
26/06/2023 15:51->METAR KJFK 261551Z 14008KT 10SM FEW009 SCT047 BKN100 BKN250 24/21 A2979 RMK AO2 LTG DSNT N AND NW TSE00 SLP089 T02440211 $=
26/06/2023 14:51->METAR KJFK 261451Z 16009KT 10SM TS SCT009 SCT042CB BKN090 BKN250 23/21 A2981 RMK AO2 LTG DSNT W-N TSB29 SLP093 OCNL LTGICCG W-NW TS W-NW MOV NE VCSH W-NW T02330206 51003 $=
26/06/2023 13:51->METAR KJFK 261351Z 15009KT 10SM FEW009 SCT046 BKN075 BKN250 24/21 A2981 RMK AO2 LTG DSNT W AND NW SLP093 CB DSNT SW-W MOV NE T02390206 $=
26/06/2023 12:51->METAR KJFK 261251Z 12010KT 10SM SCT005 SCT046 SCT075 BKN140 BKN250 22/21 A2980 RMK AO2 SLP092 T02220211 $=
26/06/2023 11:51->METAR KJFK 261151Z 10008KT 8SM FEW008 SCT050 BKN085 BKN140 21/21 A2980 RMK AO2 SLP090 60001 70001 T02110211 10211 20200 53005 $=
26/06/2023 10:51->METAR KJFK 261051Z 09004KT 8SM FEW008 BKN041 BKN075 BKN140 21/21 A2979 RMK AO2 RAB00E30 SLP087 P0001 T02060206 $=
26/06/2023 09:51->METAR KJFK 260951Z 06003KT 7SM FEW007 SCT060 BKN140 BKN250 21/20 A2978 RMK AO2 SLP085 VCSH SW T02060200 $=
26/06/2023 08:51->METAR KJFK 260851Z 20004KT 8SM FEW006 FEW050 BKN140 20/20 A2978 RMK AO2 SLP085 60000 T02000200 56004 $=
26/06/2023 07:51->METAR KJFK 260751Z 16003KT 10SM FEW005 FEW047 BKN130 20/20 A2979 RMK AO2 SLP086 T02000200 $=
26/06/2023 06:51->METAR KJFK 260651Z 18006KT 9SM SCT005 SCT047 BKN130 20/20 A2979 RMK AO2 RAB41E50 SLP086 P0000 T02000200 $=
26/06/2023 05:51->METAR KJFK 260551Z 17003KT 10SM FEW004 SCT150 20/20 A2980 RMK AO2 SLP089 T02000200 10228 20200 58005 $=
26/06/2023 04:51->METAR KJFK 260451Z 12004KT 10SM SCT004 BKN150 21/20 A2980 RMK AO2 SLP091 T02060200 402830183 $=
26/06/2023 03:51->METAR KJFK 260351Z 15006KT 2 1/2SM OVC004 20/20 A2982 RMK AO2 SFC VIS 7 SLP098 T02000200 $=
26/06/2023 02:51->METAR KJFK 260251Z 14008KT 8SM OVC005 21/20 A2981 RMK AO2 SLP094 T02060200 55001 $=
26/06/2023 01:51->METAR KJFK 260151Z 15006KT 10SM FEW120 21/21 A2980 RMK AO2 SLP090 T02110206 $=
26/06/2023 00:51->METAR KJFK 260051Z 13007KT 10SM FEW080 FEW120 22/21 A2979 RMK AO2 SLP089 T02170206 $=
25/06/2023 23:51->METAR KJFK 252351Z 16007KT 10SM FEW080 SCT120 SCT250 23/21 A2981 RMK AO2 LTG DSNT W SLP096 CB DSNT W-NW T02280206 10267 20228 55000 $=
25/06/2023 22:51->METAR KJFK 252251Z 17006KT 10SM FEW070 SCT120 SCT250 24/21 A2981 RMK AO2 LTG DSNT W SLP095 CB DSNT W T02440206 $=
25/06/2023 21:51->METAR KJFK 252151Z 17007KT 10SM FEW070 SCT120 SCT250 25/21 A2980 RMK AO2 SLP091 T02500211 $=
25/06/2023 20:51->METAR KJFK 252051Z 17008KT 10SM FEW085 SCT130 BKN250 26/21 A2982 RMK AO2 SLP096 T02560211 58011 $=
25/06/2023 19:51->METAR KJFK 251951Z 14009KT 10SM FEW085 SCT150 BKN250 26/21 A2983 RMK AO2 SLP101 T02610211 $=
25/06/2023 18:51->METAR KJFK 251851Z 16007KT 10SM FEW085 BKN250 26/21 A2984 RMK AO2 LTG DSNT NW SLP105 CB DSNT W-NW T02560206 $=
25/06/2023 17:51->METAR KJFK 251751Z 16010KT 10SM SCT040 SCT090 BKN150 BKN250 26/21 A2985 RMK AO2 LTG DSNT W AND NW SLP107 CB DSNT SW-NW T02560206 10283 20217 53003 $=
25/06/2023 16:51->METAR KJFK 251651Z 16012KT 10SM SCT035 SCT090 BKN150 BKN250 26/21 A2983 RMK AO2 LTG DSNT N AND NE AND SW SLP102 CB DSNT NE AND DSNT SW-W T02610211 $=
25/06/2023 15:51->METAR KJFK 251551Z 16012KT 10SM SCT035CB SCT150 SCT250 26/21 A2984 RMK AO2 TSE37 SLP103 CB NW MOV NE CB DSNT S T02610206 $=
25/06/2023 14:51->METAR KJFK 251451Z 15006KT 10SM FEW030 FEW150 SCT250 28/21 A2984 RMK AO2 SLP103 T02780211 57003 $=
25/06/2023 13:51->METAR KJFK 251351Z VRB03KT 10SM FEW009 FEW180 SCT250 26/21 A2984 RMK AO2 SLP105 T02610211 $=
25/06/2023 12:51->METAR KJFK 251251Z 02004KT 2SM FEW005 FEW180 SCT250 24/21 A2984 RMK AO2 SFC VIS 8 SLP106 T02440206 $=
25/06/2023 11:51->METAR KJFK 251151Z 00000KT 2SM BR FEW005 FEW200 SCT250 22/21 A2985 RMK AO2 SFC VIS 5 SLP107 T02170211 10217 20183 53013 $=
25/06/2023 10:51->METAR KJFK 251051Z 00000KT 2SM BR SCT005 SCT200 BKN250 20/20 A2983 RMK AO2 SFC VIS 4 SLP102 T02000200 $=
25/06/2023 09:51->METAR KJFK 250951Z 00000KT 1/2SM R04R/P6000FT BKN004 19/19 A2982 RMK AO2 SFC VIS 5 SLP097 T01890189 $=
25/06/2023 08:51->METAR KJFK 250851Z 08003KT 5SM FEW003 FEW015 18/18 A2981 RMK AO2 SLP093 T01830183 56004 $=
25/06/2023 07:51->METAR KJFK 250751Z 12004KT 2SM BR FEW003 FEW015 18/18 A2981 RMK AO2 SLP093 T01830183 $=
25/06/2023 06:51->METAR KJFK 250651Z 00000KT 5SM BR SCT002 19/19 A2982 RMK AO2 VIS 1 W SLP097 T01890189 $=
25/06/2023 06:12->METAR KJFK COR 250612Z COR 16003KT 1/2SM R04R/3000VP6000FT FG OVC002 19/19 A2983 RMK AO2 VIS 1/4 W T01940194 $=
25/06/2023 05:51->METAR KJFK 250551Z 19003KT 1/2SM R04R/2200V3000FT FG VV002 19/19 A2983 RMK AO2 SLP101 T01890189 10217 20189 56000 $=
25/06/2023 04:51->METAR KJFK 250451Z 11003KT 1 3/4SM R04R/3500V5500FT BR BKN002 19/19 A2983 RMK AO2 SLP102 T01940194 402440189 $=
25/06/2023 03:51->METAR KJFK 250351Z 17006KT 1 1/4SM R04R/2400VP6000FT BR OVC002 19/19 A2983 RMK AO2 SLP099 T01940194 $=
25/06/2023 02:51->METAR KJFK 250251Z 17004KT 4SM BR BKN002 19/19 A2983 RMK AO2 SLP101 T01940194 50002 $=
25/06/2023 01:51->METAR KJFK 250151Z 18008KT 8SM SCT004 BKN090 BKN250 20/20 A2983 RMK AO2 SLP102 T02000200 $=
25/06/2023 00:51->METAR KJFK 250051Z 21005KT 9SM SCT035 SCT085 BKN250 21/20 A2983 RMK AO2 SLP101 T02060200 $=
24/06/2023 23:51->METAR KJFK 242351Z 19011KT 10SM FEW040 SCT065 BKN250 22/20 A2983 RMK AO2 SLP100 60000 T02170200 10244 20200 55002 $=
24/06/2023 22:51->METAR KJFK 242251Z 18011KT 10SM FEW008 FEW030 SCT060 BKN250 22/19 A2982 RMK AO2 SLP096 T02170194 $=
24/06/2023 21:51->METAR KJFK 242151Z 15007KT 10SM SCT006 SCT030 BKN060 BKN250 21/19 A2981 RMK AO2 SLP095 T02110194 $=
24/06/2023 20:51->METAR KJFK 242051Z 18009KT 10SM SCT005 BKN028 BKN250 21/19 A2983 RMK AO2 LTG DSNT SW SLP102 60000 T02060194 56001 $=
24/06/2023 19:51->METAR KJFK 241951Z 18009KT 7SM SCT005 BKN010 BKN024 23/20 A2983 RMK AO2 LTG DSNT S AND SW RAB28E46 SLP101 P0000 T02280200 $=
24/06/2023 18:51->METAR KJFK 241851Z 17008KT 10SM FEW006 SCT013 BKN070 BKN250 24/20 A2984 RMK AO2 SLP103 T02390200 $=
24/06/2023 17:51->METAR KJFK 241751Z 17010KT 10SM OVC006 22/20 A2985 RMK AO2 CIG 002 W SLP109 60000 T02220200 10228 20194 58007 $=
24/06/2023 16:51->METAR KJFK 241651Z 18009KT 10SM BKN006 OVC025 22/19 A2986 RMK AO2 SLP112 T02170194 $=
24/06/2023 15:51->METAR KJFK 241551Z 18009KT 10SM FEW003 FEW012 BKN023 23/21 A2987 RMK AO2 SLP116 T02280206 $=
24/06/2023 14:51->METAR KJFK 241451Z 19008KT 10SM FEW003 BKN012 BKN018 21/21 A2988 RMK AO2 SLP117 60000 T02110206 58004 $=
24/06/2023 13:51->METAR KJFK 241351Z 19007KT 10SM OVC004 21/20 A2988 RMK AO2 SLP119 T02060200 $=
24/06/2023 12:51->METAR KJFK 241251Z 17005KT 10SM OVC003 20/20 A2989 RMK AO2 RAE17 SLP120 P0000 T02000200 $=
24/06/2023 11:51->METAR KJFK 241151Z 20006KT 6SM -RA BR OVC003 19/19 A2989 RMK AO2 VIS 2 1/2 W RAE1059B45 SLP121 P0000 60003 7//// T01940194 10194 20189 53001 $=
24/06/2023 10:51->METAR KJFK 241051Z 00000KT 5SM -RA BR OVC004 19/19 A2989 RMK AO2 SLP120 P0000 T01940194 $=
24/06/2023 09:51->METAR KJFK 240951Z 17004KT 5SM -RA BR BKN004 OVC080 19/19 A2989 RMK AO2 SLP120 P0000 T01890189 $=
24/06/2023 08:51->METAR KJFK 240851Z 19007KT 1 1/4SM R04R/4500V6000FT -RA BR OVC003 19/19 A2988 RMK AO2 RAB21 SLP119 P0000 60003 T01890189 55011 $=
24/06/2023 07:51->METAR KJFK 240751Z 18009KT 1/2SM R04R/2600V3000FT FG VV002 19/19 A2988 RMK AO2 SLP119 T01890189 $=
24/06/2023 06:51->METAR KJFK 240651Z 17007KT 5SM BR OVC005 19/19 A2989 RMK AO2 RAB00E45 SLP122 P0003 T01940194 $=
24/06/2023 05:51->METAR KJFK 240551Z 14007KT 7SM OVC008 19/19 A2992 RMK AO2 SLP130 T01940189 10206 20189 58010 $=
24/06/2023 04:51->METAR KJFK 240451Z 13004KT 8SM BKN007 BKN080 19/19 A2994 RMK AO2 SLP137 T01940189 402110172 $=
24/06/2023 03:51->METAR KJFK 240351Z 14007KT 9SM FEW003 BKN046 BKN060 19/19 A2995 RMK AO2 SLP140 T01940194 $=
24/06/2023 02:51->METAR KJFK 240251Z 12006KT 10SM BKN006 BKN048 19/19 A2995 RMK AO2 SLP143 T01890189 56002 $=
24/06/2023 01:51->METAR KJFK 240151Z 12006KT 10SM SCT006 BKN044 BKN160 OVC250 19/18 A2996 RMK AO2 SLP144 T01940183 $=
24/06/2023 00:51->METAR KJFK 240051Z 11007KT 10SM SCT006 BKN160 OVC250 19/19 A2995 RMK AO2 SLP142 T01940189 $=
23/06/2023 23:51->METAR KJFK 232351Z 13007KT 10SM SCT008 SCT075 BKN140 BKN250 21/19 A2996 RMK AO2 SLP144 60000 T02060189 10211 20189 56011 $=
23/06/2023 22:51->METAR KJFK 232251Z 12007KT 10SM BKN008 BKN075 BKN250 21/19 A2997 RMK AO2 SLP148 T02110194=
23/06/2023 21:51->METAR KJFK 232151Z 12007KT 10SM OVC005 20/19 A2998 RMK AO2 SLP151 T02000194=
23/06/2023 20:51->METAR KJFK 232051Z 13007KT 2 1/2SM OVC006 21/19 A2999 RMK AO2 SFC VIS 9 SLP155 60000 T02060194 56013=
23/06/2023 19:51->METAR KJFK 231951Z 11009KT 2 1/2SM OVC004 19/18 A3000 RMK AO2 SFC VIS 8 SLP158 T01940183 $=
23/06/2023 18:51->METAR KJFK 231851Z 11011KT 8SM OVC005 19/18 A3001 RMK AO2 DZE46 SLP161 P0000 T01940183 $=
23/06/2023 17:51->METAR KJFK 231751Z 12012KT 6SM -DZ BR OVC007 19/18 A3003 RMK AO2 DZB50 SLP167 60003 T01940178 10206 20178 56017 $=
23/06/2023 16:51->METAR KJFK 231651Z 09008KT 10SM OVC007 19/18 A3003 RMK AO2 RAE1554 SLP169 P0000 T01890178 $=
23/06/2023 15:51->METAR KJFK 231551Z 07011KT 10SM -RA BKN007 OVC013 18/18 A3005 RMK AO2 RAE13B38 SLP176 P0000 T01830178=
23/06/2023 14:51->METAR KJFK 231451Z 10012KT 7SM -RA BKN010 OVC018 18/17 A3008 RMK AO2 RAB12 SLP184 CIG 008V012 P0003 60003 T01780167 56006 $=
23/06/2023 13:51->METAR KJFK 231351Z 11011KT 10SM OVC013 19/16 A3008 RMK AO2 SLP185 CIG 010V016 T01940161 $=
23/06/2023 12:51->METAR KJFK 231251Z 11008KT 10SM OVC008 19/17 A3009 RMK AO2 SLP188 T01890167 $=
23/06/2023 11:51->METAR KJFK 231151Z 13010KT 10SM OVC008 18/17 A3009 RMK AO2 SLP190 T01780167 10178 20172 53008 $=
23/06/2023 10:51->METAR KJFK 231051Z 12005KT 10SM OVC007 18/17 A3008 RMK AO2 SLP184 T01780167 $=
23/06/2023 09:51->METAR KJFK 230951Z 10004KT 10SM OVC007 17/16 A3007 RMK AO2 SLP182 T01720161 $=
23/06/2023 08:51->METAR KJFK 230851Z 12005KT 10SM OVC006 17/16 A3007 RMK AO2 SLP182 T01720161 58006 $=
23/06/2023 07:51->METAR KJFK 230751Z 10008KT 10SM OVC006 17/16 A3008 RMK AO2 SLP184 T01720161 $=
23/06/2023 06:51->METAR KJFK 230651Z 12007KT 10SM OVC006 17/16 A3008 RMK AO2 SLP187 T01720161 $=
23/06/2023 05:51->METAR KJFK 230551Z 10006KT 10SM SCT007 BKN029 OVC130 17/16 A3009 RMK AO2 SLP188 T01720161 10206 20172 58005 $=
23/06/2023 04:51->METAR KJFK 230451Z 13006KT 10SM FEW006 BKN028 OVC049 18/17 A3010 RMK AO2 SLP193 T01780167 402280144 $=
23/06/2023 03:51->METAR KJFK 230351Z 13006KT 10SM FEW008 OVC031 18/17 A3011 RMK AO2 SLP194 T01780167 $=
23/06/2023 02:51->METAR KJFK 230251Z 15006KT 10SM SCT033 BKN250 18/17 A3010 RMK AO2 SLP193 T01780167 53002 $=
23/06/2023 01:51->METAR KJFK 230151Z 07006KT 10SM FEW024 OVC034 21/16 A3010 RMK AO2 SLP192 T02060161 $=
23/06/2023 00:51->METAR KJFK 230051Z 09004KT 10SM FEW024 BKN036 BKN250 20/17 A3010 RMK AO2 SLP191 T02000167 $=
22/06/2023 23:51->METAR KJFK 222351Z 12006KT 10SM OVC028 21/17 A3009 RMK AO2 SLP190 T02060167 10228 20206 55006 $=
22/06/2023 22:51->METAR KJFK 222251Z 08010KT 10SM BKN029 BKN250 22/16 A3009 RMK AO2 SLP189 T02220156 $=
22/06/2023 21:51->METAR KJFK 222151Z 08012KT 10SM BKN029 BKN250 22/15 A3009 RMK AO2 SLP190 T02220150 $=
22/06/2023 20:51->METAR KJFK 222051Z 04010KT 10SM OVC029 22/14 A3011 RMK AO2 SLP196 T02170144 56014 $=
22/06/2023 19:51->METAR KJFK 221951Z 08009KT 10SM OVC029 22/14 A3012 RMK AO2 SLP200 T02220144 $=
22/06/2023 18:51->METAR KJFK 221851Z 05008KT 10SM OVC027 22/14 A3014 RMK AO2 SLP205 T02170144 $=
22/06/2023 17:51->METAR KJFK 221751Z 05010KT 10SM OVC024 21/14 A3015 RMK AO2 SLP211 60000 T02110139 10211 20156 58012 $=
22/06/2023 16:51->METAR KJFK 221651Z 03011KT 10SM OVC021 20/14 A3018 RMK AO2 SLP219 T02000139 $=
22/06/2023 15:51->METAR KJFK 221551Z 04013G21KT 10SM SCT012 OVC020 18/13 A3019 RMK AO2 SLP223 T01830133 $=
22/06/2023 14:51->METAR KJFK 221451Z 04016G23KT 10SM FEW014 BKN023 OVC037 19/13 A3019 RMK AO2 SLP222 60000 T01890133 50001 $=
22/06/2023 13:51->METAR KJFK 221351Z 04013KT 10SM BKN015 BKN027 OVC039 17/13 A3019 RMK AO2 DZE06 SLP223 CIG 013V017 P0000 T01720133 $=
22/06/2023 12:51->METAR KJFK 221251Z 05013KT 4SM -DZ BR FEW007 BKN013 OVC025 16/14 A3019 RMK AO2 RAB31E41DZB41 SLP224 P0000 T01560144 $=
22/06/2023 11:51->METAR KJFK 221151Z 04010KT 10SM FEW012 OVC029 16/13 A3019 RMK AO2 SLP221 60000 T01610128 10172 20144 51004 $=
22/06/2023 10:51->METAR KJFK 221051Z 04012KT 10SM FEW013 OVC028 15/13 A3018 RMK AO2 SLP220 T01500128 $=
22/06/2023 09:51->METAR KJFK 220951Z 05011KT 10SM BKN026 OVC034 14/12 A3018 RMK AO2 RAE0853B34E44 SLP221 P0000 T01440117 $=
22/06/2023 08:51->METAR KJFK 220851Z 07011KT 10SM -RA OVC027 16/11 A3018 RMK AO2 RAB23 SLP218 P0000 60000 T01560111 55006 $=
22/06/2023 07:51->METAR KJFK 220751Z 06012KT 10SM SCT034 OVC049 16/11 A3017 RMK AO2 CIG 042 W SLP216 T01610111 $=
22/06/2023 06:51->METAR KJFK 220651Z 06014G23KT 10SM OVC034 17/10 A3018 RMK AO2 RAB38E47 SLP220 P0000 T01670100 $=
22/06/2023 05:51->METAR KJFK 220551Z 07014KT 10SM BKN040 OVC050 17/11 A3019 RMK AO2 SLP224 T01720106 10183 20172 57016 $=
22/06/2023 04:51->METAR KJFK 220451Z 07010KT 10SM BKN055 OVC070 17/11 A3021 RMK AO2 SLP228 T01720111 402220156 $=
22/06/2023 03:51->METAR KJFK 220351Z 07012KT 10SM OVC070 17/11 A3023 RMK AO2 SLP236 T01720111=
22/06/2023 02:51->METAR KJFK 220251Z 08012KT 10SM FEW035 BKN065 BKN250 17/12 A3024 RMK AO2 SLP240 T01720117 53001=
22/06/2023 01:51->METAR KJFK 220151Z 08014KT 10SM FEW030 BKN080 BKN250 18/12 A3024 RMK AO2 SLP238 T01780117=
22/06/2023 00:51->METAR KJFK 220051Z 09010KT 10SM FEW030 BKN085 BKN250 18/11 A3023 RMK AO2 SLP236 T01830106=
21/06/2023 23:51->METAR KJFK 212351Z 09011KT 10SM FEW030 BKN080 BKN100 BKN250 18/12 A3024 RMK AO2 SLP239 T01830117 10222 20183 57005=
21/06/2023 22:51->METAR KJFK 212251Z 09017KT 10SM FEW035 BKN095 BKN170 BKN250 19/12 A3024 RMK AO2 SLP240 T01890122=
21/06/2023 21:51->METAR KJFK 212151Z 10015KT 10SM FEW035 SCT100 BKN170 BKN250 20/13 A3025 RMK AO2 SLP242 T02000128=
21/06/2023 20:51->METAR KJFK 212051Z 10014G20KT 10SM FEW017 FEW035 BKN170 BKN250 21/13 A3025 RMK AO2 SLP244 T02110128 58009=
21/06/2023 19:51->METAR KJFK 211951Z 08015G24KT 10SM FEW017 FEW035 BKN190 BKN250 22/12 A3027 RMK AO2 SLP249 T02170117=
21/06/2023 18:51->METAR KJFK 211851Z 10011G20KT 10SM FEW035 BKN170 BKN250 20/13 A3028 RMK AO2 SLP253 T02000128=
21/06/2023 17:51->METAR KJFK 211751Z 11015KT 10SM FEW035 SCT180 BKN250 19/12 A3028 RMK AO2 SLP253 T01940122 10211 20172 50000=
21/06/2023 16:51->METAR KJFK 211651Z 09017G25KT 10SM FEW035 SCT200 BKN250 20/11 A3028 RMK AO2 SLP255 T02000111=
21/06/2023 15:51->METAR KJFK 211551Z 11015KT 10SM FEW032 FEW210 BKN250 20/13 A3029 RMK AO2 SLP257 T02000128=
21/06/2023 14:51->METAR KJFK 211451Z 11013KT 10SM FEW029 FEW210 BKN250 21/12 A3028 RMK AO2 SLP252 T02060117 52002=
21/06/2023 13:51->METAR KJFK 211351Z 07014KT 10SM FEW026 BKN250 21/11 A3028 RMK AO2 SLP252 T02060111=
21/06/2023 12:51->METAR KJFK 211251Z 06013KT 10SM FEW019 BKN250 19/11 A3027 RMK AO2 SLP251 T01890111=
21/06/2023 11:51->METAR KJFK 211151Z 07014KT 10SM BKN018 BKN250 17/12 A3027 RMK AO2 SLP250 BKN018 V SCT T01670122 10167 20156 51012=
21/06/2023 10:51->METAR KJFK 211051Z 05012KT 10SM BKN016 BKN250 16/12 A3026 RMK AO2 SLP246 T01560122=
21/06/2023 09:51->METAR KJFK 210951Z 05009KT 10SM BKN015 OVC250 16/12 A3025 RMK AO2 SLP244 T01560122=
21/06/2023 08:51->METAR KJFK 210851Z 04013KT 10SM OVC015 16/13 A3024 RMK AO2 SLP239 T01560128 58002 $=
21/06/2023 07:51->METAR KJFK 210751Z 05009KT 10SM FEW016 FEW080 OVC250 16/12 A3024 RMK SLP238 T01560122=
21/06/2023 06:51->METAR KJFK 210651Z 06009KT 10SM FEW080 BKN250 16/12 A3024 RMK AO2 SLP240 T01560122 $=
21/06/2023 05:51->METAR KJFK 210551Z 05008KT 10SM FEW080 BKN250 16/12 A3024 RMK AO2 SLP240 T01610117 10194 20161 50003 $=
21/06/2023 04:51->METAR KJFK 210451Z 06005KT 10SM FEW080 BKN250 17/11 A3024 RMK AO2 SLP241 T01670106 402390167 $=
21/06/2023 03:51->METAR KJFK 210351Z 05008KT 10SM FEW080 BKN250 17/11 A3024 RMK AO2 SLP239 T01720106 $=
21/06/2023 02:51->METAR KJFK 210251Z 07011KT 10SM FEW080 OVC250 18/11 A3023 RMK AO2 SLP238 T01780106 51007 $=
21/06/2023 01:51->METAR KJFK 210151Z 08009KT 10SM FEW190 BKN250 18/13 A3023 RMK AO2 SLP237 T01830128 $=
21/06/2023 00:51->METAR KJFK 210051Z 08008KT 10SM FEW020 FEW190 BKN250 18/12 A3022 RMK SLP233 T01830122=
20/06/2023 23:51->METAR KJFK 202351Z 11008KT 10SM FEW020 FEW190 BKN250 19/12 A3021 RMK SLP230 T01940117 10239 20194 53006=
20/06/2023 22:51->METAR KJFK 202251Z 10012KT 10SM FEW035 BKN250 20/13 A3020 RMK SLP227 T02000133=
20/06/2023 21:51->METAR KJFK 202151Z 11011KT 10SM FEW035 BKN250 21/13 A3019 RMK SLP224 T02110128=
20/06/2023 20:51->METAR KJFK 202051Z 12013KT 10SM FEW035 BKN250 22/13 A3019 RMK SLP224 T02170128 58003=
20/06/2023 19:51->METAR KJFK 201951Z 13011KT 10SM FEW035 FEW190 BKN250 22/13 A3021 RMK SLP228 T02170128=
20/06/2023 18:51->METAR KJFK 201851Z 13011KT 10SM FEW035 BKN250 23/13 A3020 RMK SLP228 T02280133=
20/06/2023 17:51->METAR KJFK 201751Z 09011KT 10SM FEW035 BKN250 23/13 A3020 RMK SLP228 T02330133 10233 20178 58001=
20/06/2023 17:00->METAR KJFK 141651Z 18015G23KT 10SM TS BKN007 BKN042 OVC120 21/18 A2954 RMK AO2 LTG DSNT N AND NW TSB51 SLP004 VCSH SW-N T02060178 $=
20/06/2023 16:51->METAR KJFK 201651Z 12011KT 10SM FEW033 FEW140 BKN250 23/14 A3021 RMK SLP230 T02280139=
20/06/2023 15:51->METAR KJFK 201551Z 11011KT 10SM SCT024 BKN250 22/16 A3021 RMK SLP231 T02220156=
20/06/2023 14:51->METAR KJFK 201451Z 12011KT 10SM BKN019 BKN250 21/16 A3021 RMK SLP229 T02110161 50001=
20/06/2023 13:51->METAR KJFK 201351Z 08008KT 10SM BKN018 BKN250 21/16 A3021 RMK SLP229 T02060156=
20/06/2023 12:51->METAR KJFK 201251Z 07007KT 10SM OVC012 19/16 A3021 RMK SLP229 T01890161=
20/06/2023 11:51->METAR KJFK 201151Z 06007KT 10SM OVC011 18/16 A3020 RMK SLP228 CIG 009V013 T01780156 10178 20172 51016=
20/06/2023 10:51->METAR KJFK 201051Z 06008KT 10SM OVC008 17/16 A3019 RMK SLP223 T01720156=
20/06/2023 09:51->METAR KJFK 200951Z 04008KT 10SM OVC010 17/16 A3018 RMK SLP218 T01720156=
20/06/2023 08:51->METAR KJFK 200851Z 07006KT 10SM OVC010 17/16 A3016 RMK SLP212 T01720156 53003=
20/06/2023 07:51->METAR KJFK 200751Z 05007KT 10SM OVC011 18/16 A3014 RMK SLP207 T01780156=
20/06/2023 06:51->METAR KJFK 200651Z 09005KT 10SM BKN011 BKN100 OVC250 18/16 A3014 RMK SLP2207 T01780161=
20/06/2023 05:51->METAR KJFK 200551Z 08005KT 10SM BKN011 OVC100 18/16 A3015 RMK SLP209 T01780161 10194 20178 50001=
20/06/2023 04:51->METAR KJFK 200451Z 09006KT 10SM BKN009 BKN100 OVC250 18/16 A3015 RMK SLP210 T01780161 402500172=
20/06/2023 03:51->METAR KJFK 200351Z 08007KT 10SM BKN008 OVC250 18/17 A3016 RMK SLP212 T01780167=
20/06/2023 02:51->METAR KJFK 200251Z 10009KT 10SM SCT008 SCT100 BKN250 18/17 A3015 RMK SLP208 SCT008 V BKN T01780167 51020=
20/06/2023 01:51->METAR KJFK 200151Z 10009KT 10SM FEW009 FEW100 BKN250 18/17 A3013 RMK SLP283 T01780167=
20/06/2023 00:51->METAR KJFK 200051Z 11006KT 10SM FEW020 FEW100 BKN250 18/17 A3011 RMK SLP196 T01830167=
19/06/2023 23:51->METAR KJFK 192351Z 12009KT 10SM FEW100 BKN250 19/16 A3009 RMK SLP188 T01940161 10244 20194 53014=
19/06/2023 22:51->METAR KJFK 192251Z 10009KT 10SM FEW045 BKN250 21/16 A3007 RMK SLP183 T02060161=
19/06/2023 21:51->METAR KJFK 192151Z 13008KT 10SM FEW045 BKN250 21/16 A3005 RMK SLP176 T02110161=
19/06/2023 20:51->METAR KJFK 192051Z 12013KT 10SM FEW045 BKN250 23/16 A3005 RMK SLP174 T02280156 58005=
19/06/2023 19:51->METAR KJFK 191951Z 12012KT 10SM FEW045 SCT250 23/16 A3006 RMK SLP179 T02330156=
19/06/2023 18:51->METAR KJFK 191851Z 12014KT 10SM FEW045 SCT250 24/16 A3007 RMK SLP182 T02390161=
19/06/2023 17:51->METAR KJFK 191751Z 13011KT 10SM FEW045 SCT250 24/17 A3006 RMK SLP179 T02390167 10250 20200 58001=
19/06/2023 16:51->METAR KJFK 191651Z 14009KT 10SM FEW042 SCT080 SCT250 23/17 A3007 RMK SLP182 T02330167=
19/06/2023 15:51->METAR KJFK 191551Z 14009KT 10SM FEW035 SCT075 SCT250 24/17 A3007 RMK SLP184 T02390167=
19/06/2023 14:51->METAR KJFK 191451Z VRB04KT 10SM SCT075 SCT250 24/16 A3007 RMK SLP181 T02390156 51011=
19/06/2023 13:51->METAR KJFK 191351Z 00000KT 10SM SCT075 SCT250 23/15 A3006 RMK SLP178 T02280150=
19/06/2023 12:51->METAR KJFK 191251Z 03005KT 10SM FEW080 FEW250 22/14 A3005 RMK SLP175 T02170144=
19/06/2023 11:51->METAR KJFK 191151Z 04008KT 10SM FEW250 20/14 A3003 RMK SLP169 T02000139 10200 20172 51017=
19/06/2023 10:51->METAR KJFK 191051Z 03007KT 10SM FEW075 FEW110 SCT250 19/14 A3002 RMK SLP164 T01890139=
19/06/2023 09:51->METAR KJFK 190951Z 03006KT 10SM FEW075 FEW250 17/14 A3000 RMK SLP160 T01720139=
19/06/2023 08:51->METAR KJFK 190851Z 04007KT 10SM FEW080 FEW250 17/14 A2998 RMK SLP152 T01720139 51007=
19/06/2023 07:51->METAR KJFK 190751Z 04007KT 10SM FEW080 SCT250 18/14 A2998 RMK SLP150 T01830144=
19/06/2023 06:51->METAR KJFK 190651Z 02006KT 10SM FEW080 SCT250 18/14 A2997 RMK SLP147 T01830144=
19/06/2023 05:51->METAR KJFK 190551Z 36004KT 10SM FEW080 SCT250 19/16 A2996 RMK SLP145 T01890156 10206 20178 51010=
19/06/2023 04:51->METAR KJFK 190451Z 23003KT 10SM SCT250 19/16 A2995 RMK SLP142 T01890161 402780178=
19/06/2023 03:51->METAR KJFK 190351Z 23004KT 10SM FEW080 SCT250 19/16 A2994 RMK SLP139 T01890161=
19/06/2023 02:51->METAR KJFK 190251Z 21003KT 10SM SCT250 20/16 A2993 RMK SLP135 T02000156 53012=
19/06/2023 01:51->METAR KJFK 190151Z 20003KT 10SM FEW080 SCT200 BKN250 19/15 A2992 RMK SLP132 T01940150=
19/06/2023 00:51->METAR KJFK 190051Z 20005KT 10SM FEW065 SCT080 BKN250 20/16 A2990 RMK SLP126 T02000156=
18/06/2023 23:51->METAR KJFK 182351Z 20011KT 10SM FEW065 SCT085 BKN250 21/16 A2990 RMK SLP123 T02060156 10278 20206 53011=
18/06/2023 22:51->METAR KJFK 182251Z 20012KT 10SM BKN065 BKN085 BKN250 21/16 A2988 RMK SLP119 T02110161=
18/06/2023 21:51->METAR KJFK 182151Z 18011KT 10SM BKN060 BKN080 BKN250 23/15 A2986 RMK SLP111 T02280150=
18/06/2023 20:51->METAR KJFK 182051Z 32008G16KT 10SM BKN060 BKN080 BKN250 26/13 A2986 RMK SLP112 T02610128 53006=
18/06/2023 19:51->METAR KJFK 181951Z 27010G15KT 10SM SCT055 BKN070 BKN250 27/12 A2985 RMK SLP109 T02670122=
18/06/2023 18:51->METAR KJFK 181851Z 28010G14KT 220V310 10SM SCT055 BKN070 BKN250 27/13 A2984 RMK SLP105 T02670133=
18/06/2023 17:51->METAR KJFK 181751Z 29008KT 10SM BKN055 BKN070 BKN250 25/13 A2984 RMK SLP106 T02500128 10261 20206 53002 $=
18/06/2023 16:51->METAR KJFK 181651Z 30007KT 10SM BKN060 BKN250 25/13 A2984 RMK SLP104 T02500128=
18/06/2023 15:51->METAR KJFK 181551Z 33009G16KT 10SM FEW049 SCT250 26/13 A2983 RMK SLP102 T02560128=
18/06/2023 14:51->METAR KJFK 181451Z 31010KT 10SM SCT045 SCT250 24/13 A2984 RMK SLP104 T02440128 53006=
18/06/2023 13:51->METAR KJFK 181351Z 36011G18KT 10SM FEW040 FEW080 SCT250 23/12 A2983 RMK SLP100 T02280122=
18/06/2023 12:51->METAR KJFK 181251Z 34012KT 10SM FEW075 SCT250 22/12 A2983 RMK SLP101 T02170122=
18/06/2023 11:51->METAR KJFK 181151Z 32012KT 10SM FEW080 SCT250 21/12 A2982 RMK SLP098 T02060117 10206 20178 51011 $=
18/06/2023 10:51->METAR KJFK 181051Z 30011G19KT 10SM FEW080 SCT250 19/10 A2981 RMK SLP094 T01890100=
18/06/2023 09:51->METAR KJFK 180951Z 28009KT 10SM FEW200 SCT250 18/10 A2981 RMK SLP093 T01780100=
18/06/2023 08:51->METAR KJFK 180851Z 29012KT 10SM FEW200 SCT250 18/11 A2979 RMK SLP087 T01780106 53008=
18/06/2023 07:51->METAR KJFK 180751Z 29009KT 10SM FEW250 18/11 A2977 RMK SLP081 T01780106=
18/06/2023 06:51->METAR KJFK 180651Z 32009KT 10SM SCT250 19/11 A2976 RMK SLP078 T01890106=
18/06/2023 05:51->METAR KJFK 180551Z 31013KT 10SM SCT250 19/11 A2977 RMK SLP079 T01940106 10206 20189 58001=
18/06/2023 04:51->METAR KJFK 180451Z 31011KT 10SM BKN075 BKN250 19/11 A2976 RMK SLP079 T01940106 402720156=
18/06/2023 03:51->METAR KJFK 180351Z 30013KT 10SM BKN080 20/11 A2977 RMK SLP081 T02000106=
18/06/2023 02:51->METAR KJFK 180251Z 31011KT 8SM BKN070 BKN085 20/11 A2977 RMK SLP080 T02000111 51014=
18/06/2023 01:51->METAR KJFK 180151Z 32009KT 9SM BKN110 OVC150 20/11 A2976 RMK SLP079 T02000111=
18/06/2023 00:51->METAR KJFK 180051Z 34015G21KT 9SM FEW070 BKN160 OVC250 20/11 A2975 RMK SLP074 T02000106=
17/06/2023 23:51->METAR KJFK 172351Z 35012KT 9SM FEW050 SCT070 SCT120 BKN180 BKN250 20/11 A2973 RMK PK WND 36029/2253 SLP066 T02000111 10272 20200 51034=
17/06/2023 22:51->METAR KJFK 172251Z 34021G31KT 8SM SCT050CB SCT075 BKN110 BKN250 22/09 A2970 RMK PK WND 01031/2248 SLP058 CB NW-NE MOV SE T02170094=
17/06/2023 21:51->METAR KJFK 172151Z 36024G35KT 10SM SCT050 SCT070 BKN110 BKN250 22/09 A2966 RMK PK WND 36035/2146 WSHFT 2131 SLP045 CB DSNT E T02220089=
17/06/2023 20:51->METAR KJFK 172051Z 30020G29KT 10SM FEW050 SCT075 BKN110 BKN250 26/09 A2963 RMK PK WND 30029/2048 TSB16E45 SLP032 T02560094 57002=
17/06/2023 19:51->METAR KJFK 171951Z 31020G27KT 10SM FEW050 SCT080 BKN250 27/09 A2963 RMK PK WND 30031/1900 SLP033 CB DSNT NW T02670094=
17/06/2023 18:51->METAR KJFK 171851Z 31018G28KT 10SM FEW050 SCT075 BKN250 26/09 A2963 RMK PK WND 31030/1841 SLP034 T02610089=
17/06/2023 17:51->METAR KJFK 171751Z 33012KT 10SM SCT060 BKN080 BKN090 BKN250 25/11 A2964 RMK SLP038 60000 T02500111 10250 20189 56004=
17/06/2023 16:51->METAR KJFK 171651Z 34012KT 10SM SCT045 BKN060 BKN095 BKN250 24/13 A2967 RMK RAE08 SLP045 P0000 T02390128=
17/06/2023 15:51->METAR KJFK 171551Z 33012KT 10SM -RA BKN038 BKN050 BKN060 BKN250 21/13 A2967 RMK RAB45 SLP048 P000 T02110133=
17/06/2023 14:51->METAR KJFK 171451Z 35013KT 10SM SCT034 BKN085 BKN250 22/14 A2966 RMK SLP044 T02170139 56004=
17/06/2023 13:51->METAR KJFK 171351Z 34011KT 10SM SCT085 BKN110 BKN250 22/14 A2966 RMK SLP044 T02170139=
17/06/2023 12:51->METAR KJFK 171251Z 32013KT 10SM SCT075 BKN100 BKN250 19/14 A2967 RMK SLP046 T01940139=
17/06/2023 11:51->METAR KJFK 171151Z 31013KT 10SM FEW055 BKN200 BKN250 18/14 A2967 RMK SLP048 70020 T01830139 10183 20156 51006=
17/06/2023 10:51->METAR KJFK 171051Z 32010KT 10SM SCT045 BKN070 BKN250 18/14 A2967 RMK SLP047 T01780139=
17/06/2023 09:51->METAR KJFK 170951Z 32009KT 10SM OVC041 17/14 A2967 RMK SLP045 T01670139=
17/06/2023 08:51->METAR KJFK 170851Z 34007KT 10SM BKN250 17/14 A2965 RMK SLP041 T01670139 55003=
17/06/2023 07:51->METAR KJFK 170751Z 34008KT 10SM SCT100 BKN250 16/14 A2965 RMK SLP041 T01610139=
17/06/2023 06:51->METAR KJFK 170651Z 33006KT 10SM FEW029 BKN250 16/14 A2966 RMK SLP042 T01610144=
17/06/2023 05:51->METAR KJFK 170551Z 36003KT 10SM FEW080 OVC250 17/14 A2966 RMK AO2 SLP044 T01670144 10183 20167 56009=
17/06/2023 04:51->METAR KJFK 170451Z 04005KT 10SM OVC250 17/14 A2967 RMK AO2 SLP046 T01670144 402560161=
17/06/2023 03:51->METAR KJFK 170351Z 05006KT 10SM SCT250 17/14 A2968 RMK SLP050 T01720144=
17/06/2023 02:51->METAR KJFK 170251Z 03007KT 10SM OVC025 18/14 A2969 RMK SLP053 T01830144 55000=
17/06/2023 01:51->METAR KJFK 170151Z 07005KT 10SM OVC025 18/14 A2969 RMK SLP055 T01830139=
17/06/2023 00:51->METAR KJFK 170051Z 08004KT 10SM FEW013 BKN024 OVC047 18/14 A2968 RMK AO2 SLP049 T01830139=
16/06/2023 23:51->METAR KJFK 162351Z 09003KT 10SM FEW025 BKN046 OVC250 18/14 A2969 RMK AO2 SLP053 60020 T01830144 10206 20172 53004=
16/06/2023 22:51->METAR KJFK 162251Z 09005KT 10SM FEW030 BKN048 OVC250 18/14 A2968 RMK AO2 SLP051 T01830144=
16/06/2023 21:51->METAR KJFK 162151Z 10009KT 10SM FEW030 FEW060 OVC250 19/14 A2968 RMK AO2 SLP049 T01890144=
16/06/2023 20:51->METAR KJFK 162051Z 08006KT 10SM FEW030 FEW110 OVC210 18/16 A2968 RMK AO2 SLP049 60020 T01830156 56019=
16/06/2023 19:51->METAR KJFK 161951Z 09006KT 10SM FEW017 FEW030 SCT110 OVC160 17/16 A2968 RMK RAE39 TSE31 SLP051 P0004 T01720161=
16/06/2023 18:51->METAR KJFK 161851Z 09008KT 7SM TSRA SCT030CB BKN065 OVC085 18/16 A2971 RMK AO2 TSB01 SLP060 OCNL LTGICCG NE-S TS NE-S MOV NE P0016 T01780156=
16/06/2023 17:51->METAR KJFK 161751Z 25007KT 5SM -RA FEW038CB BKN070 OVC120 21/15 A2973 RMK RAB13E29B45 SLP067 CB SW-W MOV NE P0000 60000 T02060150 10256 20200 55007=
16/06/2023 16:51->METAR KJFK 161651Z 18007KT 10SM FEW045 BKN120 BKN250 24/12 A2971 RMK AO2 SLP059 T02440117=
16/06/2023 15:51->METAR KJFK 161551Z 19006KT 10SM FEW045 SCT140 BKN250 25/13 A2973 RMK AO2 SLP066 T02500128=
16/06/2023 14:51->METAR KJFK 161451Z 19005KT 10SM FEW043 FEW140 SCT250 24/13 A2975 RMK AO2 SLP074 T02390133 50000=
16/06/2023 13:51->METAR KJFK 161351Z 20005KT 10SM SCT250 23/14 A2975 RMK SLP075 T02280144=
16/06/2023 12:51->METAR KJFK 161251Z 22006KT 10SM SCT250 22/13 A2976 RMK AO2 SLP076 T02170133=
16/06/2023 11:51->METAR KJFK 161151Z 20004KT 10SM FEW085 SCT250 20/15 A2975 RMK AO2 SLP074 T02000150 10200 20161 51006=
16/06/2023 10:51->METAR KJFK 161051Z 23005KT 10SM FEW100 BKN250 18/14 A2974 RMK AO2 SLP070 T01780144=
16/06/2023 09:51->METAR KJFK 160951Z 23005KT 10SM FEW100 SCT250 17/15 A2975 RMK AO2 SLP073 T01720150=
16/06/2023 08:51->METAR KJFK 160851Z 25005KT 10SM BKN250 18/16 A2973 RMK AO2 SLP068 T01780161 55004=
16/06/2023 07:51->METAR KJFK 160751Z 23004KT 10SM BKN250 18/16 A2973 RMK SLP067 T01780161=
16/06/2023 06:51->METAR KJFK 160651Z 21004KT 10SM BKN250 18/15 A2973 RMK SLP068 T01780150=
16/06/2023 05:51->METAR KJFK 160551Z 23006KT 10SM BKN250 18/16 A2974 RMK AO2 SLP071 T01780156 10250 20178 51007=
16/06/2023 04:51->METAR KJFK 160451Z 25008KT 10SM BKN250 20/15 A2974 RMK AO2 SLP071 T02000150 402670161=
16/06/2023 03:51->METAR KJFK 160351Z 29005KT 10SM SCT250 22/12 A2974 RMK AO2 SLP070 T02220122=
16/06/2023 02:51->METAR KJFK 160251Z 28008KT 10SM BKN250 23/12 A2972 RMK AO2 SLP064 T02280122 51018=
16/06/2023 01:51->METAR KJFK 160151Z 28011KT 10SM FEW080 BKN250 23/13 A2972 RMK AO2 SLP063 T02330128=
16/06/2023 00:51->METAR KJFK 160051Z 30008KT 10SM FEW060 FEW080 BKN250 24/13 A2969 RMK AO2 SLP054 T02390128=
15/06/2023 23:51->METAR KJFK 152351Z 30012KT 10SM FEW060 FEW080 BKN250 25/12 A2967 RMK AO2 SLP047 T02500122 10267 20233 53008=
15/06/2023 22:51->METAR KJFK 152251Z 30014KT 10SM SCT060 SCT080 BKN250 26/12 A2965 RMK AO2 SLP039 T02560122=
15/06/2023 21:51->METAR KJFK 152151Z 26011KT 10SM SCT055 SCT075 BKN250 26/13 A2964 RMK AO2 SLP037 T02560128=
15/06/2023 20:51->METAR KJFK 152051Z 30008KT 10SM SCT055 SCT075 BKN250 26/13 A2964 RMK AO2 SLP038 T02560128 55003=
15/06/2023 19:51->METAR KJFK 151951Z 34012G28KT 10SM SCT055 SCT075 BKN250 26/13 A2964 RMK PK WND 31028/1945 SLP036 T02560128=
15/06/2023 18:51->METAR KJFK 151851Z 31010G18KT 10SM SCT050 SCT065 BKN250 25/13 A2965 RMK AO2 SLP039 T02500133=
15/06/2023 17:51->METAR KJFK 151751Z 27011KT 10SM BKN050 BKN250 23/12 A2965 RMK AO2 SLP041 T02280122 10233 20189 51004=
15/06/2023 16:51->METAR KJFK 151651Z 28011KT 10SM BKN050 BKN250 23/12 A2965 RMK AO2 SLP041 T02280122=
15/06/2023 15:51->METAR KJFK 151551Z 29010KT 10SM BKN045 BKN250 22/12 A2965 RMK SLP042 T02170122=
15/06/2023 14:51->METAR KJFK 151451Z 29013KT 10SM BKN040 BKN250 21/12 A2964 RMK AO2 SLP037 T02110122 53011=
15/06/2023 13:51->METAR KJFK 151351Z 31014G21KT 10SM FEW035 SCT250 21/12 A2962 RMK SLP028 T02110122=
15/06/2023 12:51->METAR KJFK 151251Z 30012KT 10SM FEW033 SCT250 20/12 A2961 RMK SLP028 T02000122=
15/06/2023 11:51->METAR KJFK 151151Z 28009KT 10SM FEW030 FEW100 SCT250 19/12 A2961 RMK SLP026 70024 T01890122 10189 20161 53014=
15/06/2023 10:51->METAR KJFK 151051Z 27012KT 10SM FEW030 FEW100 SCT250 17/12 A2959 RMK AO2 SLP019 T01720117 $=
15/06/2023 09:51->METAR KJFK 150951Z 27010KT 10SM FEW100 SCT250 16/12 A2958 RMK AO2 SLP015 T01610117 $=
15/06/2023 08:51->METAR KJFK 150851Z 29011KT 10SM FEW250 16/11 A2957 RMK AO2 SLP012 T01610111 51001 $=
15/06/2023 07:51->METAR KJFK 150751Z 28011KT 10SM FEW250 17/12 A2956 RMK AO2 SLP011 T01670117 $=
15/06/2023 06:51->METAR KJFK 150651Z 27013KT 10SM FEW250 17/12 A2957 RMK AO2 SLP013 T01720117 $=
15/06/2023 05:51->METAR KJFK 150551Z 27013KT 10SM FEW100 FEW250 17/12 A2956 RMK AO2 SLP011 T01720117 10206 20172 50000 $=
15/06/2023 04:51->METAR KJFK 150451Z 29014G21KT 10SM FEW095 FEW250 18/12 A2957 RMK AO2 SLP011 T01830117 402220161 $=
15/06/2023 03:51->METAR KJFK 150351Z 27015KT 10SM FEW055 FEW250 19/12 A2956 RMK AO2 SLP010 T01890117 $=
15/06/2023 02:51->METAR KJFK 150251Z 27013G21KT 10SM FEW050 FEW250 19/11 A2956 RMK AO2 SLP010 T01940111 51016 $=
15/06/2023 01:51->METAR KJFK 150151Z 26016KT 10SM FEW047 FEW090 19/11 A2955 RMK AO2 SLP006 T01940111 $=
15/06/2023 00:51->METAR KJFK 150051Z 27016KT 10SM FEW047 FEW090 FEW250 20/11 A2953 RMK AO2 SLP999 CB DSNT E T02000111 $=
14/06/2023 23:51->METAR KJFK 142351Z 27006KT 10SM SCT047 SCT060 SCT090 SCT250 20/14 A2951 RMK AO2 RAB04E14 SLP994 CB DSNT NE P0000 60002 T02000139 10211 20183 53001 $=
14/06/2023 22:51->METAR KJFK 142251Z 20010KT 10SM SCT050CB SCT070 BKN100 BKN250 19/15 A2950 RMK AO2 SLP989 CB W-NW MOV E VCSH W-NW T01940150 $=
14/06/2023 21:51->METAR KJFK 142151Z 19014KT 10SM FEW020 SCT050 BKN100 BKN160 BKN250 20/16 A2950 RMK AO2 SLP990 TCU DSNT NE T02000156 $=
14/06/2023 20:51->METAR KJFK 142051Z 17009KT 10SM SCT042 SCT085 BKN250 21/16 A2951 RMK AO2 RAE1957 SLP993 P0000 60002 T02060161 58007 $=
14/06/2023 19:51->METAR KJFK 141951Z 24008KT 10SM -RA FEW020 SCT042 BKN090 BKN250 19/15 A2952 RMK AO2 RAE1854B19 SLP997 CB DSNT NE P0002 T01890150 $=
14/06/2023 18:51->METAR KJFK 141851Z 28013G18KT 10SM -RA FEW009 SCT042 BKN095 OVC130 21/16 A2952 RMK AO2 WSHFT 1756 RAE11B26 SLP996 P0000 T02060161 $=
14/06/2023 17:51->METAR KJFK 141751Z 20016KT 8SM -RA SCT007 SCT028 BKN048 BKN180 19/18 A2953 RMK AO2 LTG DSNT N AND NE RAB15 TSE1652B01E50 SLP000 CB DSNT NE-E MOV NE P0022 60022 T01940183 10222 20183 56015 $=
14/06/2023 16:51->METAR KJFK 141651Z 18015G23KT 10SM TS BKN007 BKN042 OVC120 21/18 A2954 RMK AO2 LTG DSNT N AND NW TSB51 SLP004 VCSH SW-N T02060178 $=
14/06/2023 15:51->METAR KJFK 141551Z 18016KT 10SM FEW015 BKN120 BKN250 22/18 A2956 RMK AO2 SLP009 T02170178=
14/06/2023 14:51->METAR KJFK 141451Z 17012KT 10SM FEW012 BKN120 BKN250 22/18 A2957 RMK AO2 SLP014 T02170178 58015=
14/06/2023 13:51->METAR KJFK 141351Z 19012KT 10SM FEW012 FEW110 FEW140 BKN250 22/18 A2960 RMK AO2 SLP022 T02170178=
14/06/2023 12:51->METAR KJFK 141251Z 18009KT 10SM FEW012 FEW140 BKN250 21/17 A2961 RMK AO2 SLP028 T02060172=
14/06/2023 11:51->METAR KJFK 141151Z 18008KT 10SM FEW016 FEW080 FEW140 BKN250 19/17 A2962 RMK AO2 SLP029 T01890167 10200 20161 56008 $=
14/06/2023 10:51->METAR KJFK 141051Z 15007KT 10SM FEW045 FEW080 SCT250 18/17 A2962 RMK AO2 SLP031 T01830167 $=
14/06/2023 09:51->METAR KJFK 140951Z 16004KT 10SM FEW080 SCT250 17/14 A2963 RMK AO2 SLP033 T01670144 $=
14/06/2023 08:51->METAR KJFK 140851Z 20007KT 10SM SCT250 17/14 A2964 RMK AO2 SLP038 T01670144 58012 $=
14/06/2023 07:51->METAR KJFK 140751Z 21007KT 10SM FEW250 17/15 A2965 RMK AO2 SLP041 T01720150 $=
14/06/2023 06:51->METAR KJFK 140651Z 21008KT 10SM FEW250 17/15 A2967 RMK AO2 SLP046 T01720150=
14/06/2023 05:51->METAR KJFK 140551Z 22007KT 10SM FEW250 17/14 A2968 RMK AO2 SLP050 T01720144 10233 20172 56008=
14/06/2023 04:51->METAR KJFK 140451Z 21009KT 10SM FEW250 18/14 A2968 RMK AO2 SLP051 T01830139 402670178=
14/06/2023 03:51->METAR KJFK 140351Z 21007KT 10SM SCT250 19/12 A2969 RMK AO2 SLP054 T01890122=
14/06/2023 02:51->METAR KJFK 140251Z 24006KT 10SM SCT250 19/11 A2970 RMK AO2 SLP057 T01940111 50005=
14/06/2023 01:51->METAR KJFK 140151Z 27008KT 10SM FEW065 SCT250 22/10 A2970 RMK AO2 SLP058 T02220100=
14/06/2023 00:51->METAR KJFK 140051Z 27012KT 10SM FEW065 SCT250 23/10 A2969 RMK AO2 SLP054 T02280100=
13/06/2023 23:51->METAR KJFK 132351Z 26010KT 10SM SCT065 SCT250 23/11 A2969 RMK AO2 SLP052 T02330106 10267 20233 53009=
13/06/2023 22:51->METAR KJFK 132251Z 25012KT 10SM FEW055 FEW250 24/12 A2968 RMK AO2 SLP049 T02390122=
13/06/2023 21:51->METAR KJFK 132151Z 23017KT 10SM FEW055 FEW250 25/12 A2966 RMK AO2 SLP044 T02500117=
13/06/2023 20:51->METAR KJFK 132051Z 24016G20KT 10SM FEW055 SCT250 26/11 A2966 RMK AO2 SLP043 T02560106 56006=
13/06/2023 19:51->METAR KJFK 131951Z 23013G19KT 10SM FEW055 SCT230 26/11 A2966 RMK AO2 SLP045 T02560106=
13/06/2023 18:51->METAR KJFK 131851Z 26014G19KT 10SM SCT055 BKN230 27/12 A2966 RMK AO2 SLP044 T02670122=
13/06/2023 17:51->METAR KJFK 131751Z 29010G18KT 260V320 10SM SCT050 BKN250 26/12 A2968 RMK AO2 SLP049 T02610122 10261 20183 58007=
13/06/2023 16:51->METAR KJFK 131651Z 29012KT 270V330 10SM SCT042 BKN250 25/14 A2970 RMK AO2 SLP056 SCT V BKN T02500139=
13/06/2023 15:51->METAR KJFK 131551Z 27014KT 10SM SCT037 BKN250 24/14 A2971 RMK AO2 SLP059 T02390139=
13/06/2023 14:51->METAR KJFK 131451Z 29010G17KT 10SM SCT034 23/14 A2970 RMK AO2 SLP057 T02280139 51005=
13/06/2023 13:51->METAR KJFK 131351Z VRB06KT 10SM SCT028 BKN250 21/14 A2970 RMK AO2 SLP055 T02110139=
13/06/2023 12:51->METAR KJFK 131251Z 27008KT 10SM BKN023 BKN250 19/14 A2969 RMK AO2 SLP054 T01890139=
13/06/2023 11:51->METAR KJFK 131151Z 29011KT 10SM BKN021 18/14 A2968 RMK AO2 SLP051 70018 T01830139 10189 20178 51015=
13/06/2023 10:51->METAR KJFK 131051Z 31010KT 10SM BKN021 18/14 A2967 RMK AO2 SLP048 T01780139=
13/06/2023 09:51->METAR KJFK 130951Z 30011KT 10SM BKN018 18/14 A2967 RMK AO2 SLP046 T01780144=
13/06/2023 08:51->METAR KJFK 130851Z 28008KT 10SM OVC020 19/16 A2964 RMK AO2 SLP036 T01890161 51010=
13/06/2023 07:51->METAR KJFK 130751Z 28005KT 10SM OVC019 19/17 A2963 RMK AO2 SLP034 T01890172=
13/06/2023 06:51->METAR KJFK 130651Z 27010KT 10SM BKN016 19/17 A2962 RMK AO2 SLP031 T01890172=
13/06/2023 05:51->METAR KJFK 130551Z 26012KT 10SM BKN016 19/18 A2961 RMK AO2 SLP025 60013 T01890178 10200 20183 55004=
13/06/2023 04:51->METAR KJFK 130451Z 24013KT 10SM SCT022 SCT250 20/19 A2960 RMK AO2 SLP022 T02000189 402440183=
13/06/2023 03:51->METAR KJFK 130351Z 19012KT 9SM FEW005 OVC017 19/19 A2961 RMK AO2 SLP028 T01940194=
13/06/2023 02:51->METAR KJFK 130251Z 17012KT 8SM OVC005 19/19 A2962 RMK AO2 RAE41 SLP030 P0001 60013 T01890189 56007=
13/06/2023 01:51->METAR KJFK 130151Z 13012KT 7SM -RA BKN005 OVC024 19/19 A2962 RMK AO2 RAB0056 SLP031 P0002 T01890189=
13/06/2023 00:51->METAR KJFK 130051Z 13012KT 6SM BR BKN006 OVC014 18/18 A2963 RMK AO2 RAE43 SLP033 P0010 T01830183=
12/06/2023 23:51->METAR KJFK 122351Z 10009KT 3SM RA BR FEW004 BKN016 OVC029 19/18 A2964 RMK AO2 SFC VIS 5 RAB34 SLP037 P0005 60005 T01940183 10244 20194 58013=
12/06/2023 22:51->METAR KJFK 122251Z 10006KT 8SM BKN004 BKN022 BKN250 20/19 A2966 RMK AO2 SLP042 BKN004 V SCT T02000189=
12/06/2023 21:51->METAR KJFK 122151Z 12008KT 6SM BR OVC005 19/19 A2967 RMK AO2 SLP047 T01940189=
12/06/2023 20:51->METAR KJFK 122051Z 13011KT 8SM OVC007 21/19 A2968 RMK AO2 SLP050 T02060189 56021=
12/06/2023 19:51->METAR KJFK 121951Z 12014G22KT 10SM OVC008 21/19 A2969 RMK AO2 SLP054 T02110189=
12/06/2023 18:51->METAR KJFK 121851Z 12017G21KT 10SM BKN011 BKN180 BKN250 24/19 A2971 RMK AO2 SLP059 T02390194=
12/06/2023 17:51->METAR KJFK 121751Z 13015G20KT 9SM BKN010 BKN130 BKN250 23/19 A2974 RMK AO2 SLP072 CIG 008V012 T02280189 10244 20194 58020=
12/06/2023 16:51->METAR KJFK 121651Z 14015KT 10SM FEW029 BKN130 BKN250 24/19 A2976 RMK AO2 SLP078 T02440194=
12/06/2023 15:51->METAR KJFK 121551Z 15014G21KT 10SM FEW027 BKN150 BKN250 23/18 A2979 RMK AO2 SLP087 T02330183=
12/06/2023 14:51->METAR KJFK 121451Z 15017G20KT 9SM SCT026 BKN085 BKN190 BKN250 23/18 A2980 RMK AO2 SLP092 T02280183 58008=
12/06/2023 13:51->METAR KJFK 121351Z 17012KT 9SM FEW011 BKN030 BKN070 OVC150 21/18 A2982 RMK AO2 SLP098 T02110178=
12/06/2023 12:51->METAR KJFK 121251Z 16008KT 8SM FEW027 SCT070 OVC150 19/17 A2983 RMK AO2 SLP100 T01940172=
12/06/2023 11:51->METAR KJFK 121151Z 17006KT 8SM SCT070 OVC170 19/17 A2983 RMK AO2 SLP100 T01940172 10194 20183 51004=
12/06/2023 10:51->METAR KJFK 121051Z 16007KT 9SM BKN075 OVC180 19/17 A2982 RMK AO2 SLP098 T01890167 $=
12/06/2023 09:51->METAR KJFK 120951Z 18007KT 10SM BKN070 OVC180 19/17 A2983 RMK AO2 SLP100 T01890167 $=
12/06/2023 08:51->METAR KJFK 120851Z 17010KT 10SM BKN080 OVC170 19/17 A2982 RMK AO2 SLP096 T01890172 57006 $=
12/06/2023 07:51->METAR KJFK 120751Z 18011KT 10SM BKN080 OVC160 19/17 A2982 RMK AO2 SLP098 T01890172 $=
12/06/2023 06:51->METAR KJFK 120651Z 18009KT 10SM FEW080 OVC170 19/17 A2983 RMK AO2 SLP101 T01890172 $=
12/06/2023 05:51->METAR KJFK 120551Z 19009KT 10SM BKN150 BKN220 19/17 A2984 RMK AO2 SLP103 T01890167 10206 20189 58004 $=
12/06/2023 04:51->METAR KJFK 120451Z 18015KT 10SM BKN250 19/17 A2985 RMK AO2 SLP106 T01890167 402440167 $=
12/06/2023 03:51->METAR KJFK 120351Z 18015KT 10SM BKN250 19/17 A2985 RMK AO2 SLP107 T01890172 $=
12/06/2023 02:51->METAR KJFK 120251Z 18016KT 10SM BKN250 19/17 A2985 RMK AO2 SLP107 T01890172 51005 $=
12/06/2023 01:51->METAR KJFK 120151Z 18016G24KT 10SM FEW100 BKN250 19/17 A2984 RMK AO2 PK WND 18027/0104 SLP105 T01940167 $=
12/06/2023 00:51->METAR KJFK 120051Z 18018KT 9SM FEW080 SCT100 SCT200 BKN250 19/17 A2984 RMK AO2 SLP103 T01940167 $=
11/06/2023 23:51->METAR KJFK 112351Z 16013KT 10SM SCT100 SCT180 BKN250 21/15 A2983 RMK AO2 SLP102 T02060150 10239 20206 56004=
11/06/2023 22:51->METAR KJFK 112251Z 14013KT 10SM FEW085 SCT110 BKN250 21/16 A2984 RMK AO2 SLP104 T02110156=
11/06/2023 21:51->METAR KJFK 112151Z 13007KT 10SM SCT090 SCT130 BKN250 21/16 A2983 RMK AO2 SLP102 T02110156=
11/06/2023 20:51->METAR KJFK 112051Z 13008KT 10SM FEW080 SCT110 BKN250 23/17 A2984 RMK AO2 SLP106 T02330167 58010=
11/06/2023 19:51->METAR KJFK 111951Z 15007KT 10SM FEW065 BKN110 OVC250 22/16 A2986 RMK AO2 SLP111 VCSH W T02170161=
11/06/2023 18:51->METAR KJFK 111851Z 15009KT 10SM FEW095 SCT120 SCT200 BKN250 23/16 A2987 RMK AO2 SLP114 T02280161=
11/06/2023 17:51->METAR KJFK 111751Z 14006KT 10SM BKN100 BKN210 BKN250 23/16 A2987 RMK AO2 SLP116 T02280161 10244 20189 58008=
11/06/2023 16:51->METAR KJFK 111651Z 15008KT 10SM SCT090 BKN220 BKN250 24/16 A2989 RMK AO2 SLP120 T02390156=
11/06/2023 15:51->METAR KJFK 111551Z VRB04KT 10SM SCT100 SCT210 BKN250 23/15 A2990 RMK AO2 SLP123 T02330150=
11/06/2023 14:51->METAR KJFK 111451Z 19005KT 10SM SCT100 SCT210 BKN250 22/15 A2990 RMK AO2 SLP124 T02220150 50004=
11/06/2023 13:51->METAR KJFK 111351Z 19006KT 9SM FEW095 SCT200 BKN250 21/16 A2990 RMK AO2 SLP125 T02110156=
11/06/2023 12:51->METAR KJFK 111251Z 20007KT 10SM FEW100 SCT200 BKN250 21/15 A2990 RMK AO2 SLP124 T02060150=
11/06/2023 11:51->METAR KJFK 111151Z 21005KT 10SM FEW100 BKN230 19/14 A2989 RMK AO2 SLP120 70005 T01890144 10194 20167 51008=
11/06/2023 10:51->METAR KJFK 111051Z 21004KT 10SM FEW100 BKN250 18/15 A2988 RMK AO2 SLP117 T01830150=
11/06/2023 09:51->METAR KJFK 110951Z 21008KT 10SM BKN100 BKN250 17/15 A2987 RMK AO2 SLP116 T01720150=
11/06/2023 08:51->METAR KJFK 110851Z 18005KT 10SM SCT100 SCT250 17/16 A2986 RMK AO2 SLP112 T01720156 50000=
11/06/2023 07:51->METAR KJFK 110751Z 13005KT 10SM FEW090 17/16 A2987 RMK AO2 SLP113 T01720156=
11/06/2023 06:51->METAR KJFK 110651Z 03005KT 10SM BKN080 BKN110 18/16 A2987 RMK AO2 SLP114 T01830161=
11/06/2023 05:51->METAR KJFK 110551Z 17005KT 10SM FEW055 BKN080 BKN110 18/16 A2986 RMK AO2 RAB12E50 SLP112 P0002 60005 T01780161 10200 20178 50002=
11/06/2023 04:51->METAR KJFK 110451Z 18007KT 10SM BKN080 BKN120 18/16 A2987 RMK AO2 RAE18 SLP114 P0003 T01780161 402670133=
11/06/2023 03:51->METAR KJFK 110351Z 27011KT 8SM -RA BKN065 BKN085 19/15 A2989 RMK AO2 RAB49 SLP121 P0000 T01940150=
11/06/2023 02:51->METAR KJFK 110251Z 20008KT 10SM BKN120 BKN250 18/15 A2986 RMK AO2 SLP110 T01830150 53012=
11/06/2023 01:51->METAR KJFK 110151Z 18005KT 10SM SCT250 18/14 A2985 RMK AO2 SLP107 T01830144=
11/06/2023 00:51->METAR KJFK 110051Z 20006KT 10SM BKN250 19/14 A2983 RMK AO2 SLP102 T01890139=
10/06/2023 23:51->METAR KJFK 102351Z 21008KT 10SM SCT100 BKN250 19/14 A2982 RMK AO2 SLP099 T01940144 10267 20189 53014=
10/06/2023 22:51->METAR KJFK 102251Z 19008KT 10SM SCT100 BKN250 20/14 A2981 RMK AO2 SLP093 T02000144=
10/06/2023 21:51->METAR KJFK 102151Z 19013KT 10SM SCT075 BKN090 21/14 A2979 RMK AO2 SLP087 T02110139=
10/06/2023 20:51->METAR KJFK 102051Z 20014KT 10SM BKN085 BKN200 23/13 A2978 RMK AO2 SLP085 T02280133 53001=
10/06/2023 19:51->METAR KJFK 101951Z 31013KT 10SM SCT070 BKN090 BKN200 26/09 A2977 RMK AO2 SLP081 T02610094=
10/06/2023 18:51->METAR KJFK 101851Z 30017G22KT 10SM FEW060 FEW075 BKN200 26/09 A2978 RMK AO2 SLP085 T02560089=
10/06/2023 17:51->METAR KJFK 101751Z 32009KT 10SM SCT060 BKN250 25/09 A2978 RMK AO2 SLP083 T02500094 10250 20172 58006=
10/06/2023 16:51->METAR KJFK 101651Z 28009G15KT 10SM SCT060 SCT070 BKN100 BKN250 23/09 A2979 RMK AO2 SLP086 T02280094=
10/06/2023 15:51->METAR KJFK 101551Z 29008KT 10SM SCT050 SCT250 22/09 A2979 RMK AO2 SLP089 T02220094=
10/06/2023 14:51->METAR KJFK 101451Z 30011G14KT 10SM FEW046 FEW090 SCT250 21/09 A2980 RMK AO2 SLP089 T02060089 50002=
10/06/2023 13:51->METAR KJFK 101351Z 31010KT 10SM FEW036 FEW090 SCT250 19/10 A2980 RMK AO2 SLP090 T01940100=
10/06/2023 12:51->METAR KJFK 101251Z 34010KT 10SM FEW090 FEW250 19/11 A2980 RMK AO2 SLP091 T01890106=
10/06/2023 11:51->METAR KJFK 101151Z 33009KT 10SM FEW090 FEW250 17/11 A2979 RMK AO2 SLP087 70006 T01720106 10172 20133 51015=
10/06/2023 10:51->METAR KJFK 101051Z 31009KT 10SM FEW090 SCT250 16/11 A2978 RMK AO2 SLP084 T01560106=
10/06/2023 09:51->METAR KJFK 100951Z 31009KT 10SM SCT090 SCT250 14/10 A2976 RMK AO2 SLP079 T01390100=
10/06/2023 08:51->METAR KJFK 100851Z 30007KT 10SM BKN090 BKN250 14/10 A2975 RMK AO2 SLP072 T01390100 53003=
10/06/2023 07:51->METAR KJFK 100751Z 32005KT 10SM FEW250 14/10 A2974 RMK AO2 SLP069 T01390100=
10/06/2023 06:51->METAR KJFK 100651Z 34003KT 10SM FEW100 FEW250 14/10 A2973 RMK AO2 SLP068 T01440100=
10/06/2023 05:51->METAR KJFK 100551Z 34007KT 10SM SCT110 SCT250 15/11 A2974 RMK AO2 SLP069 60006 T01500106 10172 20150 58008=
10/06/2023 04:51->METAR KJFK 100451Z 36004KT 10SM BKN090 BKN250 16/12 A2975 RMK AO2 SLP073 T01560122 402220144=
10/06/2023 03:51->METAR KJFK 100351Z 01005KT 10SM FEW045 BKN085 OVC250 16/14 A2975 RMK AO2 SLP075 T01610144=
10/06/2023 02:51->METAR KJFK 100251Z 26005KT 10SM FEW045 SCT090 SCT250 16/14 A2976 RMK AO2 SLP077 60006 T01610144 51009=
10/06/2023 01:51->METAR KJFK 100151Z 17009KT 10SM FEW045 FEW065 BKN090 BKN250 16/15 A2976 RMK AO2 LTG DSNT SE RAE0052B29E39 SLP076 OCNL LTGIC DSNT SE CB DSNT SE P0000 T01610150=
10/06/2023 00:51->METAR KJFK 100051Z 16005KT 10SM -RA SCT047 BKN090 OVC250 16/12 A2975 RMK AO2 RAB08 SLP072 P0006 T01560122=
09/06/2023 23:51->METAR KJFK 092351Z 19007KT 10SM FEW040 SCT070 BKN090 BKN250 17/13 A2973 RMK AO2 SLP068 VCSH W T01720128 10222 20172 53009=
09/06/2023 22:51->METAR KJFK 092251Z 16006KT 10SM FEW040 FEW070 BKN090 BKN230 18/13 A2972 RMK AO2 SLP065 VCSH SE AND W T01830128=
09/06/2023 21:51->METAR KJFK 092151Z 14005KT 10SM SCT065 BKN095 BKN140 BKN250 18/13 A2971 RMK AO2 SLP062 VCSH NE AND SW-NW T01830128=
09/06/2023 20:51->METAR KJFK 092051Z 18014KT 10SM SCT060 BKN100 BKN250 19/13 A2971 RMK AO2 SLP059 VCSH NW T01890128 55010=
09/06/2023 19:51->METAR KJFK 091951Z 18010KT 10SM SCT060 BKN095 BKN250 21/11 A2970 RMK AO2 SLP058 VCSH NW T02110106=
09/06/2023 18:51->METAR KJFK 091851Z 20008KT 10SM SCT050 BKN100 BKN250 21/10 A2972 RMK AO2 SLP063 T02110100=
09/06/2023 17:51->METAR KJFK 091751Z 21011KT 10SM SCT050 BKN095 BKN250 20/10 A2974 RMK AO2 SLP069 T02000100 10217 20167 58009=
09/06/2023 16:51->METAR KJFK 091651Z 23009G14KT 10SM SCT047 BKN070 BKN250 20/10 A2975 RMK AO2 SLP074 T02000100=
09/06/2023 15:51->METAR KJFK 091551Z 03004KT 10SM SCT044 BKN250 19/08 A2976 RMK AO2 SLP076 T01940083=
09/06/2023 14:51->METAR KJFK 091451Z 01004KT 10SM SCT042 SCT140 BKN250 19/09 A2976 RMK AO2 SLP078 T01940089 50001=
09/06/2023 13:51->METAR KJFK 091351Z VRB04KT 10SM SCT037 SCT140 BKN250 19/09 A2977 RMK AO2 SLP079 T01890089=
09/06/2023 12:51->METAR KJFK 091251Z 36006KT 10SM FEW034 SCT140 BKN250 18/09 A2977 RMK AO2 SLP080 T01780094=
09/06/2023 11:51->METAR KJFK 091151Z 02004KT 10SM FEW065 SCT150 BKN250 17/09 A2976 RMK AO2 SLP078 T01670094 10172 20144 51012=
09/06/2023 10:51->METAR KJFK 091051Z 34007KT 10SM FEW065 BKN150 BKN250 16/09 A2975 RMK AO2 SLP075 T01560094=
09/06/2023 09:51->METAR KJFK 090951Z 32007KT 10SM FEW080 BKN150 15/09 A2975 RMK AO2 SLP072 T01500089=
09/06/2023 08:51->METAR KJFK 090851Z 34006KT 10SM SCT070 OVC150 15/09 A2972 RMK AO2 SLP065 T01500089 55003=
09/06/2023 07:51->METAR KJFK 090751Z 32007KT 10SM SCT070 OVC150 16/08 A2972 RMK AO2 SLP065 T01560083=
09/06/2023 06:51->METAR KJFK 090651Z 33007KT 10SM SCT080 OVC140 16/08 A2973 RMK AO2 SLP066 T01610083=
09/06/2023 05:51->METAR KJFK 090551Z 34005KT 10SM FEW080 OVC140 16/08 A2973 RMK AO2 SLP068 T01610083 10178 20139 58005=
09/06/2023 04:51->METAR KJFK 090451Z 34005KT 6SM FU HZ FEW060 OVC140 16/09 A2974 RMK AO2 SLP070 T01610094 402170106=
09/06/2023 03:51->METAR KJFK 090351Z 00000KT 5SM FU HZ FEW055 BKN140 14/12 A2975 RMK AO2 SLP074 T01440117=
09/06/2023 02:51->METAR KJFK 090251Z 11003KT 5SM FU HZ FEW043 BKN160 16/10 A2975 RMK AO2 SLP073 T01610100 51009=
09/06/2023 01:51->METAR KJFK 090151Z 17004KT 6SM FU HZ FEW041 BKN110 17/11 A2975 RMK AO2 SLP073 T01670106=
09/06/2023 00:51->METAR KJFK 090051Z 00000KT 6SM FU HZ SCT043 BKN100 BKN210 17/10 A2973 RMK AO2 SLP066 T01720100=
08/06/2023 23:51->METAR KJFK 082351Z 16003KT 5SM FU HZ FEW000 FEW055 SCT070 BKN100 BKN180 18/11 A2972 RMK AO2 SLP064 FU HZ FEW000 T01780111 10217 20178 53003=
08/06/2023 22:51->METAR KJFK 082251Z 20005KT 5SM FU HZ FEW000 SCT075 BKN100 BKN210 18/11 A2971 RMK AO2 SLP060 FU HZ FEW000 T01830111=
08/06/2023 21:51->METAR KJFK 082151Z 18009KT 5SM FU HZ FEW000 FEW055 BKN075 BKN100 BKN250 18/12 A2971 RMK AO2 SLP060 FU HZ FEW000 T01830122=
08/06/2023 20:51->METAR KJFK 082051Z 22009KT 5SM FU HZ FEW000 FEW038 BKN070 BKN100 18/12 A2971 RMK AO2 SLP061 FU HZ FEW000 T01830117 53009=
08/06/2023 19:51->METAR KJFK 081951Z 19011KT 5SM FU HZ FEW000 SCT060 BKN090 20/09 A2969 RMK AO2 SLP055 FU HZ FEW000 T02000094=
08/06/2023 18:51->METAR KJFK 081851Z 20009KT 5SM FU HZ FEW000 SCT060 SCT085 21/08 A2969 RMK AO2 SLP055 FU HZ FEW000 T02060083=
08/06/2023 17:51->METAR KJFK 081751Z 21008KT 5SM FU HZ FEW000 SCT060 21/08 A2968 RMK AO2 SLP051 FU HZ FEW000 T02110083 10217 20161 58011=
08/06/2023 16:51->METAR KJFK 081651Z 20011KT 4SM FU HZ SCT000 SCT039 SCT250 21/08 A2970 RMK AO2 SLP057 FU HZ SCT000 T02060083=
08/06/2023 15:51->METAR KJFK 081551Z 20010KT 4SM FU HZ SCT000 SCT036 20/08 A2971 RMK AO2 SLP062 FU HZ SCT000 T02000083=
08/06/2023 14:51->METAR KJFK 081451Z 28006KT 4SM FU HZ SCT000 SCT036 21/07 A2972 RMK AO2 SLP062 FU HZ SCT000 T02060067 58003=
08/06/2023 13:51->METAR KJFK 081351Z 31005KT 3SM FU HZ SCT000 SCT029 19/08 A2973 RMK AO2 SLP066 FU HZ SCT000 T01940078=
08/06/2023 12:51->METAR KJFK 081251Z 35006KT 2 1/2SM FU HZ BKN000 BKN029 17/08 A2973 RMK AO2 SLP068 FU HZ BKN000 T01720083=
08/06/2023 11:51->METAR KJFK 081151Z 35004KT 2 1/2SM FU HZ BKN000 BKN031 16/08 A2973 RMK AO2 SLP066 FU HZ BKN000 T01610083 10161 20106 51018 $=
08/06/2023 10:51->METAR KJFK 081051Z 00000KT 3SM FU HZ SCT000 SCT031 12/09 A2972 RMK AO2 SLP063 FU HZ SCT000 T01220094 $=
08/06/2023 09:51->METAR KJFK 080951Z 00000KT 3SM FU HZ SCT000 SCT033 12/09 A2969 RMK AO2 SLP055 FU HZ SCT000 T01170089 $=
08/06/2023 08:51->METAR KJFK 080851Z 00000KT 1 1/2SM FU HZ BKN000 BKN033 12/08 A2967 RMK AO2 SFC VIS 4 SLP048 FU HZ BKN000 T01170078 57003 $=
08/06/2023 07:51->METAR KJFK 080751Z 34003KT 1 1/2SM FU HZ BKN000 BKN035 12/08 A2967 RMK AO2 SFC VIS 4 SLP048 FU HZ BKN000 T01220078=
08/06/2023 06:51->METAR KJFK 080651Z 36004KT 1 1/2SM FU HZ BKN000 BKN037 13/08 A2968 RMK AO2 SFC VIS 4 SLP050 FU HZ BKN000 T01280078=
08/06/2023 05:51->METAR KJFK 080551Z 00000KT 1 1/2SM FU HZ BKN000 OVC035 13/07 A2968 RMK AO2 SFC VIS 3 SLP051 FU HZ BKN000 T01280067 10189 20128 50001=
08/06/2023 04:51->METAR KJFK 080451Z 01005KT 1 1/2SM FU HZ BKN000 OVC046 15/06 A2969 RMK AO2 SFC VIS 2 1/2 SLP053 FU HZ BKN000 T01500061 402220133=
08/06/2023 03:51->METAR KJFK 080351Z 34007KT 1 1/2SM FU HZ BKN000 OVC043 17/03 A2969 RMK AO2 SFC VIS 2 1/2 SLP053 FU HZ BKN000 T01670028=
08/06/2023 02:51->METAR KJFK 080251Z 30007KT 1 1/2SM FU HZ BKN000 OVC043 18/03 A2968 RMK AO2 SFC VIS 3 SLP050 FU HZ BKN000 T01780033 53009=
08/06/2023 01:51->METAR KJFK 080151Z 31006KT 1 1/2SM FU HZ BKN000 OVC043 17/04 A2967 RMK AO2 SFC VIS 3 SLP046 FU HZ BKN000 T01720044=
08/06/2023 00:51->METAR KJFK 080051Z 31009KT 1 1/2SM FU HZ BKN000 OVC038 18/05 A2967 RMK AO2 SFC VIS 2 1/2 SLP045 FU HZ BKN000 T01830050=
07/06/2023 23:51->METAR KJFK 072351Z 27012KT 1 1/2SM FU HZ BKN000 OVC034 19/05 A2966 RMK AO2 SFC VIS 2 1/2 SLP042 FU HZ BKN000 T01890050 10211 20189 53010=
07/06/2023 22:51->METAR KJFK 072251Z 28009KT 1 1/2SM FU HZ BKN000 OVC028 19/06 A2964 RMK AO2 SFC VIS 3 SLP037 FU HZ BKN000 T01940056=
07/06/2023 21:51->METAR KJFK 072151Z 31012KT 1 1/2SM FU HZ BKN000 OVC028 20/04 A2963 RMK AO2 SFC VIS 3 SLP034 FU HZ BKN000 T02000044=
07/06/2023 20:51->METAR KJFK 072051Z 32012KT 1 1/2SM FU HZ BKN000 OVC028 19/04 A2963 RMK AO2 SFC VIS 2 1/2 SLP032 FU HZ BKN000 T01940044 53007=
07/06/2023 19:51->METAR KJFK 071951Z 31011KT 1 1/2SM FU HZ BKN000 OVC028 19/03 A2962 RMK AO2 SLP028 FU HZ BKN000 T01940028=
07/06/2023 18:51->METAR KJFK 071851Z 31014KT 1 1/2SM FU HZ BKN000 OVC030 19/03 A2961 RMK AO2 SLP027 FU HZ BKN000 T01890028=
07/06/2023 17:51->METAR KJFK 071751Z 31017G23KT 1 1/2SM FU HZ BKN000 OVC026 21/04 A2961 RMK AO2 SLP025 FU HZ BKN000 T02060044 10222 20161 56012=
07/06/2023 16:51->METAR KJFK 071651Z 31016G24KT 2SM FU HZ BKN026 OVC200 22/06 A2961 RMK AO2 SLP028 FU OVC200 T02170061=
07/06/2023 15:51->METAR KJFK 071551Z 27010G16KT 4SM FU HZ FEW038 OVC220 22/07 A2962 RMK AO2 SLP030 FU OVC220 T02220067=
07/06/2023 14:51->METAR KJFK 071451Z 33009KT 6SM FU HZ BKN220 21/07 A2964 RMK AO2 SLP037 FU BKN220 T02110072 54000=
07/06/2023 13:51->METAR KJFK 071351Z 32014KT 5SM FU HZ OVC300 19/08 A2964 RMK AO2 SLP037 FU OVC300 T01890078=
07/06/2023 12:51->METAR KJFK 071251Z 33014KT 5SM FU HZ OVC300 17/07 A2964 RMK AO2 SLP037 FU OVC300 T01720072=
07/06/2023 11:51->METAR KJFK 071151Z 32011KT 6SM FU HZ BKN300 16/07 A2964 RMK AO2 SLP037 FU BKN300 70003 T01610067 10167 20133 52003=
07/06/2023 10:51->METAR KJFK 071051Z 32009KT 6SM FU HZ BKN300 14/06 A2964 RMK AO2 SLP037 FU BKN300 T01440061=
07/06/2023 09:51->METAR KJFK 070951Z 32007KT 5SM FU HZ BKN300 13/06 A2963 RMK AO2 SLP034 FU BKN300 T01330061=
07/06/2023 08:51->METAR KJFK 070851Z 32011KT 6SM FU HZ FEW050 BKN300 14/06 A2963 RMK AO2 SLP034 FU BKN300 T01440056 52000=
07/06/2023 07:51->METAR KJFK 070751Z 30011KT 6SM FU HZ FEW050 BKN300 16/06 A2964 RMK AO2 SLP035 FU BKN300 T01560056=
07/06/2023 06:51->METAR KJFK 070651Z 31012KT 5SM FU HZ FEW048 OVC300 16/06 A2963 RMK AO2 SLP033 FU OVC300 T01610061=
07/06/2023 05:51->METAR KJFK 070551Z 32011KT 5SM FU HZ SCT048 OVC300 16/07 A2963 RMK AO2 SLP034 FU OVC300 T01610067 10200 20150 58006=
07/06/2023 04:51->METAR KJFK 070451Z 34010KT 4SM FU HZ BKN047 16/08 A2964 RMK AO2 SLP035 T01610078 402500150=
07/06/2023 03:51->METAR KJFK 070351Z 01007KT 4SM FU HZ OVC041 17/08 A2965 RMK AO2 SLP040 T01670083=
07/06/2023 02:51->METAR KJFK 070251Z 35011KT 5SM FU HZ OVC041 18/08 A2965 RMK AO2 SLP040 T01830083 51015=
07/06/2023 01:51->METAR KJFK 070151Z 34018G25KT 5SM FU HZ FEW035 OVC050 19/08 A2964 RMK AO2 SLP038 T01940083=
07/06/2023 00:51->METAR KJFK 070051Z 32012KT 6SM FU HZ OVC060 20/08 A2963 RMK AO2 SLP032 T02000078=
06/06/2023 23:51->METAR KJFK 062351Z 19006KT 7SM BKN044 OVC300 18/12 A2960 RMK AO2 RAB10E20 SLP025 FU OVC300 P0000 60003 T01830122 10250 20183 51010=
06/06/2023 22:51->METAR KJFK 062251Z 10003KT 7SM BKN039 BKN050 OVC300 18/13 A2960 RMK AO2 SLP022 FU OVC300 T01830133=
06/06/2023 21:51->METAR KJFK 062151Z 10005KT 7SM FEW039 SCT095 OVC300 19/13 A2959 RMK AO2 LTG DSNT S SLP021 RAB14E37 FU OVC300 P0002 T01890133=
06/06/2023 20:51->METAR KJFK 062051Z 09009KT 7SM SCT050 SCT090 BKN300 22/11 A2957 RMK AO2 LTG DSNT E SLP014 FU BKN300 60001 T02170111 56011=
06/06/2023 19:51->METAR KJFK 061951Z 15011KT 8SM SCT050 BKN100 BKN300 21/15 A2958 RMK AO2 LTG DSNT NE-SE RAB17E39 SLP017 FU BKN300 P0001 T02060150=
06/06/2023 18:51->METAR KJFK 061851Z 16011KT 8SM SCT060 BKN090 BKN120 BKN300 22/12 A2958 RMK AO2 LTG DSNT N SLP016 FU BKN300 CB DSNT NW T02220117=
06/06/2023 17:51->METAR KJFK 061751Z 19009KT 7SM SCT060 SCT085 BKN300 23/11 A2961 RMK AO2 SLP026 FU BKN300 60000 T02280106 10250 20172 58027=
06/06/2023 16:51->METAR KJFK 061651Z 24010KT 6SM FU HZ FEW055 OVC300 24/10 A2964 RMK AO2 SLP037 FU OVC300 T02440100=
06/06/2023 15:51->METAR KJFK 061551Z 25008KT 6SM FU HZ BKN300 23/09 A2967 RMK AO2 SLP046 FU BKN300 T02280089=
06/06/2023 14:51->METAR KJFK 061451Z 32008KT 7SM FEW110 BKN300 21/08 A2969 RMK AO2 RAB1352E05 SLP052 FU BKN300 P0000 60000 T02110078 58016=
06/06/2023 13:51->METAR KJFK 061351Z 31012KT 8SM FEW046 BKN110 OVC300 17/08 A2972 RMK AO2 RAB39E48 SLP063 FU OVC300 P0000 T01720078=
06/06/2023 12:51->METAR KJFK 061251Z 25011KT 7SM FEW050 SCT110 BKN300 19/08 A2972 RMK AO2 SLP064 FU BKN300 T01890078=
06/06/2023 11:51->METAR KJFK 061151Z 26007KT 6SM FU HZ FEW050 OVC300 18/07 A2973 RMK AO2 SLP068 FU OVC300 T01830067 10183 20156 58006=
06/06/2023 10:51->METAR KJFK 061051Z 31005KT 6SM FU HZ BKN300 17/05 A2974 RMK AO2 SLP071 FU BKN300 T01720050=
06/06/2023 09:51->METAR KJFK 060951Z 31007KT 6SM FU HZ BKN300 16/05 A2975 RMK AO2 SLP075 FU BKN300 T01610050=
06/06/2023 08:51->METAR KJFK 060851Z 31006KT 7SM BKN300 16/05 A2975 RMK AO2 SLP074 FU BKN300 T01560050 56005=
06/06/2023 07:51->METAR KJFK 060751Z 32007KT 7SM BKN300 17/05 A2975 RMK AO2 SLP074 FU BKN300 T01670050=
06/06/2023 06:51->METAR KJFK 060651Z 33010KT 7SM BKN300 17/06 A2975 RMK AO2 SLP075 FU BKN300 T01720056=
06/06/2023 05:51->METAR KJFK 060551Z 33010KT 8SM BKN300 18/05 A2977 RMK AO2 SLP080 FU BKN300 T01780050 10206 20178 56007=
06/06/2023 04:51->METAR KJFK 060451Z 33011KT 8SM FEW210 OVC300 19/05 A2977 RMK AO2 SLP081 FU OVC300 T01890050 402500100=
06/06/2023 03:51->METAR KJFK 060351Z 33011KT 9SM FEW090 SCT210 OVC300 19/06 A2978 RMK AO2 SLP084 FU OVC300 T01940056=
06/06/2023 02:51->METAR KJFK 060251Z 33011KT 10SM SCT090 OVC300 20/07 A2979 RMK AO2 SLP087 FU OVC300 T02000072 58003=
06/06/2023 01:51->METAR KJFK 060151Z 21005KT 10SM FEW080 SCT095 BKN190 BKN300 18/14 A2980 RMK AO2 SLP090 FU BKN300 T01780139=
06/06/2023 00:51->METAR KJFK 060051Z 21011KT 10SM BKN075 BKN100 BKN250 OVC300 18/12 A2980 RMK AO2 SLP090 FU OVC300 T01830122=
05/06/2023 23:51->METAR KJFK 052351Z 18006KT 10SM FEW075 BKN095 BKN250 BKN300 18/12 A2980 RMK AO2 SLP090 FU BKN300 T01830122 10250 20183 55001=
05/06/2023 22:51->METAR KJFK 052251Z 17007KT 10SM FEW075 BKN100 OVC250 19/13 A2980 RMK AO2 SLP090 T01890133=
05/06/2023 21:51->METAR KJFK 052151Z 03006KT 10SM SCT070 BKN100 BKN250 23/08 A2980 RMK AO2 SLP089 T02280078=
05/06/2023 20:51->METAR KJFK 052051Z 03011KT 10SM SCT065 BKN090 BKN250 23/08 A2980 RMK AO2 SLP091 T02330078 56009=
05/06/2023 19:51->METAR KJFK 051951Z 02015G19KT 10SM BKN065 BKN250 23/08 A2980 RMK AO2 SLP092 T02330078=
05/06/2023 18:51->METAR KJFK 051851Z 36017G22KT 10SM SCT065 BKN250 23/07 A2981 RMK AO2 PK WND 36030/1807 SLP095 T02280072=
05/06/2023 17:51->METAR KJFK 051751Z 02014G19KT 10SM SCT060 SCT250 24/08 A2983 RMK AO2 PK WND 32027/1656 SLP100 T02390078 10239 20161 57021=
05/06/2023 16:51->METAR KJFK 051651Z 01019G27KT 10SM SCT055 SCT095 SCT250 22/08 A2985 RMK AO2 PK WND 01027/1651 SLP108 T02220078=
05/06/2023 15:51->METAR KJFK 051551Z 33016G22KT 10SM SCT049 SCT095 SCT250 21/08 A2987 RMK AO2 SLP113 T02110078=
05/06/2023 14:51->METAR KJFK 051451Z 33014KT 10SM FEW044 SCT095 SCT250 21/08 A2989 RMK AO2 SLP122 T02060083 58014=
05/06/2023 13:51->METAR KJFK 051351Z 34013KT 10SM FEW041 FEW060 SCT095 SCT250 19/08 A2991 RMK AO2 SLP129 T01890083=
05/06/2023 12:51->METAR KJFK 051251Z 34007G15KT 10SM FEW041 SCT060 SCT250 18/08 A2993 RMK AO2 SLP135 T01780078=
05/06/2023 11:51->METAR KJFK 051151Z 32005KT 10SM FEW060 FEW250 16/08 A2993 RMK AO2 SLP136 T01610078 10161 20100 58003=
05/06/2023 10:51->METAR KJFK 051051Z 00000KT 10SM FEW060 FEW250 14/08 A2994 RMK AO2 SLP138 T01390083=
05/06/2023 09:51->METAR KJFK 050951Z 00000KT 10SM FEW060 10/07 A2994 RMK AO2 SLP140 T01000067=
05/06/2023 08:51->METAR KJFK 050851Z 04004KT 10SM CLR 11/07 A2994 RMK AO2 SLP139 T01060067 56008=
05/06/2023 07:51->METAR KJFK 050751Z 36005KT 10SM FEW060 12/07 A2994 RMK AO2 SLP140 T01170072=
05/06/2023 06:51->METAR KJFK 050651Z 02006KT 10SM FEW060 12/07 A2995 RMK AO2 SLP142 T01220072=
05/06/2023 05:51->METAR KJFK 050551Z 04006KT 10SM SCT055 13/08 A2997 RMK AO2 SLP147 T01280078 10161 20128 58012=
05/06/2023 04:51->METAR KJFK 050451Z 03004KT 10SM SCT048 13/07 A2998 RMK AO2 SLP151 T01330072 402110094=
05/06/2023 03:51->METAR KJFK 050351Z 04008KT 10SM BKN048 14/07 A3000 RMK AO2 SLP158 T01440072=
05/06/2023 02:51->METAR KJFK 050251Z 03007KT 10SM OVC060 15/07 A3000 RMK AO2 SLP159 T01500072 50007=
05/06/2023 01:51->METAR KJFK 050151Z 04008KT 10SM BKN065 OVC080 15/07 A3001 RMK AO2 SLP160 T01500072=
05/06/2023 00:51->METAR KJFK 050051Z 05009KT 10SM BKN070 BKN085 16/07 A2999 RMK AO2 SLP155 T01560072=
04/06/2023 23:51->METAR KJFK 042351Z 09007KT 10SM FEW045 BKN065 BKN075 16/07 A2998 RMK AO2 SLP152 T01610072 10211 20161 53008=
04/06/2023 22:51->METAR KJFK 042251Z 03008KT 10SM FEW045 BKN065 BKN075 17/07 A2997 RMK AO2 SLP149 T01720067=
04/06/2023 21:51->METAR KJFK 042151Z 05012KT 10SM FEW045 BKN065 BKN080 18/07 A2996 RMK AO2 SLP145 T01830067=
04/06/2023 20:51->METAR KJFK 042051Z 02015G20KT 10SM FEW045 BKN075 19/06 A2996 RMK AO2 SLP144 T01890056 55006=
04/06/2023 19:51->METAR KJFK 041951Z 01013G22KT 10SM FEW045 BKN065 20/06 A2995 RMK AO2 SLP141 T02000061=
04/06/2023 18:51->METAR KJFK 041851Z 03013KT 10SM FEW045 BKN070 19/06 A2997 RMK AO2 SLP147 T01890061=
04/06/2023 17:51->METAR KJFK 041751Z 35010G18KT 10SM FEW045 BKN065 18/06 A2998 RMK AO2 SLP151 T01830061 10194 20117 56017=
04/06/2023 16:51->METAR KJFK 041651Z 04013G19KT 10SM FEW030 FEW045 BKN060 18/07 A2999 RMK AO2 SLP154 T01780067=
04/06/2023 15:51->METAR KJFK 041551Z 35010G19KT 10SM FEW030 FEW045 BKN055 18/07 A3001 RMK AO2 SLP160 T01830067=
04/06/2023 14:51->METAR KJFK 041451Z 35010G16KT 10SM FEW030 FEW043 BKN060 18/06 A3003 RMK AO2 SLP167 T01780061 58013=
04/06/2023 13:51->METAR KJFK 041351Z 02006KT 10SM FEW030 SCT048 BKN065 16/06 A3005 RMK AO2 SLP174 T01560061=
04/06/2023 12:51->METAR KJFK 041251Z 02011KT 10SM FEW030 FEW049 BKN060 15/06 A3005 RMK AO2 SLP176 T01500056=
04/06/2023 11:51->METAR KJFK 041151Z 36009KT 10SM BKN047 BKN075 12/06 A3006 RMK AO2 SLP180 T01170061 10117 20094 53001=
04/06/2023 10:51->METAR KJFK 041051Z 01005KT 10SM FEW030 FEW080 11/07 A3006 RMK AO2 SLP177 T01060067=
04/06/2023 09:51->METAR KJFK 040951Z 01006KT 10SM FEW030 FEW075 FEW100 09/06 A3007 RMK AO2 SLP180 T00940061=
04/06/2023 08:51->METAR KJFK 040851Z 01009KT 10SM FEW040 FEW100 09/06 A3006 RMK AO2 SLP179 T00940061 58010=
04/06/2023 07:51->METAR KJFK 040751Z 02008KT 10SM FEW040 10/06 A3007 RMK AO2 SLP183 T01000056=
04/06/2023 06:51->METAR KJFK 040651Z 04009KT 10SM BKN027 BKN032 11/06 A3009 RMK AO2 SLP188 T01060061=
04/06/2023 05:51->METAR KJFK 040551Z 05009KT 10SM OVC029 12/07 A3009 RMK AO2 SLP189 T01170067 10156 20117 58006=
04/06/2023 04:51->METAR KJFK 040451Z 06011KT 10SM OVC028 12/07 A3010 RMK AO2 SLP193 T01220067 402110122=
04/06/2023 03:51->METAR KJFK 040351Z 07008KT 10SM BKN026 12/07 A3010 RMK AO2 SLP194 T01220072=
04/06/2023 02:51->METAR KJFK 040251Z 06012KT 10SM OVC027 13/07 A3011 RMK AO2 SLP196 T01280072 51012=
04/06/2023 01:51->METAR KJFK 040151Z 04010KT 10SM SCT025 BKN060 13/08 A3010 RMK AO2 SLP194 T01330083=
04/06/2023 00:51->METAR KJFK 040051Z 06013KT 10SM FEW029 BKN035 BKN050 14/09 A3008 RMK AO2 SLP187 T01440089=
03/06/2023 23:51->METAR KJFK 032351Z 08013KT 10SM SCT029 BKN039 OVC055 16/09 A3007 RMK AO2 SLP184 T01560094 10194 20156 53019=
03/06/2023 22:51->METAR KJFK 032251Z 07013KT 10SM BKN033 OVC055 17/10 A3005 RMK AO2 SLP175 T01670100=
03/06/2023 21:51->METAR KJFK 032151Z 05011KT 10SM FEW020 BKN033 OVC055 18/11 A3003 RMK AO2 WSHFT 2111 SLP169 T01780111=
03/06/2023 20:51->METAR KJFK 032051Z 09007KT 10SM FEW018 BKN031 OVC050 18/12 A3002 RMK AO2 SLP164 T01830117 53000=
03/06/2023 19:51->METAR KJFK 031951Z 05011KT 10SM BKN030 OVC060 19/12 A3001 RMK AO2 SLP160 T01890117=
03/06/2023 18:51->METAR KJFK 031851Z 08009KT 10SM BKN028 OVC060 19/12 A3002 RMK AO2 SLP165 T01890122=
03/06/2023 17:51->METAR KJFK 031751Z 04010KT 10SM BKN024 BKN060 19/12 A3002 RMK AO2 SLP164 T01890122 10211 20172 50010=
03/06/2023 16:51->METAR KJFK 031651Z 05012KT 10SM OVC021 17/12 A3002 RMK AO2 SLP165 T01720122=
03/06/2023 15:51->METAR KJFK 031551Z 05016KT 10SM BKN018 OVC060 18/13 A3000 RMK AO2 SLP160 T01830128=
03/06/2023 14:51->METAR KJFK 031451Z 05011KT 10SM OVC019 20/14 A2999 RMK AO2 SLP153 T02000139 51013=
03/06/2023 13:51->METAR KJFK 031351Z 05011KT 10SM OVC018 19/14 A2997 RMK AO2 SLP150 T01890144=
03/06/2023 12:51->METAR KJFK 031251Z 06015KT 10SM FEW019 SCT050 BKN130 20/16 A2996 RMK AO2 SLP145 T02000156=
03/06/2023 11:51->METAR KJFK 031151Z 06013G22KT 10SM SCT018 SCT050 BKN130 19/16 A2995 RMK AO2 SLP140 70002 T01890156 10200 20167 53021=
03/06/2023 10:51->METAR KJFK 031051Z 06008KT 10SM SCT012 BKN130 19/16 A2992 RMK AO2 SLP132 T01940161=
03/06/2023 09:51->METAR KJFK 030951Z 07008KT 10SM FEW060 BKN100 18/16 A2990 RMK AO2 SLP125 T01780156=
03/06/2023 08:51->METAR KJFK 030851Z 04003KT 10SM BKN020 BKN150 17/16 A2988 RMK AO2 SLP119 T01720156 55003=
03/06/2023 07:51->METAR KJFK 030751Z 00000KT 10SM FEW150 SCT200 18/16 A2987 RMK AO2 SLP115 T01780161=
03/06/2023 06:51->METAR KJFK 030651Z 00000KT 10SM FEW170 FEW200 17/16 A2988 RMK AO2 SLP118 T01670156=
03/06/2023 05:51->METAR KJFK 030551Z 10003KT 10SM FEW170 SCT200 18/16 A2989 RMK AO2 SLP122 60002 T01780161 10211 20178 55000=
03/06/2023 04:51->METAR KJFK 030451Z 07005KT 10SM SCT080 OVC100 19/16 A2990 RMK AO2 SLP125 T01890161 402610156=
03/06/2023 03:51->METAR KJFK 030351Z 15004KT 10SM BKN110 OVC200 19/16 A2988 RMK AO2 SLP117 T01890156=
03/06/2023 02:51->METAR KJFK 030251Z 06004KT 10SM FEW120 BKN200 19/14 A2989 RMK AO2 SLP122 60002 T01940139 53013=
03/06/2023 01:51->METAR KJFK 030151Z 00000KT 10SM FEW055 FEW150 BKN230 19/14 A2988 RMK AO2 SLP118 T01940139=
03/06/2023 00:51->METAR KJFK 030051Z 13004KT 10SM FEW055 FEW100 BKN170 BKN230 20/14 A2987 RMK AO2 RAE32 SLP114 P0002 T02000144=
02/06/2023 23:51->METAR KJFK 022351Z 19007KT 10SM -RA SCT050 SCT100 BKN120 BKN150 BKN190 BKN250 21/14 A2986 RMK AO2 LTG DSNT SW RAB32 TSE32 SLP110 CB DSNT SW P0000 60000 T02110144 10261 20211 50001=
02/06/2023 22:51->METAR KJFK 022251Z 22004KT 10SM TS SCT050CB SCT100 BKN250 23/08 A2988 RMK AO2 LTG DSNT NW TSB43 SLP118 OCNL LTGICCG NW TS NW MOV S VCSH NW T02280078=
02/06/2023 21:51->METAR KJFK 022151Z 15008KT 10SM FEW050 FEW090 SCT250 23/12 A2985 RMK AO2 LTG DSNT W-N SLP108 CB DSNT NW T02330117=
02/06/2023 20:51->METAR KJFK 022051Z 18009KT 10SM FEW050 FEW090 SCT250 24/11 A2985 RMK AO2 SLP109 CB DSNT NW T02390106 56018=
02/06/2023 19:51->METAR KJFK 021951Z 19010KT 10SM FEW050 SCT250 24/13 A2987 RMK AO2 SLP114 CB DSNT NW-N T02390133=
02/06/2023 18:51->METAR KJFK 021851Z 20008KT 10SM FEW050 FEW090 FEW250 25/14 A2989 RMK AO2 SLP120 T02500144=
02/06/2023 17:51->METAR KJFK 021751Z 17007KT 10SM FEW050 FEW095 FEW250 26/15 A2991 RMK AO2 SLP127 T02560150 10261 20194 58008=
02/06/2023 16:51->METAR KJFK 021651Z 18008KT 10SM FEW045 FEW095 24/16 A2992 RMK AO2 SLP132 T02440156=
02/06/2023 15:51->METAR KJFK 021551Z 19009KT 10SM FEW045 26/16 A2992 RMK AO2 SLP133 T02560161=
02/06/2023 14:51->METAR KJFK 021451Z 19006KT 10SM CLR 24/16 A2993 RMK AO2 SLP135 T02440161 58002=
02/06/2023 13:51->METAR KJFK 021351Z 17004KT 10SM CLR 23/16 A2993 RMK AO2 SLP136 T02330156=
02/06/2023 12:51->METAR KJFK 021251Z 17004KT 10SM CLR 21/16 A2994 RMK AO2 SLP138 T02110156=
02/06/2023 11:51->METAR KJFK 021151Z 19003KT 10SM FEW250 19/16 A2994 RMK AO2 SLP137 T01890161 10194 20156 56004=
02/06/2023 10:51->METAR KJFK 021051Z 22004KT 10SM FEW250 17/17 A2994 RMK AO2 SLP139 T01720167=
02/06/2023 09:51->METAR KJFK 020951Z 20006KT 10SM CLR 16/16 A2994 RMK AO2 SLP138 T01610156=
02/06/2023 08:51->METAR KJFK 020851Z 18004KT 10SM CLR 16/16 A2995 RMK AO2 SLP141 T01560156 56015=
02/06/2023 07:51->METAR KJFK 020751Z 23003KT 10SM CLR 16/16 A2996 RMK AO2 SLP144 T01610156=
02/06/2023 06:51->METAR KJFK 020651Z 21004KT 10SM CLR 16/15 A2998 RMK AO2 SLP150 T01610150=
02/06/2023 05:51->METAR KJFK 020551Z 22004KT 10SM CLR 16/15 A2999 RMK AO2 SLP156 T01560150 10194 20156 58016=
02/06/2023 04:51->METAR KJFK 020451Z 22003KT 10SM CLR 17/16 A3001 RMK AO2 SLP163 T01670156 402440139=
02/06/2023 03:51->METAR KJFK 020351Z 18003KT 10SM CLR 17/16 A3002 RMK AO2 SLP167 T01670156=
02/06/2023 02:51->METAR KJFK 020251Z 20005KT 10SM FEW250 17/16 A3004 RMK AO2 SLP172 T01670156 50005=
02/06/2023 01:51->METAR KJFK 020151Z 19004KT 10SM FEW250 17/16 A3004 RMK AO2 SLP172 T01670156=
02/06/2023 00:51->METAR KJFK 020051Z 14003KT 10SM FEW250 18/16 A3003 RMK AO2 SLP170 T01780161=
01/06/2023 23:51->METAR KJFK 012351Z 16007KT 10SM FEW250 19/15 A3002 RMK AO2 SLP167 T01940150 10244 20194 55007=
01/06/2023 22:51->METAR KJFK 012251Z 18006KT 10SM CLR 21/16 A3002 RMK AO2 SLP166 T02060161=
01/06/2023 21:51->METAR KJFK 012151Z 19005KT 10SM CLR 22/16 A3002 RMK AO2 SLP166 T02220156=
01/06/2023 20:51->METAR KJFK 012051Z 18009KT 10SM CLR 22/16 A3004 RMK AO2 SLP174 T02220156 56014=
01/06/2023 19:51->METAR KJFK 011951Z 18009KT 10SM CLR 23/15 A3006 RMK AO2 SLP178 T02330150=
01/06/2023 18:51->METAR KJFK 011851Z 19009KT 10SM CLR 23/15 A3007 RMK AO2 SLP183 T02330150=
01/06/2023 17:51->METAR KJFK 011751Z 22008KT 10SM CLR 24/14 A3008 RMK AO2 SLP187 T02390144 10244 20189 58013=
01/06/2023 16:51->METAR KJFK 011651Z 19007KT 10SM CLR 23/15 A3010 RMK AO2 SLP192 T02330150=
01/06/2023 15:51->METAR KJFK 011551Z 21008KT 10SM FEW300 23/14 A3012 RMK AO2 SLP197 FU FEW300 T02280144=
01/06/2023 14:51->METAR KJFK 011451Z 21008KT 10SM FEW250 22/15 A3012 RMK AO2 SLP200 T02220150 58005=
01/06/2023 13:51->METAR KJFK 011351Z 21005KT 10SM FEW250 22/14 A3013 RMK AO2 SLP202 T02170144=
01/06/2023 12:51->METAR KJFK 011251Z 00000KT 10SM FEW250 FEW300 21/14 A3014 RMK AO2 SLP205 FU FEW300 T02110144=
01/06/2023 11:51->METAR KJFK 011151Z 00000KT 10SM FEW300 19/14 A3014 RMK AO2 SLP204 FU FEW300 T01890139 10189 20139 53006=
01/06/2023 10:51->METAR KJFK 011051Z 04003KT 10SM FEW300 17/13 A3013 RMK AO2 SLP202 FU FEW300 T01670133=
01/06/2023 09:51->METAR KJFK 010951Z 00000KT 10SM FEW300 14/12 A3013 RMK AO2 SLP201 FU FEW300 T01440122=
01/06/2023 08:51->METAR KJFK 010851Z 01004KT 10SM FEW300 14/12 A3012 RMK AO2 SLP199 FU FEW300 T01440122 56010=
01/06/2023 07:51->METAR KJFK 010751Z 03003KT 10SM FEW300 14/12 A3012 RMK AO2 SLP199 FU FEW300 T01440122=
01/06/2023 06:51->METAR KJFK 010651Z 01004KT 10SM FEW300 15/12 A3014 RMK AO2 SLP206 FU FEW300 T01500122=
01/06/2023 05:51->METAR KJFK 010551Z 00000KT 10SM FEW300 15/12 A3015 RMK AO2 SLP209 FU FEW300 T01500122 10167 20144 58002=
01/06/2023 04:51->METAR KJFK 010451Z 03003KT 10SM FEW300 16/13 A3015 RMK AO2 SLP210 FU FEW300 T01560128 402110089=
01/06/2023 03:51->METAR KJFK 010351Z 00000KT 10SM FEW300 16/13 A3016 RMK AO2 SLP213 FU FEW300 T01560128=
01/06/2023 02:51->METAR KJFK 010251Z 00000KT 10SM FEW300 15/12 A3016 RMK AO2 SLP211 FU FEW300 T01500122 58001=
01/06/2023 01:51->METAR KJFK 010151Z 07003KT 10SM FEW250 FEW300 16/13 A3016 RMK AO2 SLP212 FU FEW300 T01560128=
01/06/2023 00:51->METAR KJFK 010051Z 13004KT 10SM FEW250 FEW300 16/13 A3016 RMK AO2 SLP213 FU FEW300 T01560128=
31/05/2023 23:51->METAR KJFK 312351Z 13005KT 10SM FEW250 FEW300 17/13 A3016 RMK AO2 SLP212 FU FEW300 T01670128 10211 20167 56004=
31/05/2023 22:51->METAR KJFK 312251Z 13008KT 10SM FEW250 SCT300 18/13 A3016 RMK AO2 SLP213 FU SCT300 T01830133=
31/05/2023 21:51->METAR KJFK 312151Z 15009KT 10SM FEW250 SCT300 19/14 A3017 RMK AO2 SLP214 FU SCT300 T01940139=
31/05/2023 20:51->METAR KJFK 312051Z 15010KT 10SM FEW250 SCT300 19/14 A3017 RMK AO2 SLP216 FU SCT300 T01890139 56013=
31/05/2023 19:51->METAR KJFK 311951Z 17005KT 10SM FEW250 SCT300 20/14 A3018 RMK AO2 SLP219 FU SCT300 T02000139=
31/05/2023 18:51->METAR KJFK 311851Z 18009KT 10SM FEW250 FEW300 21/14 A3020 RMK AO2 SLP226 FU FEW300 T02060139=
31/05/2023 17:51->METAR KJFK 311751Z 19007KT 10SM FEW250 FEW300 20/14 A3021 RMK AO2 SLP229 FU FEW300 T02000139 10206 20117 58005=
31/05/2023 16:51->METAR KJFK 311651Z 18008KT 10SM FEW250 SCT300 19/13 A3022 RMK AO2 SLP231 FU SCT300 T01940133=
31/05/2023 15:51->METAR KJFK 311551Z 18009KT 10SM FEW250 19/13 A3022 RMK AO2 SLP234 T01940128=
31/05/2023 14:51->METAR KJFK 311451Z 00000KT 9SM FEW250 19/10 A3023 RMK AO2 SLP235 T01890100 58004=
31/05/2023 13:51->METAR KJFK 311351Z 00000KT 10SM FEW018 FEW250 17/09 A3024 RMK AO2 SLP240 T01720089=
31/05/2023 12:51->METAR KJFK 311251Z 01003KT 10SM FEW012 SCT250 14/08 A3024 RMK AO2 SLP241 T01440083=
31/05/2023 11:51->METAR KJFK 311151Z 06003KT 8SM FEW006 SCT250 12/09 A3024 RMK AO2 SLP240 T01170089 10117 20089 50015=
31/05/2023 10:51->METAR KJFK 311051Z 00000KT 6SM BR BKN006 10/09 A3024 RMK AO2 SLP240 T01000094=
31/05/2023 09:51->METAR KJFK 310951Z 05005KT 2 1/2SM OVC006 10/09 A3022 RMK AO2 SFC VIS 7 SLP233 T01000094=
31/05/2023 08:51->METAR KJFK 310851Z 05004KT 10SM FEW009 FEW300 09/08 A3020 RMK AO2 SLP225 FU FEW300 T00890078 56005=
31/05/2023 07:51->METAR KJFK 310751Z 06004KT 10SM FEW009 FEW300 10/09 A3020 RMK AO2 SLP226 FU FEW300 T01000089=
31/05/2023 06:51->METAR KJFK 310651Z 04005KT 10SM FEW300 10/08 A3020 RMK AO2 SLP227 FU FEW300 T01000083=
31/05/2023 05:51->METAR KJFK 310551Z 06003KT 10SM FEW300 11/09 A3021 RMK AO2 SLP230 FU FEW300 T01060089 10150 20106 58004=
31/05/2023 04:51->METAR KJFK 310451Z 05004KT 10SM FEW300 11/09 A3022 RMK AO2 SLP231 FU FEW300 T01110089 401890100=
31/05/2023 03:51->METAR KJFK 310351Z 05004KT 10SM FEW300 11/09 A3022 RMK AO2 SLP234 FU FEW300 T01110094=
31/05/2023 02:51->METAR KJFK 310251Z 11007KT 10SM FEW300 12/10 A3022 RMK AO2 SLP234 FU FEW300 T01220100 53009=
31/05/2023 01:51->METAR KJFK 310151Z 10008KT 10SM FEW300 13/09 A3021 RMK AO2 SLP231 FU FEW300 T01280094=
31/05/2023 00:51->METAR KJFK 310051Z 11010KT 10SM FEW300 13/09 A3020 RMK AO2 SLP226 FU FEW300 T01330089=
30/05/2023 23:51->METAR KJFK 302351Z 11012KT 10SM FEW300 15/07 A3020 RMK AO2 SLP225 FU FEW300 T01500072 10189 20150 53003=
30/05/2023 22:51->METAR KJFK 302251Z 11010KT 10SM SCT300 16/09 A3019 RMK AO2 SLP223 FU SCT300 T01560089=
30/05/2023 21:51->METAR KJFK 302151Z 13011KT 10SM FEW250 SCT300 17/09 A3019 RMK AO2 SLP222 FU SCT300 T01670094=
30/05/2023 20:51->METAR KJFK 302051Z 12011KT 10SM FEW250 BKN300 18/10 A3019 RMK AO2 SLP222 FU BKN300 T01830100 56017=
30/05/2023 19:51->METAR KJFK 301951Z 12008KT 9SM FEW250 BKN300 18/09 A3020 RMK AO2 SLP227 FU BKN300 T01780089=
30/05/2023 18:51->METAR KJFK 301851Z 11011KT 9SM FEW250 BKN300 18/07 A3022 RMK AO2 SLP234 FU BKN300 T01830072=
30/05/2023 17:51->METAR KJFK 301751Z 14014KT 9SM FEW250 BKN300 18/07 A3024 RMK AO2 SLP239 FU BKN300 T01780067 10189 20144 55000=
30/05/2023 16:51->METAR KJFK 301651Z 13011KT 10SM FEW047 FEW250 BKN300 18/06 A3024 RMK AO2 SLP238 FU BKN300 T01830061=
30/05/2023 15:51->METAR KJFK 301551Z 14012KT 10SM FEW250 BKN300 18/08 A3024 RMK AO2 SLP239 FU BKN300 T01780078=
30/05/2023 14:51->METAR KJFK 301451Z 14008KT 10SM FEW045 FEW250 SCT300 18/08 A3024 RMK AO2 SLP239 FU SCT300 T01780083 51013=
30/05/2023 13:51->METAR KJFK 301351Z 09009KT 060V130 10SM FEW040 FEW250 SCT300 17/07 A3023 RMK AO2 SLP236 FU SCT300 T01670067=
30/05/2023 12:51->METAR KJFK 301251Z 05012KT 10SM FEW040 FEW250 SCT300 16/07 A3021 RMK AO2 SLP229 FU SCT300 T01610072=
30/05/2023 11:51->METAR KJFK 301151Z 06014KT 10SM FEW034 FEW250 14/07 A3020 RMK AO2 SLP226 T01440072 10144 20100 53002=
30/05/2023 10:51->METAR KJFK 301051Z 05007KT 10SM FEW027 FEW250 12/08 A3019 RMK AO2 SLP224 T01220078=
30/05/2023 09:51->METAR KJFK 300951Z 04008KT 10SM FEW250 11/07 A3019 RMK AO2 SLP222 T01060072=
30/05/2023 08:51->METAR KJFK 300851Z 04009KT 10SM CLR 11/07 A3019 RMK AO2 SLP224 T01060072 55000=
30/05/2023 07:51->METAR KJFK 300751Z 03007KT 10SM CLR 11/08 A3019 RMK AO2 SLP223 T01110078=
30/05/2023 06:51->METAR KJFK 300651Z 05007KT 10SM CLR 11/08 A3020 RMK AO2 SLP225 T01110078=
30/05/2023 05:51->METAR KJFK 300551Z 05007KT 10SM CLR 12/09 A3019 RMK AO2 SLP224 T01220089 10167 20122 53004=
30/05/2023 04:51->METAR KJFK 300451Z 06007KT 10SM CLR 13/09 A3019 RMK AO2 SLP221 T01330089 402390133=
30/05/2023 03:51->METAR KJFK 300351Z 09009KT 10SM FEW250 14/09 A3018 RMK AO2 SLP220 T01390094=
30/05/2023 02:51->METAR KJFK 300251Z 10009KT 10SM FEW250 14/09 A3018 RMK AO2 SLP220 T01440094 51025=
30/05/2023 01:51->METAR KJFK 300151Z 08014G21KT 10SM FEW250 15/09 A3017 RMK AO2 SLP214 T01500089=
30/05/2023 00:51->METAR KJFK 300051Z 09013KT 10SM SCT250 16/09 A3014 RMK AO2 PK WND 10029/0029 SLP204 T01560094=
29/05/2023 23:51->METAR KJFK 292351Z 11019G26KT 10SM SCT250 17/09 A3011 RMK AO2 PK WND 12028/2314 SLP194 T01670089 10228 20167 53016=
29/05/2023 22:51->METAR KJFK 292251Z 11017G24KT 10SM SCT250 18/08 A3008 RMK AO2 PK WND 11027/2159 SLP187 T01830083=
29/05/2023 21:51->METAR KJFK 292151Z 12016G25KT 10SM SCT250 19/08 A3007 RMK AO2 PK WND 11026/2053 SLP181 T01940083=
29/05/2023 20:51->METAR KJFK 292051Z 11021G26KT 10SM SCT250 21/07 A3006 RMK AO2 PK WND 10027/2004 SLP178 T02110072 50000=
29/05/2023 19:51->METAR KJFK 291951Z 11021G26KT 10SM SCT250 22/09 A3006 RMK AO2 PK WND 10026/1920 SLP179 T02170089=
29/05/2023 18:51->METAR KJFK 291851Z 10016G22KT 10SM SCT250 22/09 A3006 RMK AO2 PK WND 11027/1834 SLP178 T02220089=
29/05/2023 17:51->METAR KJFK 291751Z 11018KT 10SM FEW250 22/09 A3006 RMK AO2 PK WND 11027/1701 SLP179 T02220089 10239 20183 53006=
29/05/2023 16:51->METAR KJFK 291651Z 11018G24KT 10SM SCT250 23/09 A3005 RMK AO2 PK WND 11027/1600 SLP175 T02280094=
29/05/2023 15:51->METAR KJFK 291551Z 12021G25KT 10SM SCT250 23/08 A3004 RMK AO2 PK WND 10026/1457 SLP173 T02330078=
29/05/2023 14:51->METAR KJFK 291451Z 09014G22KT 10SM SCT250 23/12 A3004 RMK AO2 SLP172 T02280122 51017=
29/05/2023 13:51->METAR KJFK 291351Z 07012KT 10SM FEW200 SCT250 23/11 A3003 RMK AO2 SLP167 T02280111=
29/05/2023 12:51->METAR KJFK 291251Z 03010KT 10SM FEW160 FEW200 BKN250 22/12 A3001 RMK AO2 SLP161 T02170117=
29/05/2023 11:51->METAR KJFK 291151Z 27003KT 10SM FEW160 FEW200 BKN250 18/13 A2999 RMK AO2 SLP155 T01830133 10189 20139 53013=
29/05/2023 10:51->METAR KJFK 291051Z 26003KT 10SM FEW200 BKN250 18/13 A2998 RMK AO2 SLP151 T01780128=
29/05/2023 09:51->METAR KJFK 290951Z 26003KT 10SM SCT250 15/12 A2997 RMK AO2 SLP147 T01500117=
29/05/2023 08:51->METAR KJFK 290851Z 20005KT 10SM FEW250 14/12 A2995 RMK AO2 SLP143 T01440117 56008=
29/05/2023 07:51->METAR KJFK 290751Z 20008KT 10SM FEW250 14/12 A2996 RMK AO2 SLP143 T01440122=
29/05/2023 06:51->METAR KJFK 290651Z 23005KT 10SM FEW250 16/11 A2996 RMK AO2 SLP146 T01560111=
29/05/2023 05:51->METAR KJFK 290551Z 23004KT 10SM FEW250 15/12 A2998 RMK AO2 SLP151 T01500117 10167 20144 58016=
29/05/2023 04:51->METAR KJFK 290451Z 23006KT 10SM SCT250 14/11 A3000 RMK AO2 SLP159 T01440111 402170128=
29/05/2023 03:51->METAR KJFK 290351Z 23006KT 10SM SCT250 15/12 A3000 RMK AO2 SLP160 T01500117=
29/05/2023 02:51->METAR KJFK 290251Z 22007KT 10SM FEW180 SCT250 16/13 A3003 RMK AO2 SLP167 T01560128 50003=
29/05/2023 01:51->METAR KJFK 290151Z 20009KT 10SM FEW180 BKN250 16/12 A3003 RMK AO2 SLP168 T01610122=
29/05/2023 00:51->METAR KJFK 290051Z 19008KT 10SM FEW150 FEW200 BKN250 16/12 A3002 RMK AO2 SLP166 T01610122=
28/05/2023 23:51->METAR KJFK 282351Z 19008KT 10SM FEW150 FEW200 BKN250 17/12 A3002 RMK AO2 SLP164 T01670122 10217 20167 56014=
28/05/2023 22:51->METAR KJFK 282251Z 18009KT 10SM FEW150 FEW200 BKN250 17/12 A3003 RMK AO2 SLP168 T01720122=
28/05/2023 21:51->METAR KJFK 282151Z 17011KT 10SM FEW070 FEW150 SCT200 BKN250 19/11 A3004 RMK AO2 SLP171 T01940106=
28/05/2023 20:51->METAR KJFK 282051Z 17011KT 10SM FEW070 FEW150 SCT200 BKN250 21/09 A3006 RMK AO2 SLP179 T02060094 58023=
28/05/2023 19:51->METAR KJFK 281951Z 17012KT 10SM FEW070 FEW150 FEW200 BKN250 21/07 A3008 RMK AO2 SLP187 T02110067=
28/05/2023 18:51->METAR KJFK 281851Z 19009KT 10SM FEW070 FEW150 FEW200 BKN250 21/04 A3011 RMK AO2 SLP195 T02110039=
28/05/2023 17:51->METAR KJFK 281751Z 21008KT 10SM FEW200 BKN250 21/07 A3013 RMK AO2 SLP202 T02110067 10217 20178 58017=
28/05/2023 16:51->METAR KJFK 281651Z 19006KT 10SM FEW200 BKN250 21/07 A3015 RMK AO2 SLP209 T02110067=
28/05/2023 15:51->METAR KJFK 281551Z 19009KT 10SM FEW200 BKN250 20/10 A3017 RMK AO2 SLP216 T02000100=
28/05/2023 14:51->METAR KJFK 281451Z 19008KT 10SM FEW200 BKN250 19/08 A3018 RMK AO2 SLP219 T01940083 58011=
28/05/2023 13:51->METAR KJFK 281351Z 20005KT 10SM FEW200 BKN250 19/06 A3019 RMK AO2 SLP223 T01890061=
28/05/2023 12:51->METAR KJFK 281251Z 20007KT 10SM FEW200 BKN250 18/07 A3021 RMK AO2 SLP228 T01830067=
28/05/2023 11:51->METAR KJFK 281151Z 24004KT 10SM FEW200 BKN250 18/08 A3021 RMK AO2 SLP230 T01780083 10178 20128 57001=
28/05/2023 10:51->METAR KJFK 281051Z 23005KT 10SM FEW200 BKN250 16/08 A3022 RMK AO2 SLP231 T01560083=
28/05/2023 09:51->METAR KJFK 280951Z 22003KT 10SM SCT250 13/09 A3021 RMK AO2 SLP231 T01330089=
28/05/2023 08:51->METAR KJFK 280851Z 21004KT 10SM SCT250 14/09 A3022 RMK AO2 SLP231 T01390094 58008=
28/05/2023 07:51->METAR KJFK 280751Z 22004KT 10SM FEW250 13/08 A3022 RMK AO2 SLP234 T01330078=
28/05/2023 06:51->METAR KJFK 280651Z 23004KT 10SM SCT250 14/07 A3023 RMK AO2 SLP237 T01390067=
28/05/2023 05:51->METAR KJFK 280551Z 24005KT 10SM OVC250 14/06 A3024 RMK AO2 SLP239 T01440061 10161 20133 58014=
28/05/2023 04:51->METAR KJFK 280451Z 25006KT 10SM BKN250 14/06 A3026 RMK AO2 SLP245 T01390061 402280100=
28/05/2023 03:51->METAR KJFK 280351Z 23006KT 10SM BKN250 14/08 A3027 RMK AO2 SLP250 T01390083=
28/05/2023 02:51->METAR KJFK 280251Z 20007KT 10SM SCT250 14/09 A3028 RMK AO2 SLP253 T01440089 50002=
28/05/2023 01:51->METAR KJFK 280151Z 19007KT 10SM BKN250 15/07 A3029 RMK AO2 SLP255 T01500072=
28/05/2023 00:51->METAR KJFK 280051Z 18007KT 10SM BKN250 16/09 A3028 RMK AO2 SLP252 T01560089=
27/05/2023 23:51->METAR KJFK 272351Z 18009KT 10SM BKN250 16/12 A3027 RMK AO2 SLP251 T01610117 10228 20161 55002=
27/05/2023 22:51->METAR KJFK 272251Z 18010KT 10SM BKN250 18/10 A3027 RMK AO2 SLP249 T01780100=
27/05/2023 21:51->METAR KJFK 272151Z 17012KT 10SM BKN250 19/10 A3027 RMK AO2 SLP251 T01940100=
27/05/2023 20:51->METAR KJFK 272051Z 15011KT 10SM BKN250 21/06 A3028 RMK AO2 SLP253 T02110061 56007=
27/05/2023 19:51->METAR KJFK 271951Z 18010KT 10SM BKN250 21/08 A3029 RMK AO2 SLP255 T02110078=
27/05/2023 18:51->METAR KJFK 271851Z 19010KT 10SM BKN250 22/08 A3029 RMK AO2 SLP257 T02220078=
27/05/2023 17:51->METAR KJFK 271751Z 17009KT 10SM SCT250 22/06 A3030 RMK AO2 SLP260 T02220061 10228 20178 57010=
27/05/2023 16:51->METAR KJFK 271651Z 17007KT 10SM BKN250 22/07 A3031 RMK AO2 SLP263 T02220072=
27/05/2023 15:51->METAR KJFK 271551Z 18007KT 10SM BKN250 22/08 A3032 RMK AO2 SLP267 T02220078=
27/05/2023 14:51->METAR KJFK 271451Z VRB03KT 10SM SCT250 22/06 A3033 RMK AO2 SLP270 T02220056 57001=
27/05/2023 13:51->METAR KJFK 271351Z 07005KT 10SM BKN250 21/05 A3033 RMK AO2 SLP270 T02110050=
27/05/2023 12:51->METAR KJFK 271251Z 09005KT 10SM SCT250 20/06 A3034 RMK AO2 SLP272 T02000061=
27/05/2023 11:51->METAR KJFK 271151Z 02005KT 10SM SCT250 18/07 A3033 RMK AO2 SLP271 T01780067 10178 20100 51016=
27/05/2023 10:51->METAR KJFK 271051Z 00000KT 10SM FEW250 15/09 A3032 RMK AO2 SLP268 T01500094=
27/05/2023 09:51->METAR KJFK 270951Z 00000KT 10SM FEW250 12/07 A3031 RMK AO2 SLP263 T01220072=
27/05/2023 08:51->METAR KJFK 270851Z 21003KT 10SM FEW250 12/07 A3029 RMK AO2 SLP255 T01220067 56002=
27/05/2023 07:51->METAR KJFK 270751Z 31007KT 10SM FEW250 14/04 A3029 RMK AO2 SLP256 T01390044=
27/05/2023 06:51->METAR KJFK 270651Z 29007KT 10SM FEW250 14/04 A3029 RMK AO2 SLP257 T01390039=
27/05/2023 05:51->METAR KJFK 270551Z 27007KT 10SM FEW250 14/05 A3029 RMK AO2 SLP258 T01390050 10161 20133 51004=
27/05/2023 04:51->METAR KJFK 270451Z 25008KT 10SM FEW250 14/06 A3029 RMK AO2 SLP257 T01440061 402280106=
27/05/2023 03:51->METAR KJFK 270351Z 25008KT 10SM CLR 14/07 A3029 RMK AO2 SLP258 T01440067=
27/05/2023 02:51->METAR KJFK 270251Z 23007KT 10SM CLR 14/06 A3028 RMK AO2 SLP254 T01390061 51010=
27/05/2023 01:51->METAR KJFK 270151Z 20007KT 10SM FEW250 14/09 A3028 RMK AO2 SLP253 T01440089=
27/05/2023 00:51->METAR KJFK 270051Z 19008KT 10SM FEW250 16/09 A3026 RMK AO2 SLP248 T01560089=
26/05/2023 23:51->METAR KJFK 262351Z 19008KT 10SM SCT250 16/11 A3025 RMK AO2 SLP244 T01610106 10228 20161 51008=
26/05/2023 22:51->METAR KJFK 262251Z 18008KT 10SM FEW250 18/07 A3024 RMK AO2 SLP241 T01830072=
26/05/2023 21:51->METAR KJFK 262151Z 20009KT 10SM FEW075 SCT250 19/07 A3024 RMK AO2 SLP240 T01940072=
26/05/2023 20:51->METAR KJFK 262051Z 03011G16KT 340V050 10SM FEW075 FEW250 22/02 A3023 RMK AO2 SLP236 T02220022 58009=
26/05/2023 19:51->METAR KJFK 261951Z 02009G18KT 10SM FEW075 FEW250 22/01 A3025 RMK AO2 SLP242 T02170011=
26/05/2023 18:51->METAR KJFK 261851Z 03007G19KT 10SM FEW075 FEW250 22/02 A3025 RMK AO2 SLP243 T02170017=
26/05/2023 17:51->METAR KJFK 261751Z 03011G17KT 10SM FEW075 FEW250 22/02 A3026 RMK AO2 SLP246 T02170022 10217 20156 58012=
26/05/2023 16:51->METAR KJFK 261651Z 01011G16KT 10SM FEW075 FEW250 21/02 A3027 RMK AO2 SLP251 T02110017=
26/05/2023 15:51->METAR KJFK 261551Z 01009G18KT 10SM FEW075 FEW250 20/02 A3029 RMK AO2 SLP256 T02000017=
26/05/2023 14:51->METAR KJFK 261451Z 05007KT 10SM FEW070 FEW250 19/00 A3029 RMK AO2 SLP258 T01890000 50004=
26/05/2023 13:51->METAR KJFK 261351Z 36009KT 10SM FEW250 18/02 A3030 RMK AO2 SLP259 T01830017=
26/05/2023 12:51->METAR KJFK 261251Z 36006KT 10SM FEW250 17/04 A3029 RMK AO2 SLP258 T01720039=
26/05/2023 11:51->METAR KJFK 261151Z 03006KT 10SM FEW250 15/06 A3028 RMK AO2 SLP254 T01500056 10150 20106 53017=
26/05/2023 10:51->METAR KJFK 261051Z 36006KT 10SM FEW250 13/06 A3027 RMK AO2 SLP248 T01280061=
26/05/2023 09:51->METAR KJFK 260951Z 36006KT 10SM FEW250 11/06 A3025 RMK AO2 SLP243 T01060056=
26/05/2023 08:51->METAR KJFK 260851Z 01004KT 10SM FEW080 11/06 A3023 RMK AO2 SLP237 T01110056 53004=
26/05/2023 07:51->METAR KJFK 260751Z 01004KT 10SM FEW080 12/06 A3022 RMK AO2 SLP234 T01170056=
26/05/2023 06:51->METAR KJFK 260651Z 03003KT 10SM FEW080 13/05 A3022 RMK AO2 SLP232 T01330050=
26/05/2023 05:51->METAR KJFK 260551Z 36004KT 10SM FEW080 FEW250 12/04 A3022 RMK AO2 SLP233 T01220039 10178 20117 53010=
26/05/2023 04:51->METAR KJFK 260451Z 04005KT 10SM FEW070 SCT250 13/04 A3021 RMK AO2 SLP229 T01330039 402000094=
26/05/2023 03:51->METAR KJFK 260351Z 02007KT 10SM FEW070 SCT250 15/03 A3020 RMK AO2 SLP225 T01500033=
26/05/2023 02:51->METAR KJFK 260251Z 01008KT 10SM FEW080 SCT220 16/03 A3019 RMK AO2 SLP223 T01560033 53015=
26/05/2023 01:51->METAR KJFK 260151Z 01007KT 10SM FEW060 BKN250 16/03 A3018 RMK AO2 SLP219 T01610033=
26/05/2023 00:51->METAR KJFK 260051Z 02006KT 10SM FEW060 BKN250 17/03 A3016 RMK AO2 SLP212 T01670033=
25/05/2023 23:51->METAR KJFK 252351Z 03009KT 10SM FEW060 BKN250 18/03 A3015 RMK AO2 SLP208 T01780033 10200 20178 53011=
25/05/2023 22:51->METAR KJFK 252251Z 02012KT 10SM FEW060 SCT250 19/02 A3013 RMK AO2 SLP202 T01890017=
25/05/2023 21:51->METAR KJFK 252151Z 01007G18KT 10SM FEW060 SCT250 19/03 A3012 RMK AO2 SLP198 T01940028=
25/05/2023 20:51->METAR KJFK 252051Z 34013G18KT 10SM FEW060 FEW250 19/03 A3011 RMK AO2 SLP197 T01940028 58008=
25/05/2023 19:51->METAR KJFK 251951Z 02014G19KT 10SM FEW250 19/02 A3013 RMK AO2 SLP202 T01940022=
25/05/2023 18:51->METAR KJFK 251851Z 34010G19KT 10SM FEW250 18/03 A3014 RMK AO2 SLP204 T01830033=
25/05/2023 17:51->METAR KJFK 251751Z 02011G14KT 10SM FEW250 18/04 A3014 RMK AO2 SLP205 T01780039 10178 20117 56001=
25/05/2023 16:51->METAR KJFK 251651Z 34008G19KT 10SM FEW045 17/04 A3014 RMK AO2 PK WND 35028/1638 SLP206 T01720039=
25/05/2023 15:51->METAR KJFK 251551Z 02013G20KT 10SM FEW045 17/03 A3014 RMK AO2 SLP205 T01670028=
25/05/2023 14:51->METAR KJFK 251451Z 34014KT 10SM FEW040 16/04 A3014 RMK AO2 SLP206 T01560044 50001=
25/05/2023 13:51->METAR KJFK 251351Z 02017G21KT 10SM FEW250 14/03 A3015 RMK AO2 SLP208 T01440033=
25/05/2023 12:51->METAR KJFK 251251Z 02018G23KT 10SM CLR 13/03 A3014 RMK AO2 PK WND 01026/1237 SLP207 T01280033=
25/05/2023 11:51->METAR KJFK 251151Z 35018G23KT 10SM CLR 12/04 A3014 RMK AO2 SLP205 70001 T01170039 10128 20094 51019=
25/05/2023 10:51->METAR KJFK 251051Z 36017KT 10SM CLR 11/04 A3013 RMK AO2 SLP201 T01060044=
25/05/2023 09:51->METAR KJFK 250951Z 01015KT 10SM FEW040 FEW110 10/04 A3010 RMK AO2 SLP193 T01000039=
25/05/2023 08:51->METAR KJFK 250851Z 36018G24KT 10SM FEW110 FEW250 10/03 A3008 RMK AO2 PK WND 36027/0755 SLP187 T01000028 53012=
25/05/2023 07:51->METAR KJFK 250751Z 36017G24KT 10SM FEW110 SCT250 11/03 A3007 RMK AO2 PK WND 36026/0737 SLP182 T01060028=
25/05/2023 06:51->METAR KJFK 250651Z 35016KT 10SM FEW041 BKN110 BKN250 12/04 A3005 RMK AO2 PK WND 36027/0619 SLP176 T01220039=
25/05/2023 05:51->METAR KJFK 250551Z 01017G25KT 10SM FEW025 SCT095 BKN250 13/08 A3005 RMK AO2 SLP175 60001 T01330078 10178 20133 53004=
25/05/2023 04:51->METAR KJFK 250451Z 01018G23KT 10SM FEW027 OVC075 14/09 A3004 RMK AO2 RAE0356 SLP171 P0000 T01390089 402060094=
25/05/2023 03:51->METAR KJFK 250351Z 02013G19KT 10SM -RA FEW030 OVC070 13/10 A3003 RMK AO2 RAB15 SLP170 P0001 T01330100=
25/05/2023 02:51->METAR KJFK 250251Z 01015G23KT 10SM FEW036 OVC065 15/08 A3004 RMK AO2 SLP170 60000 T01500083 51020=
25/05/2023 01:51->METAR KJFK 250151Z 03014G29KT 10SM SCT047 BKN090 OVC110 15/10 A3002 RMK AO2 PK WND 03029/0146 RAE28 SLP165 P0000 T01500100=
25/05/2023 00:51->METAR KJFK 250051Z 01014G21KT 10SM -RA FEW030 SCT065 OVC080 16/12 A3000 RMK AO2 RAB27 SLP157 P0000 T01560122=
24/05/2023 23:51->METAR KJFK 242351Z 04005KT 10SM FEW030 OVC075 17/06 A2998 RMK AO2 SLP151 T01720056 10206 20161 53006=
24/05/2023 22:51->METAR KJFK 242251Z 19008KT 10SM SCT050 SCT250 BKN300 16/07 A2993 RMK AO2 SLP134 FU BKN300 T01610067=
24/05/2023 21:51->METAR KJFK 242151Z 18011KT 10SM FEW050 SCT250 BKN300 17/08 A2994 RMK AO2 SLP140 FU BKN300 T01670083=
24/05/2023 20:51->METAR KJFK 242051Z 16011KT 10SM FEW250 BKN300 17/08 A2996 RMK AO2 SLP144 FU BKN300 T01720078 56018=
24/05/2023 19:51->METAR KJFK 241951Z 15012KT 10SM FEW250 BKN300 19/06 A2998 RMK AO2 SLP150 FU BKN300 T01890061=
24/05/2023 18:51->METAR KJFK 241851Z 16009KT 10SM SCT250 BKN300 20/07 A2999 RMK AO2 SLP154 FU BKN300 T02000072=
24/05/2023 17:51->METAR KJFK 241751Z 19009KT 10SM FEW200 FEW250 20/00 A3001 RMK AO2 SLP162 T02000000 10200 20133 56022=
24/05/2023 16:51->METAR KJFK 241651Z 19009KT 10SM SCT250 19/04 A3003 RMK AO2 SLP169 T01940039=
24/05/2023 15:51->METAR KJFK 241551Z 20007KT 10SM FEW250 BKN300 19/06 A3005 RMK AO2 SLP176 FU BKN300 T01940056=
24/05/2023 14:51->METAR KJFK 241451Z 22005KT 10SM FEW200 FEW250 BKN300 18/06 A3007 RMK AO2 SLP184 FU BKN300 T01780056 56022=
24/05/2023 13:51->METAR KJFK 241351Z VRB03KT 10SM FEW250 BKN300 17/06 A3010 RMK AO2 SLP191 FU BKN300 T01670061=
24/05/2023 12:51->METAR KJFK 241251Z 00000KT 10SM SCT250 BKN300 15/06 A3012 RMK AO2 SLP198 FU BKN300 T01500056=
24/05/2023 11:51->METAR KJFK 241151Z 04003KT 10SM FEW250 BKN300 13/07 A3014 RMK AO2 SLP205 FU BKN300 T01330067 10133 20094 58006=
24/05/2023 10:51->METAR KJFK 241051Z 00000KT 10SM SCT250 SCT300 11/06 A3015 RMK AO2 SLP209 FU SCT300 T01110056=
24/05/2023 09:51->METAR KJFK 240951Z 06003KT 10SM FEW250 10/04 A3016 RMK AO2 SLP212 T01000044=
24/05/2023 08:51->METAR KJFK 240851Z 07004KT 10SM SCT250 09/05 A3016 RMK AO2 SLP211 T00940050 57012=
24/05/2023 07:51->METAR KJFK 240751Z 00000KT 10SM CLR 11/04 A3017 RMK AO2 SLP215 T01060044=
24/05/2023 06:51->METAR KJFK 240651Z 00000KT 10SM SCT250 11/04 A3018 RMK AO2 SLP219 T01060044=
24/05/2023 05:51->METAR KJFK 240551Z 06003KT 10SM SCT250 11/06 A3019 RMK AO2 SLP224 T01060061 10133 20106 56020=
24/05/2023 04:51->METAR KJFK 240451Z 03004KT 10SM SCT250 12/06 A3021 RMK AO2 SLP229 T01170061 401830117=
24/05/2023 03:51->METAR KJFK 240351Z 04003KT 10SM SCT250 12/07 A3023 RMK AO2 SLP235 T01170067=
24/05/2023 02:51->METAR KJFK 240251Z 09003KT 10SM SCT250 12/06 A3025 RMK AO2 SLP243 T01170061 58007=
24/05/2023 01:51->METAR KJFK 240151Z 11004KT 10SM SCT250 12/06 A3027 RMK AO2 SLP251 T01220056=
24/05/2023 00:51->METAR KJFK 240051Z 12004KT 10SM BKN250 13/06 A3027 RMK AO2 SLP249 T01280056=
23/05/2023 23:51->METAR KJFK 232351Z 12009KT 10SM BKN250 BKN300 13/05 A3027 RMK AO2 SLP250 FU BKN300 T01330050 10167 20133 56013=
23/05/2023 22:51->METAR KJFK 232251Z 12009KT 10SM BKN250 BKN300 15/04 A3028 RMK AO2 SLP252 FU BKN300 T01500039=
23/05/2023 21:51->METAR KJFK 232151Z 11009KT 10SM BKN250 BKN300 16/04 A3029 RMK AO2 SLP258 FU BKN300 T01560039=
23/05/2023 20:51->METAR KJFK 232051Z 13013KT 10SM BKN250 BKN300 16/08 A3031 RMK AO2 SLP263 FU BKN300 T01610078 58013=
23/05/2023 19:51->METAR KJFK 231951Z 12012G17KT 10SM FEW045 BKN250 BKN300 16/08 A3032 RMK AO2 SLP267 FU BKN300 T01610078=
23/05/2023 18:51->METAR KJFK 231851Z 14014KT 10SM FEW045 BKN250 16/09 A3034 RMK AO2 SLP274 T01610089=
23/05/2023 17:51->METAR KJFK 231751Z 15015KT 10SM FEW045 BKN250 17/09 A3035 RMK AO2 SLP275 T01670089 10183 20133 58001=
23/05/2023 16:51->METAR KJFK 231651Z 12012KT 10SM FEW045 BKN250 18/09 A3035 RMK AO2 SLP276 T01780089=
23/05/2023 15:51->METAR KJFK 231551Z 13014KT 10SM FEW040 SCT250 18/10 A3035 RMK AO2 SLP277 T01780100=
23/05/2023 14:51->METAR KJFK 231451Z 11008KT 10SM FEW075 BKN250 18/10 A3035 RMK AO2 SLP277 T01780100 58003=
23/05/2023 13:51->METAR KJFK 231351Z 09006KT 10SM FEW022 SCT075 BKN250 17/10 A3036 RMK AO2 SLP279 T01670100=
23/05/2023 12:51->METAR KJFK 231251Z 08005KT 10SM FEW018 SCT080 BKN250 16/10 A3036 RMK AO2 SLP280 T01560100=
23/05/2023 11:51->METAR KJFK 231151Z 07005KT 10SM FEW012 BKN085 BKN250 14/11 A3036 RMK AO2 SLP280 T01390106 10139 20117 51012=
23/05/2023 10:51->METAR KJFK 231051Z 06007KT 10SM FEW010 BKN080 BKN250 12/11 A3035 RMK AO2 SLP277 T01220106=
23/05/2023 09:51->METAR KJFK 230951Z 04005KT 10SM SCT010 BKN070 BKN100 OVC300 12/11 A3034 RMK AO2 SLP272 FU OVC300 T01170106=
23/05/2023 08:51->METAR KJFK 230851Z 04005KT 10SM FEW011 OVC100 12/11 A3032 RMK AO2 SLP268 T01220111 53005=
23/05/2023 07:51->METAR KJFK 230751Z 05005KT 10SM SCT090 BKN300 13/11 A3032 RMK AO2 SLP265 FU BKN300 T01280111=
23/05/2023 06:51->METAR KJFK 230651Z 04003KT 10SM FEW080 BKN300 12/11 A3031 RMK AO2 SLP263 FU BKN300 T01170106=
23/05/2023 05:51->METAR KJFK 230551Z 08004KT 10SM BKN300 12/11 A3031 RMK AO2 SLP263 FU BKN300 T01220106 10150 20122 51006=
23/05/2023 04:51->METAR KJFK 230451Z 09004KT 10SM BKN300 13/11 A3031 RMK AO2 SLP262 FU BKN300 T01280111 402330128=
23/05/2023 03:51->METAR KJFK 230351Z 09006KT 10SM BKN300 13/11 A3030 RMK AO2 SLP260 FU BKN300 T01280111=
23/05/2023 02:51->METAR KJFK 230251Z 11007KT 10SM FEW065 BKN300 13/11 A3029 RMK AO2 SLP257 FU BKN300 T01330111 51013=
23/05/2023 01:51->METAR KJFK 230151Z 12010KT 10SM FEW250 BKN300 14/11 A3029 RMK AO2 SLP256 FU BKN300 T01390106=
23/05/2023 00:51->METAR KJFK 230051Z 11009KT 10SM FEW250 BKN300 14/11 A3026 RMK AO2 SLP248 FU BKN300 T01390106=
22/05/2023 23:51->METAR KJFK 222351Z 12009KT 10SM FEW065 FEW250 BKN300 15/10 A3026 RMK AO2 SLP245 FU BKN300 T01500100 10211 20150 53018=
22/05/2023 22:51->METAR KJFK 222251Z 13011KT 10SM FEW065 BKN300 16/10 A3023 RMK AO2 SLP237 FU BKN300 T01610100=
22/05/2023 21:51->METAR KJFK 222151Z 12012G17KT 10SM FEW065 BKN300 17/11 A3022 RMK AO2 SLP231 FU BKN300 T01670111=
22/05/2023 20:51->METAR KJFK 222051Z 12012KT 10SM FEW065 FEW250 BKN300 18/11 A3020 RMK AO2 SLP227 FU BKN300 T01780111 51002=
22/05/2023 19:51->METAR KJFK 221951Z 14013KT 10SM FEW065 FEW250 BKN300 19/12 A3020 RMK AO2 SLP226 FU BKN300 T01890122=
22/05/2023 18:51->METAR KJFK 221851Z 13012KT 10SM FEW065 FEW250 BKN300 21/11 A3020 RMK AO2 SLP226 FU BKN300 T02060106=
22/05/2023 17:51->METAR KJFK 221751Z 15008KT 10SM SCT065 SCT250 BKN300 21/12 A3020 RMK AO2 SLP225 FU BKN300 T02110122 10233 20172 51008=
22/05/2023 16:51->METAR KJFK 221651Z 15009KT 10SM FEW050 BKN300 22/13 A3019 RMK AO2 SLP223 FU BKN300 T02220128=
22/05/2023 15:51->METAR KJFK 221551Z 11006KT 10SM FEW047 BKN300 22/12 A3018 RMK AO2 SLP220 FU BKN300 T02220117=
22/05/2023 14:51->METAR KJFK 221451Z 05008KT 10SM BKN300 21/12 A3017 RMK AO2 SLP217 FU BKN300 T02110117 51013=
22/05/2023 13:51->METAR KJFK 221351Z 03010KT 10SM BKN300 21/12 A3016 RMK AO2 SLP212 FU BKN300 T02060117=
22/05/2023 12:51->METAR KJFK 221251Z 02010KT 10SM FEW250 BKN300 19/11 A3015 RMK AO2 SLP210 FU BKN300 T01890111=
22/05/2023 11:51->METAR KJFK 221151Z 01007KT 10SM BKN300 17/11 A3013 RMK AO2 SLP204 FU BKN300 T01720111 10172 20144 53020 $=
22/05/2023 10:51->METAR KJFK 221051Z 01006KT 10SM BKN300 16/11 A3012 RMK AO2 SLP198 FU BKN300 T01560106 $=
22/05/2023 09:51->METAR KJFK 220951Z 35008KT 10SM SCT300 15/10 A3009 RMK AO2 SLP189 FU SCT300 T01500100 $=
22/05/2023 08:51->METAR KJFK 220851Z 36007KT 10SM FEW250 15/10 A3008 RMK AO2 SLP184 T01500100 53006 $=
22/05/2023 07:51->METAR KJFK 220751Z 01006KT 10SM FEW250 15/11 A3007 RMK AO2 SLP182 T01500106 $=
22/05/2023 06:51->METAR KJFK 220651Z 36007KT 10SM FEW250 16/11 A3006 RMK AO2 SLP179 T01560106 $=
22/05/2023 05:51->METAR KJFK 220551Z 35007KT 10SM FEW250 16/11 A3006 RMK AO2 SLP178 T01560106 10194 20156 50007 $=
22/05/2023 04:51->METAR KJFK 220451Z 35006KT 10SM SCT250 16/11 A3006 RMK AO2 SLP179 T01610106 402220133 $=
22/05/2023 03:51->METAR KJFK 220351Z 35005KT 10SM SCT250 18/11 A3005 RMK AO2 SLP175 T01780106 $=
22/05/2023 02:51->METAR KJFK 220251Z 32005KT 10SM SCT250 18/10 A3004 RMK AO2 SLP171 T01830100 51016 $=
22/05/2023 01:51->METAR KJFK 220151Z 34006KT 10SM SCT250 19/10 A3003 RMK AO2 SLP168 T01890100 $=
22/05/2023 00:51->METAR KJFK 220051Z 35008KT 10SM FEW055 SCT250 19/10 A3001 RMK AO2 SLP162 T01890100 $=
21/05/2023 23:51->METAR KJFK 212351Z 01006KT 10SM FEW055 SCT200 SCT250 19/10 A2999 RMK AO2 SLP155 T01940100 10222 20194 53015 $=
21/05/2023 22:51->METAR KJFK 212251Z 34013KT 10SM SCT055 BKN200 BKN250 21/10 A2997 RMK AO2 SLP149 T02110100 $=
21/05/2023 21:51->METAR KJFK 212151Z 33013G19KT 10SM BKN055 BKN200 BKN250 21/11 A2996 RMK AO2 SLP145 T02110106 $=
21/05/2023 20:51->METAR KJFK 212051Z 33012G21KT 10SM BKN055 BKN200 BKN250 21/10 A2994 RMK AO2 SLP140 T02110100 53002 $=
21/05/2023 19:51->METAR KJFK 211951Z 32009G19KT 10SM BKN049 BKN200 BKN250 22/10 A2994 RMK AO2 SLP137 T02170100 $=
21/05/2023 18:51->METAR KJFK 211851Z 31014G25KT 10SM BKN048 BKN200 BKN250 21/10 A2993 RMK AO2 SLP136 T02060100 $=
21/05/2023 17:51->METAR KJFK 211751Z 31011G20KT 10SM BKN046 BKN200 BKN250 21/10 A2994 RMK AO2 PK WND 30026/1708 SLP138 T02060100 10211 20139 53001 $=
21/05/2023 16:51->METAR KJFK 211651Z 33014G22KT 10SM SCT045 SCT200 BKN250 21/10 A2994 RMK AO2 SLP138 T02110100 $=
21/05/2023 15:51->METAR KJFK 211551Z 31014G22KT 10SM SCT040 SCT200 BKN250 19/09 A2993 RMK AO2 SLP136 T01940094 $=
21/05/2023 14:51->METAR KJFK 211451Z 32017G22KT 10SM FEW040 FEW100 SCT220 BKN250 18/09 A2994 RMK AO2 SLP137 T01830089 58007 $=
21/05/2023 13:51->METAR KJFK 211351Z 33016G21KT 10SM FEW040 FEW100 SCT200 BKN250 17/08 A2995 RMK AO2 SLP140 T01670083 $=
21/05/2023 12:51->METAR KJFK 211251Z 31012KT 10SM FEW100 SCT200 BKN250 16/08 A2995 RMK AO2 SLP143 T01560078 $=
21/05/2023 11:51->METAR KJFK 211151Z 31011KT 10SM FEW100 BKN200 BKN250 14/08 A2996 RMK AO2 SLP144 60000 70165 T01440078 10178 20133 53027 $=
21/05/2023 10:51->METAR KJFK 211051Z 31013G24KT 10SM FEW100 BKN200 BKN250 13/07 A2993 RMK AO2 SLP135 T01330072 $=
21/05/2023 09:51->METAR KJFK 210951Z 32017KT 10SM BKN200 13/07 A2990 RMK AO2 PK WND 33030/0857 SLP125 T01330072 $=
21/05/2023 08:51->METAR KJFK 210851Z 32017G25KT 10SM BKN039 OVC075 14/07 A2988 RMK AO2 SLP117 60000 T01440072 53006 $=
21/05/2023 07:51->METAR KJFK 210751Z 32014KT 10SM BKN029 OVC055 15/10 A2988 RMK AO2 RAB0653E12 SLP117 P0000 T01500100 $=
21/05/2023 06:51->METAR KJFK 210651Z 31014KT 10SM SCT025 OVC040 18/16 A2986 RMK AO2 SLP110 T01780161 $=
21/05/2023 05:51->METAR KJFK 210551Z 28008KT 10SM FEW013 SCT018 OVC026 17/17 A2986 RMK AO2 SLP111 60000 T01720172 10172 20156 56008 $=
21/05/2023 04:51->METAR KJFK 210451Z 22003KT 1/4SM R04R/1400V1800FT FG VV002 16/16 A2987 RMK AO2 SLP114 T01610161 401720139 $=
21/05/2023 03:51->METAR KJFK 210351Z 25006KT 1/4SM R04R/1600V1800FT FG VV002 16/16 A2987 RMK AO2 SFC VIS 1/2 DZE29 SLP113 P0000 T01610161 $=
21/05/2023 02:51->METAR KJFK 210251Z 22009KT 1/4SM R04R/2200V3500FT -DZ FG VV002 16/16 A2988 RMK AO2 SFC VIS 1/2 SLP119 P0000 60000 T01610161 55005 $=
21/05/2023 01:51->METAR KJFK 210151Z 18009KT 1/4SM R04R/2600V3500FT -DZ BR VV003 16/16 A2988 RMK AO2 SFC VIS 3/4 DZB45 SLP117 P0000 T01610161 $=
21/05/2023 00:51->METAR KJFK 210051Z 20009KT 1/4SM R04R/4500VP6000FT BR OVC003 16/16 A2988 RMK AO2 SFC VIS 1 SLP118 T01560156 $=
20/05/2023 23:51->METAR KJFK 202351Z 19013KT 1/4SM R04R/3500V5000FT BR OVC002 16/16 A2990 RMK AO2 SFC VIS 3/4 RAE2252 SLP124 P0000 60073 T01610161 10172 20161 55014 $=
20/05/2023 22:51->METAR KJFK 202251Z 18015KT 1 1/2SM -RA BR BKN004 OVC036 17/17 A2990 RMK AO2 SFC VIS 3 SLP124 P0009 T01670167 $=
20/05/2023 21:51->METAR KJFK 202151Z 18014KT 1SM R04R/P6000FT -RA BR OVC004 17/17 A2992 RMK AO2 SFC VIS 3 SLP132 P0010 T01670167 $=
20/05/2023 20:51->METAR KJFK 202051Z 18013KT 3SM R04R/4000VP6000FT +RA BR BKN005 OVC010 17/17 A2994 RMK AO2 SLP137 P0021 60054 T01670167 56024 $=
20/05/2023 19:51->METAR KJFK 201951Z 16014KT 1 1/2SM -RA BR OVC005 17/17 A2995 RMK AO2 SFC VIS 4 SLP142 P0016 T01670167 $=
20/05/2023 18:51->METAR KJFK 201851Z 19009KT 1SM R04R/3500VP6000FT -RA BR OVC004 17/17 A2998 RMK AO2 SFC VIS 2 1/2 SLP153 P0017 T01670167=
20/05/2023 17:51->METAR KJFK 201751Z 13006KT 2SM -RA BR OVC005 17/17 A3001 RMK AO2 SFC VIS 4 SLP161 P0014 60092 T01670167 10167 20156 58026=
20/05/2023 16:51->METAR KJFK 201651Z 11006KT 1 1/4SM R04R/4000VP6000FT +RA BR FEW005 BKN015 OVC024 16/16 A3004 RMK AO2 TWR VIS 1 1/2 SLP172 P0049 T01610161=
20/05/2023 15:51->METAR KJFK 201551Z 10007KT 1 1/2SM R04R/4000VP6000FT -RA BR OVC005 16/16 A3007 RMK AO2 SFC VIS 1 3/4 RAE1452B16 SLP182 P0002 T01610161=
20/05/2023 14:51->METAR KJFK 201451Z 10008KT 10SM -RA BKN007 OVC012 17/16 A3009 RMK AO2 SLP188 P0019 60027 T01670161 58013=
20/05/2023 13:51->METAR KJFK 201351Z 05007KT 2 1/2SM -RA BR OVC006 17/16 A3010 RMK AO2 SFC VIS 3 SLP193 P0007 T01670161=
20/05/2023 12:51->METAR KJFK 201251Z 07007KT 3SM RA BR OVC007 16/16 A3012 RMK AO2 RAB1156E17B28 SLP199 P0001 T01610156=
20/05/2023 11:51->METAR KJFK 201151Z 08008KT 7SM FEW016 BKN024 OVC033 16/14 A3013 RMK AO2 CIG 012 W SLP201 T01610139 10161 20139 57009=
20/05/2023 10:51->METAR KJFK 201051Z 08006KT 10SM FEW008 BKN019 OVC027 15/14 A3014 RMK AO2 SLP205 T01500139=
20/05/2023 09:51->METAR KJFK 200951Z 06006KT 10SM FEW018 BKN025 OVC029 14/14 A3014 RMK AO2 SLP207 T01440139=
20/05/2023 08:51->METAR KJFK 200851Z 06004KT 10SM FEW017 BKN024 OVC038 14/14 A3015 RMK AO2 SLP210 T01390139 58010=
20/05/2023 07:51->METAR KJFK 200751Z 12005KT 6SM BR OVC019 14/13 A3017 RMK AO2 CIG 014 W SLP215 T01390133=
20/05/2023 06:51->METAR KJFK 200651Z 14007KT 10SM BKN024 OVC030 14/13 A3018 RMK AO2 CIG 007 W SLP220 T01440133=
20/05/2023 05:51->METAR KJFK 200551Z 12004KT 10SM FEW020 BKN044 OVC250 14/12 A3020 RMK AO2 SLP228 T01440122 10144 20133 56022=
20/05/2023 04:51->METAR KJFK 200451Z 00000KT 10SM BKN050 OVC250 14/12 A3023 RMK AO2 SLP235 T01390117 401890106=
20/05/2023 03:51->METAR KJFK 200351Z 14008KT 10SM SCT060 BKN250 13/11 A3024 RMK AO2 SLP241 T01330111=
20/05/2023 02:51->METAR KJFK 200251Z 15010KT 10SM FEW100 SCT250 13/10 A3027 RMK AO2 SLP249 T01330100 58001=
20/05/2023 01:51->METAR KJFK 200151Z 15008KT 10SM FEW060 BKN250 13/10 A3028 RMK AO2 SLP252 T01330100=
20/05/2023 00:51->METAR KJFK 200051Z 16009KT 10SM SCT250 14/11 A3028 RMK AO2 SLP252 T01390111=
19/05/2023 23:51->METAR KJFK 192351Z 15009KT 10SM FEW055 SCT250 14/11 A3027 RMK AO2 SLP250 T01390106 10178 20139 58002=
19/05/2023 22:51->METAR KJFK 192251Z 16012KT 10SM FEW055 FEW180 SCT250 15/11 A3029 RMK AO2 SLP256 T01500106=
19/05/2023 21:51->METAR KJFK 192151Z 17017G23KT 10SM FEW027 FEW050 FEW180 SCT250 16/11 A3029 RMK AO2 PK WND 15026/2110 SLP255 T01560106=
19/05/2023 20:51->METAR KJFK 192051Z 15018G24KT 10SM FEW027 FEW050 SCT180 BKN230 17/10 A3028 RMK AO2 PK WND 16027/2005 SLP252 T01720100 58021=
19/05/2023 19:51->METAR KJFK 191951Z 16017G24KT 10SM FEW027 FEW050 SCT180 BKN250 17/10 A3030 RMK AO2 SLP260 T01720100=
19/05/2023 18:51->METAR KJFK 191851Z 17017G24KT 10SM FEW027 FEW050 BKN250 18/11 A3033 RMK AO2 SLP269 T01780111=
19/05/2023 17:51->METAR KJFK 191751Z 17016G22KT 10SM FEW050 BKN250 18/11 A3034 RMK AO2 SLP273 T01780106 10189 20139 58010=
19/05/2023 16:51->METAR KJFK 191651Z 17017G27KT 10SM FEW050 FEW095 BKN250 18/11 A3036 RMK AO2 PK WND 18027/1647 SLP279 T01830111=
19/05/2023 15:51->METAR KJFK 191551Z 18015G23KT 10SM SCT050 BKN250 17/11 A3036 RMK AO2 SLP281 T01720111=
19/05/2023 14:51->METAR KJFK 191451Z 19014KT 10SM FEW034 FEW050 BKN250 17/12 A3037 RMK AO2 SLP284 T01670117 50001=
19/05/2023 13:51->METAR KJFK 191351Z 17009KT 10SM FEW034 FEW045 BKN250 16/12 A3037 RMK AO2 SLP285 T01610117=
19/05/2023 12:51->METAR KJFK 191251Z 15008KT 10SM FEW028 FEW045 BKN250 15/11 A3037 RMK AO2 SLP284 T01500111=
19/05/2023 11:51->METAR KJFK 191151Z 16007KT 10SM FEW044 BKN250 14/10 A3037 RMK AO2 SLP282 T01390100 10139 20106 51008=
19/05/2023 10:51->METAR KJFK 191051Z 14006KT 10SM FEW044 BKN250 12/08 A3036 RMK AO2 SLP281 T01220083=
19/05/2023 09:51->METAR KJFK 190951Z 15006KT 10SM SCT040 BKN250 12/07 A3035 RMK AO2 SLP278 T01170072=
19/05/2023 08:51->METAR KJFK 190851Z 15006KT 10SM BKN250 11/07 A3034 RMK AO2 SLP274 T01110072 56006=
19/05/2023 07:51->METAR KJFK 190751Z 16006KT 10SM SCT250 11/07 A3035 RMK AO2 SLP276 T01060072=
19/05/2023 06:51->METAR KJFK 190651Z 17006KT 10SM FEW024 FEW250 11/07 A3035 RMK AO2 SLP276 T01060072=
19/05/2023 05:51->METAR KJFK 190551Z 17007KT 10SM FEW021 FEW250 11/07 A3036 RMK AO2 SLP280 T01110072 10117 20106 58005=
19/05/2023 04:51->METAR KJFK 190451Z 17006KT 10SM FEW030 FEW250 11/07 A3038 RMK AO2 SLP285 T01060072 401390056=
19/05/2023 03:51->METAR KJFK 190351Z 17007KT 10SM FEW250 11/07 A3037 RMK AO2 SLP285 T01110072=
19/05/2023 02:51->METAR KJFK 190251Z 17008KT 10SM FEW040 FEW250 11/07 A3038 RMK AO2 SLP285 T01110072 51013=
19/05/2023 01:51->METAR KJFK 190151Z 17007KT 10SM FEW250 11/07 A3037 RMK AO2 SLP284 T01110072=
19/05/2023 00:51->METAR KJFK 190051Z 15008KT 10SM FEW250 FEW300 11/07 A3035 RMK AO2 SLP276 FU FEW300 T01110067=
18/05/2023 23:51->METAR KJFK 182351Z 15008KT 10SM FEW250 FEW300 11/06 A3034 RMK AO2 SLP272 FU FEW300 T01110061 10139 20111 55000=
18/05/2023 22:51->METAR KJFK 182251Z 16012KT 10SM FEW250 FEW300 12/05 A3033 RMK AO2 SLP271 FU FEW300 T01170050=
18/05/2023 21:51->METAR KJFK 182151Z 18013KT 10SM FEW250 FEW300 13/04 A3034 RMK AO2 SLP272 FU FEW300 T01280044=
18/05/2023 20:51->METAR KJFK 182051Z 17011KT 10SM FEW300 13/04 A3034 RMK AO2 SLP272 FU FEW300 T01330044 58011=
18/05/2023 19:51->METAR KJFK 181951Z 17014KT 10SM FEW060 FEW300 13/03 A3035 RMK AO2 SLP275 FU FEW300 T01280033=
18/05/2023 18:51->METAR KJFK 181851Z 19012KT 10SM FEW060 FEW300 14/03 A3036 RMK AO2 SLP280 FU FEW300 T01390028=
18/05/2023 17:51->METAR KJFK 181751Z 17012G19KT 10SM FEW060 FEW300 13/01 A3037 RMK AO2 SLP283 FU FEW300 T01330011 10139 20094 51007=
18/05/2023 16:51->METAR KJFK 181651Z 18015KT 10SM FEW060 FEW300 13/M01 A3036 RMK AO2 SLP282 FU FEW300 T01331006=
18/05/2023 15:51->METAR KJFK 181551Z 15010KT 10SM FEW060 SCT300 13/M02 A3036 RMK AO2 SLP280 FU SCT300 T01281022=
18/05/2023 14:51->METAR KJFK 181451Z 17009KT 10SM FEW060 FEW300 13/M01 A3035 RMK AO2 SLP275 FU FEW300 T01281011 51017=
18/05/2023 13:51->METAR KJFK 181351Z VRB04KT 10SM FEW060 FEW300 12/M04 A3033 RMK AO2 SLP271 FU FEW300 T01221044=
18/05/2023 12:51->METAR KJFK 181251Z 06008KT 10SM FEW250 SCT300 11/M04 A3032 RMK AO2 SLP265 FU SCT300 T01111044=
18/05/2023 11:51->METAR KJFK 181151Z 08009KT 10SM SCT300 09/M03 A3030 RMK AO2 SLP258 FU SCT300 T00941033 10094 20056 53026=
18/05/2023 10:51->METAR KJFK 181051Z 07006KT 10SM SCT300 08/M02 A3027 RMK AO2 SLP249 FU SCT300 T00781022=
18/05/2023 09:51->METAR KJFK 180951Z 04006KT 10SM FEW300 06/M02 A3024 RMK AO2 SLP239 FU FEW300 T00611017=
18/05/2023 08:51->METAR KJFK 180851Z 04005KT 10SM FEW300 06/M02 A3022 RMK AO2 SLP232 FU FEW300 T00561022 52021=
18/05/2023 07:51->METAR KJFK 180751Z 04007KT 10SM FEW300 07/M03 A3020 RMK AO2 SLP225 FU FEW300 T00671033=
18/05/2023 06:51->METAR KJFK 180651Z 02009KT 10SM FEW300 08/M04 A3018 RMK AO2 SLP219 FU FEW300 T00781044=
18/05/2023 05:51->METAR KJFK 180551Z 02011KT 10SM FEW300 09/M06 A3016 RMK AO2 SLP211 FU FEW300 T00891061 10144 20089 51026=
18/05/2023 04:51->METAR KJFK 180451Z 02007KT 10SM FEW300 10/M06 A3014 RMK AO2 SLP204 FU FEW300 T01001061 402000100=
18/05/2023 03:51->METAR KJFK 180351Z 01008KT 10SM SCT300 11/M06 A3011 RMK AO2 SLP196 FU SCT300 T01061056=
18/05/2023 02:51->METAR KJFK 180251Z 01012KT 10SM SCT300 12/M07 A3008 RMK AO2 SLP185 FU SCT300 T01171067 51045=
18/05/2023 01:51->METAR KJFK 180151Z 01008KT 10SM FEW250 SCT300 13/M05 A3004 RMK AO2 SLP172 FU SCT300 T01281050=
18/05/2023 00:51->METAR KJFK 180051Z 35012KT 10SM SCT300 14/M06 A3000 RMK AO2 SLP158 FU SCT300 T01391061=
17/05/2023 23:51->METAR KJFK 172351Z 34012KT 10SM SCT300 14/M07 A2995 RMK AO2 SLP140 FU SCT300 T01441067 10189 20144 53029=
17/05/2023 22:51->METAR KJFK 172251Z 34017G23KT 10SM FEW250 SCT300 16/M06 A2991 RMK AO2 SLP129 FU SCT300 T01561061=
17/05/2023 21:51->METAR KJFK 172151Z 33016G21KT 10SM FEW250 17/M06 A2988 RMK AO2 PK WND 33027/2052 SLP119 T01721056=
17/05/2023 20:51->METAR KJFK 172051Z 34019G27KT 10SM FEW250 18/M06 A2986 RMK AO2 PK WND 30028/2004 SLP111 T01781056 53022=
17/05/2023 19:51->METAR KJFK 171951Z 32014G20KT 10SM FEW065 FEW250 19/M04 A2982 RMK AO2 PK WND 33026/1931 SLP098 T01891044=
17/05/2023 18:51->METAR KJFK 171851Z 35013G25KT 10SM FEW065 FEW250 18/M03 A2981 RMK AO2 SLP094 T01831033=
17/05/2023 17:51->METAR KJFK 171751Z 32013G18KT 10SM FEW060 FEW250 18/00 A2979 RMK AO2 SLP088 T01780000 10183 20122 50008=
17/05/2023 16:51->METAR KJFK 171651Z 35013G21KT 10SM FEW060 FEW250 17/M01 A2979 RMK AO2 SLP089 T01671011=
17/05/2023 15:51->METAR KJFK 171551Z 36016G24KT 10SM FEW055 FEW250 17/02 A2979 RMK AO2 SLP087 T01670022=
17/05/2023 14:51->METAR KJFK 171451Z 02018G24KT 10SM FEW050 FEW250 16/02 A2977 RMK AO2 SLP081 T01610022 51030=
17/05/2023 13:51->METAR KJFK 171351Z 35014G26KT 10SM SCT044 SCT250 14/03 A2974 RMK AO2 PK WND 36028/1320 SLP070 T01440028=
17/05/2023 12:51->METAR KJFK 171251Z 35019G26KT 10SM FEW035 FEW047 SCT250 13/04 A2971 RMK AO2 PK WND 36028/1203 SLP062 T01330039=
17/05/2023 11:51->METAR KJFK 171151Z 35018G29KT 10SM FEW045 SCT250 SCT300 13/04 A2968 RMK AO2 PK WND 36029/1143 SLP050 FU SCT300 T01330044 10200 20133 51039=
17/05/2023 10:51->METAR KJFK 171051Z 01019KT 10SM FEW042 FEW100 SCT250 SCT300 14/06 A2964 RMK AO2 SLP038 FU SCT300 T01390056=
17/05/2023 09:51->METAR KJFK 170951Z 35014KT 10SM FEW100 BKN250 16/05 A2961 RMK AO2 PK WND 33029/0922 SLP025 T01610050=
17/05/2023 08:51->METAR KJFK 170851Z 34014KT 10SM SCT100 OVC250 18/04 A2957 RMK AO2 SLP012 T01780044 53009=
17/05/2023 07:51->METAR KJFK 170751Z 33015KT 10SM FEW100 OVC250 19/04 A2955 RMK AO2 SLP007 T01890039=
17/05/2023 06:51->METAR KJFK 170651Z 31012KT 10SM OVC250 20/08 A2954 RMK AO2 SLP004 T02000078=
17/05/2023 05:51->METAR KJFK 170551Z 26010KT 10SM OVC240 19/13 A2954 RMK AO2 SLP002 T01940133 10228 20189 58001=
17/05/2023 04:51->METAR KJFK 170451Z 26011KT 10SM OVC240 20/14 A2954 RMK AO2 SLP004 T02000139 402560133=
17/05/2023 03:51->METAR KJFK 170351Z 24010KT 10SM FEW100 BKN250 19/14 A2954 RMK AO2 SLP002 T01890139=
17/05/2023 02:51->METAR KJFK 170251Z 25011KT 10SM BKN250 19/13 A2954 RMK AO2 SLP003 T01940128 50001=
17/05/2023 01:51->METAR KJFK 170151Z 24012KT 10SM FEW100 BKN240 20/12 A2955 RMK AO2 SLP007 T02000122=
17/05/2023 00:51->METAR KJFK 170051Z 24017KT 10SM FEW100 FEW210 BKN250 22/11 A2954 RMK AO2 SLP003 T02220106=
16/05/2023 23:51->METAR KJFK 162351Z 24012KT 10SM FEW100 SCT210 BKN250 23/09 A2954 RMK AO2 SLP002 T02280094 10256 20217 56015=
16/05/2023 22:51->METAR KJFK 162251Z 24017KT 10SM FEW100 BKN250 23/08 A2955 RMK AO2 SLP005 T02330083=
16/05/2023 21:51->METAR KJFK 162151Z 24016KT 10SM BKN250 24/09 A2956 RMK AO2 WSHFT 2048 SLP009 T02390089=
16/05/2023 20:51->METAR KJFK 162051Z 24012KT 10SM BKN250 24/08 A2958 RMK AO2 SLP017 T02440078 56037=
16/05/2023 19:51->METAR KJFK 161951Z 24014KT 10SM BKN250 25/08 A2961 RMK AO2 SLP027 T02500078=
16/05/2023 18:51->METAR KJFK 161851Z 17010KT 10SM BKN250 22/11 A2965 RMK AO2 SLP041 T02220111=
16/05/2023 17:51->METAR KJFK 161751Z 17011KT 10SM BKN250 22/09 A2969 RMK AO2 WSHFT 1708 SLP054 T02220094 10244 20161 56036=
16/05/2023 16:51->METAR KJFK 161651Z 23012KT 10SM BKN250 24/03 A2973 RMK AO2 SLP066 T02390028=
16/05/2023 15:51->METAR KJFK 161551Z 24013KT 10SM SCT250 23/06 A2976 RMK AO2 SLP078 T02280061=
16/05/2023 14:51->METAR KJFK 161451Z 24012KT 10SM FEW250 22/07 A2980 RMK AO2 SLP090 T02170072 58025=
16/05/2023 13:51->METAR KJFK 161351Z 26010KT 10SM FEW250 21/05 A2983 RMK AO2 SLP100 T02110050=
16/05/2023 12:51->METAR KJFK 161251Z 24011KT 10SM SCT250 18/10 A2985 RMK AO2 SLP109 T01830100=
16/05/2023 11:51->METAR KJFK 161151Z 24012KT 10SM SCT250 16/11 A2987 RMK AO2 SLP115 T01610106 10161 20133 56007=
16/05/2023 10:51->METAR KJFK 161051Z 25010KT 10SM FEW250 SCT300 14/09 A2988 RMK AO2 SLP117 FU SCT300 T01440094=
16/05/2023 09:51->METAR KJFK 160951Z 25010KT 10SM FEW250 SCT300 14/09 A2988 RMK AO2 SLP118 FU SCT300 T01390089=
16/05/2023 08:51->METAR KJFK 160851Z 25009KT 10SM FEW300 14/09 A2989 RMK AO2 SLP122 FU FEW300 T01440089 56017=
16/05/2023 07:51->METAR KJFK 160751Z 25011KT 10SM SCT300 14/09 A2991 RMK AO2 SLP128 FU SCT300 T01440094=
16/05/2023 06:51->METAR KJFK 160651Z 25010KT 10SM SCT300 16/09 A2992 RMK AO2 SLP131 FU SCT300 T01560089=
16/05/2023 05:51->METAR KJFK 160551Z 25009KT 10SM SCT300 16/08 A2994 RMK AO2 SLP139 FU SCT300 T01560083 10200 20156 58018=
16/05/2023 04:51->METAR KJFK 160451Z 24010KT 10SM SCT300 16/08 A2996 RMK AO2 SLP146 FU SCT300 T01610083 402220106=
16/05/2023 03:51->METAR KJFK 160351Z 26012KT 10SM SCT300 17/07 A2998 RMK AO2 SLP151 FU SCT300 T01720067=
16/05/2023 02:51->METAR KJFK 160251Z 25012KT 10SM FEW250 BKN300 17/07 A2999 RMK AO2 SLP157 FU BKN300 T01720072 58004=
16/05/2023 01:51->METAR KJFK 160151Z 24011KT 10SM SCT250 BKN300 18/07 A3001 RMK AO2 SLP161 FU BKN300 T01830067=
16/05/2023 00:51->METAR KJFK 160051Z 24012KT 10SM SCT250 BKN300 20/06 A3001 RMK AO2 SLP161 FU BKN300 T02000056=
15/05/2023 23:51->METAR KJFK 152351Z 24013KT 10SM BKN250 BKN300 19/07 A3001 RMK AO2 SLP161 FU BKN300 T01940067 10217 20183 56017=
15/05/2023 22:51->METAR KJFK 152251Z 24014G21KT 10SM BKN250 BKN300 21/07 A3001 RMK AO2 SLP162 FU BKN300 T02060067=
15/05/2023 21:51->METAR KJFK 152151Z 23013KT 10SM BKN250 BKN300 21/09 A3004 RMK AO2 SLP171 FU BKN300 T02060089=
15/05/2023 20:51->METAR KJFK 152051Z 19013KT 10SM BKN250 BKN300 19/09 A3006 RMK AO2 SLP178 FU BKN300 T01890094 56034=
15/05/2023 19:51->METAR KJFK 151951Z 19013KT 10SM BKN250 BKN300 18/08 A3009 RMK AO2 SLP189 FU BKN300 T01830083=
15/05/2023 18:51->METAR KJFK 151851Z 21015G22KT 10SM SCT250 BKN300 20/06 A3012 RMK AO2 SLP199 FU BKN300 T02000061=
15/05/2023 17:51->METAR KJFK 151751Z 23014G20KT 10SM FEW250 BKN300 22/04 A3016 RMK AO2 SLP211 FU BKN300 T02170039 10222 20156 58034=
15/05/2023 16:51->METAR KJFK 151651Z 25011KT 10SM FEW250 BKN300 20/03 A3019 RMK AO2 SLP223 FU BKN300 T02000033=
15/05/2023 15:51->METAR KJFK 151551Z 23013KT 10SM BKN300 19/04 A3023 RMK AO2 SLP237 FU BKN300 T01890039=
15/05/2023 14:51->METAR KJFK 151451Z 23010KT 10SM FEW250 BKN300 19/03 A3026 RMK AO2 SLP245 FU BKN300 T01890033 58013=
15/05/2023 13:51->METAR KJFK 151351Z 25007KT 10SM FEW250 19/01 A3028 RMK AO2 SLP252 T01890006=
15/05/2023 12:51->METAR KJFK 151251Z 32005KT 10SM FEW250 17/00 A3029 RMK AO2 SLP255 T01720000=
15/05/2023 11:51->METAR KJFK 151151Z 33008KT 10SM FEW250 16/01 A3029 RMK AO2 SLP258 T01560011 10156 20106 53004=
15/05/2023 10:51->METAR KJFK 151051Z 35005KT 10SM FEW250 13/02 A3029 RMK AO2 SLP256 T01330017=
15/05/2023 09:51->METAR KJFK 150951Z 36005KT 10SM FEW250 11/02 A3028 RMK AO2 SLP254 T01060017=
15/05/2023 08:51->METAR KJFK 150851Z 36007KT 10SM FEW250 12/01 A3028 RMK AO2 SLP254 T01170011 51009=
15/05/2023 07:51->METAR KJFK 150751Z 35009KT 10SM FEW250 13/01 A3028 RMK AO2 SLP253 T01280011=
15/05/2023 06:51->METAR KJFK 150651Z 36010KT 10SM SCT250 13/01 A3027 RMK AO2 SLP248 T01330011=
15/05/2023 05:51->METAR KJFK 150551Z 36010KT 10SM SCT250 14/01 A3026 RMK AO2 SLP245 T01440011 10156 20133 53006=
15/05/2023 04:51->METAR KJFK 150451Z 35008KT 10SM BKN250 15/01 A3025 RMK AO2 SLP244 T01500011 402060133=
15/05/2023 03:51->METAR KJFK 150351Z 35008KT 10SM SCT250 15/03 A3024 RMK AO2 SLP239 T01500033=
15/05/2023 02:51->METAR KJFK 150251Z 02004KT 10SM BKN250 16/04 A3024 RMK AO2 SLP239 T01560039 51019=
15/05/2023 01:51->METAR KJFK 150151Z 00000KT 10SM BKN250 13/10 A3023 RMK AO2 SLP237 T01330100=
15/05/2023 00:51->METAR KJFK 150051Z 00000KT 10SM BKN250 15/10 A3021 RMK AO2 SLP228 T01500100=
14/05/2023 23:51->METAR KJFK 142351Z 22003KT 10SM FEW180 BKN250 14/09 A3018 RMK AO2 SLP220 T01440094 10189 20144 53014=
14/05/2023 22:51->METAR KJFK 142251Z 19006KT 10SM FEW200 BKN250 16/10 A3016 RMK AO2 SLP212 T01560100=
14/05/2023 21:51->METAR KJFK 142151Z 20007KT 10SM FEW200 BKN250 17/09 A3015 RMK AO2 SLP210 T01670094=
14/05/2023 20:51->METAR KJFK 142051Z 20010KT 10SM FEW200 BKN250 17/11 A3014 RMK AO2 SLP206 T01720106 55007=
14/05/2023 19:51->METAR KJFK 141951Z 19009KT 10SM FEW200 SCT250 18/10 A3014 RMK AO2 SLP205 T01830100=
14/05/2023 18:51->METAR KJFK 141851Z 18008KT 10SM FEW200 FEW250 18/10 A3015 RMK AO2 SLP208 T01830100=
14/05/2023 17:51->METAR KJFK 141751Z 19010KT 10SM FEW040 FEW200 BKN250 18/10 A3016 RMK AO2 SLP213 T01830100 10206 20161 56012=
14/05/2023 16:51->METAR KJFK 141651Z 19008KT 10SM FEW200 BKN250 17/09 A3017 RMK AO2 SLP216 T01720094=
14/05/2023 15:51->METAR KJFK 141551Z VRB05KT 10SM FEW200 BKN250 18/08 A3018 RMK AO2 SLP220 T01830083=
14/05/2023 14:51->METAR KJFK 141451Z 01006KT 10SM FEW200 BKN250 19/02 A3020 RMK AO2 SLP225 T01890022 58002=
14/05/2023 13:51->METAR KJFK 141351Z 36007KT 10SM FEW200 BKN250 18/03 A3020 RMK AO2 SLP227 T01830028=
14/05/2023 12:51->METAR KJFK 141251Z 03008KT 10SM FEW200 BKN250 18/03 A3021 RMK AO2 SLP229 T01780033=
14/05/2023 11:51->METAR KJFK 141151Z 04008KT 10SM FEW200 BKN250 16/03 A3020 RMK AO2 SLP227 T01610033 10178 20144 51022=
14/05/2023 10:51->METAR KJFK 141051Z 04009KT 10SM FEW200 BKN250 15/03 A3019 RMK AO2 SLP224 T01500028=
14/05/2023 09:51->METAR KJFK 140951Z 01009KT 10SM BKN250 14/02 A3016 RMK AO2 SLP212 T01440022=
14/05/2023 08:51->METAR KJFK 140851Z 02012KT 10SM SCT250 16/02 A3014 RMK AO2 SLP205 T01560017 53015=
14/05/2023 07:51->METAR KJFK 140751Z 02009KT 10SM SCT250 16/01 A3013 RMK AO2 SLP201 T01610011=
14/05/2023 06:51->METAR KJFK 140651Z 01009KT 10SM SCT250 17/01 A3010 RMK AO2 SLP192 T01670006=
14/05/2023 05:51->METAR KJFK 140551Z 01011KT 10SM CLR 18/01 A3009 RMK AO2 SLP190 T01780006 10256 20178 51012=
14/05/2023 04:51->METAR KJFK 140451Z 36012KT 10SM CLR 19/01 A3009 RMK AO2 SLP188 T01940011 402670178=
14/05/2023 03:51->METAR KJFK 140351Z 01009KT 10SM CLR 20/02 A3008 RMK AO2 SLP185 T02000017=
14/05/2023 02:51->METAR KJFK 140251Z 36010KT 10SM CLR 21/03 A3006 RMK AO2 SLP179 T02110033 51027=
14/05/2023 01:51->METAR KJFK 140151Z 35010KT 10SM BKN250 23/03 A3004 RMK AO2 SLP170 T02280033=
14/05/2023 00:51->METAR KJFK 140051Z 36006KT 10SM FEW100 BKN250 24/04 A3000 RMK AO2 SLP160 T02390039=
13/05/2023 23:51->METAR KJFK 132351Z 33011KT 10SM FEW100 BKN250 26/03 A2998 RMK AO2 SLP151 T02560033 10267 20233 53009=
13/05/2023 22:51->METAR KJFK 132251Z 32010KT 10SM FEW100 BKN240 26/07 A2997 RMK AO2 SLP147 T02610067=
13/05/2023 21:51->METAR KJFK 132151Z 25009KT 10SM FEW090 BKN230 24/13 A2996 RMK AO2 SLP144 T02440133=
13/05/2023 20:51->METAR KJFK 132051Z 23012KT 10SM FEW070 SCT095 SCT200 OVC250 24/14 A2995 RMK AO2 SLP142 T02440139 56014=
13/05/2023 19:51->METAR KJFK 131951Z 23012KT 10SM FEW060 SCT200 OVC250 25/14 A2996 RMK AO2 SLP145 T02500144=
13/05/2023 18:51->METAR KJFK 131851Z 23010KT 10SM FEW060 FEW100 SCT200 OVC250 26/14 A2998 RMK AO2 SLP151 T02610144=
13/05/2023 17:51->METAR KJFK 131751Z 23004KT 10SM FEW100 OVC180 26/13 A2999 RMK AO2 SLP156 T02560128 10261 20206 58009=
13/05/2023 16:51->METAR KJFK 131651Z 31006KT 10SM SCT100 OVC170 26/12 A3001 RMK AO2 SLP161 T02610122=
13/05/2023 15:51->METAR KJFK 131551Z 30006KT 10SM SCT100 OVC170 26/12 A3002 RMK AO2 SLP164 T02610122=
13/05/2023 14:51->METAR KJFK 131451Z 03006KT 10SM SCT100 OVC200 25/11 A3002 RMK AO2 SLP165 T02500111 50002=
13/05/2023 13:51->METAR KJFK 131351Z 35006KT 10SM SCT100 OVC220 25/13 A3002 RMK AO2 SLP165 T02500128=
13/05/2023 12:51->METAR KJFK 131251Z 25007KT 10SM BKN110 OVC200 22/15 A3002 RMK AO2 SLP165 T02220150=
13/05/2023 11:51->METAR KJFK 131151Z 26006KT 10SM SCT100 OVC200 21/16 A3001 RMK AO2 SLP163 T02060156 10206 20178 53008=
13/05/2023 10:51->METAR KJFK 131051Z 26006KT 10SM BKN100 19/16 A3001 RMK AO2 SLP161 T01940161=
13/05/2023 09:51->METAR KJFK 130951Z 23008KT 10SM FEW105 BKN150 OVC220 18/16 A2999 RMK AO2 SLP155 T01830156=
13/05/2023 08:51->METAR KJFK 130851Z 22009KT 10SM SCT070 SCT220 18/16 A2999 RMK AO2 SLP155 T01830156 56002=
13/05/2023 07:51->METAR KJFK 130751Z 22009KT 10SM SCT160 BKN220 19/14 A2999 RMK AO2 SLP155 T01890144=
13/05/2023 06:51->METAR KJFK 130651Z 21008KT 10SM FEW160 BKN250 18/14 A2999 RMK AO2 SLP155 T01830144=
13/05/2023 05:51->METAR KJFK 130551Z 23007KT 10SM FEW180 SCT250 19/13 A3000 RMK AO2 SLP158 T01940133 10233 20172 58006=
13/05/2023 04:51->METAR KJFK 130451Z 24006KT 10SM FEW100 SCT230 19/14 A3001 RMK AO2 SLP161 T01940139 402830133=
13/05/2023 03:51->METAR KJFK 130351Z 25013KT 10SM FEW100 BKN240 23/12 A3001 RMK AO2 SLP163 T02330122=
13/05/2023 02:51->METAR KJFK 130251Z 23010KT 10SM FEW060 SCT250 20/12 A3002 RMK AO2 SLP163 T02000122 50006=
13/05/2023 01:51->METAR KJFK 130151Z 20005KT 10SM FEW060 BKN250 18/13 A3002 RMK AO2 SLP165 T01830128=
13/05/2023 00:51->METAR KJFK 130051Z 20005KT 10SM FEW100 BKN250 18/13 A3001 RMK AO2 SLP162 T01830133=
12/05/2023 23:51->METAR KJFK 122351Z 18005KT 10SM FEW070 FEW100 BKN250 18/14 A3000 RMK AO2 SLP158 T01830139 10278 20183 53002=
12/05/2023 22:51->METAR KJFK 122251Z 19009KT 10SM FEW100 BKN250 21/14 A2999 RMK AO2 SLP155 T02060139=
12/05/2023 21:51->METAR KJFK 122151Z 24011KT 10SM FEW100 BKN250 27/12 A2999 RMK AO2 SLP154 T02670122=
12/05/2023 20:51->METAR KJFK 122051Z 19011KT 10SM SCT100 BKN250 23/14 A2999 RMK AO2 SLP156 T02280139 58018=
12/05/2023 19:51->METAR KJFK 121951Z 18011KT 10SM FEW070 SCT100 BKN250 24/14 A3002 RMK AO2 SLP164 T02390144=
12/05/2023 18:51->METAR KJFK 121851Z 19016KT 10SM FEW070 BKN250 25/14 A3003 RMK AO2 SLP170 T02500139=
12/05/2023 17:51->METAR KJFK 121751Z 19010KT 10SM FEW065 BKN250 28/11 A3005 RMK AO2 SLP174 T02780111 10283 20183 58016=
12/05/2023 16:51->METAR KJFK 121651Z 21010KT 10SM FEW065 BKN250 28/11 A3007 RMK AO2 SLP181 T02780106=
12/05/2023 15:51->METAR KJFK 121551Z 24011KT 10SM FEW060 BKN250 27/13 A3009 RMK AO2 SLP188 T02720128=
12/05/2023 14:51->METAR KJFK 121451Z 23010KT 10SM BKN250 25/13 A3009 RMK AO2 SLP190 T02500133 53001=
12/05/2023 13:51->METAR KJFK 121351Z 22008KT 10SM BKN250 23/14 A3009 RMK AO2 SLP188 T02280139=
12/05/2023 12:51->METAR KJFK 121251Z 23003KT 10SM FEW100 BKN250 22/13 A3009 RMK AO2 SLP189 T02170128=
12/05/2023 11:51->METAR KJFK 121151Z 24004KT 10SM FEW100 BKN250 18/13 A3009 RMK AO2 SLP190 T01830128 10183 20133 51011=
12/05/2023 10:51->METAR KJFK 121051Z 25005KT 10SM BKN100 BKN250 16/13 A3009 RMK AO2 SLP189 T01610128=
12/05/2023 09:51->METAR KJFK 120951Z 25004KT 10SM BKN100 BKN250 14/12 A3008 RMK AO2 SLP184 T01440117=
12/05/2023 08:51->METAR KJFK 120851Z 22003KT 10SM FEW250 14/12 A3006 RMK AO2 SLP179 T01440122 56002=
12/05/2023 07:51->METAR KJFK 120751Z 22006KT 10SM FEW250 14/12 A3006 RMK AO2 SLP180 T01390117=
12/05/2023 06:51->METAR KJFK 120651Z 24006KT 10SM FEW250 15/12 A3006 RMK AO2 SLP179 T01500117=
12/05/2023 05:51->METAR KJFK 120551Z 25009KT 10SM FEW250 16/12 A3007 RMK AO2 SLP181 T01560117 10189 20156 50000=
12/05/2023 04:51->METAR KJFK 120451Z 25008KT 10SM FEW250 17/11 A3007 RMK AO2 SLP183 T01670106 402390106=
12/05/2023 03:51->METAR KJFK 120351Z 23009KT 10SM FEW250 17/10 A3007 RMK AO2 SLP182 T01720100=
12/05/2023 02:51->METAR KJFK 120251Z 24010KT 10SM FEW250 18/10 A3007 RMK AO2 SLP181 T01830100 51011=
12/05/2023 01:51->METAR KJFK 120151Z 18005KT 10SM FEW070 FEW250 16/12 A3006 RMK AO2 SLP179 T01610117=
12/05/2023 00:51->METAR KJFK 120051Z 19005KT 10SM FEW070 FEW250 17/11 A3005 RMK AO2 SLP174 T01720111=
11/05/2023 23:51->METAR KJFK 112351Z 20007KT 10SM FEW070 FEW250 19/12 A3003 RMK AO2 SLP170 T01890117 10239 20183 56004=
11/05/2023 22:51->METAR KJFK 112251Z 19009KT 10SM FEW070 FEW250 20/11 A3004 RMK AO2 SLP171 T02000111=
11/05/2023 21:51->METAR KJFK 112151Z 18011KT 10SM FEW070 FEW250 21/11 A3004 RMK AO2 SLP171 T02110111=
11/05/2023 20:51->METAR KJFK 112051Z 20012KT 10SM FEW065 SCT250 SCT300 21/12 A3005 RMK AO2 SLP174 FU SCT300 T02110117 58017=
11/05/2023 19:51->METAR KJFK 111951Z 20014KT 10SM SCT250 BKN300 22/11 A3006 RMK AO2 SLP179 FU BKN300 T02220106=
11/05/2023 18:51->METAR KJFK 111851Z 20014KT 10SM FEW250 BKN300 22/09 A3009 RMK AO2 SLP188 FU BKN300 T02170094=
11/05/2023 17:51->METAR KJFK 111751Z 21012KT 10SM SCT250 BKN300 23/07 A3010 RMK AO2 SLP191 FU BKN300 T02330072 10233 20172 56018=
11/05/2023 16:51->METAR KJFK 111651Z 21012KT 10SM SCT250 BKN300 22/07 A3011 RMK AO2 SLP197 FU BKN300 T02220072=
11/05/2023 15:51->METAR KJFK 111551Z 22010KT 10SM SCT250 SCT300 23/07 A3012 RMK AO2 SLP200 FU SCT300 T02280072=
11/05/2023 14:51->METAR KJFK 111451Z VRB06KT 10SM FEW250 SCT300 22/06 A3015 RMK AO2 SLP209 FU SCT300 T02220061 58001=
11/05/2023 13:51->METAR KJFK 111351Z 25009KT 10SM FEW250 SCT300 20/07 A3016 RMK AO2 SLP212 FU SCT300 T02000067=
11/05/2023 12:51->METAR KJFK 111251Z 24006KT 10SM FEW250 SCT300 18/08 A3016 RMK AO2 SLP211 FU SCT300 T01830083=
11/05/2023 11:51->METAR KJFK 111151Z 30006KT 10SM FEW250 BKN300 17/07 A3015 RMK AO2 SLP210 FU BKN300 T01720067 10172 20106 51016=
11/05/2023 10:51->METAR KJFK 111051Z 27008KT 10SM BKN300 13/08 A3014 RMK AO2 SLP207 FU BKN300 T01330078=
11/05/2023 09:51->METAR KJFK 110951Z 25007KT 10SM BKN300 11/07 A3012 RMK AO2 SLP200 FU BKN300 T01110067=
11/05/2023 08:51->METAR KJFK 110851Z 25003KT 10SM BKN300 12/08 A3010 RMK AO2 SLP194 FU BKN300 T01220078 58001=
11/05/2023 07:51->METAR KJFK 110751Z 21008KT 10SM BKN300 11/08 A3010 RMK AO2 SLP194 FU BKN300 T01110083=
11/05/2023 06:51->METAR KJFK 110651Z 25007KT 10SM BKN300 13/08 A3011 RMK AO2 SLP195 FU BKN300 T01280078=
11/05/2023 05:51->METAR KJFK 110551Z 25008KT 10SM BKN300 13/09 A3011 RMK AO2 SLP194 FU BKN300 T01280089 10139 20117 55000=
11/05/2023 04:51->METAR KJFK 110451Z 22007KT 10SM BKN300 13/09 A3011 RMK AO2 SLP194 FU BKN300 T01280094 401890067=
11/05/2023 03:51->METAR KJFK 110351Z 22005KT 10SM BKN300 13/10 A3010 RMK AO2 SLP193 FU BKN300 T01280100=
11/05/2023 02:51->METAR KJFK 110251Z 21005KT 10SM FEW250 BKN300 12/11 A3011 RMK AO2 SLP195 FU BKN300 T01220111 51007=
11/05/2023 01:51->METAR KJFK 110151Z 20007KT 10SM FEW250 BKN300 13/11 A3011 RMK AO2 SLP195 FU BKN300 T01280111=
11/05/2023 00:51->METAR KJFK 110051Z 21004KT 10SM BKN300 13/11 A3010 RMK AO2 SLP192 FU BKN300 T01330106=
10/05/2023 23:51->METAR KJFK 102351Z 19015KT 10SM BKN300 14/09 A3009 RMK AO2 SLP188 FU BKN300 T01390094 10189 20139 56005=
10/05/2023 22:51->METAR KJFK 102251Z 19017KT 10SM BKN300 15/08 A3009 RMK AO2 SLP188 FU BKN300 T01500078=
10/05/2023 21:51->METAR KJFK 102151Z 19017KT 10SM SCT300 16/07 A3009 RMK AO2 SLP190 FU SCT300 T01610072=
10/05/2023 20:51->METAR KJFK 102051Z 20020KT 10SM SCT300 17/08 A3010 RMK AO2 SLP193 FU SCT300 T01720083 56016=
10/05/2023 19:51->METAR KJFK 101951Z 19015KT 10SM BKN300 17/11 A3011 RMK AO2 SLP194 FU BKN300 T01720106=
10/05/2023 18:51->METAR KJFK 101851Z 18010KT 10SM BKN300 19/09 A3012 RMK AO2 SLP201 FU BKN300 T01890089=
10/05/2023 17:51->METAR KJFK 101751Z 19011KT 10SM FEW055 SCT300 17/08 A3015 RMK AO2 SLP208 FU SCT300 T01720083 10178 20122 56017=
10/05/2023 16:51->METAR KJFK 101651Z 21011KT 10SM FEW050 BKN300 17/08 A3016 RMK AO2 SLP214 FU BKN300 T01720083=
10/05/2023 15:51->METAR KJFK 101551Z 20009KT 10SM FEW050 BKN300 16/08 A3018 RMK AO2 SLP218 FU BKN300 T01560083=
10/05/2023 14:51->METAR KJFK 101451Z 20007KT 10SM FEW047 BKN300 16/09 A3020 RMK AO2 SLP225 FU BKN300 T01560089 50001=
10/05/2023 13:51->METAR KJFK 101351Z 20004KT 10SM BKN300 14/08 A3020 RMK AO2 SLP227 FU BKN300 T01440083=
10/05/2023 12:51->METAR KJFK 101251Z 21004KT 10SM BKN300 14/08 A3020 RMK AO2 SLP225 FU BKN300 T01390083=
10/05/2023 11:51->METAR KJFK 101151Z VRB03KT 10SM FEW250 BKN300 13/09 A3019 RMK AO2 SLP223 FU BKN300 T01280094 10128 20067 52017=
10/05/2023 10:51->METAR KJFK 101051Z 14003KT 10SM FEW250 SCT300 09/07 A3018 RMK AO2 SLP218 FU SCT300 FU PLUME N T00940072=
10/05/2023 09:51->METAR KJFK 100951Z 06003KT 10SM FEW250 07/05 A3016 RMK AO2 SLP212 T00670050=
10/05/2023 08:51->METAR KJFK 100851Z 12003KT 10SM SCT250 08/06 A3014 RMK AO2 SLP206 T00780056 52006=
10/05/2023 07:51->METAR KJFK 100751Z 00000KT 10SM SCT250 09/06 A3014 RMK AO2 SLP205 T00890056=
10/05/2023 06:51->METAR KJFK 100651Z 00000KT 10SM FEW250 09/06 A3013 RMK AO2 SLP202 T00890056=
10/05/2023 05:51->METAR KJFK 100551Z 21004KT 10SM SCT250 11/06 A3012 RMK AO2 SLP200 T01060061 10122 20100 51010=
10/05/2023 04:51->METAR KJFK 100451Z 17004KT 10SM FEW090 BKN250 11/06 A3012 RMK AO2 SLP200 T01060061 401720100=
10/05/2023 03:51->METAR KJFK 100351Z 14004KT 10SM FEW130 BKN250 11/07 A3012 RMK AO2 SLP198 T01060067=
10/05/2023 02:51->METAR KJFK 100251Z 14004KT 10SM BKN250 11/06 A3009 RMK AO2 SLP189 T01110061 51030=
10/05/2023 01:51->METAR KJFK 100151Z 14005KT 10SM SCT250 11/06 A3007 RMK AO2 SLP183 T01110056=
10/05/2023 00:51->METAR KJFK 100051Z 13005KT 10SM SCT250 SCT300 12/06 A3005 RMK AO2 SLP174 FU SCT300 T01170061=
09/05/2023 23:51->METAR KJFK 092351Z 15006KT 10SM FEW050 BKN250 BKN300 12/06 A3000 RMK AO2 SLP159 FU BKN300 T01220056 10172 20122 53010=
09/05/2023 22:51->METAR KJFK 092251Z 16007KT 10SM FEW050 BKN250 BKN300 14/04 A2999 RMK AO2 SLP155 FU BKN300 T01390039=
09/05/2023 21:51->METAR KJFK 092151Z 14010KT 10SM FEW050 FEW190 BKN250 BKN300 15/03 A2998 RMK AO2 SLP151 FU BKN300 T01500028=
09/05/2023 20:51->METAR KJFK 092051Z 16011KT 10SM FEW050 FEW070 SCT190 BKN250 16/02 A2997 RMK AO2 SLP149 T01560022 55003=
09/05/2023 19:51->METAR KJFK 091951Z 15010KT 10SM FEW050 FEW070 SCT180 BKN250 16/03 A2997 RMK AO2 SLP148 T01610028=
09/05/2023 18:51->METAR KJFK 091851Z 15011KT 10SM FEW050 FEW070 SCT160 BKN250 17/02 A2998 RMK AO2 SLP151 T01670022=
09/05/2023 17:51->METAR KJFK 091751Z 14008KT 10SM FEW050 SCT160 BKN250 17/02 A2998 RMK AO2 SLP152 T01670022 10172 20139 56001=
09/05/2023 16:51->METAR KJFK 091651Z 15009KT 10SM BKN160 BKN250 16/02 A2998 RMK AO2 SLP153 T01610022=
09/05/2023 15:51->METAR KJFK 091551Z 15007KT 10SM FEW130 BKN250 17/03 A2998 RMK AO2 SLP152 T01670028=
09/05/2023 14:51->METAR KJFK 091451Z 13004KT 10SM BKN130 BKN250 16/01 A2998 RMK AO2 SLP153 T01610011 51014=
09/05/2023 13:51->METAR KJFK 091351Z 09006KT 10SM BKN150 BKN250 16/02 A2997 RMK AO2 SLP149 T01560017=
09/05/2023 12:51->METAR KJFK 091251Z 06008KT 10SM BKN150 BKN250 15/03 A2996 RMK AO2 SLP145 T01500028=
09/05/2023 11:51->METAR KJFK 091151Z 04008KT 10SM BKN140 BKN250 14/04 A2994 RMK AO2 SLP140 T01440039 10161 20117 51015=
09/05/2023 10:51->METAR KJFK 091051Z 04007KT 10SM BKN150 BKN250 13/04 A2994 RMK AO2 SLP139 T01280039=
09/05/2023 09:51->METAR KJFK 090951Z 04006KT 10SM BKN160 BKN250 12/03 A2992 RMK AO2 SLP131 T01220033=
09/05/2023 08:51->METAR KJFK 090851Z 02007KT 10SM FEW200 BKN250 13/02 A2990 RMK AO2 SLP124 T01280017 53007=
09/05/2023 07:51->METAR KJFK 090751Z 01007KT 10SM FEW200 BKN250 13/01 A2989 RMK AO2 SLP122 T01330011=
09/05/2023 06:51->METAR KJFK 090651Z 04013G18KT 10SM FEW200 SCT250 14/01 A2988 RMK AO2 SLP119 T01440006=
09/05/2023 05:51->METAR KJFK 090551Z 02011KT 10SM SCT250 16/M01 A2988 RMK AO2 SLP117 T01611011 10217 20156 50005=
09/05/2023 04:51->METAR KJFK 090451Z 01007KT 10SM BKN250 17/04 A2989 RMK AO2 SLP121 T01670039 402560139=
09/05/2023 03:51->METAR KJFK 090351Z 01007KT 10SM BKN240 18/04 A2988 RMK AO2 SLP117 T01830039=
09/05/2023 02:51->METAR KJFK 090251Z 35008KT 10SM BKN250 19/04 A2986 RMK AO2 SLP112 T01940039 51028=
09/05/2023 01:51->METAR KJFK 090151Z 34010KT 10SM BKN250 21/04 A2984 RMK AO2 SLP106 T02060044=
09/05/2023 00:51->METAR KJFK 090051Z 34009KT 10SM BKN250 19/07 A2980 RMK AO2 SLP091 T01940072=
08/05/2023 23:51->METAR KJFK 082351Z 15006KT 10SM FEW075 BKN250 17/12 A2978 RMK AO2 SLP084 T01670117 10256 20161 53010=
08/05/2023 22:51->METAR KJFK 082251Z 18010KT 10SM FEW075 BKN250 19/12 A2976 RMK AO2 SLP077 T01890117=
08/05/2023 21:51->METAR KJFK 082151Z VRB03KT 10SM FEW075 BKN250 21/11 A2975 RMK AO2 SLP075 T02110111=
08/05/2023 20:51->METAR KJFK 082051Z 29012G20KT 10SM FEW075 BKN250 25/08 A2975 RMK AO2 SLP074 T02500078 56009=
08/05/2023 19:51->METAR KJFK 081951Z 28010KT 10SM FEW075 BKN250 24/08 A2975 RMK AO2 SLP074 T02440078=
08/05/2023 18:51->METAR KJFK 081851Z 28013G21KT 10SM SCT070 BKN250 24/09 A2976 RMK AO2 SLP078 T02440094=
08/05/2023 17:51->METAR KJFK 081751Z 34007KT 10SM FEW060 BKN250 24/09 A2978 RMK AO2 SLP083 T02390089 10239 20172 58005=
08/05/2023 16:51->METAR KJFK 081651Z 10SM FEW055 SCT250 23/09 A2979 RMK AO2 SLP087 T02280089=
08/05/2023 15:51->METAR KJFK 081551Z 01010KT 10SM FEW050 SCT250 22/09 A2980 RMK AO2 SLP090 T02170089=
08/05/2023 14:51->METAR KJFK 081451Z 32011KT 10SM FEW047 FEW250 21/09 A2979 RMK AO2 SLP088 T02060094 50003=
08/05/2023 13:51->METAR KJFK 081351Z 33013KT 10SM FEW047 SCT100 BKN250 19/11 A2979 RMK AO2 SLP088 T01890106=
08/05/2023 12:51->METAR KJFK 081251Z 33012KT 10SM FEW043 FEW100 BKN250 18/11 A2980 RMK AO2 SLP090 T01830111=
08/05/2023 11:51->METAR KJFK 081151Z 35008KT 10SM FEW040 FEW100 SCT250 17/11 A2978 RMK AO2 SLP085 60000 T01720106 10172 20139 53007=
08/05/2023 10:51->METAR KJFK 081051Z 34008KT 10SM FEW037 SCT100 SCT250 15/11 A2977 RMK AO2 SLP081 T01500106=
08/05/2023 09:51->METAR KJFK 080951Z 34006KT 10SM FEW037 FEW100 BKN250 14/11 A2977 RMK AO2 SLP079 T01440106=
08/05/2023 08:51->METAR KJFK 080851Z 33007KT 10SM FEW037 SCT065 OVC100 14/12 A2976 RMK AO2 RAB14E47 CIG 046 W SLP078 P0000 60000 T01440117 56000=
08/05/2023 07:51->METAR KJFK 080751Z 34007KT 10SM BKN050 16/12 A2977 RMK AO2 SLP080 T01560117=
08/05/2023 06:51->METAR KJFK 080651Z 02007KT 10SM BKN055 BKN095 15/12 A2975 RMK AO2 SLP072 T01500117=
08/05/2023 05:51->METAR KJFK 080551Z 36008KT 10SM BKN060 OVC075 17/12 A2976 RMK AO2 RAE0453 SLP078 P0000 60000 T01670122 10206 20156 56009=
08/05/2023 04:51->METAR KJFK 080451Z 01006KT 10SM -RA OVC065 18/14 A2978 RMK AO2 RAB37 SLP083 P0000 T01780139 402280117=
08/05/2023 03:51->METAR KJFK 080351Z 20005KT 10SM BKN060 OVC110 18/13 A2977 RMK AO2 RAE43 SLP080 P0000 T01780128=
08/05/2023 02:51->METAR KJFK 080251Z 29008KT 10SM -RA OVC090 20/12 A2979 RMK AO2 RAE15B46 SLP087 P0000 60000 T02000122 56013=
08/05/2023 01:51->METAR KJFK 080151Z 27013KT 10SM -RA OVC080 21/12 A2981 RMK AO2 RAB26 SLP093 P0000 T02060117=
08/05/2023 00:51->METAR KJFK 080051Z 24012KT 10SM BKN110 BKN150 BKN250 18/12 A2981 RMK AO2 SLP093 T01780122=
07/05/2023 23:51->METAR KJFK 072351Z 20010KT 10SM BKN110 BKN150 BKN250 16/12 A2983 RMK AO2 SLP100 T01610122 10228 20161 56017=
07/05/2023 22:51->METAR KJFK 072251Z 19011KT 10SM FEW090 BKN150 BKN250 17/12 A2984 RMK AO2 SLP104 T01670122=
07/05/2023 21:51->METAR KJFK 072151Z 18013KT 10SM FEW090 BKN200 OVC250 17/12 A2986 RMK AO2 SLP111 T01720122=
07/05/2023 20:51->METAR KJFK 072051Z 18014KT 10SM FEW090 BKN250 18/12 A2988 RMK AO2 SLP117 T01780122 58030=
07/05/2023 19:51->METAR KJFK 071951Z 17017KT 10SM FEW100 BKN250 19/11 A2991 RMK AO2 SLP128 T01940106=
07/05/2023 18:51->METAR KJFK 071851Z 17014KT 10SM FEW150 BKN250 20/07 A2994 RMK AO2 WSHFT 1810 SLP140 T02000067=
07/05/2023 17:51->METAR KJFK 071751Z 24012KT 10SM FEW150 BKN250 22/07 A2997 RMK AO2 SLP147 T02220067 10228 20156 58028=
07/05/2023 16:51->METAR KJFK 071651Z 20012KT 10SM FEW150 BKN250 21/07 A3000 RMK AO2 SLP157 T02110067=
07/05/2023 15:51->METAR KJFK 071551Z 22009KT 10SM FEW150 BKN250 21/06 A3003 RMK AO2 SLP167 T02060061=
07/05/2023 14:51->METAR KJFK 071451Z 23008KT 10SM FEW150 SCT250 21/06 A3005 RMK AO2 SLP176 T02060061 56013=
07/05/2023 13:51->METAR KJFK 071351Z 33004KT 10SM FEW250 19/06 A3006 RMK AO2 SLP180 T01940056=
07/05/2023 12:51->METAR KJFK 071251Z 34005KT 10SM FEW130 FEW250 18/06 A3007 RMK AO2 SLP184 T01830056=
07/05/2023 11:51->METAR KJFK 071151Z 24004KT 10SM FEW130 SCT250 16/07 A3009 RMK AO2 SLP189 T01560072 10156 20117 58004=
07/05/2023 10:51->METAR KJFK 071051Z 26006KT 10SM FEW130 SCT250 14/07 A3010 RMK AO2 SLP193 T01390067=
07/05/2023 09:51->METAR KJFK 070951Z 32006KT 10SM FEW250 12/04 A3010 RMK AO2 SLP191 T01220039=
07/05/2023 08:51->METAR KJFK 070851Z 31006KT 10SM FEW250 13/04 A3010 RMK AO2 SLP193 T01280044 56003=
07/05/2023 07:51->METAR KJFK 070751Z 30007KT 10SM FEW250 13/05 A3011 RMK AO2 SLP195 T01280050=
07/05/2023 06:51->METAR KJFK 070651Z VRB03KT 10SM FEW250 12/05 A3010 RMK AO2 SLP193 T01170050=
07/05/2023 05:51->METAR KJFK 070551Z 32006KT 10SM FEW250 14/06 A3011 RMK AO2 SLP196 T01440056 10150 20117 58009=
07/05/2023 04:51->METAR KJFK 070451Z 32006KT 10SM FEW095 FEW250 14/08 A3012 RMK AO2 SLP199 T01440083 402220089=
07/05/2023 03:51->METAR KJFK 070351Z 00000KT 10SM SCT090 14/11 A3013 RMK AO2 SLP203 T01390111=
07/05/2023 02:51->METAR KJFK 070251Z 21005KT 10SM BKN090 12/11 A3014 RMK AO2 SLP205 T01220111 50001=
07/05/2023 01:51->METAR KJFK 070151Z 20006KT 10SM SCT090 12/11 A3014 RMK AO2 SLP206 T01220111=
07/05/2023 00:51->METAR KJFK 070051Z 20007KT 10SM SCT090 14/11 A3014 RMK AO2 SLP206 T01390106=
06/05/2023 23:51->METAR KJFK 062351Z 20012KT 10SM FEW085 14/09 A3014 RMK AO2 SLP204 T01440094 10222 20144 55003=
06/05/2023 22:51->METAR KJFK 062251Z 19011KT 10SM SCT085 16/09 A3013 RMK AO2 SLP204 T01560089=
06/05/2023 21:51->METAR KJFK 062151Z 19012KT 10SM SCT080 17/09 A3014 RMK AO2 SLP205 T01670089=
06/05/2023 20:51->METAR KJFK 062051Z 19011KT 10SM BKN080 18/11 A3014 RMK AO2 SLP207 T01780106 56017=
06/05/2023 19:51->METAR KJFK 061951Z 19008KT 10SM SCT075 21/07 A3015 RMK AO2 SLP208 T02060067=
06/05/2023 18:51->METAR KJFK 061851Z 34008KT 10SM SCT070 22/06 A3017 RMK AO2 SLP216 T02220061=
06/05/2023 17:51->METAR KJFK 061751Z 31010G15KT 280V340 10SM SCT065 21/06 A3019 RMK AO2 SLP223 T02060061 10211 20139 58021=
06/05/2023 16:51->METAR KJFK 061651Z VRB04KT 10SM FEW060 19/06 A3021 RMK AO2 SLP230 T01940061=
06/05/2023 15:51->METAR KJFK 061551Z 32013KT 10SM FEW060 19/06 A3024 RMK AO2 SLP239 T01940061=
06/05/2023 14:51->METAR KJFK 061451Z 34008KT 10SM CLR 18/07 A3025 RMK AO2 SLP245 T01830067 58006=
06/05/2023 13:51->METAR KJFK 061351Z 35010KT 10SM CLR 17/07 A3027 RMK AO2 SLP248 T01720072=
06/05/2023 12:51->METAR KJFK 061251Z 32008KT 10SM CLR 16/07 A3027 RMK AO2 SLP250 T01560072=
06/05/2023 11:51->METAR KJFK 061151Z 32005KT 10SM CLR 14/08 A3027 RMK AO2 SLP251 T01390078 10139 20089 53006=
06/05/2023 10:51->METAR KJFK 061051Z 28005KT 10SM CLR 11/08 A3027 RMK AO2 SLP249 T01110083=
06/05/2023 09:51->METAR KJFK 060951Z 29005KT 10SM CLR 09/08 A3025 RMK AO2 SLP244 T00940078=
06/05/2023 08:51->METAR KJFK 060851Z 00000KT 10SM CLR 09/08 A3025 RMK AO2 SLP244 T00940078 53002=
06/05/2023 07:51->METAR KJFK 060751Z 27006KT 10SM CLR 10/08 A3025 RMK AO2 SLP242 T01000083=
06/05/2023 06:51->METAR KJFK 060651Z 25005KT 10SM FEW060 FEW080 10/08 A3025 RMK AO2 SLP241 T01000083=
06/05/2023 05:51->METAR KJFK 060551Z 26005KT 10SM FEW060 BKN080 11/09 A3025 RMK AO2 SLP242 T01110089 10111 20100 50001=
06/05/2023 04:51->METAR KJFK 060451Z 25007KT 10SM FEW050 FEW075 BKN150 11/09 A3026 RMK AO2 SLP246 T01110089 401610067=
06/05/2023 03:51->METAR KJFK 060351Z 23007KT 10SM FEW060 FEW110 11/09 A3025 RMK AO2 SLP244 T01060089=
06/05/2023 02:51->METAR KJFK 060251Z 19006KT 10SM FEW060 FEW075 10/08 A3025 RMK AO2 SLP242 T01000083 51004=
06/05/2023 01:51->METAR KJFK 060151Z 20006KT 10SM FEW050 SCT080 11/08 A3024 RMK AO2 SLP241 T01060083=
06/05/2023 00:51->METAR KJFK 060051Z 17004KT 10SM FEW055 SCT070 BKN120 BKN250 11/08 A3024 RMK AO2 SLP241 T01060078=
05/05/2023 23:51->METAR KJFK 052351Z 18006KT 10SM FEW050 SCT090 BKN110 BKN250 11/08 A3024 RMK AO2 SLP238 T01110078 10144 20111 51010=
05/05/2023 22:51->METAR KJFK 052251Z 19011KT 10SM FEW050 SCT090 SCT110 BKN250 12/07 A3022 RMK AO2 SLP233 T01170067=
05/05/2023 21:51->METAR KJFK 052151Z 18011KT 10SM FEW050 SCT090 SCT250 13/07 A3022 RMK AO2 SLP232 T01280072=
05/05/2023 20:51->METAR KJFK 052051Z 17008KT 10SM FEW050 SCT090 SCT250 14/07 A3020 RMK AO2 SLP227 T01390072 55003=
05/05/2023 19:51->METAR KJFK 051951Z 14006KT 10SM FEW050 BKN090 BKN250 13/07 A3020 RMK AO2 SLP226 T01330067=
05/05/2023 18:51->METAR KJFK 051851Z 18009KT 10SM SCT050 BKN080 BKN250 13/07 A3021 RMK AO2 SLP230 T01330072=
05/05/2023 17:51->METAR KJFK 051751Z 18009KT 10SM SCT050 BKN070 BKN250 14/08 A3021 RMK AO2 SLP231 T01390078 10161 20106 58002=
05/05/2023 16:51->METAR KJFK 051651Z 21011KT 10SM BKN050 BKN070 BKN250 14/08 A3022 RMK AO2 SLP233 T01390083=
05/05/2023 15:51->METAR KJFK 051551Z 20006KT 10SM FEW045 SCT070 SCT250 15/07 A3022 RMK AO2 SLP233 T01500067=
05/05/2023 14:51->METAR KJFK 051451Z VRB04KT 10SM SCT040 SCT065 SCT250 16/06 A3022 RMK AO2 SLP233 T01560056 51015=
05/05/2023 13:51->METAR KJFK 051351Z VRB06KT 10SM SCT034 BKN065 BKN250 14/06 A3021 RMK AO2 SLP229 T01440061=
05/05/2023 12:51->METAR KJFK 051251Z VRB06KT 10SM FEW028 SCT070 SCT250 13/07 A3020 RMK AO2 SLP226 T01280072=
05/05/2023 11:51->METAR KJFK 051151Z 04007KT 10SM FEW023 FEW070 FEW250 11/08 A3018 RMK AO2 SLP218 70002 T01060078 10106 20067 51022=
05/05/2023 10:51->METAR KJFK 051051Z 06003KT 9SM FEW016 FEW075 FEW250 09/08 A3016 RMK AO2 SLP212 T00890083=
05/05/2023 09:51->METAR KJFK 050951Z 04005KT 9SM FEW016 FEW075 SCT110 07/07 A3013 RMK AO2 SLP202 T00720067=
05/05/2023 08:51->METAR KJFK 050851Z 00000KT 10SM CLR 07/07 A3011 RMK AO2 SLP196 T00720067 53007=
05/05/2023 07:51->METAR KJFK 050751Z 00000KT 10SM FEW017 SCT110 07/07 A3010 RMK AO2 SLP193 T00720067=
05/05/2023 06:51->METAR KJFK 050651Z 00000KT 10SM FEW015 BKN110 09/08 A3009 RMK AO2 SLP190 T00890078=
05/05/2023 05:51->METAR KJFK 050551Z 03003KT 10SM FEW015 BKN100 09/08 A3009 RMK AO2 SLP189 T00940078 10111 20094 53010=
05/05/2023 04:51->METAR KJFK 050451Z 33004KT 10SM FEW020 BKN110 10/08 A3008 RMK AO2 SLP184 T01000078 401330083=
05/05/2023 03:51->METAR KJFK 050351Z 29005KT 10SM FEW025 BKN090 11/08 A3007 RMK AO2 SLP181 T01060078=
05/05/2023 02:51->METAR KJFK 050251Z 26007KT 10SM FEW030 BKN070 OVC085 11/08 A3006 RMK AO2 SLP178 T01060078 51016=
05/05/2023 01:51->METAR KJFK 050151Z 25009KT 10SM BKN060 OVC085 11/08 A3005 RMK AO2 SLP175 T01060078=
05/05/2023 00:51->METAR KJFK 050051Z 22009KT 10SM FEW040 BKN060 OVC085 11/08 A3003 RMK AO2 SLP168 T01060078=
04/05/2023 23:51->METAR KJFK 042351Z 21008KT 10SM FEW040 BKN065 BKN080 BKN250 10/07 A3001 RMK AO2 SLP163 60000 T01000072 10133 20100 53017=
04/05/2023 22:51->METAR KJFK 042251Z 19010KT 10SM FEW040 BKN075 BKN250 11/07 A2999 RMK AO2 SLP155 T01060072=
04/05/2023 21:51->METAR KJFK 042151Z 18011KT 10SM FEW044 SCT060 BKN075 BKN250 11/08 A2998 RMK AO2 SLP151 T01110078=
04/05/2023 20:51->METAR KJFK 042051Z 18009KT 10SM BKN044 OVC060 11/07 A2996 RMK AO2 RAB14E30 SLP145 P0000 60000 T01060072 53016=
04/05/2023 19:51->METAR KJFK 041951Z 17010KT 10SM BKN036 BKN048 BKN065 OVC250 11/07 A2994 RMK AO2 SLP138 VCSH W-NW T01060067=
04/05/2023 18:51->METAR KJFK 041851Z 06006KT 10SM FEW025 SCT033 BKN049 BKN250 13/05 A2993 RMK AO2 SLP133 T01280050=
04/05/2023 17:51->METAR KJFK 041751Z 05004KT 10SM FEW027 BKN033 BKN049 BKN250 12/06 A2991 RMK AO2 SLP129 60002 T01220056 10133 20089 51015=
04/05/2023 16:51->METAR KJFK 041651Z 02008KT 10SM FEW019 BKN028 BKN047 BKN250 13/07 A2990 RMK AO2 SLP124 T01280067=
04/05/2023 15:51->METAR KJFK 041551Z 03010KT 10SM FEW013 BKN028 OVC044 11/07 A2989 RMK AO2 SLP121 T01110072=
04/05/2023 14:51->METAR KJFK 041451Z 04009G18KT 10SM FEW011 BKN021 OVC035 09/08 A2987 RMK AO2 RAE12B38E49 SLP114 P0000 60002 T00940078 51017=
04/05/2023 13:51->METAR KJFK 041351Z 04006KT 10SM -RA FEW011 BKN036 BKN085 BKN160 09/08 A2984 RMK AO2 SLP105 P0000 T00940078=
04/05/2023 12:51->METAR KJFK 041251Z 03009KT 10SM -RA SCT009 BKN038 OVC048 09/08 A2982 RMK AO2 SLP097 P0002 T00940078=
04/05/2023 11:51->METAR KJFK 041151Z 02007KT 6SM -RA BR SCT009 OVC043 09/08 A2979 RMK AO2 SLP086 P0011 60014 70015 T00890078 10094 20083 51035=
04/05/2023 10:51->METAR KJFK 041051Z 06007KT 5SM RA BR BKN012 BKN042 OVC050 08/07 A2975 RMK AO2 RAB16 SLP075 VIS NE-SE 3 BKN012 V SCT P0003 T00830072=
04/05/2023 09:51->METAR KJFK 040951Z 03010KT 10SM OVC012 09/07 A2972 RMK AO2 RAB22E36 SLP063 P0000 T00940072=
04/05/2023 08:51->METAR KJFK 040851Z 36008KT 10SM FEW015 BKN050 OVC140 09/07 A2968 RMK AO2 SLP051 60000 T00890067 53020=
04/05/2023 07:51->METAR KJFK 040751Z 01009KT 10SM BKN050 OVC065 09/07 A2966 RMK AO2 RAE01 SLP042 P0000 T00890067=
04/05/2023 06:51->METAR KJFK 040651Z 36011KT 10SM -RA OVC060 09/06 A2964 RMK AO2 RAB47 SLP036 P0000 T00940061=
04/05/2023 05:51->METAR KJFK 040551Z 35010KT 10SM OVC060 09/06 A2963 RMK AO2 SLP031 60001 T00940056 10106 20094 53002=
04/05/2023 04:51->METAR KJFK 040451Z 33006KT 10SM BKN060 BKN090 OVC120 09/06 A2962 RMK AO2 SLP030 T00940056 401330083=
04/05/2023 03:51->METAR KJFK 040351Z 34008KT 10SM BKN041 OVC080 10/06 A2962 RMK AO2 RAB09E51 SLP029 P0000 T01000056=
04/05/2023 02:51->METAR KJFK 040251Z 30005KT 10SM OVC060 10/05 A2962 RMK AO2 RAE05B25E35 SLP029 P0000 60001 T01000050 51017=
04/05/2023 01:51->METAR KJFK 040151Z 30005KT 10SM -RA FEW042 BKN055 OVC070 10/04 A2961 RMK AO2 RAB21 SLP027 P0000 T01000044=
04/05/2023 00:51->METAR KJFK 040051Z 31005KT 10SM OVC045 11/04 A2959 RMK AO2 LTG DSNT S RAE24 SLP020 P0001 T01060044=
03/05/2023 23:51->METAR KJFK 032351Z 28008KT 10SM -RA BKN045 OVC060 11/04 A2957 RMK AO2 LTG DSNT S RAB31 SLP013 P0000 60000 T01060044 10133 20106 53019=
03/05/2023 22:51->METAR KJFK 032251Z 24012KT 10SM FEW040 BKN055 BKN110 BKN250 12/04 A2954 RMK AO2 SLP002 VCSH S AND NW T01170044=
03/05/2023 21:51->METAR KJFK 032151Z 17010KT 10SM FEW040 SCT055 BKN080 BKN250 11/06 A2953 RMK AO2 SLP000 VCSH S AND NW T01110056=
03/05/2023 20:51->METAR KJFK 032051Z 20009KT 10SM FEW040 BKN070 BKN140 BKN250 12/05 A2951 RMK AO2 SLP993 VCSH NW T01170050 53000=
03/05/2023 19:51->METAR KJFK 031951Z 19011KT 10SM FEW039 SCT060 SCT130 BKN250 12/06 A2950 RMK AO2 SLP988 T01220061=
03/05/2023 18:51->METAR KJFK 031851Z 18010KT 10SM FEW039 SCT060 SCT110 BKN170 BKN250 12/04 A2951 RMK AO2 SLP992 T01220044=
03/05/2023 17:51->METAR KJFK 031751Z 20012KT 10SM FEW039 BKN055 BKN170 13/04 A2951 RMK AO2 SLP993 T01280039 10133 20089 58002=
03/05/2023 16:51->METAR KJFK 031651Z 24009KT 10SM FEW039 SCT055 BKN170 BKN250 13/03 A2952 RMK AO2 SLP995 T01280033=
03/05/2023 15:51->METAR KJFK 031551Z 24009KT 10SM SCT039 BKN170 BKN250 12/04 A2952 RMK AO2 SLP996 T01220044=
03/05/2023 14:51->METAR KJFK 031451Z 24012G16KT 10SM SCT034 BKN170 BKN250 12/04 A2952 RMK AO2 SLP995 T01170044 51010=
03/05/2023 13:51->METAR KJFK 031351Z 26007KT 10SM SCT031 BKN170 BKN250 11/04 A2952 RMK AO2 SLP995 T01060039=
03/05/2023 12:51->METAR KJFK 031251Z 25009KT 10SM FEW025 SCT045 SCT100 BKN170 BKN250 10/04 A2950 RMK AO2 SLP991 T01000044=
03/05/2023 11:51->METAR KJFK 031151Z 27010KT 10SM FEW022 SCT100 BKN170 BKN250 09/04 A2949 RMK AO2 SLP986 70005 T00890044 10094 20083 51010=
03/05/2023 10:51->METAR KJFK 031051Z 25008KT 10SM FEW022 SCT065 SCT100 BKN140 08/04 A2948 RMK AO2 SLP982 T00830039=
03/05/2023 09:51->METAR KJFK 030951Z 28011KT 10SM BKN065 BKN120 BKN160 08/03 A2947 RMK AO2 SLP980 T00830033=
03/05/2023 08:51->METAR KJFK 030851Z 29007KT 10SM OVC065 08/03 A2946 RMK AO2 SLP975 T00830033 56008=
03/05/2023 07:51->METAR KJFK 030751Z 28010KT 10SM FEW065 BKN110 OVC160 08/03 A2946 RMK AO2 SLP976 T00830028=
03/05/2023 06:51->METAR KJFK 030651Z 28011KT 10SM FEW065 BKN160 OVC250 09/03 A2947 RMK AO2 SLP978 T00890028=
03/05/2023 05:51->METAR KJFK 030551Z 27012KT 10SM FEW075 BKN150 OVC250 09/03 A2948 RMK AO2 SLP983 T00940028 10117 20094 58003=
03/05/2023 04:51->METAR KJFK 030451Z 26014KT 10SM FEW075 BKN130 OVC250 10/03 A2949 RMK AO2 SLP987 T01000033 401390078=
03/05/2023 03:51->METAR KJFK 030351Z 27014KT 10SM SCT080 BKN130 OVC250 10/03 A2949 RMK AO2 SLP986 T01000028=
03/05/2023 02:51->METAR KJFK 030251Z 25013KT 10SM FEW080 OVC130 11/03 A2949 RMK AO2 SLP986 T01060033 50011=
03/05/2023 01:51->METAR KJFK 030151Z 25013KT 10SM FEW045 OVC130 11/03 A2949 RMK AO2 SLP986 T01110033=
03/05/2023 00:51->METAR KJFK 030051Z 26012KT 10SM FEW040 SCT080 BKN250 11/03 A2948 RMK AO2 SLP981 T01110033=
02/05/2023 23:51->METAR KJFK 022351Z 26012KT 10SM FEW040 FEW060 SCT080 BKN250 12/03 A2946 RMK AO2 SLP975 T01170033 10139 20111 53016=
02/05/2023 22:51->METAR KJFK 022251Z 25017KT 10SM FEW040 FEW060 BKN080 BKN250 12/03 A2944 RMK AO2 SLP968 T01220028=
02/05/2023 21:51->METAR KJFK 022151Z 24018KT 10SM FEW040 BKN055 BKN075 BKN250 13/03 A2943 RMK AO2 SLP964 T01280033=
02/05/2023 20:51->METAR KJFK 022051Z 25018KT 10SM FEW045 SCT060 BKN075 BKN250 13/03 A2941 RMK AO2 SLP959 T01330028 50002=
02/05/2023 19:51->METAR KJFK 021951Z 25017G25KT 10SM FEW045 BKN060 BKN075 BKN250 12/03 A2942 RMK AO2 SLP960 VCSH NW T01170028=
02/05/2023 18:51->METAR KJFK 021851Z 25016KT 10SM FEW030 FEW048 BKN070 12/02 A2941 RMK AO2 SLP958 VCSH E-S T01220022=
02/05/2023 17:51->METAR KJFK 021751Z 26010KT 10SM FEW030 BKN065 BKN085 BKN250 11/04 A2941 RMK SLP957 60005 T01110044 10122 20078 53002=
02/05/2023 16:51->METAR KJFK 021651Z 26015G22KT 10SM FEW032 SCT055 BKN090 BKN250 12/04 A2940 RMK SLP956 VCSH SE-S AND NW-N T01170044=
02/05/2023 15:51->METAR KJFK 021551Z 25018G23KT 10SM FEW030 BKN060 BKN110 BKN250 11/05 A2940 RMK RAB23E37 SLP957 VCSH S AND NW P0001 T01060050=
02/05/2023 14:51->METAR KJFK 021451Z 24015KT 10SM SCT031 BKN075 BKN100 BKN250 11/06 A2940 RMK RAE30 SLP956 P0000 60004 T01060056 56007=
02/05/2023 13:51->METAR KJFK 021351Z 23011KT 10SM -RA SCT028 BKN060 OVC100 09/06 A2940 RMK RAB45 SLP956 P0000 T00940061=
02/05/2023 12:51->METAR KJFK 021251Z 22006KT 10SM FEW021 SCT048 OVC100 08/06 A2940 RMK RAE36 SLP956 VCSH NE-E P0004 T00830056=
02/05/2023 11:51->METAR KJFK 021151Z 26015KT 6SM -RA BR FEW024 BKN034 OVC065 09/07 A2942 RMK SLP963 P0002 60005 70005 T00890067 10111 20078 53011=
02/05/2023 10:51->METAR KJFK 021051Z 20009KT 10SM -RA FEW045 BKN070 OVC095 10/07 A2940 RMK RAB29 SLP955 P0000 T01000067=
02/05/2023 09:51->METAR KJFK 020951Z 18006KT 10SM FEW045 BKN150 BKN220 09/07 A2939 RMK SLP952 T00940067=
02/05/2023 08:51->METAR KJFK 020851Z 17004KT 10SM FEW035 SCT100 BKN250 08/06 A2939 RMK SLP952 6003 T00830056 5610=
02/05/2023 07:51->METAR KJFK 020751Z 18012KT 10SM FEW030 BKN065 OVC095 09/06 A2940 RMK RAB32E51 SLP955 P0003 T00940061=
02/05/2023 06:51->METAR KJFK 020651Z 23006KT 10SM SCT050 BKN070 OVC090 10/06 A2940 RMK SLP954 T01000056=
02/05/2023 05:51->METAR KJFK 020551Z 26008KT 10SM BKN085 OVC110 11/04 A2942 RMK PK WND 24027/0511 WSHFT 0503 SLP962 T01110044 10139 20111 56008=
02/05/2023 04:51->METAR KJFK 020451Z 17014KT 10SM BKN090 BKN120 BKN250 12/09 A2942 RMK SLP964 T01170089 401670094=
02/05/2023 03:51->METAR KJFK 020351Z 17011KT 10SM FEW110 SCT116 SCT250 12/07 A2943 RMK SLP966 T01170067=
02/05/2023 02:51->METAR KJFK 020251Z 19007KT 10SM SCT085 SCT250 12/06 A2944 RMK SLP971 T01170056 50005=
02/05/2023 01:51->METAR KJFK 020151Z 22010KT 10SM SCT070 BKN250 13/04 A2946 RMK SLP975 T01280044=
02/05/2023 00:51->METAR KJFK 020051Z 24016KT 10SM SCT060 SCT075 BKN250 14/04 A2945 RMK SLP973 T01390039=
01/05/2023 23:51->METAR KJFK 012351Z 23011KT 10SM FEW080 BKN110 BKN250 14/04 A2943 RMK SLP965 VIRGA NW T01390044 10167 20122 51015=
01/05/2023 22:51->METAR KJFK 012251Z 18012KT 10SM FEW080 SCT110 BKN250 13/08 A2941 RMK SLP960 VIRGA NW T01330083=
01/05/2023 21:51->METAR KJFK 012151Z 18015KT 10SM BKN080 BKN100 BKN250 14/08 A2940 RMK SLP957 T01390083=
01/05/2023 20:51->METAR KJFK 012051Z 18013KT 10SM FEW075 BKN090 14/07 A2938 RMK SLP950 T01390072 51003=
01/05/2023 19:51->METAR KJFK 011951Z 22016KT 10SM FEW060 SCT080 BKN100 16/03 A2938 RMK SLP949 T01610033=
01/05/2023 18:51->METAR KJFK 011851Z 24017KT 10SM SCT060 BKN100 15/03 A2938 RMK SLP948 T01500028=
01/05/2023 17:51->METAR KJFK 011751Z 24020KT 10SM SCT060 BKN085 14/03 A2938 RMK PK WND 24026/1727 SLP947 T01440028 10161 20106 51004=
01/05/2023 16:51->METAR KJFK 011651Z 24018KT 10SM SCT060 BKN085 15/04 A2937 RMK SLP947 T01500039=
01/05/2023 15:51->METAR KJFK 011551Z 24015KT 10SM SCT050 16/06 A2937 RMK PK WND 24026/1537 SLP945 T01560056=
01/05/2023 14:51->METAR KJFK 011451Z 23018KT 10SM SCT047 15/06 A2936 RMK SLP942 T01500061 51015=
01/05/2023 13:51->METAR KJFK 011351Z 24015KT 10SM SCT044 SCT110 14/06 A2935 RMK SLP937 T01390056=
01/05/2023 12:51->METAR KJFK 011251Z 27017KT 10SM FEW041 FEW110 13/04 A2934 RMK PK WND 27027/1235 SLP934 T01280044=
01/05/2023 11:51->METAR KJFK 011151Z 26018G25KT 10SM FEW028 SCT041 SCT110 11/04 A2932 RMK PK WND 26028/1116 SLP927 60000 70139 T01060039 10133 20094 51048=
01/05/2023 10:51->METAR KJFK 011051Z 26019G28KT 10SM FEW024 BKN041 BKN110 10/05 A2928 RMK PK WND 26028/1027 SLP915 T01000050=
01/05/2023 09:51->METAR KJFK 010951Z 27019KT 10SM FEW030 BKN110 10/06 A2923 RMK PK WND 25028/0923 SLP898 T01000056=
01/05/2023 08:51->METAR KJFK 010851Z 27016G19KT 10SM FEW060 SCT110 10/06 A2917 RMK PRESRR SLP879 60000 T01000061 51050=
01/05/2023 07:51->METAR KJFK 010751Z 28021G27KT 10SM FEW025 BKN080 11/07 A2915 RMK PK WND 29034/0707 PRESRR SLP870 T01060072=
01/05/2023 06:51->METAR KJFK 010651Z 28019G27KT 10SM OVC015 12/10 A2908 RMK PK WND 27031/0632 RAE40 SLP847 P0000 T01220100=
01/05/2023 05:51->METAR KJFK 010551Z 25014KT 3SM -RA SCT003 OVC018 13/13 A2903 RMK SFC VIS 7 DZE21RAB21 SLP829 P0003 60010 T01330133 10150 20128 55010=
01/05/2023 04:51->METAR KJFK 010451Z 19007KT 1/4SM R04R/3500V4500FT -DZ BR OVC003 13/13 A2902 RMK SFC VIS 3/4 DZB44 SLP826 P0000 T01330133 401500100=
01/05/2023 03:51->METAR KJFK 010351Z 13007KT 1 1/2SM BR OVC003 14/14 A2903 RMK SFC VIS 3 RAE0254B26E37 SLP831 P0001 T01390139=
01/05/2023 02:51->METAR KJFK 010251Z 12008KT 10SM -RA OVC005 15/15 A2906 RMK RAB02 SLP839 P0003 60006 T01500150 58050=
01/05/2023 01:51->METAR KJFK 010151Z 10013KT 10SM OVC005 15/15 A2910 RMK RAE19 PRESFR SLP855 P0003 T01500150=
01/05/2023 00:51->METAR KJFK 010051Z 08009KT 1 1/2SM -RA BR BKN002 OVC018 14/14 A2918 RMK SFC VIS 5 PRESFR SLP881 P0000 T01440144=
30/11/2022 23:51->METAR KJFK 302351Z 27024G32KT 10SM FEW010 FEW031 OVC060 12/05 A2975 RMK AO2 PK WND 27033/2337 RAE13 SLP072 P0001 60030 T01220050 10144 20122 53016=
30/11/2022 22:51->METAR KJFK 302251Z 24019KT 6SM -RA BR SCT005 BKN016 OVC031 13/12 A2971 RMK AO2 PK WND 20027/2153 SLP061 BKN V SCT P0006 T01330122=
30/11/2022 21:51->METAR KJFK 302151Z 20021G30KT 3SM +RA BR BKN005 BKN018 OVC035 13/13 A2970 RMK AO2 PK WND 19036/2106 SLP057 P0011 T01330133=
30/11/2022 20:51->METAR KJFK 302051Z 19028G37KT 4SM RA BR BKN008 OVC015 13/13 A2971 RMK AO2 PK WND 19037/2050 SLP059 P0003 60012 T01330128 56021=
30/11/2022 19:51->METAR KJFK 301951Z 18024G33KT 2 1/2SM R04R/5000VP6000FT RA BR SCT009 BKN014 OVC022 14/13 A2972 RMK AO2 PK WND 18041/1911 SFC VIS 3 SLP064 P0006 T01390133=
30/11/2022 18:51->METAR KJFK 301851Z 18028G39KT 2 1/2SM RA BR SCT017 BKN029 OVC036 14/13 A2977 RMK AO2 PK WND 18039/1851 SLP080 P0003 T01440128=
30/11/2022 17:51->METAR KJFK 301751Z 17026G34KT 6SM -RA BR FEW022 BKN029 OVC038 14/12 A2980 RMK AO2 PK WND 17039/1739 SLP089 P0001 60004 T01390122 10139 20100 56072=
30/11/2022 16:51->METAR KJFK 301651Z 16022G30KT 6SM -RA BR FEW020 BKN029 OVC043 13/11 A2986 RMK AO2 PK WND 15032/1638 RAB08 PRESFR SLP111 P0003 T01330111=
30/11/2022 15:51->METAR KJFK 301551Z 15020G25KT 9SM FEW018 BKN039 OVC065 13/10 A2993 RMK AO2 PK WND 14028/1538 SLP135 T01280100=
30/11/2022 14:51->METAR KJFK 301451Z 16014KT 10SM FEW018 OVC042 12/09 A3001 RMK AO2 RAB21E32 SLP162 P0000 60000 T01220094 58033=
30/11/2022 13:51->METAR KJFK 301351Z 15013KT 10SM FEW018 BKN042 OVC095 12/08 A3005 RMK AO2 SLP175 T01170083=
30/11/2022 12:51->METAR KJFK 301251Z 15008KT 10SM FEW020 BKN047 BKN220 11/07 A3009 RMK AO2 SLP188 T01060072=
30/11/2022 11:51->METAR KJFK 301151Z 14007KT 10SM SCT019 BKN050 BKN220 10/07 A3011 RMK AO2 SLP195 T01000067 10100 20022 56026=
30/11/2022 10:51->METAR KJFK 301051Z 16009KT 10SM SCT021 OVC050 09/06 A3014 RMK AO2 SLP205 T00940061=
30/11/2022 09:51->METAR KJFK 300951Z 35004KT 10SM SCT024 OVC050 06/02 A3015 RMK AO2 SLP210 T00560017 $=
30/11/2022 08:51->METAR KJFK 300851Z 10003KT 10SM SCT024 OVC230 04/01 A3019 RMK AO2 SLP221 T00390006 56024 $=
30/11/2022 07:51->METAR KJFK 300751Z 08006KT 10SM SCT027 OVC210 03/00 A3020 RMK AO2 SLP225 T00330000 $=
30/11/2022 06:51->METAR KJFK 300651Z 08005KT 10SM SCT027 OVC200 03/M01 A3022 RMK AO2 SLP233 T00331006 $=
30/11/2022 05:51->METAR KJFK 300551Z 06005KT 10SM FEW030 OVC250 02/M01 A3026 RMK AO2 SLP245 T00221011 10044 20017 58013 $=
30/11/2022 04:51->METAR KJFK 300451Z 05005KT 10SM SCT033 BKN250 02/M01 A3028 RMK AO2 SLP252 T00221011 400670011 $=
30/11/2022 03:51->METAR KJFK 300351Z 05007KT 10SM SCT029 BKN250 03/M01 A3029 RMK AO2 SLP255 T00331011 $=
30/11/2022 02:51->METAR KJFK 300251Z 08006KT 10SM BKN028 OVC250 03/M01 A3029 RMK AO2 SLP258 T00331011 58001 $=
30/11/2022 01:51->METAR KJFK 300151Z 08004KT 10SM SCT028 BKN250 03/M02 A3031 RMK AO2 SLP262 T00331017 $=
30/11/2022 00:51->METAR KJFK 300051Z 06005KT 10SM FEW032 BKN250 03/M02 A3031 RMK AO2 SLP263 T00331017 $=
29/11/2022 23:51->METAR KJFK 292351Z 08004KT 10SM FEW032 BKN250 04/M02 A3030 RMK AO2 SLP259 T00441017 10067 20028 55001 $=
29/11/2022 22:51->METAR KJFK 292251Z 00000KT 10SM FEW032 BKN250 03/M02 A3029 RMK AO2 SLP256 T00281022 $=
29/11/2022 21:51->METAR KJFK 292151Z 00000KT 10SM FEW032 BKN250 05/M02 A3030 RMK AO2 SLP260 T00501017 $=
29/11/2022 20:51->METAR KJFK 292051Z 00000KT 10SM BKN032 BKN250 06/M01 A3030 RMK AO2 SLP260 T00611011 53003 $=
29/11/2022 19:51->METAR KJFK 291951Z 00000KT 10SM BKN035 BKN250 06/M02 A3028 RMK AO2 SLP255 T00611017 $=
29/11/2022 18:51->METAR KJFK 291851Z 24005KT 10SM BKN034 06/M02 A3029 RMK AO2 SLP256 T00611017 $=
29/11/2022 17:51->METAR KJFK 291751Z 22003KT 10SM OVC034 06/M02 A3029 RMK AO2 SLP257 T00611017 10067 20017 56013 $=
29/11/2022 16:51->METAR KJFK 291651Z 00000KT 10SM OVC034 06/M02 A3031 RMK AO2 SLP263 T00561017 $=
29/11/2022 15:51->METAR KJFK 291551Z 03007KT 10SM OVC036 06/M01 A3030 RMK AO2 SLP261 T00561011 $=
29/11/2022 14:51->METAR KJFK 291451Z 34005KT 10SM OVC035 05/M01 A3033 RMK AO2 SLP270 T00501011 51027=
29/11/2022 13:51->METAR KJFK 291351Z 36006KT 10SM BKN037 04/M01 A3032 RMK AO2 SLP265 T00441011=
29/11/2022 12:51->METAR KJFK 291251Z 35005KT 10SM FEW035 SCT250 02/M02 A3029 RMK AO2 SLP255 T00221022=
29/11/2022 11:51->METAR KJFK 291151Z 36005KT 10SM FEW040 FEW250 03/M02 A3025 RMK AO2 SLP242 T00281022 10044 20011 53021=
29/11/2022 10:51->METAR KJFK 291051Z 34005KT 10SM FEW040 FEW250 03/M02 A3022 RMK AO2 SLP233 T00281017=
29/11/2022 09:51->METAR KJFK 290951Z 34005KT 10SM CLR 02/M02 A3020 RMK AO2 SLP225 T00221022=
29/11/2022 08:51->METAR KJFK 290851Z 35003KT 10SM CLR 02/M02 A3019 RMK AO2 SLP221 T00221022 51029=
29/11/2022 07:51->METAR KJFK 290751Z 32004KT 10SM CLR 04/M02 A3017 RMK AO2 SLP215 T00391022=
29/11/2022 06:51->METAR KJFK 290651Z 01003KT 10SM CLR 04/M02 A3012 RMK AO2 SLP199 T00391022=
29/11/2022 05:51->METAR KJFK 290551Z 35006KT 10SM CLR 04/M02 A3010 RMK AO2 SLP192 T00391022 10083 20039 51018=
29/11/2022 04:51->METAR KJFK 290451Z 33011KT 10SM FEW250 05/M02 A3009 RMK AO2 SLP189 T00501017 401330050=
29/11/2022 03:51->METAR KJFK 290351Z 33014KT 10SM FEW042 FEW250 06/M02 A3008 RMK AO2 SLP184 T00561017=
29/11/2022 02:51->METAR KJFK 290251Z 31014KT 10SM FEW047 FEW250 07/M01 A3005 RMK AO2 SLP174 T00671011 51033=
29/11/2022 01:51->METAR KJFK 290151Z 33014KT 10SM FEW047 FEW250 07/M01 A3002 RMK AO2 SLP167 T00721011=
29/11/2022 00:51->METAR KJFK 290051Z 31014KT 10SM FEW047 FEW250 08/00 A2999 RMK AO2 SLP155 T00780000=
28/11/2022 23:51->METAR KJFK 282351Z 32016KT 10SM FEW047 FEW250 08/01 A2995 RMK AO2 SLP141 T00830006 10122 20083 51043=
28/11/2022 22:51->METAR KJFK 282251Z 31017G22KT 10SM FEW050 FEW250 09/01 A2991 RMK AO2 SLP128 T00890011=
28/11/2022 21:51->METAR KJFK 282151Z 31017KT 10SM FEW040 FEW250 09/01 A2987 RMK AO2 SLP116 T00940006=
28/11/2022 20:51->METAR KJFK 282051Z 31017KT 10SM FEW040 FEW250 11/01 A2982 RMK AO2 SLP098 T01060011 51034=
28/11/2022 19:51->METAR KJFK 281951Z 30017G23KT 10SM FEW040 FEW250 11/02 A2979 RMK AO2 SLP087 T01110017 $=
28/11/2022 18:51->METAR KJFK 281851Z 30016KT 10SM SCT048 SCT250 12/02 A2976 RMK AO2 SLP076 T01220022 $=
28/11/2022 17:51->METAR KJFK 281751Z 32019KT 10SM BKN046 12/02 A2972 RMK AO2 PK WND 32026/1740 SLP065 60000 T01170017 10133 20106 51018 $=
28/11/2022 16:51->METAR KJFK 281651Z 33017G24KT 10SM BKN042 BKN220 12/02 A2970 RMK AO2 PK WND 32027/1611 SLP058 T01220022 $=
28/11/2022 15:51->METAR KJFK 281551Z 31020KT 10SM FEW040 SCT055 SCT220 12/02 A2969 RMK AO2 SLP054 T01220022 $=
28/11/2022 14:51->METAR KJFK 281451Z 32019KT 10SM FEW037 BKN050 BKN220 11/03 A2967 RMK AO2 PK WND 33026/1430 SLP046 60000 T01060028 53043 $=
28/11/2022 13:51->METAR KJFK 281351Z 31020KT 10SM FEW026 BKN039 BKN060 11/04 A2963 RMK AO2 PK WND 32027/1255 RAB1255E12 SLP032 P0000 T01110039 $=
28/11/2022 12:51->METAR KJFK 281251Z 30014G22KT 10SM SCT027 BKN039 BKN060 13/08 A2958 RMK AO2 SLP016 T01330078 $=
28/11/2022 11:51->METAR KJFK 281151Z 26012KT 10SM FEW026 SCT046 SCT250 12/07 A2954 RMK AO2 SLP003 70056 T01220072 10128 20094 53012 $=
28/11/2022 10:51->METAR KJFK 281051Z 25011KT 10SM FEW022 FEW250 11/08 A2952 RMK AO2 SLP997 T01060078 $=
28/11/2022 09:51->METAR KJFK 280951Z 23010KT 10SM FEW250 09/08 A2951 RMK AO2 SLP993 T00940078 $=
28/11/2022 08:51->METAR KJFK 280851Z 25010KT 10SM CLR 10/08 A2950 RMK AO2 SLP991 T01000078 51017 $=
28/11/2022 07:51->METAR KJFK 280751Z 24009KT 10SM CLR 10/08 A2950 RMK AO2 SLP988 T01000083 $=
28/11/2022 06:51->METAR KJFK 280651Z 22007KT 10SM CLR 10/07 A2948 RMK AO2 SLP981 T01000072 $=
28/11/2022 05:51->METAR KJFK 280551Z 27012G22KT 10SM CLR 13/08 A2945 RMK AO2 SLP973 60010 T01280083 10156 20128 51017 $=
28/11/2022 04:51->METAR KJFK 280451Z 26016G25KT 10SM CLR 13/08 A2945 RMK AO2 SLP973 T01280083 401560056 $=
28/11/2022 03:51->METAR KJFK 280351Z 26016KT 10SM FEW018 FEW100 14/11 A2943 RMK AO2 SLP967 T01390106 $=
28/11/2022 02:51->METAR KJFK 280251Z 26019KT 10SM SCT022 BKN100 15/13 A2940 RMK AO2 RAE03 SLP956 P0002 60010 T01500128 55009 $=
28/11/2022 01:51->METAR KJFK 280151Z 21011KT 2SM -RA BR SCT004 BKN013 OVC030 13/13 A2938 RMK AO2 SFC VIS 4 RAB10 SLP949 P0005 T01330128 $=
28/11/2022 00:51->METAR KJFK 280051Z 19018KT 7SM BKN005 OVC011 14/13 A2939 RMK AO2 RAB08E48 SLP951 P0003 T01390128 $=
27/11/2022 23:51->METAR KJFK 272351Z 20013KT 3SM BKN004 OVC008 13/13 A2943 RMK AO2 SFC VIS 8 RAB01E26 SLP965 P0001 60046 T01330128 10133 20100 58048 $=
27/11/2022 22:51->METAR KJFK 272251Z 18016KT 2SM BR OVC004 13/13 A2947 RMK AO2 SFC VIS 3 SLP980 T01330128 $=
27/11/2022 21:51->METAR KJFK 272151Z 19014KT 9SM OVC007 13/12 A2954 RMK AO2 RAE31 SLP002 P0000 T01280122 $=
27/11/2022 20:51->METAR KJFK 272051Z 14012KT 6SM RA BR SCT013 BKN028 OVC045 11/09 A2957 RMK AO2 SLP013 P0023 60045 T01060094 58053 $=
27/11/2022 19:51->METAR KJFK 271951Z 19012KT 2 1/2SM +RA BR FEW021 BKN029 OVC040 10/09 A2967 RMK AO2 SLP046 P0021 T01000089 $=
27/11/2022 18:51->METAR KJFK 271851Z 20009KT 6SM -RA OVC029 11/08 A2970 RMK AO2 RAE14B30 SLP055 P0001 T01110083=
27/11/2022 17:51->METAR KJFK 271751Z 19009KT 10SM -RA BKN027 OVC100 12/07 A2973 RMK AO2 RAB51 SLP066 P0000 60000 T01170067 10117 20083 58047=
27/11/2022 16:51->METAR KJFK 271651Z 19007KT 10SM FEW075 BKN110 OVC160 11/06 A2978 RMK AO2 PRESFR SLP083 T01110056=
27/11/2022 15:51->METAR KJFK 271551Z 22007KT 10SM SCT120 BKN160 OVC250 11/05 A2983 RMK AO2 SLP102 T01060050=
27/11/2022 14:51->METAR KJFK 271451Z 22008KT 10SM FEW110 BKN160 BKN250 10/04 A2986 RMK AO2 SLP113 T01000044 56014=
27/11/2022 13:51->METAR KJFK 271351Z 20009KT 10SM FEW130 BKN180 BKN250 09/04 A2988 RMK AO2 SLP117 T00940044=
27/11/2022 12:51->METAR KJFK 271251Z 22008KT 10SM FEW130 BKN180 BKN250 08/03 A2988 RMK AO2 SLP119 T00830028=
27/11/2022 11:51->METAR KJFK 271151Z 22008KT 10SM FEW130 BKN210 BKN250 07/02 A2990 RMK AO2 SLP126 T00720022 10083 20056 58011=
27/11/2022 10:51->METAR KJFK 271051Z 25008KT 10SM BKN250 08/02 A2992 RMK AO2 SLP132 T00780022=
27/11/2022 09:51->METAR KJFK 270951Z 24008KT 10SM BKN250 07/02 A2993 RMK AO2 SLP134 T00720017=
27/11/2022 08:51->METAR KJFK 270851Z 25009KT 10SM BKN259 08/01 A2994 RMK AO2 SLP137 T00780006 58010=
27/11/2022 07:51->METAR KJFK 270751Z 24007KT 10SM BKN250 06/01 A2995 RMK AO2 SLP142 T00610006=
27/11/2022 06:51->METAR KJFK 270651Z 25007KT 10SM SCT250 07/01 A2996 RMK AO2 SLP146 T00670011=
27/11/2022 05:51->METAR KJFK 270551Z 22007KT 10SM SCT250 07/01 A2997 RMK AO2 SLP147 T00670011 10111 20061 58007=
27/11/2022 04:51->METAR KJFK 270451Z 25006KT 10SM FEW250 07/01 A2997 RMK AO2 SLP150 T00720011 401390061=
27/11/2022 03:51->METAR KJFK 270351Z 24012KT 10SM FEW250 09/02 A2999 RMK AO2 SLP153 T00890017=
27/11/2022 02:51->METAR KJFK 270251Z 23010KT 10SM FEW250 09/00 A2999 RMK AO2 SLP154 T00940000 58011=
27/11/2022 01:51->METAR KJFK 270151Z 24010KT 10SM FEW250 09/01 A3001 RMK AO2 SLP161 T00940006=
27/11/2022 00:51->METAR KJFK 270051Z 25010KT 10SM FEW250 10/00 A3001 RMK AO2 SLP160 T01000000=
26/11/2022 23:51->METAR KJFK 262351Z 25011KT 10SM FEW250 11/01 A3002 RMK AO2 SLP165 T01060006 10139 20089 53016=
26/11/2022 22:51->METAR KJFK 262251Z 26011KT 10SM FEW250 11/M01 A2999 RMK AO2 SLP154 T01111006=
26/11/2022 21:51->METAR KJFK 262151Z 23008KT 10SM FEW250 09/02 A2999 RMK AO2 SLP155 T00890022=
26/11/2022 20:51->METAR KJFK 262051Z 29009KT 10SM FEW250 13/M02 A2997 RMK AO2 SLP149 T01331022 58008=
26/11/2022 19:51->METAR KJFK 261951Z 28012KT 10SM FEW250 14/M03 A2999 RMK AO2 SLP154 T01391028=
26/11/2022 18:51->METAR KJFK 261851Z 29011KT 10SM SCT250 13/M03 A2999 RMK AO2 SLP156 T01331028=
26/11/2022 17:51->METAR KJFK 261751Z 29010KT 10SM FEW250 13/M03 A2999 RMK AO2 SLP156 T01281028 10128 20061 58020=
26/11/2022 16:51->METAR KJFK 261651Z 30013KT 10SM CLR 11/M03 A3003 RMK AO2 SLP168 T01111028=
26/11/2022 15:51->METAR KJFK 261551Z 31016KT 10SM CLR 10/M03 A3005 RMK AO2 SLP175 T01001028=
26/11/2022 14:51->METAR KJFK 261451Z 30011KT 10SM CLR 09/M03 A3005 RMK AO2 SLP177 T00891028 51009=
26/11/2022 13:51->METAR KJFK 261351Z 32015G21KT 10SM FEW045 08/M03 A3005 RMK AO2 SLP174 T00781033=
26/11/2022 12:51->METAR KJFK 261251Z 30010G23KT 10SM FEW042 07/M03 A3005 RMK AO2 SLP175 T00721033=
26/11/2022 11:51->METAR KJFK 261151Z 30011KT 10SM FEW042 06/M03 A3003 RMK AO2 SLP167 70002 T00611033 10078 20061 51010=
26/11/2022 10:51->METAR KJFK 261051Z 30011KT 10SM SCT045 07/M03 A3001 RMK AO2 SLP163 T00671033=
26/11/2022 09:51->METAR KJFK 260951Z 31018G22KT 10SM BKN048 07/M03 A3002 RMK AO2 PK WND 30028/0925 SLP164 T00721028=
26/11/2022 08:51->METAR KJFK 260851Z 31013G24KT 10SM OVC048 07/M03 A3000 RMK AO2 PK WND 32029/0813 SLP157 T00721033 51021=
26/11/2022 07:51->METAR KJFK 260751Z 32017G23KT 10SM BKN050 07/M03 A2999 RMK AO2 PK WND 31027/0737 SLP154 T00721033=
26/11/2022 06:51->METAR KJFK 260651Z 31010KT 10SM SCT049 07/M03 A2996 RMK AO2 PK WND 30031/0602 SLP146 T00721033=
26/11/2022 05:51->METAR KJFK 260551Z 31020G27KT 10SM FEW055 07/M03 A2993 RMK AO2 PK WND 32027/0547 SLP136 T00721033 10094 20072 52011=
26/11/2022 04:51->METAR KJFK 260451Z 32018G27KT 10SM FEW065 08/M03 A2991 RMK AO2 PK WND 31032/0357 SLP129 T00781033 401280067=
26/11/2022 03:51->METAR KJFK 260351Z 32026G33KT 10SM SCT055 08/M03 A2992 RMK AO2 PK WND 31033/0350 SLP131 T00831033=
26/11/2022 02:51->METAR KJFK 260251Z 32020G31KT 10SM BKN050 08/M03 A2990 RMK AO2 PK WND 33032/0223 SLP125 T00831028 51017=
26/11/2022 01:51->METAR KJFK 260151Z 31022G32KT 10SM BKN050 09/M03 A2989 RMK AO2 PK WND 32032/0145 SLP120 T00891028=
26/11/2022 00:51->METAR KJFK 260051Z 32018G35KT 10SM BKN055 09/M03 A2986 RMK AO2 PK WND 32035/0042 SLP113 T00891028=
25/11/2022 23:51->METAR KJFK 252351Z 33011G20KT 10SM BKN050 09/M01 A2985 RMK AO2 PK WND 32030/2256 SLP107 T00941006 10128 20094 53026=
25/11/2022 22:51->METAR KJFK 252251Z 33018G27KT 10SM BKN036 BKN049 11/02 A2983 RMK AO2 PK WND 30029/2154 SLP100 T01060017=
25/11/2022 21:51->METAR KJFK 252151Z 31020G29KT 10SM SCT039 SCT070 12/03 A2979 RMK AO2 PK WND 30030/2131 SLP088 T01170028=
25/11/2022 20:51->METAR KJFK 252051Z 27009KT 10SM FEW037 BKN055 BKN200 12/06 A2977 RMK AO2 SLP081 VCSH NW T01220061 56012=
25/11/2022 19:51->METAR KJFK 251951Z 27012KT 10SM FEW024 SCT070 SCT140 12/07 A2978 RMK AO2 SLP082 T01170067=
25/11/2022 18:51->METAR KJFK 251851Z 27013KT 10SM FEW020 BKN075 BKN140 12/07 A2979 RMK AO2 SLP087 T01170072=
25/11/2022 17:51->METAR KJFK 251751Z 25014KT 10SM SCT014 BKN046 BKN110 BKN160 10/08 A2981 RMK AO2 RAB1655E12 SLP093 P0000 60002 T01000078 10106 20094 58033=
25/11/2022 16:51->METAR KJFK 251651Z 25012KT 9SM BKN013 OVC055 10/08 A2985 RMK AO2 RAE49 SLP107 P0001 T01000083=
25/11/2022 15:51->METAR KJFK 251551Z 23010KT 9SM -RA SCT013 BKN050 OVC085 10/08 A2988 RMK AO2 RAB14 SLP117 P0000 T01000083=
25/11/2022 14:51->METAR KJFK 251451Z 23009KT 10SM FEW010 BKN085 OVC120 11/08 A2990 RMK AO2 SLP125 60001 T01060083 58037=
25/11/2022 13:51->METAR KJFK 251351Z 22009KT 10SM FEW011 BKN070 OVC090 10/09 A2994 RMK AO2 RAE37 SLP138 P0001 T01000089=
25/11/2022 12:51->METAR KJFK 251251Z 22011KT 9SM -RA FEW037 BKN070 OVC120 10/08 A2999 RMK AO2 RAB03 SLP155 P0000 T01000078=
25/11/2022 11:51->METAR KJFK 251151Z 22009KT 10SM FEW065 BKN100 OVC140 10/07 A3001 RMK AO2 SLP162 T01000072 10100 20078 58025=
25/11/2022 10:51->METAR KJFK 251051Z 21009KT 10SM OVC180 09/07 A3003 RMK AO2 SLP170 T00940067=
25/11/2022 09:51->METAR KJFK 250951Z 22008KT 10SM OVC220 09/06 A3007 RMK AO2 SLP181 T00940061=
25/11/2022 08:51->METAR KJFK 250851Z 21008KT 10SM BKN220 09/06 A3008 RMK AO2 SLP187 T00890061 58027=
25/11/2022 07:51->METAR KJFK 250751Z 20010KT 10SM BKN240 08/06 A3012 RMK AO2 SLP200 T00830056=
25/11/2022 06:51->METAR KJFK 250651Z 20008KT 10SM BKN220 08/05 A3016 RMK AO2 SLP211 T00830050=
25/11/2022 05:51->METAR KJFK 250551Z 21007KT 10SM BKN250 08/05 A3016 RMK AO2 SLP214 T00780050 10100 20067 58024=
25/11/2022 04:51->METAR KJFK 250451Z 23006KT 10SM BKN250 07/04 A3019 RMK AO2 SLP221 T00720044 401170006=
25/11/2022 03:51->METAR KJFK 250351Z 22009KT 10SM BKN250 08/04 A3022 RMK AO2 SLP232 T00830044=
25/11/2022 02:51->METAR KJFK 250251Z 21007KT 10SM BKN250 08/04 A3024 RMK AO2 SLP238 T00830044 58015=
25/11/2022 01:51->METAR KJFK 250151Z 21012KT 10SM SCT250 09/06 A3026 RMK AO2 SLP247 T00940056=
25/11/2022 00:51->METAR KJFK 250051Z 20012KT 10SM SCT250 09/05 A3026 RMK AO2 SLP247 T00940050=
24/11/2022 23:51->METAR KJFK 242351Z 20011KT 10SM SCT250 09/05 A3028 RMK AO2 SLP253 T00940050 10117 20072 56013=
24/11/2022 22:51->METAR KJFK 242251Z 20006KT 10SM SCT250 07/04 A3029 RMK AO2 SLP257 T00720039=
24/11/2022 21:51->METAR KJFK 242151Z 15003KT 10SM BKN250 08/04 A3030 RMK AO2 SLP259 T00830044=
24/11/2022 20:51->METAR KJFK 242051Z 17005KT 10SM BKN250 10/04 A3032 RMK AO2 SLP265 T01000044 56020=
24/11/2022 19:51->METAR KJFK 241951Z 20007KT 10SM BKN250 11/03 A3034 RMK AO2 SLP273 T01110033=
24/11/2022 18:51->METAR KJFK 241851Z 18006KT 10SM FEW040 BKN250 11/03 A3035 RMK AO2 SLP277 T01110028=
24/11/2022 17:51->METAR KJFK 241751Z 21007KT 10SM BKN250 11/03 A3037 RMK AO2 SLP285 T01110028 10117 20011 58018=
24/11/2022 16:51->METAR KJFK 241651Z 24005KT 10SM SCT250 11/03 A3039 RMK AO2 SLP291 T01110033=
24/11/2022 15:51->METAR KJFK 241551Z VRB03KT 10SM SCT250 10/04 A3041 RMK AO2 SLP298 T01000039=
24/11/2022 14:51->METAR KJFK 241451Z 05004KT 10SM FEW250 09/02 A3043 RMK AO2 SLP303 T00890022 51007=
24/11/2022 13:51->METAR KJFK 241351Z 07006KT 10SM FEW250 07/01 A3043 RMK AO2 SLP302 T00670011=
24/11/2022 12:51->METAR KJFK 241251Z 05005KT 10SM FEW250 03/M01 A3042 RMK AO2 SLP302 T00331006=
24/11/2022 11:51->METAR KJFK 241151Z 03004KT 10SM CLR 02/M02 A3041 RMK AO2 SLP296 T00171017 10039 20006 53005=
24/11/2022 10:51->METAR KJFK 241051Z 02005KT 10SM CLR 02/M02 A3040 RMK AO2 SLP294 T00171017=
24/11/2022 09:51->METAR KJFK 240951Z 01003KT 10SM CLR 03/M01 A3040 RMK AO2 SLP292 T00331011=
24/11/2022 08:51->METAR KJFK 240851Z 04004KT 10SM CLR 02/M02 A3039 RMK AO2 SLP291 T00171017 51007=
24/11/2022 07:51->METAR KJFK 240751Z 00000KT 10SM CLR 02/M02 A3039 RMK AO2 SLP289 T00221022=
24/11/2022 06:51->METAR KJFK 240651Z 00000KT 10SM CLR 03/M02 A3038 RMK AO2 SLP287 T00281022=
24/11/2022 05:51->METAR KJFK 240551Z 03005KT 10SM CLR 04/M02 A3037 RMK AO2 SLP284 T00391017 10094 20039 51010=
24/11/2022 04:51->METAR KJFK 240451Z 01004KT 10SM CLR 05/M02 A3037 RMK AO2 SLP283 T00501017 401390011=
24/11/2022 03:51->METAR KJFK 240351Z 04006KT 10SM CLR 04/M02 A3035 RMK AO2 SLP278 T00441017=
24/11/2022 02:51->METAR KJFK 240251Z 04006KT 10SM CLR 06/M02 A3034 RMK AO2 SLP274 T00561017 51022=
24/11/2022 01:51->METAR KJFK 240151Z 01008KT 10SM CLR 08/M02 A3032 RMK AO2 SLP268 T00831017=
24/11/2022 00:51->METAR KJFK 240051Z 36009KT 10SM CLR 09/M02 A3029 RMK AO2 SLP258 T00891022=
23/11/2022 23:51->METAR KJFK 232351Z 04004KT 10SM CLR 08/M02 A3028 RMK AO2 SLP251 T00831022 10139 20083 51022=
23/11/2022 22:51->METAR KJFK 232251Z 35005KT 10SM CLR 09/M03 A3026 RMK AO2 SLP247 T00941028=
23/11/2022 21:51->METAR KJFK 232151Z 01006KT 10SM CLR 11/M03 A3024 RMK AO2 SLP239 T01061028=
23/11/2022 20:51->METAR KJFK 232051Z 32007KT 10SM CLR 12/M03 A3021 RMK AO2 SLP230 T01221028 53005=
23/11/2022 19:51->METAR KJFK 231951Z 32011KT 10SM CLR 13/M02 A3019 RMK AO2 SLP224 T01331022=
23/11/2022 18:51->METAR KJFK 231851Z 27009KT 10SM CLR 13/M02 A3019 RMK AO2 SLP224 T01331022=
23/11/2022 17:51->METAR KJFK 231751Z 31009KT 10SM CLR 13/M02 A3020 RMK AO2 SLP225 T01331022 10133 20022 58010 $=
23/11/2022 16:51->METAR KJFK 231651Z 29010KT 7SM CLR 13/M03 A3021 RMK AO2 SLP228 T01281028 $=
23/11/2022 15:51->METAR KJFK 231551Z 31009KT 9SM FEW250 12/M03 A3023 RMK AO2 SLP235 T01221033 $=
23/11/2022 14:51->METAR KJFK 231451Z 29007KT 8SM FEW250 11/M03 A3022 RMK AO2 SLP234 T01061033 51009 $=
23/11/2022 13:51->METAR KJFK 231351Z 26007KT 10SM FEW250 08/M02 A3022 RMK AO2 SLP233 T00831022=
23/11/2022 12:51->METAR KJFK 231251Z 26006KT 10SM FEW250 06/M01 A3021 RMK AO2 SLP230 T00561011=
23/11/2022 11:51->METAR KJFK 231151Z 24007KT 10SM FEW250 02/M02 A3020 RMK AO2 SLP226 T00221022 10056 20011 53007=
23/11/2022 10:51->METAR KJFK 231051Z 26005KT 10SM CLR 03/M02 A3019 RMK AO2 SLP222 T00331017=
23/11/2022 09:51->METAR KJFK 230951Z 24006KT 10SM CLR 02/M02 A3018 RMK AO2 SLP218 T00171022=
23/11/2022 08:51->METAR KJFK 230851Z 24005KT 10SM CLR 03/M02 A3018 RMK AO2 SLP219 T00281022 56006=
23/11/2022 07:51->METAR KJFK 230751Z 22005KT 10SM CLR 02/M02 A3018 RMK AO2 SLP219 T00221022=
23/11/2022 06:51->METAR KJFK 230651Z 26005KT 10SM CLR 04/M02 A3019 RMK AO2 SLP221 T00441022=
23/11/2022 05:51->METAR KJFK 230551Z 25007KT 10SM CLR 05/M02 A3020 RMK AO2 SLP225 T00501022 10083 20039 58008=
23/11/2022 04:51->METAR KJFK 230451Z 23007KT 10SM CLR 04/M01 A3021 RMK AO2 SLP228 T00441011 401000028=
23/11/2022 03:51->METAR KJFK 230351Z 24012KT 10SM CLR 07/M02 A3021 RMK AO2 SLP230 T00671022=
23/11/2022 02:51->METAR KJFK 230251Z 23009KT 10SM CLR 07/M02 A3022 RMK AO2 SLP233 T00671017 56012=
23/11/2022 01:51->METAR KJFK 230151Z 23010KT 10SM CLR 07/M01 A3023 RMK AO2 SLP236 T00721011=
23/11/2022 00:51->METAR KJFK 230051Z 22008KT 10SM CLR 05/00 A3024 RMK AO2 SLP241 T00500000=
22/11/2022 23:51->METAR KJFK 222351Z 22008KT 10SM CLR 08/01 A3026 RMK AO2 SLP245 T00780011 10100 20061 56005=
22/11/2022 22:51->METAR KJFK 222251Z 22007KT 10SM CLR 06/M01 A3026 RMK AO2 SLP245 T00611006=
22/11/2022 21:51->METAR KJFK 222151Z 18009KT 10SM FEW250 07/M01 A3027 RMK AO2 SLP249 T00721006=
22/11/2022 20:51->METAR KJFK 222051Z 19010KT 10SM FEW250 08/M01 A3027 RMK AO2 SLP249 T00831011 56015=
22/11/2022 19:51->METAR KJFK 221951Z 23011KT 10SM FEW250 10/M03 A3027 RMK AO2 SLP251 T01001033=
22/11/2022 18:51->METAR KJFK 221851Z 24007KT 10SM FEW250 09/M04 A3029 RMK AO2 SLP256 T00941039=
22/11/2022 17:51->METAR KJFK 221751Z 22009KT 10SM FEW250 09/M04 A3031 RMK AO2 SLP264 T00941039 10094 20028 58027=
22/11/2022 16:51->METAR KJFK 221651Z 24006KT 10SM FEW250 09/M05 A3034 RMK AO2 SLP275 T00891050=
22/11/2022 15:51->METAR KJFK 221551Z 28004KT 10SM FEW250 09/M05 A3038 RMK AO2 SLP286 T00891050=
22/11/2022 14:51->METAR KJFK 221451Z 32009KT 10SM FEW250 08/M05 A3039 RMK AO2 SLP291 T00831050 50006=
22/11/2022 13:51->METAR KJFK 221351Z 25006KT 10SM CLR 07/M03 A3040 RMK AO2 SLP294 T00671033=
22/11/2022 12:51->METAR KJFK 221251Z 25006KT 10SM FEW250 04/M03 A3039 RMK AO2 SLP290 T00441028=
22/11/2022 11:51->METAR KJFK 221151Z 26006KT 10SM FEW250 03/M04 A3037 RMK AO2 SLP285 T00281044 10044 20028 53012=
22/11/2022 10:51->METAR KJFK 221051Z 28007KT 10SM FEW250 03/M04 A3036 RMK AO2 SLP280 T00281039=
22/11/2022 09:51->METAR KJFK 220951Z 28011KT 10SM FEW250 04/M04 A3035 RMK AO2 SLP276 T00391044=
22/11/2022 08:51->METAR KJFK 220851Z 27010KT 10SM FEW250 04/M04 A3034 RMK AO2 SLP273 T00391039 51012=
22/11/2022 07:51->METAR KJFK 220751Z 27014KT 10SM FEW220 04/M03 A3034 RMK AO2 SLP272 T00391028=
22/11/2022 06:51->METAR KJFK 220651Z 26014KT 10SM FEW200 04/M02 A3032 RMK AO2 SLP267 T00391022=
22/11/2022 05:51->METAR KJFK 220551Z 25014KT 10SM FEW200 04/M02 A3031 RMK AO2 SLP262 T00441017 10056 20044 51005=
22/11/2022 04:51->METAR KJFK 220451Z 25014KT 10SM SCT190 04/M02 A3030 RMK AO2 SLP261 T00441022 400561022=
22/11/2022 03:51->METAR KJFK 220351Z 25018KT 10SM BKN180 05/M03 A3031 RMK AO2 PK WND 23026/0259 SLP262 T00501028=
22/11/2022 02:51->METAR KJFK 220251Z 24018KT 10SM BKN220 06/M03 A3029 RMK AO2 PK WND 24026/0205 SLP257 T00561033 56001=
22/11/2022 01:51->METAR KJFK 220151Z 24018KT 10SM SCT250 04/M04 A3029 RMK AO2 PK WND 23028/0129 SLP258 T00441044=
22/11/2022 00:51->METAR KJFK 220051Z 23018KT 10SM FEW250 04/M06 A3029 RMK AO2 PK WND 23027/0011 SLP256 T00441061=
21/11/2022 23:51->METAR KJFK 212351Z 23022G28KT 10SM FEW250 04/M08 A3029 RMK AO2 PK WND 22030/2337 SLP258 T00441078 10056 20033 55008=
21/11/2022 22:51->METAR KJFK 212251Z 22015G22KT 10SM FEW250 05/M08 A3029 RMK AO2 SLP257 T00501078=
21/11/2022 21:51->METAR KJFK 212151Z 20016KT 10SM FEW250 05/M07 A3029 RMK AO2 SLP257 T00501072=
21/11/2022 20:51->METAR KJFK 212051Z 21014KT 10SM FEW250 06/M11 A3032 RMK AO2 SLP266 T00561111 56033=
21/11/2022 19:51->METAR KJFK 211951Z 22010KT 10SM FEW250 06/M11 A3034 RMK AO2 SLP273 T00561106=
21/11/2022 18:51->METAR KJFK 211851Z 23010KT 10SM FEW250 04/M11 A3038 RMK AO2 SLP285 T00441106=
21/11/2022 17:51->METAR KJFK 211751Z 23010KT 10SM FEW250 03/M10 A3041 RMK AO2 SLP298 T00331100 10033 21017 58033=
21/11/2022 16:51->METAR KJFK 211651Z 23011KT 10SM FEW250 03/M08 A3046 RMK AO2 SLP314 T00281083=
21/11/2022 15:51->METAR KJFK 211551Z 23012KT 10SM FEW045 02/M09 A3049 RMK AO2 SLP324 T00221089=
21/11/2022 14:51->METAR KJFK 211451Z 23008KT 10SM FEW045 FEW250 02/M10 A3051 RMK AO2 SLP331 T00171100 50000=
21/11/2022 13:51->METAR KJFK 211351Z 26009KT 10SM FEW043 01/M11 A3052 RMK AO2 SLP335 T00061106=
21/11/2022 12:51->METAR KJFK 211251Z 27010KT 10SM FEW040 M01/M11 A3052 RMK AO2 SLP336 T10061106=
21/11/2022 11:51->METAR KJFK 211151Z 27010KT 10SM FEW011 FEW037 M02/M10 A3051 RMK AO2 SLP331 FU FEW011 FU PLUME DSNT NW DRFTG E T10171100 11011 21022 53022=
21/11/2022 10:51->METAR KJFK 211051Z 26010KT 10SM CLR M02/M11 A3048 RMK AO2 SLP320 T10221106=
21/11/2022 09:51->METAR KJFK 210951Z 28010KT 10SM CLR M02/M11 A3046 RMK AO2 SLP315 T10171106=
21/11/2022 08:51->METAR KJFK 210851Z 26010KT 10SM CLR M02/M11 A3045 RMK AO2 SLP310 T10171106 53020=
21/11/2022 07:51->METAR KJFK 210751Z 28006KT 10SM CLR M02/M12 A3042 RMK AO2 SLP302 T10171117=
21/11/2022 06:51->METAR KJFK 210651Z 28008KT 10SM CLR M02/M12 A3041 RMK AO2 SLP296 T10171117=
21/11/2022 05:51->METAR KJFK 210551Z 29012KT 10SM CLR M01/M12 A3039 RMK AO2 SLP290 T10111122 10006 21011 51016=
21/11/2022 04:51->METAR KJFK 210451Z 29012KT 10SM CLR M01/M13 A3038 RMK AO2 SLP286 T10111128 400671011=
21/11/2022 03:51->METAR KJFK 210351Z 29012KT 10SM CLR M01/M13 A3036 RMK AO2 SLP281 T10061128=
21/11/2022 02:51->METAR KJFK 210251Z 28015G21KT 10SM CLR 00/M14 A3034 RMK AO2 PK WND 29026/0214 SLP275 T00001144 51022=
21/11/2022 01:51->METAR KJFK 210151Z 29014G23KT 10SM CLR 00/M14 A3033 RMK AO2 PK WND 29026/0121 SLP269 T00001144=
21/11/2022 00:51->METAR KJFK 210051Z 30015G21KT 10SM CLR 00/M14 A3031 RMK AO2 PK WND 29029/2358 SLP262 T00001144=
20/11/2022 23:51->METAR KJFK 202351Z 29017G25KT 10SM CLR 01/M15 A3028 RMK AO2 PK WND 29026/2255 SLP252 T00061150 10033 20006 51036=
20/11/2022 22:51->METAR KJFK 202251Z 29015G24KT 10SM FEW070 01/M15 A3024 RMK AO2 SLP240 T00111150=
20/11/2022 21:51->METAR KJFK 202151Z 28017G25KT 10SM FEW070 01/M16 A3021 RMK AO2 PK WND 28027/2122 SLP230 T00111156=
20/11/2022 20:51->METAR KJFK 202051Z 29019G24KT 10SM FEW070 02/M15 A3017 RMK AO2 PK WND 31027/1953 SLP216 T00221150 53020=
20/11/2022 19:51->METAR KJFK 201951Z 28015G24KT 10SM SCT070 03/M14 A3015 RMK AO2 PK WND 28029/1919 SLP207 T00281139=
20/11/2022 18:51->METAR KJFK 201851Z 30020G29KT 10SM SCT070 03/M14 A3013 RMK AO2 PK WND 29030/1812 SLP202 T00281144=
20/11/2022 17:51->METAR KJFK 201751Z 28018G27KT 10SM SCT070 03/M14 A3011 RMK AO2 PK WND 30032/1728 SLP197 T00281144 10033 20017 57003=
20/11/2022 16:51->METAR KJFK 201651Z 28016G27KT 10SM SCT060 03/M13 A3011 RMK AO2 PK WND 29029/1608 SLP196 T00331133=
20/11/2022 15:51->METAR KJFK 201551Z 29019G25KT 10SM FEW060 03/M12 A3012 RMK AO2 PK WND 29028/1516 SLP200 T00281122=
20/11/2022 14:51->METAR KJFK 201451Z 28020G28KT 10SM FEW060 FEW250 02/M12 A3012 RMK AO2 PK WND 29030/1427 SLP200 T00221117 51027=
20/11/2022 13:51->METAR KJFK 201351Z 28019G32KT 10SM SCT055 SCT250 02/M11 A3010 RMK AO2 PK WND 27032/1345 SLP192 T00221111=
20/11/2022 12:51->METAR KJFK 201251Z 28017G26KT 10SM FEW040 FEW250 02/M11 A3007 RMK AO2 PK WND 28028/1208 SLP181 T00221111=
20/11/2022 11:51->METAR KJFK 201151Z 27020G25KT 10SM FEW035 SCT200 02/M11 A3004 RMK AO2 PK WND 29027/1052 SLP173 T00221111 10067 20017 53016=
20/11/2022 10:51->METAR KJFK 201051Z 28018G31KT 10SM SCT250 02/M12 A3002 RMK AO2 PK WND 29031/1042 SLP164 T00221122=
20/11/2022 09:51->METAR KJFK 200951Z 29013KT 10SM FEW070 SCT250 02/M08 A3000 RMK AO2 SLP160 T00221083=
20/11/2022 08:51->METAR KJFK 200851Z 28010KT 10SM SCT055 SCT250 02/M08 A3000 RMK AO2 SLP157 T00221078 50003=
20/11/2022 07:51->METAR KJFK 200751Z 28009KT 10SM FEW060 BKN095 BKN250 03/M04 A3000 RMK AO2 SLP158 T00281044=
20/11/2022 06:51->METAR KJFK 200651Z 28014G26KT 10SM FEW060 SCT250 04/M03 A2999 RMK AO2 PK WND 22028/0604 SLP156 T00391033=
20/11/2022 05:51->METAR KJFK 200551Z 22017G22KT 10SM FEW065 FEW250 06/M02 A2999 RMK AO2 SLP153 T00611017 10061 20033 56034=
20/11/2022 04:51->METAR KJFK 200451Z 22011KT 10SM CLR 04/M03 A3002 RMK AO2 SLP164 T00441033 400500000=
20/11/2022 03:51->METAR KJFK 200351Z 21010KT 10SM CLR 04/M04 A3005 RMK AO2 SLP174 T00391039=
20/11/2022 02:51->METAR KJFK 200251Z 23009KT 10SM CLR 03/M06 A3008 RMK AO2 SLP187 T00331061 58015=
20/11/2022 01:51->METAR KJFK 200151Z 23012KT 10SM CLR 04/M07 A3010 RMK AO2 SLP193 T00391067=
20/11/2022 00:51->METAR KJFK 200051Z 23013KT 10SM FEW250 04/M07 A3012 RMK AO2 SLP200 T00391072=
19/11/2022 23:51->METAR KJFK 192351Z 23016KT 10SM FEW250 04/M08 A3013 RMK AO2 SLP202 T00441083 10050 20028 55002=
19/11/2022 22:51->METAR KJFK 192251Z 25008KT 10SM FEW250 03/M07 A3013 RMK AO2 SLP201 T00281072=
19/11/2022 21:51->METAR KJFK 192151Z 26009KT 10SM FEW055 FEW250 03/M08 A3013 RMK AO2 SLP202 T00331083=
19/11/2022 20:51->METAR KJFK 192051Z 26016KT 10SM FEW055 FEW250 04/M08 A3014 RMK AO2 SLP204 T00391083 56013=
19/11/2022 19:51->METAR KJFK 191951Z 24015KT 10SM FEW055 SCT250 04/M08 A3015 RMK AO2 SLP207 T00441083=
19/11/2022 18:51->METAR KJFK 191851Z 24019G25KT 10SM FEW055 FEW250 04/M09 A3016 RMK AO2 SLP211 T00441089=
19/11/2022 17:51->METAR KJFK 191751Z 24017KT 10SM FEW048 FEW250 04/M08 A3017 RMK AO2 SLP217 T00391083 10044 20000 58031=
19/11/2022 16:51->METAR KJFK 191651Z 25012KT 10SM FEW046 FEW250 04/M07 A3021 RMK AO2 SLP229 T00391072=
19/11/2022 15:51->METAR KJFK 191551Z 26011KT 10SM FEW043 FEW250 03/M08 A3025 RMK AO2 SLP242 T00281078=
19/11/2022 14:51->METAR KJFK 191451Z 26014KT 10SM FEW043 FEW250 03/M07 A3027 RMK AO2 SLP248 T00281072 50004=
19/11/2022 13:51->METAR KJFK 191351Z 27012KT 10SM FEW034 SCT250 02/M08 A3027 RMK AO2 SLP250 T00171078=
19/11/2022 12:51->METAR KJFK 191251Z 26012KT 10SM FEW032 SCT250 01/M07 A3027 RMK AO2 SLP249 T00061072=
19/11/2022 11:51->METAR KJFK 191151Z 27007KT 10SM FEW032 SCT250 00/M07 A3025 RMK AO2 SLP244 70001 T00001072 10022 20000 53011=
19/11/2022 10:51->METAR KJFK 191051Z 28009KT 10SM SCT250 00/M07 A3024 RMK AO2 SLP238 T00001072=
19/11/2022 09:51->METAR KJFK 190951Z 28009KT 10SM CLR 01/M08 A3023 RMK AO2 SLP235 T00061078=
19/11/2022 08:51->METAR KJFK 190851Z 28010KT 10SM CLR 01/M08 A3022 RMK AO2 SLP233 T00061078 53006=
19/11/2022 07:51->METAR KJFK 190751Z 29011KT 10SM CLR 01/M07 A3022 RMK AO2 SLP232 T00111067=
19/11/2022 06:51->METAR KJFK 190651Z 28013KT 10SM CLR 02/M08 A3021 RMK AO2 SLP228 T00171078=
19/11/2022 05:51->METAR KJFK 190551Z 28013KT 10SM CLR 02/M07 A3020 RMK AO2 SLP227 60001 T00171067 10061 20017 53010=
19/11/2022 04:51->METAR KJFK 190451Z 25013KT 10SM CLR 02/M03 A3019 RMK AO2 SLP223 T00221033 400780017=
19/11/2022 03:51->METAR KJFK 190351Z 27012KT 10SM FEW055 FEW100 03/M01 A3018 RMK AO2 SLP219 T00281011=
19/11/2022 02:51->METAR KJFK 190251Z 25017KT 10SM FEW036 SCT055 SCT090 03/M01 A3017 RMK AO2 PK WND 23038/0208 SLP217 SNE57RAB05E20 P0000 60001 T00331006 50022=
19/11/2022 01:51->METAR KJFK 190151Z 23029G35KT 9SM -SN BKN021 OVC036 03/M01 A3018 RMK AO2 PK WND 26039/0120 RAE23SNB23 SLP218 BKN V SCT P0001 T00281006=
19/11/2022 00:51->METAR KJFK 190051Z 24027G34KT 10SM -RA BKN055 BKN070 OVC090 04/M02 A3016 RMK AO2 PK WND 25039/0041 RAB44 SLP212 P0000 T00441017=
18/11/2022 23:51->METAR KJFK 182351Z 24019G24KT 10SM FEW055 SCT110 06/M06 A3011 RMK AO2 PK WND 25027/2307 SLP195 T00611056 10078 20056 53013=
18/11/2022 22:51->METAR KJFK 182251Z 24017KT 10SM FEW055 FEW070 06/M06 A3009 RMK AO2 SLP189 T00561056=
18/11/2022 21:51->METAR KJFK 182151Z 25017G24KT 10SM FEW060 FEW075 06/M07 A3008 RMK AO2 PK WND 28028/2052 SLP185 T00561067=
18/11/2022 20:51->METAR KJFK 182051Z 27017G28KT 10SM SCT065 SCT080 06/M08 A3007 RMK AO2 PK WND 25029/2039 SLP183 T00611083 55002=
18/11/2022 19:51->METAR KJFK 181951Z 25019G26KT 10SM SCT065 07/M08 A3006 RMK AO2 PK WND 24030/1933 SLP179 T00671083=
18/11/2022 18:51->METAR KJFK 181851Z 27016KT 10SM SCT065 07/M08 A3007 RMK AO2 PK WND 28026/1840 SLP182 T00721078=
18/11/2022 17:51->METAR KJFK 181751Z 25017KT 10SM SCT060 07/M07 A3008 RMK AO2 SLP185 T00671067 10067 20017 58020=
18/11/2022 16:51->METAR KJFK 181651Z 25012G22KT 10SM FEW055 06/M07 A3010 RMK AO2 PK WND 27026/1611 SLP191 T00611067=
18/11/2022 15:51->METAR KJFK 181551Z 25016G21KT 10SM FEW050 06/M06 A3013 RMK AO2 SLP202 T00561061=
18/11/2022 14:51->METAR KJFK 181451Z 26016KT 10SM FEW048 05/M06 A3014 RMK AO2 PK WND 25026/1358 SLP206 T00501061 50002=
18/11/2022 13:51->METAR KJFK 181351Z 25016KT 10SM FEW045 04/M05 A3015 RMK AO2 SLP210 T00391050=
18/11/2022 12:51->METAR KJFK 181251Z 28010KT 10SM FEW045 03/M05 A3015 RMK AO2 SLP208 T00281050=
18/11/2022 11:51->METAR KJFK 181151Z 27012KT 10SM FEW040 FEW250 02/M04 A3013 RMK AO2 SLP204 T00171039 10033 20017 53013=
18/11/2022 10:51->METAR KJFK 181051Z 26012KT 10SM FEW040 FEW250 02/M04 A3012 RMK AO2 SLP198 T00171039=
18/11/2022 09:51->METAR KJFK 180951Z 27011KT 10SM FEW250 02/M04 A3011 RMK AO2 SLP195 T00171039=
18/11/2022 08:51->METAR KJFK 180851Z 26011KT 10SM FEW250 02/M04 A3010 RMK AO2 SLP191 T00221039 58001=
18/11/2022 07:51->METAR KJFK 180751Z 28008KT 10SM FEW250 03/M04 A3010 RMK AO2 SLP191 T00281039=
18/11/2022 06:51->METAR KJFK 180651Z 28011KT 10SM FEW250 03/M05 A3010 RMK AO2 SLP194 T00281050=
18/11/2022 05:51->METAR KJFK 180551Z 27010KT 10SM SCT160 SCT230 03/M05 A3010 RMK AO2 SLP192 T00331050 10056 20033 51008=
18/11/2022 04:51->METAR KJFK 180451Z 28009KT 10SM BKN230 03/M05 A3010 RMK AO2 SLP191 T00331050 400830033=
18/11/2022 03:51->METAR KJFK 180351Z 27014KT 10SM SCT050 BKN220 04/M04 A3009 RMK AO2 SLP190 T00391039=
18/11/2022 02:51->METAR KJFK 180251Z 26015KT 10SM SCT050 SCT250 04/M04 A3007 RMK AO2 SLP184 T00391044 53013=
18/11/2022 01:51->METAR KJFK 180151Z 25012KT 10SM SCT060 04/M04 A3006 RMK AO2 SLP178 T00441044=
18/11/2022 00:51->METAR KJFK 180051Z 28012KT 10SM FEW060 05/M05 A3005 RMK AO2 SLP174 T00501050=
17/11/2022 23:51->METAR KJFK 172351Z 27014KT 10SM FEW060 06/M05 A3004 RMK AO2 PK WND 26028/2304 SLP171 T00561050 10083 20056 53021=
17/11/2022 22:51->METAR KJFK 172251Z 27016G25KT 10SM SCT060 06/M05 A3002 RMK AO2 PK WND 27026/2221 SLP164 T00561050=
17/11/2022 21:51->METAR KJFK 172151Z 28015KT 10SM FEW050 06/M05 A2999 RMK AO2 PK WND 27031/2054 SLP153 T00561050=
17/11/2022 20:51->METAR KJFK 172051Z 26021KT 10SM SCT055 07/M05 A2997 RMK AO2 PK WND 26032/2040 SLP149 T00671050 53019=
17/11/2022 19:51->METAR KJFK 171951Z 27020KT 10SM SCT055 08/M04 A2995 RMK AO2 PK WND 25027/1900 SLP143 T00781044=
17/11/2022 18:51->METAR KJFK 171851Z 29018G24KT 10SM SCT050 08/M04 A2993 RMK AO2 PK WND 26027/1757 SLP133 T00831044=
17/11/2022 17:51->METAR KJFK 171751Z 27016KT 10SM SCT049 08/M03 A2992 RMK AO2 PK WND 26026/1738 SLP131 T00831033 10083 20033 58007=
17/11/2022 16:51->METAR KJFK 171651Z 27021G27KT 10SM SCT046 08/M03 A2994 RMK AO2 PK WND 27027/1628 SLP137 T00781033=
17/11/2022 15:51->METAR KJFK 171551Z 28015G25KT 10SM SCT043 SCT080 07/M03 A2994 RMK AO2 SLP137 T00721033=
17/11/2022 14:51->METAR KJFK 171451Z 27019G26KT 10SM FEW042 SCT075 06/M03 A2994 RMK AO2 PK WND 27028/1403 SLP138 T00611028 51005=
17/11/2022 13:51->METAR KJFK 171351Z 27016KT 10SM FEW036 BKN070 BKN090 04/M03 A2994 RMK AO2 SLP137 VIRGA OHD-SE T00441028=
17/11/2022 12:51->METAR KJFK 171251Z 27016KT 10SM FEW033 BKN065 BKN090 04/M03 A2993 RMK AO2 SLP135 T00441033=
17/11/2022 11:51->METAR KJFK 171151Z 27016KT 10SM FEW033 BKN055 BKN080 BKN160 04/M03 A2993 RMK AO2 SLP133 70001 T00391033 10044 20039 53005=
17/11/2022 10:51->METAR KJFK 171051Z 26017KT 10SM OVC070 04/M03 A2992 RMK AO2 SLP130 T00391028 $=
17/11/2022 09:51->METAR KJFK 170951Z 27014KT 10SM BKN065 BKN250 04/M03 A2991 RMK AO2 SLP128 T00391028 $=
17/11/2022 08:51->METAR KJFK 170851Z 27014KT 10SM SCT055 BKN220 04/M03 A2991 RMK AO2 SLP128 T00391028 56005 $=
17/11/2022 07:51->METAR KJFK 170751Z 28012KT 10SM BKN220 04/M02 A2992 RMK AO2 SLP130 T00391022 $=
17/11/2022 06:51->METAR KJFK 170651Z 28014KT 10SM FEW040 BKN220 04/M03 A2992 RMK AO2 SLP130 T00391028 $=
17/11/2022 05:51->METAR KJFK 170551Z 28011KT 10SM BKN250 04/M03 A2993 RMK AO2 SLP133 T00441028 10083 20044 58010 $=
17/11/2022 04:51->METAR KJFK 170451Z 28010G21KT 10SM FEW042 BKN240 05/M03 A2994 RMK AO2 SLP139 T00501028 401170050 $=
17/11/2022 03:51->METAR KJFK 170351Z 28016G22KT 10SM BKN210 06/M02 A2995 RMK AO2 SLP143 T00561022 $=
17/11/2022 02:51->METAR KJFK 170251Z 28016G21KT 10SM FEW045 BKN180 BKN230 06/M02 A2996 RMK AO2 SLP143 T00611022 53006 $=
17/11/2022 01:51->METAR KJFK 170151Z 28016G23KT 10SM FEW045 BKN230 07/M02 A2995 RMK AO2 SLP140 T00671022 $=
17/11/2022 00:51->METAR KJFK 170051Z 27015KT 10SM FEW045 SCT250 07/M02 A2994 RMK AO2 SLP139 T00721017 $=
16/11/2022 23:51->METAR KJFK 162351Z 28015G22KT 10SM SCT045 BKN250 08/M02 A2994 RMK AO2 SLP138 T00831017 10117 20078 51017 $=
16/11/2022 22:51->METAR KJFK 162251Z 29015KT 10SM SCT045 BKN250 08/M01 A2992 RMK AO2 SLP130 T00831011 $=
16/11/2022 21:51->METAR KJFK 162151Z 28015G24KT 10SM BKN044 BKN250 08/M01 A2991 RMK AO2 PK WND 28027/2135 SLP129 T00831006 $=
16/11/2022 20:51->METAR KJFK 162051Z 31017KT 10SM SCT042 BKN250 10/01 A2989 RMK AO2 PK WND 29028/2006 SLP121 T01000011 52012 $=
16/11/2022 19:51->METAR KJFK 161951Z 28015G24KT 10SM SCT036 BKN250 11/02 A2988 RMK AO2 PK WND 31026/1926 SLP118 T01110017 $=
16/11/2022 18:51->METAR KJFK 161851Z 29017G25KT 10SM SCT032 BKN220 11/03 A2987 RMK AO2 SLP113 T01060033 $=
16/11/2022 17:51->METAR KJFK 161751Z 30018G26KT 10SM SCT028 SCT120 BKN230 10/03 A2986 RMK AO2 PK WND 29026/1742 SLP109 60001 T01000033 10106 20056 58009 $=
16/11/2022 16:51->METAR KJFK 161651Z 29016G22KT 10SM SCT022 SCT150 BKN240 09/04 A2986 RMK AO2 SLP112 T00890039 $=
16/11/2022 15:51->METAR KJFK 161551Z 28011KT 10SM FEW015 SCT170 BKN250 08/04 A2988 RMK AO2 SLP119 T00780044 $=
16/11/2022 14:51->METAR KJFK 161451Z 32015KT 10SM BKN010 BKN023 06/04 A2988 RMK AO2 SLP119 CIG 008V012 60001 T00610039 51019 $=
16/11/2022 13:51->METAR KJFK 161351Z 31016KT 7SM BKN007 OVC022 06/05 A2987 RMK AO2 SLP116 T00610050 $=
16/11/2022 12:51->METAR KJFK 161251Z 33018KT 3SM BR OVC006 07/06 A2986 RMK AO2 SFC VIS 6 RAE22 SLP111 P0001 T00670056 $=
16/11/2022 11:51->METAR KJFK 161151Z 35013KT 2 1/2SM -RA BR BKN005 OVC011 08/07 A2983 RMK AO2 SFC VIS 5 SLP100 P0002 60013 70062 T00780072 10094 20061 56028 $=
16/11/2022 10:51->METAR KJFK 161051Z 36010KT 2 1/2SM -RA BR OVC005 09/08 A2984 RMK AO2 SFC VIS 4 SLP103 P0004 T00940083 $=
16/11/2022 09:51->METAR KJFK 160951Z 02010KT 6SM -RA BR OVC007 09/08 A2987 RMK AO2 SLP116 P0003 T00890083 $=
16/11/2022 08:51->METAR KJFK 160851Z 06014KT 7SM -RA OVC009 08/07 A2991 RMK AO2 SLP128 P0001 60004 T00830072 56052 $=
16/11/2022 07:51->METAR KJFK 160751Z 07018G24KT 10SM -RA OVC011 07/06 A2995 RMK AO2 PK WND 07027/0653 RAE03B42 SLP140 P0000 T00720061 $=
16/11/2022 06:51->METAR KJFK 160651Z 07018G27KT 10SM -RA OVC012 07/06 A2999 RMK AO2 PK WND 07027/0648 SLP156 P0003 T00670056=
16/11/2022 05:51->METAR KJFK 160551Z 05017KT 7SM RA OVC012 06/05 A3006 RMK AO2 SLP180 P0006 60048 T00610050 10067 20056 56048=
16/11/2022 04:51->METAR KJFK 160451Z 04014G23KT 10SM -RA OVC012 06/04 A3011 RMK AO2 PK WND 04026/0425 SLP196 P0006 T00560044 400780006=
16/11/2022 03:51->METAR KJFK 160351Z 04020G24KT 10SM -RA OVC011 06/04 A3014 RMK AO2 PK WND 05026/0341 SLP207 P0005 T00560039=
16/11/2022 02:51->METAR KJFK 160251Z 01015KT 6SM RA BR OVC012 06/04 A3021 RMK AO2 SLP228 P0013 60031 T00560039 58024=
16/11/2022 01:51->METAR KJFK 160151Z 04011KT 10SM -RA BKN015 OVC043 06/04 A3022 RMK AO2 SLP233 P0010 T00610044=
16/11/2022 00:51->METAR KJFK 160051Z 02012KT 8SM RA OVC017 07/04 A3027 RMK AO2 SLP248 P0008 T00670039=
15/11/2022 23:51->METAR KJFK 152351Z 03009KT 10SM -RA BKN021 OVC033 07/03 A3028 RMK AO2 RAB08 SLP252 P0001 60001 T00670033 10078 20067 56019=
15/11/2022 22:51->METAR KJFK 152251Z 05011KT 10SM SCT030 BKN036 OVC090 07/01 A3029 RMK AO2 SLP257 T00720011=
15/11/2022 21:51->METAR KJFK 152151Z 07009KT 10SM BKN032 OVC110 08/01 A3030 RMK AO2 SLP261 T00780006=
15/11/2022 20:51->METAR KJFK 152051Z 06009KT 10SM BKN032 OVC120 08/01 A3033 RMK AO2 SLP271 T00780011 56022=
15/11/2022 19:51->METAR KJFK 151951Z 04013KT 10SM BKN037 BKN120 OVC160 08/01 A3034 RMK AO2 SLP275 T00780006=
15/11/2022 18:51->METAR KJFK 151851Z 05013KT 10SM SCT043 OVC170 08/M01 A3036 RMK AO2 SLP281 T00781006=
15/11/2022 17:51->METAR KJFK 151751Z 05009KT 10SM BKN045 BKN180 OVC250 08/M01 A3040 RMK AO2 PRESFR SLP292 T00781006 10078 20028 58031=
15/11/2022 16:51->METAR KJFK 151651Z 03009KT 10SM BKN050 OVC250 08/M01 A3043 RMK AO2 SLP304 T00781011=
15/11/2022 15:51->METAR KJFK 151551Z 03009KT 10SM BKN050 BKN250 07/M02 A3047 RMK AO2 SLP316 T00671022=
15/11/2022 14:51->METAR KJFK 151451Z 05008KT 10SM BKN047 06/M02 A3049 RMK AO2 SLP324 T00611017 53006=
15/11/2022 13:51->METAR KJFK 151351Z 05008KT 10SM FEW032 BKN047 BKN250 04/M02 A3047 RMK AO2 SLP319 T00441022=
15/11/2022 12:51->METAR KJFK 151251Z 04008KT 10SM BKN049 BKN250 03/M03 A3047 RMK AO2 SLP318 T00331028=
15/11/2022 11:51->METAR KJFK 151151Z 04008KT 10SM BKN049 BKN250 03/M03 A3047 RMK AO2 SLP318 T00281033 10033 20006 50010=
15/11/2022 10:51->METAR KJFK 151051Z 01007KT 10SM BKN049 03/M03 A3049 RMK AO2 SLP324 T00331033=
15/11/2022 09:51->METAR KJFK 150951Z 36010KT 10SM SCT048 SCT250 03/M03 A3047 RMK AO2 SLP318 T00281028=
15/11/2022 08:51->METAR KJFK 150851Z 36006KT 10SM FEW033 FEW250 02/M04 A3044 RMK AO2 SLP308 T00171044 58004=
15/11/2022 07:51->METAR KJFK 150751Z 02006KT 10SM FEW035 FEW250 01/M05 A3045 RMK AO2 SLP309 T00111050=
15/11/2022 06:51->METAR KJFK 150651Z 01004KT 10SM FEW250 02/M05 A3046 RMK AO2 SLP313 T00171050=
15/11/2022 05:51->METAR KJFK 150551Z 02005KT 10SM FEW250 02/M05 A3045 RMK AO2 SLP312 T00171050 10056 20017 50006=
15/11/2022 04:51->METAR KJFK 150451Z 02005KT 10SM FEW250 02/M05 A3046 RMK AO2 SLP313 T00171050 400830017=
15/11/2022 03:51->METAR KJFK 150351Z 02007KT 10SM FEW250 03/M05 A3045 RMK AO2 SLP309 T00281050=
15/11/2022 02:51->METAR KJFK 150251Z 36007KT 10SM FEW250 03/M05 A3044 RMK AO2 SLP306 T00331050 51016=
15/11/2022 01:51->METAR KJFK 150151Z 35009KT 10SM FEW050 FEW250 04/M05 A3043 RMK AO2 SLP303 T00391050=
15/11/2022 00:51->METAR KJFK 150051Z 33011KT 10SM FEW050 FEW250 05/M05 A3040 RMK AO2 SLP295 T00501050=
14/11/2022 23:51->METAR KJFK 142351Z 33013KT 10SM FEW060 FEW250 06/M04 A3039 RMK AO2 SLP290 T00561044 10083 20050 53018=
14/11/2022 22:51->METAR KJFK 142251Z 34008KT 10SM FEW060 FEW250 06/M05 A3037 RMK AO2 SLP283 T00611050=
14/11/2022 21:51->METAR KJFK 142151Z 31009KT 10SM FEW060 FEW250 07/M05 A3035 RMK AO2 SLP277 T00671050=
14/11/2022 20:51->METAR KJFK 142051Z 32008KT 10SM FEW060 FEW250 07/M05 A3033 RMK AO2 SLP271 T00721050 53008=
14/11/2022 19:51->METAR KJFK 141951Z 33009KT 10SM FEW060 FEW250 08/M04 A3032 RMK AO2 SLP266 T00781044=
14/11/2022 18:51->METAR KJFK 141851Z 35011KT 10SM FEW060 FEW250 08/M04 A3031 RMK AO2 SLP262 T00831039=
14/11/2022 17:51->METAR KJFK 141751Z 36010KT 10SM FEW065 FEW250 08/M04 A3031 RMK AO2 SLP263 T00781039 10078 20039 58005=
14/11/2022 16:51->METAR KJFK 141651Z 34011G16KT 10SM FEW055 FEW250 08/M04 A3032 RMK AO2 SLP266 T00781039=
14/11/2022 15:51->METAR KJFK 141551Z 30015KT 10SM FEW060 FEW250 07/M04 A3033 RMK AO2 SLP270 T00671044=
14/11/2022 14:51->METAR KJFK 141451Z 30014KT 10SM FEW055 06/M04 A3033 RMK AO2 SLP269 T00611044 51020=
14/11/2022 13:51->METAR KJFK 141351Z 33013G21KT 10SM FEW065 FEW250 06/M05 A3032 RMK AO2 SLP265 T00561050=
14/11/2022 12:51->METAR KJFK 141251Z 31017G21KT 10SM FEW044 FEW260 04/M06 A3030 RMK AO2 SLP259 T00441056=
14/11/2022 11:51->METAR KJFK 141151Z 31017KT 10SM SCT041 04/M05 A3027 RMK AO2 SLP249 70002 T00441050 10056 20039 53022=
14/11/2022 10:51->METAR KJFK 141051Z 32013G20KT 10SM SCT042 04/M04 A3024 RMK AO2 SLP240 T00441039=
14/11/2022 09:51->METAR KJFK 140951Z 31009G18KT 10SM SCT050 04/M03 A3022 RMK AO2 SLP232 T00441033=
14/11/2022 08:51->METAR KJFK 140851Z 31010KT 10SM CLR 04/M03 A3020 RMK AO2 SLP227 T00441033 51018=
14/11/2022 07:51->METAR KJFK 140751Z 32012KT 10SM FEW050 04/M03 A3019 RMK AO2 SLP224 T00441033=
14/11/2022 06:51->METAR KJFK 140651Z 32013KT 10SM FEW050 04/M04 A3017 RMK AO2 SLP214 T00441039=
14/11/2022 05:51->METAR KJFK 140551Z 31019G25KT 10SM FEW050 06/M04 A3015 RMK AO2 SLP209 T00561044 10089 20056 53017=
14/11/2022 04:51->METAR KJFK 140451Z 31012KT 10SM FEW048 06/M03 A3013 RMK AO2 SLP202 T00561033 401610056=
14/11/2022 03:51->METAR KJFK 140351Z 30011KT 10SM FEW048 07/M02 A3011 RMK AO2 SLP196 T00671017=
14/11/2022 02:51->METAR KJFK 140251Z 30015G21KT 10SM FEW045 FEW080 07/M02 A3010 RMK AO2 SLP192 T00721017 51030=
14/11/2022 01:51->METAR KJFK 140151Z 30012G28KT 10SM FEW045 FEW080 07/M02 A3007 RMK AO2 PK WND 29029/0141 SLP181 T00721017=
14/11/2022 00:51->METAR KJFK 140051Z 30020G26KT 10SM FEW049 FEW080 08/M02 A3004 RMK AO2 PK WND 30029/0037 SLP173 T00831017=
13/11/2022 23:51->METAR KJFK 132351Z 29015KT 10SM SCT080 09/M01 A3001 RMK AO2 SLP162 T00891011 10128 20089 52033=
13/11/2022 22:51->METAR KJFK 132251Z 29015G22KT 10SM FEW055 BKN075 09/M01 A2998 RMK AO2 SLP151 T00941006=
13/11/2022 21:51->METAR KJFK 132151Z 29012G20KT 10SM SCT055 BKN070 11/M01 A2995 RMK AO2 SLP140 T01061011=
13/11/2022 20:51->METAR KJFK 132051Z 30013G23KT 10SM SCT055 BKN070 BKN150 11/M01 A2991 RMK AO2 PK WND 31026/2019 SLP129 T01061011 53021=
13/11/2022 19:51->METAR KJFK 131951Z 31016G25KT 10SM BKN050 BKN140 11/00 A2989 RMK AO2 SLP120 T01110000=
13/11/2022 18:51->METAR KJFK 131851Z 29016KT 10SM BKN045 BKN060 BKN130 12/02 A2986 RMK AO2 SLP111 T01220017=
13/11/2022 17:51->METAR KJFK 131751Z 31018KT 10SM FEW020 FEW040 BKN060 BKN130 12/02 A2985 RMK AO2 SLP109 60002 T01170022 10122 20089 58004=
13/11/2022 16:51->METAR KJFK 131651Z 30014KT 10SM SCT023 BKN041 BKN050 BKN130 11/04 A2986 RMK AO2 SLP110 T01110044=
13/11/2022 15:51->METAR KJFK 131551Z 33015KT 10SM BKN016 BKN045 BKN065 BKN130 09/06 A2987 RMK AO2 RAB1453E34 SLP114 P0001 T00940061=
13/11/2022 14:51->METAR KJFK 131451Z 30014KT 10SM BKN018 BKN045 OVC060 09/07 A2987 RMK AO2 RAB09E47 SLP113 P0000 60001 T00940067 51018=
13/11/2022 13:51->METAR KJFK 131351Z 34013KT 10SM FEW015 SCT035 OVC047 10/07 A2984 RMK AO2 RAE28 SLP103 P0000 T01000072=
13/11/2022 12:51->METAR KJFK 131251Z 33012KT 8SM -RA FEW015 OVC033 10/08 A2985 RMK AO2 RAB44 SLP109 P0001 T01000078=
13/11/2022 11:51->METAR KJFK 131151Z 34012KT 10SM FEW015 OVC028 11/08 A2981 RMK AO2 RAB21E46 SLP095 P0001 60007 70012 T01110083 10161 20106 53016=
13/11/2022 10:51->METAR KJFK 131051Z 33010KT 10SM SCT028 BKN034 OVC060 12/09 A2980 RMK AO2 RAB06E38 SLP090 P0003 T01170089=
13/11/2022 09:51->METAR KJFK 130951Z 34014KT 10SM BKN040 OVC070 13/10 A2977 RMK AO2 RAE26 SLP081 P0002 T01280100=
13/11/2022 08:51->METAR KJFK 130851Z 01010KT 8SM RA SCT033 OVC041 14/11 A2976 RMK AO2 RAB27 SLP078 P0001 60001 T01390111 53006=
13/11/2022 07:51->METAR KJFK 130751Z 01008KT 10SM OVC042 16/11 A2975 RMK AO2 SLP074 T01560111=
13/11/2022 06:51->METAR KJFK 130651Z 36006KT 10SM OVC043 16/11 A2975 RMK AO2 SLP073 T01610106=
13/11/2022 05:51->METAR KJFK 130551Z 36004KT 10SM BKN043 OVC100 16/11 A2975 RMK AO2 SLP073 T01610111 10189 20156 53001=
13/11/2022 04:51->METAR KJFK 130451Z 07003KT 10SM FEW090 OVC110 16/11 A2974 RMK AO2 SLP070 T01560111 402220156=
13/11/2022 03:51->METAR KJFK 130351Z 09005KT 10SM BKN050 BKN100 16/11 A2974 RMK AO2 SLP069 T01610106=
13/11/2022 02:51->METAR KJFK 130251Z 08005KT 10SM FEW047 BKN060 17/11 A2974 RMK AO2 SLP072 T01670106 57001=
13/11/2022 01:51->METAR KJFK 130151Z 07005KT 10SM SCT120 BKN140 17/11 A2975 RMK AO2 SLP073 T01670111=
13/11/2022 00:51->METAR KJFK 130051Z 26005KT 10SM BKN065 BKN140 18/11 A2974 RMK AO2 SLP071 T01830111=
12/11/2022 23:51->METAR KJFK 122351Z 26006KT 10SM SCT060 BKN250 19/11 A2975 RMK AO2 SLP073 T01890111 10217 20172 51016=
12/11/2022 22:51->METAR KJFK 122251Z 25008KT 10SM FEW040 SCT150 SCT250 18/11 A2973 RMK AO2 SLP068 T01830111=
12/11/2022 21:51->METAR KJFK 122151Z 25009KT 10SM FEW040 FEW150 18/12 A2971 RMK AO2 SLP061 T01780117=
12/11/2022 20:51->METAR KJFK 122051Z 27009KT 10SM FEW150 FEW250 20/10 A2970 RMK AO2 SLP056 T02000100 53011=
12/11/2022 19:51->METAR KJFK 121951Z 27011KT 10SM FEW045 FEW150 SCT250 21/11 A2968 RMK AO2 SLP051 T02060106=
12/11/2022 18:51->METAR KJFK 121851Z 27014KT 10SM FEW045 SCT150 SCT250 22/11 A2967 RMK AO2 SLP045 T02170111=
12/11/2022 17:51->METAR KJFK 121751Z 26014KT 10SM FEW040 SCT150 SCT250 21/12 A2967 RMK AO2 SLP046 60005 T02110117 10222 20178 51024=
12/11/2022 16:51->METAR KJFK 121651Z 27015KT 10SM SCT035 BKN150 BKN250 21/12 A2966 RMK AO2 PK WND 28027/1620 SLP043 T02060117=
12/11/2022 15:51->METAR KJFK 121551Z 29016G24KT 10SM BKN040 BKN250 21/13 A2965 RMK AO2 PK WND 28028/1515 SLP038 T02110128=
12/11/2022 14:51->METAR KJFK 121451Z 29018G25KT 10SM BKN031 BKN250 22/14 A2960 RMK AO2 PK WND 30026/1404 SLP022 60005 T02170144 51056=
12/11/2022 13:51->METAR KJFK 121351Z 29020G29KT 10SM BKN035 BKN150 BKN250 21/16 A2957 RMK AO2 PK WND 30029/1344 SLP013 T02110156=
12/11/2022 12:51->METAR KJFK 121251Z 30019G25KT 10SM OVC060 20/16 A2950 RMK AO2 WSHFT 1219 RAE1157B16E33 PRESRR SLP990 P0005 T02000161=
12/11/2022 11:51->METAR KJFK 121151Z 20013KT 9SM -RA OVC015 18/17 A2943 RMK AO2 RAB43 SLP966 P0000 60001 70052 T01830172 10194 20183 55011=
12/11/2022 10:51->METAR KJFK 121051Z 19017KT 3SM SCT005 BKN018 OVC031 18/18 A2942 RMK AO2 PK WND 18031/1024 SFC VIS 7 SLP962 T01830178=
12/11/2022 09:51->METAR KJFK 120951Z 18020KT 3SM BR OVC008 19/18 A2943 RMK AO2 PK WND 20031/0856 SFC VIS 5 RAB15E41 CIG 005V011 SLP965 P0000 T01890183=
12/11/2022 08:51->METAR KJFK 120851Z 18021G29KT 3SM OVC006 19/18 A2946 RMK AO2 PK WND 19032/0841 SFC VIS 7 CIG 004V009 SLP977 60001 T01890183 58043=
12/11/2022 07:51->METAR KJFK 120751Z 18017G28KT 1/2SM R04R/P6000FT BR OVC003 19/19 A2952 RMK AO2 PK WND 19029/0725 SFC VIS 4 RAE16 SLP995 P0000 T01890189=
12/11/2022 06:51->METAR KJFK 120651Z 18017KT 1/2SM R04R/5000V5500FT -RA BR OVC002 19/18 A2956 RMK AO2 SFC VIS 1 1/4 SLP010 P0001 T01890183=
12/11/2022 05:51->METAR KJFK 120551Z 18018KT 1/2SM R04R/P6000FT -RA BR OVC004 19/18 A2959 RMK AO2 PK WND 18027/0527 SFC VIS 1 3/4 RAB39 CIG 002V006 SLP019 P0000 60000 T01890183 10194 20183 56016=
12/11/2022 04:51->METAR KJFK 120451Z 18021G28KT 10SM SCT028 SCT120 BKN200 19/18 A2962 RMK AO2 PK WND 18031/0419 SLP031 T01890178 402000133=
12/11/2022 03:51->METAR KJFK 120351Z 18020G27KT 10SM FEW029 SCT130 BKN250 19/18 A2963 RMK AO2 PK WND 17033/0334 SLP035 T01890178=
12/11/2022 02:51->METAR KJFK 120251Z 17023G30KT 3SM BKN006 BKN026 OVC120 19/19 A2967 RMK AO2 PK WND 17034/0215 SFC VIS 10 SLP048 60000 T01940189 56029=
12/11/2022 01:51->METAR KJFK 120151Z 17019G31KT 1SM R04R/P6000FT BR BKN000 OVC002 19/19 A2970 RMK AO2 PK WND 18031/0143 SFC VIS 1 1/2 SLP056 BR BKN000 T01940189=
12/11/2022 00:51->METAR KJFK 120051Z 17018G24KT 3SM BR OVC005 19/18 A2972 RMK AO2 SFC VIS 6 RAE31 SLP064 P0000 T01890183=
11/11/2022 23:51->METAR KJFK 112351Z 16019G29KT 3SM -RA BR BKN005 BKN018 OVC038 19/18 A2976 RMK AO2 PK WND 15029/2344 SFC VIS 6 RAB2259 SLP077 P0007 60048 T01890183 10194 20183 58016=
11/11/2022 22:51->METAR KJFK 112251Z 16019G25KT 3SM BKN005 OVC018 19/19 A2978 RMK AO2 PK WND 14028/2155 SFC VIS 9 RAE38 SLP084 P0002 T01940189=
11/11/2022 21:51->METAR KJFK 112151Z 14021G27KT 2 1/2SM R04R/6000VP6000FT RA BR SCT005 BKN009 OVC022 19/18 A2981 RMK AO2 PK WND 13027/2149 SFC VIS 3 SLP093 P0032 T01940183=
11/11/2022 20:51->METAR KJFK 112051Z 14016G21KT 9SM -RA FEW011 BKN024 OVC033 19/18 A2986 RMK AO2 RAB1958 SLP110 P0000 60007 T01890178 56024=
11/11/2022 19:51->METAR KJFK 111951Z 14015G23KT 10SM FEW019 SCT029 OVC042 19/17 A2988 RMK AO2 RAE45 SLP118 SCT V BKN P0003 T01890172=
11/11/2022 18:51->METAR KJFK 111851Z 14013KT 8SM -RA FEW013 BKN024 OVC034 18/17 A2993 RMK AO2 SLP134 P0004 T01830172=
11/11/2022 17:51->METAR KJFK 111751Z 14011KT 6SM -RA BR SCT019 BKN029 OVC048 18/17 A2997 RMK AO2 SLP148 P0003 60003 T01830172 10200 20156 58037=
11/11/2022 16:51->METAR KJFK 111651Z 15011KT 10SM -RA BKN039 BKN050 OVC150 19/16 A3001 RMK AO2 RAB47 SLP161 P0000 T01940161=
11/11/2022 15:51->METAR KJFK 111551Z 16010KT 10SM FEW033 BKN041 OVC180 20/17 A3005 RMK AO2 RAB26E40 SLP176 P0000 T02000167=
11/11/2022 14:51->METAR KJFK 111451Z 16008KT 10SM FEW033 BKN050 BKN180 BKN250 19/17 A3008 RMK AO2 RAB08E18 SLP184 P0000 60000 T01940167 58010=
11/11/2022 13:51->METAR KJFK 111351Z 16005KT 10SM SCT035 BKN060 BKN250 18/16 A3010 RMK AO2 SLP192 T01830161=
11/11/2022 12:51->METAR KJFK 111251Z 00000KT 10SM FEW035 BKN055 BKN250 17/15 A3011 RMK AO2 SLP194 T01720150=
11/11/2022 11:51->METAR KJFK 111151Z 00000KT 10SM FEW033 BKN060 BKN250 16/14 A3011 RMK AO2 SLP195 T01560144 10156 20139 56013=
11/11/2022 10:51->METAR KJFK 111051Z 00000KT 10SM SCT037 BKN065 OVC250 15/14 A3012 RMK AO2 SLP198 T01500139=
11/11/2022 09:51->METAR KJFK 110951Z 07003KT 10SM OVC060 14/13 A3013 RMK AO2 SLP203 T01440133=
11/11/2022 08:51->METAR KJFK 110851Z 00000KT 10SM FEW037 OVC060 14/14 A3015 RMK AO2 SLP208 T01440139 58019=
11/11/2022 07:51->METAR KJFK 110751Z 07004KT 10SM OVC060 14/13 A3016 RMK AO2 SLP214 T01440133=
11/11/2022 06:51->METAR KJFK 110651Z 07004KT 10SM OVC060 14/13 A3019 RMK AO2 SLP223 T01440133=
11/11/2022 05:51->METAR KJFK 110551Z 00000KT 10SM OVC060 15/14 A3020 RMK AO2 SLP227 T01500139 10150 20133 56014=
11/11/2022 04:51->METAR KJFK 110451Z 00000KT 10SM BKN060 OVC250 15/14 A3021 RMK AO2 SLP231 T01500139 401780056=
11/11/2022 03:51->METAR KJFK 110351Z 19005KT 10SM FEW035 BKN250 14/13 A3023 RMK AO2 SLP235 T01440133=
11/11/2022 02:51->METAR KJFK 110251Z 19007KT 10SM BKN250 15/14 A3024 RMK AO2 SLP241 T01500139 56012=
11/11/2022 01:51->METAR KJFK 110151Z 20006KT 10SM BKN250 14/13 A3025 RMK AO2 SLP244 T01440133=
11/11/2022 00:51->METAR KJFK 110051Z 21004KT 10SM BKN250 14/13 A3027 RMK AO2 SLP248 T01440133=
10/11/2022 23:51->METAR KJFK 102351Z 19007KT 10SM BKN250 15/13 A3028 RMK AO2 SLP253 T01500133 10172 20144 58005=
10/11/2022 22:51->METAR KJFK 102251Z 16004KT 10SM SCT250 14/13 A3029 RMK AO2 SLP257 T01440128=
10/11/2022 21:51->METAR KJFK 102151Z 17004KT 10SM SCT250 15/13 A3029 RMK AO2 SLP257 T01500128=
10/11/2022 20:51->METAR KJFK 102051Z 19007KT 10SM FEW250 16/12 A3030 RMK AO2 SLP259 T01610122 56015=
10/11/2022 19:51->METAR KJFK 101951Z 21005KT 10SM FEW250 16/11 A3031 RMK AO2 SLP263 T01610106=
10/11/2022 18:51->METAR KJFK 101851Z 19006KT 10SM FEW250 17/09 A3032 RMK AO2 SLP267 T01670089=
10/11/2022 17:51->METAR KJFK 101751Z 24008KT 10SM FEW250 17/09 A3034 RMK AO2 SLP274 T01720089 10178 20083 58027=
10/11/2022 16:51->METAR KJFK 101651Z 23010KT 10SM CLR 17/09 A3037 RMK AO2 SLP284 T01670089=
10/11/2022 15:51->METAR KJFK 101551Z 23009KT 10SM CLR 16/09 A3040 RMK AO2 SLP295 T01560094=
10/11/2022 14:51->METAR KJFK 101451Z 24005KT 10SM CLR 14/08 A3042 RMK AO2 SLP301 T01440083 58003=
10/11/2022 13:51->METAR KJFK 101351Z 24007KT 10SM CLR 13/08 A3043 RMK AO2 SLP304 T01280078=
10/11/2022 12:51->METAR KJFK 101251Z 27005KT 10SM FEW250 11/07 A3044 RMK AO2 SLP307 T01110067=
10/11/2022 11:51->METAR KJFK 101151Z 00000KT 10SM CLR 08/06 A3043 RMK AO2 SLP303 T00830056 10094 20056 55002=
10/11/2022 10:51->METAR KJFK 101051Z 27006KT 10SM CLR 09/06 A3042 RMK AO2 SLP302 T00890056=
10/11/2022 09:51->METAR KJFK 100951Z 27005KT 10SM CLR 08/06 A3043 RMK AO2 SLP303 T00780056=
10/11/2022 08:51->METAR KJFK 100851Z 26005KT 10SM CLR 08/06 A3044 RMK AO2 SLP306 T00830061 58017=
10/11/2022 07:51->METAR KJFK 100751Z 00000KT 10SM CLR 08/05 A3045 RMK AO2 SLP311 T00780050=
10/11/2022 06:51->METAR KJFK 100651Z 02003KT 10SM FEW250 07/04 A3047 RMK AO2 SLP318 T00670039=
10/11/2022 05:51->METAR KJFK 100551Z 00000KT 10SM FEW250 08/04 A3049 RMK AO2 SLP323 T00780044 10106 20067 58017=
10/11/2022 04:51->METAR KJFK 100451Z 20006KT 10SM FEW250 08/05 A3051 RMK AO2 SLP329 T00830050 401170039=
10/11/2022 03:51->METAR KJFK 100351Z 18005KT 10SM FEW250 09/05 A3052 RMK AO2 SLP334 T00940050=
10/11/2022 02:51->METAR KJFK 100251Z 19007KT 10SM FEW028 FEW250 09/05 A3053 RMK AO2 SLP339 T00940050 56011=
10/11/2022 01:51->METAR KJFK 100151Z 17007KT 10SM FEW045 FEW250 09/05 A3054 RMK AO2 SLP340 T00890050=
10/11/2022 00:51->METAR KJFK 100051Z 11003KT 10SM FEW050 FEW250 07/04 A3055 RMK AO2 SLP346 T00720039=
09/11/2022 23:51->METAR KJFK 092351Z 14003KT 10SM FEW050 FEW250 09/04 A3057 RMK AO2 SLP350 T00890044 10117 20083 56010=
09/11/2022 22:51->METAR KJFK 092251Z 14003KT 10SM FEW050 FEW250 09/04 A3057 RMK AO2 SLP351 T00890039=
09/11/2022 21:51->METAR KJFK 092151Z 15003KT 10SM FEW050 FEW250 08/04 A3057 RMK AO2 SLP352 T00830039=
09/11/2022 20:51->METAR KJFK 092051Z 21006KT 10SM FEW050 FEW250 10/04 A3060 RMK AO2 SLP360 T01000039 58012=
09/11/2022 19:51->METAR KJFK 091951Z 21005KT 10SM FEW050 FEW250 11/02 A3061 RMK AO2 SLP366 T01060017=
09/11/2022 18:51->METAR KJFK 091851Z 17007KT 10SM FEW050 FEW250 12/02 A3062 RMK AO2 SLP370 FU PLUME NW DRFTG N T01170017=
09/11/2022 17:51->METAR KJFK 091751Z 15006KT 10SM FEW050 11/M01 A3063 RMK AO2 SLP372 T01111011 10111 20044 58013=
09/11/2022 16:51->METAR KJFK 091651Z VRB03KT 10SM FEW050 11/M01 A3065 RMK AO2 SLP378 T01061011=
09/11/2022 15:51->METAR KJFK 091551Z 12008KT 10SM FEW050 10/M02 A3066 RMK AO2 SLP382 T01001017=
09/11/2022 14:51->METAR KJFK 091451Z 06007KT 10SM FEW050 FEW250 09/M02 A3067 RMK AO2 SLP385 T00941022 51003=
09/11/2022 13:51->METAR KJFK 091351Z 07007KT 10SM FEW050 FEW250 08/M02 A3067 RMK AO2 SLP385 T00781017=
09/11/2022 12:51->METAR KJFK 091251Z 02008KT 10SM FEW050 FEW250 07/M03 A3068 RMK AO2 SLP387 T00671028=
09/11/2022 11:51->METAR KJFK 091151Z 01006KT 10SM FEW050 FEW250 04/M04 A3066 RMK AO2 SLP382 T00391039 10072 20039 51008=
09/11/2022 10:51->METAR KJFK 091051Z 02008KT 10SM FEW250 04/M05 A3065 RMK AO2 SLP379 T00441050=
09/11/2022 09:51->METAR KJFK 090951Z 03008KT 10SM CLR 05/M05 A3065 RMK AO2 SLP377 T00501050=
09/11/2022 08:51->METAR KJFK 090851Z 03010KT 10SM CLR 06/M06 A3064 RMK AO2 SLP374 T00561061 51002=
09/11/2022 07:51->METAR KJFK 090751Z 03011KT 10SM CLR 06/M07 A3063 RMK AO2 SLP373 T00611067=
09/11/2022 06:51->METAR KJFK 090651Z 01015KT 10SM CLR 07/M06 A3064 RMK AO2 SLP375 T00721061=
09/11/2022 05:51->METAR KJFK 090551Z 01011KT 10SM CLR 07/M06 A3063 RMK AO2 SLP372 T00721056 10111 20072 53007=
09/11/2022 04:51->METAR KJFK 090451Z 36015KT 10SM CLR 08/M06 A3061 RMK AO2 SLP366 T00831056 401560078=
09/11/2022 03:51->METAR KJFK 090351Z 03007KT 10SM CLR 08/M07 A3061 RMK AO2 SLP363 T00831072=
09/11/2022 02:51->METAR KJFK 090251Z 02011KT 10SM CLR 09/M07 A3061 RMK AO2 SLP365 T00941067 50011=
09/11/2022 01:51->METAR KJFK 090151Z 02012KT 10SM FEW250 10/M07 A3061 RMK AO2 SLP366 T01001067=
09/11/2022 00:51->METAR KJFK 090051Z 02012KT 10SM FEW250 11/M09 A3059 RMK AO2 PK WND 36028/0001 SLP358 T01061089=
08/11/2022 23:51->METAR KJFK 082351Z 01014G22KT 10SM FEW250 11/M09 A3058 RMK AO2 SLP354 T01111089 10156 20111 53015=
08/11/2022 22:51->METAR KJFK 082251Z 01011KT 10SM FEW250 12/M06 A3056 RMK AO2 SLP348 T01171061=
08/11/2022 21:51->METAR KJFK 082151Z 35017KT 10SM FEW250 13/M07 A3055 RMK AO2 SLP343 T01281067=
08/11/2022 20:51->METAR KJFK 082051Z 36012KT 10SM FEW250 14/M06 A3053 RMK AO2 SLP339 T01441061 53010=
08/11/2022 19:51->METAR KJFK 081951Z 36013KT 10SM FEW250 15/M07 A3052 RMK AO2 SLP333 T01501072=
08/11/2022 18:51->METAR KJFK 081851Z 36013G21KT 10SM FEW250 14/M04 A3051 RMK AO2 SLP329 T01441044=
08/11/2022 17:51->METAR KJFK 081751Z 36014G19KT 10SM FEW250 14/M04 A3050 RMK AO2 SLP328 T01441044 10144 20089 58010=
08/11/2022 16:51->METAR KJFK 081651Z 35018G24KT 10SM FEW250 13/M04 A3052 RMK AO2 PK WND 35027/1554 SLP333 T01331039=
08/11/2022 15:51->METAR KJFK 081551Z 34017G22KT 10SM SCT250 13/M03 A3053 RMK AO2 SLP339 T01281033=
08/11/2022 14:51->METAR KJFK 081451Z 35019G24KT 10SM SCT250 12/M02 A3053 RMK AO2 PK WND 36027/1425 SLP338 T01221022 50012=
08/11/2022 13:51->METAR KJFK 081351Z 35016KT 10SM BKN250 11/M01 A3053 RMK AO2 SLP339 T01061011=
08/11/2022 12:51->METAR KJFK 081251Z 35014KT 10SM BKN250 09/M01 A3052 RMK AO2 SLP336 T00941006=
08/11/2022 11:51->METAR KJFK 081151Z 34013KT 10SM BKN250 09/M01 A3050 RMK AO2 SLP327 T00891006 10117 20083 51020=
08/11/2022 10:51->METAR KJFK 081051Z 34010KT 10SM SCT250 09/M01 A3048 RMK AO2 SLP320 T00891006=
08/11/2022 09:51->METAR KJFK 080951Z 34010KT 10SM SCT250 09/M01 A3047 RMK AO2 SLP316 T00941006=
08/11/2022 08:51->METAR KJFK 080851Z 34011KT 10SM SCT250 10/00 A3044 RMK AO2 SLP307 T01000000 51017=
08/11/2022 07:51->METAR KJFK 080751Z 34011KT 10SM SCT250 11/00 A3043 RMK AO2 SLP303 T01060000=
08/11/2022 06:51->METAR KJFK 080651Z 34013KT 10SM SCT250 11/M01 A3041 RMK AO2 SLP297 T01111011=
08/11/2022 05:51->METAR KJFK 080551Z 33015KT 10SM SCT250 12/M02 A3039 RMK AO2 SLP290 T01171017 10211 20117 51028=
08/11/2022 04:51->METAR KJFK 080451Z 33016G24KT 10SM FEW250 13/M02 A3037 RMK AO2 PK WND 34028/0413 SLP285 T01331022 402670133=
08/11/2022 03:51->METAR KJFK 080351Z 34018G23KT 10SM FEW250 15/M05 A3034 RMK AO2 SLP272 T01501050=
08/11/2022 02:51->METAR KJFK 080251Z 35016KT 10SM FEW250 17/M07 A3030 RMK AO2 PK WND 34026/0159 SLP262 T01721072 53030=
08/11/2022 01:51->METAR KJFK 080151Z 34022G28KT 10SM FEW250 18/M06 A3027 RMK AO2 PK WND 33028/0151 SLP250 T01831061=
08/11/2022 00:51->METAR KJFK 080051Z 33014G23KT 10SM CLR 21/M05 A3024 RMK AO2 SLP238 T02061050=
07/11/2022 23:51->METAR KJFK 072351Z 31011KT 10SM CLR 21/M06 A3022 RMK AO2 SLP232 T02111056 10267 20211 53020=
07/11/2022 22:51->METAR KJFK 072251Z 29010KT 10SM FEW250 22/M04 A3019 RMK AO2 SLP222 T02221039=
07/11/2022 21:51->METAR KJFK 072151Z 30015G22KT 10SM FEW250 23/M02 A3017 RMK AO2 SLP216 T02331017=
07/11/2022 20:51->METAR KJFK 072051Z 29014KT 10SM FEW250 24/03 A3016 RMK AO2 SLP212 T02440033 53006=
07/11/2022 19:51->METAR KJFK 071951Z 32016KT 10SM CLR 25/06 A3015 RMK AO2 SLP208 T02500056=
07/11/2022 18:51->METAR KJFK 071851Z 30010KT 10SM CLR 26/08 A3014 RMK AO2 SLP204 T02610083=
07/11/2022 17:51->METAR KJFK 071751Z 27011KT 10SM FEW060 26/11 A3014 RMK AO2 SLP206 T02610111 10261 20178 57012=
07/11/2022 16:51->METAR KJFK 071651Z 27012G19KT 10SM FEW050 FEW095 26/12 A3015 RMK AO2 SLP210 T02610117=
07/11/2022 15:51->METAR KJFK 071551Z 26014KT 10SM FEW047 FEW095 25/14 A3016 RMK AO2 SLP213 T02500144=
07/11/2022 14:51->METAR KJFK 071451Z 23011KT 10SM FEW045 FEW095 22/18 A3017 RMK AO2 SLP218 T02220178 50001=
07/11/2022 13:51->METAR KJFK 071351Z 23011KT 10SM FEW045 FEW090 FEW250 21/18 A3018 RMK AO2 SLP219 T02110178=
07/11/2022 12:51->METAR KJFK 071251Z 24011KT 10SM FEW035 FEW095 SCT140 BKN250 21/18 A3018 RMK AO2 SLP220 T02060178=
07/11/2022 11:51->METAR KJFK 071151Z 22005KT 10SM FEW031 SCT095 BKN250 18/17 A3017 RMK AO2 SLP216 T01780167 10189 20172 53007=
07/11/2022 10:51->METAR KJFK 071051Z 18006KT 10SM FEW033 BKN055 17/17 A3016 RMK AO2 SLP211 T01720167=
07/11/2022 09:51->METAR KJFK 070951Z 20011KT 10SM SCT060 18/17 A3015 RMK AO2 SLP210 T01830167=
07/11/2022 08:51->METAR KJFK 070851Z 19011KT 10SM SCT065 18/17 A3015 RMK AO2 SLP209 T01830167 58013=
07/11/2022 07:51->METAR KJFK 070751Z 18009KT 10SM BKN048 18/17 A3016 RMK AO2 SLP214 T01830167=
07/11/2022 06:51->METAR KJFK 070651Z 20007KT 10SM BKN055 18/17 A3018 RMK AO2 SLP221 T01830167=
07/11/2022 05:51->METAR KJFK 070551Z 20006KT 10SM BKN065 18/17 A3019 RMK AO2 SLP222 T01830167 10189 20183 56004=
07/11/2022 04:51->METAR KJFK 070451Z 18009KT 10SM OVC055 19/17 A3019 RMK AO2 SLP223 T01890167 402110178=
07/11/2022 03:51->METAR KJFK 070351Z 19010KT 10SM OVC055 18/17 A3019 RMK AO2 SLP222 T01830167=
07/11/2022 02:51->METAR KJFK 070251Z 19010KT 10SM SCT080 BKN110 18/17 A3020 RMK AO2 CIG 080 W SLP226 T01830167 53002=
07/11/2022 01:51->METAR KJFK 070151Z 18015KT 10SM FEW055 BKN120 18/17 A3019 RMK AO2 SLP222 T01830167=
07/11/2022 00:51->METAR KJFK 070051Z 18015KT 10SM BKN065 BKN180 19/17 A3019 RMK AO2 SLP223 T01890167=
06/11/2022 23:51->METAR KJFK 062351Z 18013KT 10SM BKN070 BKN180 18/17 A3019 RMK AO2 SLP223 T01830167 10206 20183 53002=
06/11/2022 22:51->METAR KJFK 062251Z 18014KT 10SM BKN065 BKN180 18/17 A3019 RMK AO2 SLP222 T01830167=
06/11/2022 21:51->METAR KJFK 062151Z 18015KT 10SM BKN080 BKN180 19/17 A3018 RMK AO2 SLP219 T01940167=
06/11/2022 20:51->METAR KJFK 062051Z 18013KT 10SM BKN070 BKN180 19/17 A3019 RMK AO2 SLP221 T01940167 56006=
06/11/2022 19:51->METAR KJFK 061951Z 18013KT 10SM BKN080 BKN180 20/17 A3019 RMK AO2 SLP221 T02000172=
06/11/2022 18:51->METAR KJFK 061851Z 18016KT 10SM SCT048 OVC080 20/17 A3020 RMK AO2 SLP225 T02000172=
06/11/2022 17:51->METAR KJFK 061751Z 18015KT 10SM FEW040 SCT095 BKN130 OVC250 21/17 A3020 RMK AO2 SLP228 T02060172 10211 20178 58016=
06/11/2022 16:51->METAR KJFK 061651Z 17015KT 10SM SCT065 BKN150 BKN230 21/17 A3023 RMK AO2 SLP236 T02060172=
06/11/2022 15:51->METAR KJFK 061551Z 17016KT 10SM SCT065 BKN150 BKN250 21/17 A3025 RMK AO2 SLP242 T02060172=
06/11/2022 14:51->METAR KJFK 061451Z 18012KT 10SM SCT070 BKN150 BKN250 21/17 A3025 RMK AO2 SLP244 T02110172 51006=
06/11/2022 13:51->METAR KJFK 061351Z 17012KT 10SM FEW035 FEW060 BKN250 19/17 A3025 RMK AO2 SLP244 T01940172=
06/11/2022 12:51->METAR KJFK 061251Z 18009KT 10SM FEW035 BKN060 BKN250 18/17 A3024 RMK AO2 SLP241 T01830167=
06/11/2022 11:51->METAR KJFK 061151Z 17009KT 10SM FEW035 BKN065 BKN250 18/17 A3023 RMK AO2 SLP237 T01780167 10183 20178 53013=
06/11/2022 10:51->METAR KJFK 061051Z 19012KT 10SM FEW035 FEW055 SCT250 18/16 A3022 RMK AO2 SLP232 T01780161=
06/11/2022 09:51->METAR KJFK 060951Z 17012KT 10SM FEW038 FEW060 BKN250 18/16 A3020 RMK AO2 SLP226 T01780161=
06/11/2022 08:51->METAR KJFK 060851Z 17011KT 10SM FEW060 BKN250 18/16 A3019 RMK AO2 SLP224 T01780161 58010=
06/11/2022 07:51->METAR KJFK 060751Z 18013KT 10SM FEW045 BKN065 BKN250 18/17 A3021 RMK AO2 SLP228 T01780167=
06/11/2022 06:51->METAR KJFK 060651Z 17011KT 10SM SCT070 BKN250 18/17 A3022 RMK AO2 SLP233 T01780167=
06/11/2022 05:51->METAR KJFK 060551Z 18009KT 10SM BKN060 BKN250 18/17 A3022 RMK AO2 SLP234 T01780167 10189 20178 53002=
06/11/2022 04:51->METAR KJFK 060451Z 18010KT 10SM FEW060 FEW085 BKN250 18/17 A3022 RMK AO2 SLP233 T01780167 402280156=
06/11/2022 03:51->METAR KJFK 060351Z 16010KT 10SM FEW060 BKN250 18/17 A3021 RMK AO2 SLP229 T01780167=
06/11/2022 02:51->METAR KJFK 060251Z 17010KT 10SM FEW060 BKN250 18/16 A3022 RMK AO2 SLP232 T01830161 58001=
06/11/2022 01:51->METAR KJFK 060151Z 18010KT 10SM BKN060 BKN250 18/16 A3022 RMK AO2 SLP232 T01830161=
06/11/2022 00:51->METAR KJFK 060051Z 17013KT 10SM BKN055 BKN250 18/16 A3022 RMK AO2 SLP234 T01830161=
05/11/2022 23:51->METAR KJFK 052351Z 17011KT 10SM FEW060 BKN250 18/16 A3022 RMK AO2 SLP233 T01780161 10222 20178 53007=
05/11/2022 22:51->METAR KJFK 052251Z 17012KT 10SM FEW060 SCT250 19/16 A3021 RMK AO2 SLP228 T01890161=
05/11/2022 21:51->METAR KJFK 052151Z 16012KT 10SM FEW045 FEW060 SCT250 19/16 A3020 RMK AO2 SLP225 T01890161=
05/11/2022 20:51->METAR KJFK 052051Z 16013KT 10SM FEW045 FEW060 BKN250 20/16 A3020 RMK AO2 SLP226 T02000161 56009=
05/11/2022 19:51->METAR KJFK 051951Z 17015G22KT 10SM FEW045 FEW060 BKN250 21/17 A3020 RMK AO2 SLP227 T02110167=
05/11/2022 18:51->METAR KJFK 051851Z 16013KT 10SM FEW040 SCT060 BKN250 22/17 A3022 RMK AO2 SLP231 T02170172=
05/11/2022 17:51->METAR KJFK 051751Z 17015KT 10SM SCT060 BKN250 22/17 A3023 RMK AO2 SLP235 T02220167 10228 20172 58020=
05/11/2022 16:51->METAR KJFK 051651Z 18015KT 10SM FEW044 FEW053 SCT250 22/17 A3025 RMK AO2 SLP243 T02220167=
05/11/2022 15:51->METAR KJFK 051551Z 17013KT 10SM FEW065 SCT250 21/17 A3028 RMK AO2 SLP252 T02110172=
05/11/2022 14:51->METAR KJFK 051451Z 18012KT 10SM BKN065 BKN250 20/17 A3028 RMK AO2 SLP255 T02000172 50006=
05/11/2022 13:51->METAR KJFK 051351Z 19011KT 10SM BKN065 BKN250 19/17 A3029 RMK AO2 SLP256 T01940172=
05/11/2022 12:51->METAR KJFK 051251Z 20009KT 10SM FEW042 SCT075 BKN250 18/17 A3027 RMK AO2 SLP251 T01830167=
05/11/2022 11:51->METAR KJFK 051151Z 20006KT 10SM BKN070 BKN250 17/16 A3027 RMK AO2 SLP249 T01720161 10172 20156 50000=
05/11/2022 10:51->METAR KJFK 051051Z 18005KT 10SM OVC070 17/16 A3027 RMK AO2 SLP250 T01670161=
05/11/2022 09:51->METAR KJFK 050951Z 19004KT 10SM BKN055 BKN250 16/16 A3027 RMK AO2 SLP251 T01610156=
05/11/2022 08:51->METAR KJFK 050851Z 20005KT 10SM OVC065 16/16 A3027 RMK AO2 SLP248 T01610156 55004=
05/11/2022 07:51->METAR KJFK 050751Z 18006KT 10SM FEW034 FEW042 BKN065 OVC250 16/16 A3026 RMK AO2 SLP247 T01610156=
05/11/2022 06:51->METAR KJFK 050651Z 19006KT 10SM BKN042 BKN060 BKN250 17/16 A3027 RMK AO2 SLP250 T01670156=
05/11/2022 05:51->METAR KJFK 050551Z 19007KT 10SM SCT055 BKN250 17/16 A3028 RMK AO2 SLP252 T01670156 10172 20161 56012=
05/11/2022 04:51->METAR KJFK 050451Z 19007KT 10SM BKN250 16/16 A3028 RMK AO2 SLP254 T01610156 402000083=
05/11/2022 03:51->METAR KJFK 050351Z 18007KT 10SM FEW045 BKN250 17/16 A3029 RMK AO2 SLP255 T01670156=
05/11/2022 02:51->METAR KJFK 050251Z 19007KT 10SM BKN250 17/15 A3031 RMK AO2 SLP264 T01670150 58004=
05/11/2022 01:51->METAR KJFK 050151Z 18010KT 10SM BKN250 17/16 A3032 RMK AO2 SLP267 T01720156=
05/11/2022 00:51->METAR KJFK 050051Z 18005KT 10SM BKN250 16/15 A3032 RMK AO2 SLP267 T01610150=
04/11/2022 23:51->METAR KJFK 042351Z 13003KT 10SM FEW040 BKN250 17/15 A3032 RMK AO2 SLP268 T01670150 10194 20161 53002=
04/11/2022 22:51->METAR KJFK 042251Z 13004KT 10SM FEW040 BKN250 17/14 A3032 RMK AO2 SLP265 T01670144=
04/11/2022 21:51->METAR KJFK 042151Z 12005KT 10SM FEW040 BKN250 17/15 A3031 RMK AO2 SLP264 T01670150=
04/11/2022 20:51->METAR KJFK 042051Z 15003KT 10SM FEW040 BKN250 18/15 A3032 RMK AO2 SLP266 T01780150 56009=
04/11/2022 19:51->METAR KJFK 041951Z 15005KT 10SM FEW040 BKN250 19/15 A3032 RMK AO2 SLP266 T01890150=
04/11/2022 18:51->METAR KJFK 041851Z 18005KT 10SM FEW025 FEW045 BKN250 19/15 A3033 RMK AO2 SLP269 T01940150=
04/11/2022 17:51->METAR KJFK 041751Z 20005KT 10SM FEW025 FEW070 SCT250 19/15 A3034 RMK AO2 SLP275 T01940150 10200 20111 58021=
04/11/2022 16:51->METAR KJFK 041651Z 22006KT 8SM FEW012 FEW048 SCT250 19/15 A3038 RMK AO2 SLP286 T01890150=
04/11/2022 15:51->METAR KJFK 041551Z 00000KT 5SM HZ FEW005 SCT048 SCT250 18/15 A3040 RMK AO2 SLP293 VIS S-W 3 T01780150=
04/11/2022 14:51->METAR KJFK 041451Z 00000KT 2SM R04R/4500VP6000FT BR BKN003 BKN037 BKN250 14/14 A3041 RMK AO2 SLP296 T01440139 51009=
04/11/2022 13:51->METAR KJFK 041351Z 36003KT 3/4SM R04R/P6000FT BR FEW000 BKN002 13/13 A3040 RMK AO2 SFC VIS 1 SLP295 BR FEW000 T01330128=
04/11/2022 12:51->METAR KJFK 041251Z 36003KT 1/2SM R04R/1000V1400FT FG SCT000 BKN002 12/12 A3039 RMK AO2 TWR VIS 3/4 SLP291 FG SCT000 T01220122=
04/11/2022 11:51->METAR KJFK 041151Z 01003KT 3/4SM R04R/1200V2600FT BR VV002 11/11 A3038 RMK AO2 SLP287 T01110111 10111 20083 53007=
04/11/2022 10:51->METAR KJFK 041051Z 01005KT 1SM R04R/P6000FT BR SCT000 BKN002 10/10 A3036 RMK AO2 SLP281 VIS 1/2V1 1/2 BR SCT000 T01000100=
04/11/2022 09:51->METAR KJFK 040951Z 06004KT 2 1/2SM R04R/3000V4000FT BR SCT002 09/09 A3036 RMK AO2 SLP279 VIS NW-N 1/2 SCT002 V BKN T00940094=
04/11/2022 08:51->METAR KJFK 040851Z 04004KT 8SM R04R/3000V3500FT FEW005 09/08 A3036 RMK AO2 SLP280 T00890083 55001=
04/11/2022 07:51->METAR KJFK 040751Z 05003KT 10SM FEW015 09/08 A3036 RMK AO2 SLP279 T00890083=
04/11/2022 06:51->METAR KJFK 040651Z 06004KT 10SM FEW020 09/09 A3035 RMK AO2 SLP278 T00940089=
04/11/2022 05:51->METAR KJFK 040551Z 00000KT 10SM CLR 10/09 A3036 RMK AO2 SLP281 T01000089 10139 20089 58005=
04/11/2022 04:51->METAR KJFK 040451Z 00000KT 10SM CLR 11/10 A3037 RMK AO2 SLP282 T01060100 401890078=
04/11/2022 03:51->METAR KJFK 040351Z 00000KT 10SM CLR 11/09 A3038 RMK AO2 SLP285 T01060094=
04/11/2022 02:51->METAR KJFK 040251Z 00000KT 10SM CLR 11/09 A3038 RMK AO2 SLP285 T01110094 55003=
04/11/2022 01:51->METAR KJFK 040151Z 14003KT 10SM CLR 11/09 A3037 RMK AO2 SLP283 T01110094=
04/11/2022 00:51->METAR KJFK 040051Z 17003KT 10SM CLR 13/10 A3038 RMK AO2 SLP287 T01280100=
03/11/2022 23:51->METAR KJFK 032351Z 17003KT 10SM CLR 13/10 A3038 RMK AO2 SLP288 T01330100 10189 20133 53007=
03/11/2022 22:51->METAR KJFK 032251Z 15003KT 10SM CLR 13/10 A3038 RMK AO2 SLP285 T01330100=
03/11/2022 21:51->METAR KJFK 032151Z 15004KT 10SM CLR 14/09 A3036 RMK AO2 SLP282 T01440089=
03/11/2022 20:51->METAR KJFK 032051Z 13005KT 10SM CLR 17/09 A3036 RMK AO2 SLP281 T01670089 58011=
03/11/2022 19:51->METAR KJFK 031951Z 15007KT 10SM CLR 17/09 A3038 RMK AO2 SLP286 T01720094=
03/11/2022 18:51->METAR KJFK 031851Z 15009KT 10SM CLR 18/10 A3038 RMK AO2 SLP287 T01830100=
03/11/2022 17:51->METAR KJFK 031751Z 17007KT 10SM CLR 19/08 A3039 RMK AO2 SLP292 T01890083 10189 20083 58010=
03/11/2022 16:51->METAR KJFK 031651Z 17007KT 10SM CLR 18/09 A3040 RMK AO2 SLP294 T01830094=
03/11/2022 15:51->METAR KJFK 031551Z 13007KT 10SM CLR 19/08 A3042 RMK AO2 SLP301 T01890083=
03/11/2022 14:51->METAR KJFK 031451Z 15005KT 10SM CLR 18/09 A3042 RMK AO2 SLP302 T01780089 50006=
03/11/2022 13:51->METAR KJFK 031351Z 06003KT 10SM FEW250 14/11 A3043 RMK AO2 SLP303 T01440106=
03/11/2022 12:51->METAR KJFK 031251Z 04003KT 10SM FEW250 12/09 A3042 RMK AO2 SLP301 T01170089=
03/11/2022 11:51->METAR KJFK 031151Z 00000KT 10SM FEW250 08/07 A3041 RMK AO2 SLP296 T00830072 10106 20078 51011=
03/11/2022 10:51->METAR KJFK 031051Z 06005KT 10SM FEW250 09/07 A3040 RMK AO2 SLP293 T00890072=
03/11/2022 09:51->METAR KJFK 030951Z 36004KT 10SM FEW250 10/08 A3039 RMK AO2 SLP289 T01000078=
03/11/2022 08:51->METAR KJFK 030851Z 04003KT 10SM FEW250 09/07 A3037 RMK AO2 SLP285 T00890072 53003=
03/11/2022 07:51->METAR KJFK 030751Z 00000KT 10SM FEW250 08/07 A3037 RMK AO2 SLP282 T00830067=
03/11/2022 06:51->METAR KJFK 030651Z 00000KT 10SM FEW250 09/08 A3037 RMK AO2 SLP283 T00890078=
03/11/2022 05:51->METAR KJFK 030551Z 00000KT 10SM FEW250 09/07 A3037 RMK AO2 SLP282 T00940072 10150 20094 53006=
03/11/2022 04:51->METAR KJFK 030451Z 00000KT 10SM FEW250 10/08 A3036 RMK AO2 SLP279 T01000078 402220100=
03/11/2022 03:51->METAR KJFK 030351Z 00000KT 10SM FEW250 11/08 A3035 RMK AO2 SLP278 T01110083=
03/11/2022 02:51->METAR KJFK 030251Z 00000KT 10SM FEW250 12/08 A3035 RMK AO2 SLP276 T01170078 53006=
03/11/2022 01:51->METAR KJFK 030151Z 00000KT 10SM FEW250 13/09 A3034 RMK AO2 SLP274 T01330089=
03/11/2022 00:51->METAR KJFK 030051Z 00000KT 10SM FEW250 14/09 A3034 RMK AO2 SLP272 T01440089=
02/11/2022 23:51->METAR KJFK 022351Z 00000KT 10SM FEW250 14/08 A3033 RMK AO2 SLP270 T01390083 10222 20139 53009=
02/11/2022 22:51->METAR KJFK 022251Z 00000KT 10SM FEW250 16/08 A3032 RMK AO2 SLP266 T01610078=
02/11/2022 21:51->METAR KJFK 022151Z 20003KT 10SM FEW250 17/09 A3030 RMK AO2 SLP261 T01670089=
02/11/2022 20:51->METAR KJFK 022051Z 17007KT 10SM CLR 19/09 A3030 RMK AO2 SLP261 T01890089 53003=
02/11/2022 19:51->METAR KJFK 021951Z 11006KT 10SM FEW250 22/06 A3029 RMK AO2 SLP257 T02170056=
02/11/2022 18:51->METAR KJFK 021851Z 04005KT 10SM FEW250 22/07 A3029 RMK AO2 SLP256 T02170067=
02/11/2022 17:51->METAR KJFK 021751Z 10SM FEW250 21/07 A3029 RMK AO2 SLP257 T02110072 10217 20139 58007=
02/11/2022 16:51->METAR KJFK 021651Z 02007KT 340V070 10SM FEW250 21/08 A3031 RMK AO2 SLP262 T02060078=
02/11/2022 15:51->METAR KJFK 021551Z 02012KT 10SM FEW250 20/08 A3032 RMK AO2 SLP265 T02000078=
02/11/2022 14:51->METAR KJFK 021451Z 02012KT 10SM FEW250 18/09 A3031 RMK AO2 SLP264 T01830089 50016=
02/11/2022 13:51->METAR KJFK 021351Z 36010G18KT 10SM FEW250 17/09 A3032 RMK AO2 SLP265 T01670094=
02/11/2022 12:51->METAR KJFK 021251Z 35009KT 10SM FEW250 15/10 A3030 RMK AO2 SLP260 T01500100=
02/11/2022 11:51->METAR KJFK 021151Z 33008KT 10SM FEW250 13/11 A3027 RMK AO2 SLP248 T01330106 10156 20128 51031=
02/11/2022 10:51->METAR KJFK 021051Z 35006KT 10SM FEW250 13/11 A3024 RMK AO2 SLP239 T01330106=
02/11/2022 09:51->METAR KJFK 020951Z 01004KT 10SM CLR 13/11 A3021 RMK AO2 SLP229 T01330106 $=
02/11/2022 08:51->METAR KJFK 020851Z 34008KT 10SM CLR 14/12 A3017 RMK AO2 SLP217 T01440117 51019 $=
02/11/2022 07:51->METAR KJFK 020751Z 32007KT 10SM CLR 14/12 A3015 RMK AO2 SLP211 T01390117 $=
02/11/2022 06:51->METAR KJFK 020651Z 31008KT 10SM CLR 16/12 A3014 RMK AO2 SLP207 T01560122 $=
02/11/2022 05:51->METAR KJFK 020551Z 31005KT 10SM FEW250 16/12 A3012 RMK AO2 SLP198 T01560122 10183 20156 53005=
02/11/2022 04:51->METAR KJFK 020451Z 31008KT 10SM FEW250 16/13 A3011 RMK AO2 SLP194 T01610128 402110150=
02/11/2022 03:51->METAR KJFK 020351Z 31009KT 10SM FEW250 17/13 A3010 RMK AO2 SLP194 T01720128=
02/11/2022 02:51->METAR KJFK 020251Z 31009KT 10SM FEW250 17/13 A3010 RMK AO2 SLP193 T01720128 51015=
02/11/2022 01:51->METAR KJFK 020151Z 32009KT 10SM FEW250 17/13 A3009 RMK AO2 SLP189 T01720128=
02/11/2022 00:51->METAR KJFK 020051Z 30009KT 10SM FEW037 FEW070 FEW250 18/13 A3007 RMK AO2 SLP183 T01780133=
01/11/2022 23:51->METAR KJFK 012351Z 30007KT 10SM FEW037 SCT070 18/14 A3006 RMK AO2 SLP178 T01830139 10211 20178 53025=
01/11/2022 22:51->METAR KJFK 012251Z 30008KT 10SM FEW037 FEW065 SCT100 18/13 A3004 RMK AO2 SLP171 T01830133=
01/11/2022 21:51->METAR KJFK 012151Z 33011KT 10SM FEW032 FEW065 BKN110 19/13 A3000 RMK AO2 SLP159 T01940128=
01/11/2022 20:51->METAR KJFK 012051Z 33010KT 10SM SCT032 BKN100 BKN250 21/13 A2998 RMK AO2 SLP153 T02060133 53001=
01/11/2022 19:51->METAR KJFK 011951Z 28009KT 10SM BKN029 BKN100 20/14 A2997 RMK AO2 SLP149 T02000144=
01/11/2022 18:51->METAR KJFK 011851Z 31010KT 10SM FEW021 BKN100 21/14 A2997 RMK AO2 SLP147 T02110144=
01/11/2022 17:51->METAR KJFK 011751Z 26011KT 10SM BKN019 BKN110 19/14 A2998 RMK AO2 SLP152 T01890144 10189 20156 58015=
01/11/2022 16:51->METAR KJFK 011651Z 24012KT 8SM FEW014 BKN019 BKN110 18/16 A3000 RMK AO2 SLP158 T01830156=
01/11/2022 15:51->METAR KJFK 011551Z 24008KT 8SM SCT011 BKN021 BKN044 17/15 A3001 RMK AO2 SLP162 T01720150=
01/11/2022 14:51->METAR KJFK 011451Z 23009KT 8SM BKN009 OVC034 17/15 A3002 RMK AO2 SLP166 T01670150 51003=
01/11/2022 13:51->METAR KJFK 011351Z 25008KT 10SM BKN008 BKN024 BKN037 BKN170 17/15 A3002 RMK AO2 SLP165 T01670150=
01/11/2022 12:51->METAR KJFK 011251Z 23006KT 10SM SCT007 BKN015 OVC024 16/15 A3002 RMK AO2 SLP165 SCT V BKN T01560150=
01/11/2022 11:51->METAR KJFK 011151Z 21007KT 10SM BKN008 OVC017 16/15 A3001 RMK AO2 SLP163 CIG 006V010 60021 70029 T01560150 10156 20150 53000=
01/11/2022 10:51->METAR KJFK 011051Z 18005KT 10SM BKN007 OVC022 16/15 A3000 RMK AO2 SLP159 CIG 004V010 T01560150=
01/11/2022 09:51->METAR KJFK 010951Z 16004KT 10SM FEW004 OVC011 15/14 A3000 RMK AO2 SLP157 T01500144=
01/11/2022 08:51->METAR KJFK 010851Z 19006KT 10SM OVC016 15/14 A3001 RMK AO2 RAE43 SLP162 P0020 60021 T01500144 58005=
01/11/2022 07:51->METAR KJFK 010751Z 21006KT 6SM RA BR FEW006 OVC018 16/14 A3003 RMK AO2 RAB39 SLP168 P0001 T01560144=
01/11/2022 06:51->METAR KJFK 010651Z 00000KT 10SM FEW007 OVC025 15/14 A3002 RMK AO2 RAB09E31 SLP164 P0000 T01500144=
01/11/2022 05:51->METAR KJFK 010551Z 20004KT 10SM FEW006 OVC013 15/14 A3003 RMK AO2 RAB01E23 SLP168 P0000 60008 T01500144 10161 20150 58002=
01/11/2022 04:51->METAR KJFK 010451Z 22008KT 10SM OVC013 15/14 A3004 RMK AO2 RAE48 SLP171 P0002 T01500139 401780094=
01/11/2022 03:51->METAR KJFK 010351Z 20006KT 7SM -RA FEW020 SCT047 OVC090 15/14 A3003 RMK AO2 SLP168 P0004 T01500144=
01/11/2022 02:51->METAR KJFK 010251Z 21005KT 10SM -RA OVC024 16/14 A3003 RMK AO2 RAE0159B26 SLP170 P0000 60002 T01560139 50001=
01/11/2022 01:51->METAR KJFK 010151Z 21006KT 10SM -RA BKN025 OVC038 16/14 A3004 RMK AO2 SLP171 P0001 T01560144=
01/11/2022 00:51->METAR KJFK 010051Z 20007KT 10SM -RA SCT027 SCT060 BKN110 OVC130 16/14 A3003 RMK AO2 RAB34 SLP168 P0001 T01560139=
31/05/2022 23:51->METAR KJFK 312351Z 20005KT 10SM FEW085 BKN250 24/19 A2989 RMK AO2 SLP120 T02390189 10344 20239 56005=
31/05/2022 22:51->METAR KJFK 312251Z 17009KT 10SM FEW085 BKN250 27/18 A2989 RMK AO2 SLP120 T02670183=
31/05/2022 21:51->METAR KJFK 312151Z 19014KT 10SM SCT085 BKN250 28/18 A2989 RMK AO2 SLP122 T02780178=
31/05/2022 20:51->METAR KJFK 312051Z 19013KT 10SM SCT085 SCT250 28/18 A2990 RMK AO2 SLP125 T02830183 56008 $=
31/05/2022 19:51->METAR KJFK 311951Z 19012KT 10SM SCT075 SCT250 31/18 A2991 RMK AO2 SLP126 T03060178 $=
31/05/2022 18:51->METAR KJFK 311851Z 20013KT 10SM FEW075 SCT250 33/18 A2991 RMK AO2 SLP128 T03280178 $=
31/05/2022 17:51->METAR KJFK 311751Z 30008KT 10SM FEW070 SCT250 34/16 A2992 RMK AO2 SLP133 T03390161 10344 20267 58010=
31/05/2022 16:51->METAR KJFK 311651Z 35009G16KT 10SM FEW070 SCT250 33/17 A2994 RMK AO2 SLP138 T03330167=
31/05/2022 15:51->METAR KJFK 311551Z 32013KT 10SM FEW250 33/16 A2994 RMK AO2 SLP140 T03280161=
31/05/2022 14:51->METAR KJFK 311451Z 34014KT 10SM FEW250 32/17 A2995 RMK AO2 SLP143 T03220167 58014=
31/05/2022 13:51->METAR KJFK 311351Z 31012G19KT 10SM FEW250 31/17 A2997 RMK AO2 SLP150 T03110172=
31/05/2022 12:51->METAR KJFK 311251Z 30010KT 10SM SCT250 29/18 A2999 RMK AO2 SLP156 T02940178=
31/05/2022 11:51->METAR KJFK 311151Z 26006KT 10SM FEW110 FEW150 BKN250 27/19 A2999 RMK AO2 SLP157 T02670194 10267 20217 58000=
31/05/2022 10:51->METAR KJFK 311051Z 26007KT 10SM FEW150 BKN250 24/19 A3000 RMK AO2 SLP159 T02390194=
31/05/2022 09:51->METAR KJFK 310951Z 27010KT 10SM FEW150 BKN250 23/19 A3000 RMK AO2 SLP158 T02280189=
31/05/2022 08:51->METAR KJFK 310851Z 26008KT 10SM BKN250 22/19 A3000 RMK AO2 SLP157 T02220194 55006=
31/05/2022 07:51->METAR KJFK 310751Z 25010KT 10SM BKN250 23/19 A2999 RMK AO2 SLP154 T02280194=
31/05/2022 06:51->METAR KJFK 310651Z 23010KT 10SM BKN250 22/19 A3000 RMK AO2 SLP158 T02170194=
31/05/2022 05:51->METAR KJFK 310551Z 24012KT 10SM BKN250 22/19 A3001 RMK AO2 SLP163 T02220194 10222 20206 58008=
31/05/2022 04:51->METAR KJFK 310451Z 23006KT 10SM BKN250 21/19 A3002 RMK AO2 SLP165 T02110189 402670156=
31/05/2022 03:51->METAR KJFK 310351Z 22006KT 10SM BKN250 21/18 A3004 RMK AO2 SLP170 T02110183=
31/05/2022 02:51->METAR KJFK 310251Z 20010KT 10SM SCT250 22/18 A3004 RMK AO2 SLP171 T02170183 53000=
31/05/2022 01:51->METAR KJFK 310151Z 21005KT 10SM SCT250 21/18 A3003 RMK AO2 SLP170 T02110183=
31/05/2022 00:51->METAR KJFK 310051Z VRB04KT 10SM SCT250 21/18 A3003 RMK AO2 SLP169 T02110183=
30/05/2022 23:51->METAR KJFK 302351Z 19014KT 10SM BKN250 22/18 A3004 RMK AO2 SLP171 T02170178 10267 20217 55005=
30/05/2022 22:51->METAR KJFK 302251Z 18018KT 10SM FEW055 BKN250 22/17 A3003 RMK AO2 SLP170 T02220172=
30/05/2022 21:51->METAR KJFK 302151Z 18019KT 10SM FEW055 BKN250 23/17 A3004 RMK AO2 SLP173 T02330172=
30/05/2022 20:51->METAR KJFK 302051Z 19015KT 10SM FEW055 FEW140 BKN250 25/17 A3005 RMK AO2 SLP176 T02500172 56012=
30/05/2022 19:51->METAR KJFK 301951Z 18016KT 10SM FEW055 FEW140 BKN250 26/17 A3006 RMK AO2 SLP179 T02560167=
30/05/2022 18:51->METAR KJFK 301851Z 19013KT 10SM FEW055 FEW140 BKN250 26/17 A3008 RMK AO2 SLP185 T02560172=
30/05/2022 17:51->METAR KJFK 301751Z 18011KT 10SM FEW055 FEW140 SCT250 26/17 A3009 RMK AO2 SLP188 T02610172 10267 20194 56015=
30/05/2022 16:51->METAR KJFK 301651Z 17009KT 10SM FEW050 FEW140 SCT250 26/18 A3009 RMK AO2 SLP188 T02610178=
30/05/2022 15:51->METAR KJFK 301551Z 20010KT 10SM FEW047 FEW140 FEW250 25/18 A3011 RMK AO2 SLP196 T02500178=
30/05/2022 14:51->METAR KJFK 301451Z 21009KT 10SM FEW140 FEW250 24/17 A3013 RMK AO2 SLP204 T02390172 58003=
30/05/2022 13:51->METAR KJFK 301351Z 20008KT 10SM SCT250 23/17 A3014 RMK AO2 SLP205 T02280172=
30/05/2022 12:51->METAR KJFK 301251Z 20006KT 10SM FEW250 21/17 A3015 RMK AO2 SLP209 T02110172=
30/05/2022 11:51->METAR KJFK 301151Z 22007KT 10SM SCT250 19/17 A3014 RMK AO2 SLP207 T01940167 10194 20156 53010=
30/05/2022 10:51->METAR KJFK 301051Z 21006KT 10SM SCT250 18/17 A3013 RMK AO2 SLP204 T01830167=
30/05/2022 09:51->METAR KJFK 300951Z 21005KT 10SM SCT250 17/16 A3012 RMK AO2 SLP199 T01670156=
30/05/2022 08:51->METAR KJFK 300851Z 21005KT 10SM CLR 16/15 A3011 RMK AO2 SLP197 T01610150 53001=
30/05/2022 07:51->METAR KJFK 300751Z 19005KT 10SM CLR 16/16 A3011 RMK AO2 SLP197 T01610156=
30/05/2022 06:51->METAR KJFK 300651Z 20005KT 10SM CLR 17/16 A3011 RMK AO2 SLP194 T01670156=
30/05/2022 05:51->METAR KJFK 300551Z 19005KT 10SM CLR 17/15 A3011 RMK AO2 SLP196 T01670150 10183 20161 50001=
30/05/2022 04:51->METAR KJFK 300451Z 18004KT 10SM CLR 17/15 A3011 RMK AO2 SLP197 T01720150 402330161=
30/05/2022 03:51->METAR KJFK 300351Z 19004KT 10SM CLR 17/14 A3012 RMK AO2 SLP199 T01670144=
30/05/2022 02:51->METAR KJFK 300251Z 19005KT 10SM CLR 17/15 A3011 RMK AO2 SLP196 T01720150 53013=
30/05/2022 01:51->METAR KJFK 300151Z 18003KT 10SM CLR 17/14 A3010 RMK AO2 SLP191 T01720144=
30/05/2022 00:51->METAR KJFK 300051Z 19006KT 10SM FEW250 17/15 A3008 RMK AO2 SLP187 T01720150=
29/05/2022 23:51->METAR KJFK 292351Z 17007KT 10SM FEW200 18/15 A3007 RMK AO2 SLP183 T01830150 10233 20183 53002=
29/05/2022 22:51->METAR KJFK 292251Z 18009KT 10SM FEW048 FEW190 FEW250 19/14 A3007 RMK AO2 SLP183 T01890139=
29/05/2022 21:51->METAR KJFK 292151Z 17010KT 10SM FEW055 SCT180 SCT250 21/14 A3006 RMK AO2 SLP180 T02060139=
29/05/2022 20:51->METAR KJFK 292051Z 17010KT 10SM FEW065 SCT180 BKN250 22/13 A3007 RMK AO2 SLP181 T02170128 56007=
29/05/2022 19:51->METAR KJFK 291951Z 17009KT 10SM FEW060 SCT180 BKN250 23/12 A3007 RMK AO2 SLP182 T02330122=
29/05/2022 18:51->METAR KJFK 291851Z 18007KT 10SM FEW050 SCT200 BKN250 23/11 A3008 RMK AO2 SLP186 T02330111=
29/05/2022 17:51->METAR KJFK 291751Z 18010KT 10SM FEW050 FEW090 SCT200 BKN250 23/11 A3009 RMK AO2 SLP188 T02280106 10228 20194 53001=
29/05/2022 16:51->METAR KJFK 291651Z 18009KT 10SM FEW055 SCT090 BKN200 BKN250 23/11 A3008 RMK AO2 SLP186 T02280111=
29/05/2022 15:51->METAR KJFK 291551Z 20010KT 10SM FEW050 SCT060 BKN200 BKN250 22/13 A3008 RMK AO2 SLP187 T02220128=
29/05/2022 14:51->METAR KJFK 291451Z 21006KT 10SM BKN038 BKN046 BKN250 22/13 A3008 RMK AO2 SLP187 T02170128 51016=
29/05/2022 13:51->METAR KJFK 291351Z 27005KT 10SM FEW032 BKN039 BKN049 BKN250 22/13 A3008 RMK AO2 SLP184 T02220133=
29/05/2022 12:51->METAR KJFK 291251Z 00000KT 10SM FEW090 SCT250 21/13 A3006 RMK AO2 SLP180 T02110133=
29/05/2022 11:51->METAR KJFK 291151Z 02006KT 10SM SCT250 19/13 A3004 RMK AO2 SLP171 70001 T01940128 10194 20161 52023=
29/05/2022 10:51->METAR KJFK 291051Z 01006KT 10SM FEW050 SCT250 18/13 A3002 RMK AO2 SLP164 T01780128=
29/05/2022 09:51->METAR KJFK 290951Z 36007KT 10SM FEW250 16/12 A2999 RMK AO2 SLP154 T01610122=
29/05/2022 08:51->METAR KJFK 290851Z 35007KT 10SM FEW250 17/12 A2997 RMK AO2 SLP147 T01670122 51010=
29/05/2022 07:51->METAR KJFK 290751Z 33006KT 10SM FEW250 17/12 A2996 RMK AO2 SLP145 T01670122=
29/05/2022 06:51->METAR KJFK 290651Z 32007KT 10SM FEW250 17/13 A2995 RMK AO2 SLP142 T01720128=
29/05/2022 05:51->METAR KJFK 290551Z 33007KT 10SM FEW250 18/13 A2994 RMK AO2 SLP137 60000 T01780128 10228 20178 51015=
29/05/2022 04:51->METAR KJFK 290451Z 32008KT 10SM FEW080 19/14 A2993 RMK AO2 SLP135 T01890139 402390167=
29/05/2022 03:51->METAR KJFK 290351Z 30008KT 10SM FEW075 FEW250 19/14 A2992 RMK AO2 SLP131 T01940139=
29/05/2022 02:51->METAR KJFK 290251Z 30013KT 10SM FEW045 BKN060 21/14 A2989 RMK AO2 SLP122 60000 T02110144 53028=
29/05/2022 01:51->METAR KJFK 290151Z 30009KT 10SM SCT037 BKN060 22/16 A2986 RMK AO2 RAB14E27 SLP111 P0000 T02170161=
29/05/2022 00:51->METAR KJFK 290051Z 28008KT 10SM FEW038 SCT080 SCT250 22/16 A2983 RMK AO2 SLP100 VCSH N T02220156=
28/05/2022 23:51->METAR KJFK 282351Z 28011KT 10SM FEW039 FEW150 SCT240 23/15 A2981 RMK AO2 SLP093 60000 T02280150 10239 20206 53013=
28/05/2022 22:51->METAR KJFK 282251Z 27010KT 10SM FEW038 SCT140 SCT200 23/15 A2979 RMK AO2 SLP086 T02330150=
28/05/2022 21:51->METAR KJFK 282151Z 23009KT 10SM FEW038 BKN140 BKN200 22/16 A2977 RMK AO2 SLP079 T02220161=
28/05/2022 20:51->METAR KJFK 282051Z 30013G18KT 10SM SCT038 BKN120 BKN160 22/14 A2977 RMK AO2 SLP080 VCSH S 60000 T02220139 52012=
28/05/2022 19:51->METAR KJFK 281951Z 32014G19KT 10SM SCT037 BKN100 BKN150 23/15 A2975 RMK AO2 SLP076 T02330150=
28/05/2022 18:51->METAR KJFK 281851Z 30009G16KT 10SM SCT031 BKN100 BKN150 22/16 A2975 RMK AO2 RAE16 SLP073 P0000 T02220156=
28/05/2022 17:51->METAR KJFK 281751Z 32011G22KT 10SM VCTS -RA FEW024 BKN090 BKN100 BKN250 21/17 A2973 RMK AO2 PK WND 30029/1713 WSHFT 1705 LTG DSNT N-E RAE12B16 TSE00B12E33 SLP068 P0001 60001 T02060167 10228 20183 53000=
28/05/2022 16:51->METAR KJFK 281651Z 19013KT 9SM -RA SCT100CB BKN120 21/18 A2973 RMK AO2 LTG DSNT SW-N RAB51 SLP066 CB W S MOV E P0000 T02110178=
28/05/2022 15:51->METAR KJFK 281551Z 19010KT 10SM FEW015 FEW025 SCT100 23/19 A2972 RMK AO2 SLP063 T02280189=
28/05/2022 14:51->METAR KJFK 281451Z 20008KT 10SM SCT010 BKN019 BKN110 21/18 A2973 RMK AO2 SLP068 60000 T02060183 53000=
28/05/2022 13:51->METAR KJFK 281351Z 20010KT 10SM FEW006 OVC016 19/18 A2973 RMK AO2 RAE1253 SLP068 P0000 T01940178 $=
28/05/2022 12:51->METAR KJFK 281251Z 20006KT 10SM -RA FEW006 SCT012 OVC014 19/18 A2973 RMK AO2 RAB29 SLP067 P0000 T01890178 $=
28/05/2022 11:51->METAR KJFK 281151Z 16006KT 9SM FEW006 BKN011 OVC016 18/17 A2973 RMK AO2 SLP067 60001 70020 T01830172 10194 20167 51010 $=
28/05/2022 10:51->METAR KJFK 281051Z 17005KT 10SM BKN011 OVC016 18/18 A2972 RMK AO2 SLP065 T01830178 $=
28/05/2022 09:51->METAR KJFK 280951Z 22007KT 10SM BKN011 OVC019 19/18 A2971 RMK AO2 SLP062 T01890178 $=
28/05/2022 08:51->METAR KJFK 280851Z 23003KT 3SM OVC011 18/18 A2970 RMK AO2 SFC VIS 9 SLP058 60001 T01780178 56013 $=
28/05/2022 07:51->METAR KJFK 280751Z 18006KT 1/4SM R04R/P6000FT BKN002 OVC012 17/17 A2970 RMK AO2 SFC VIS 9 SLP059 T01720172 $=
28/05/2022 06:51->METAR KJFK 280651Z 19011KT 1/4SM R04R/3500VP6000FT BR VV002 17/17 A2973 RMK AO2 SFC VIS 1 RAE0557 SLP067 P0001 T01720167 $=
28/05/2022 05:51->METAR KJFK 280551Z 18013G18KT 4SM -RA BR OVC005 18/17 A2974 RMK AO2 LTG DSNT NW-NE SLP070 P0014 60018 T01780172 10178 20172 58031 $=
28/05/2022 04:51->METAR KJFK 280451Z 15007KT 9SM -RA OVC006 17/17 A2977 RMK AO2 LTG DSNT SW-NW RAE00B14 SLP080 P0004 T01720167 402280167 $=
28/05/2022 03:51->METAR KJFK 280351Z 18008KT 1SM R04R/P6000FT -RA BKN002 BKN006 OVC014 17/17 A2980 RMK AO2 SFC VIS 7 RAB47 SLP092 P0000 T01720167 $=
28/05/2022 02:51->METAR KJFK 280251Z 17011KT 1SM R04R/6000VP6000FT BR OVC003 17/17 A2983 RMK AO2 SFC VIS 3 SLP101 T01720172 58004 $=
28/05/2022 01:51->METAR KJFK 280151Z 18011KT 3SM BKN005 BKN011 OVC050 18/17 A2984 RMK AO2 SFC VIS 10 SLP103 T01780172 $=
28/05/2022 00:51->METAR KJFK 280051Z 18013KT 10SM SCT005 BKN150 BKN250 18/17 A2984 RMK AO2 SLP104 T01780167 $=
27/05/2022 23:51->METAR KJFK 272351Z 17017KT 10SM FEW008 FEW036 SCT110 BKN190 OVC250 18/17 A2984 RMK AO2 RAE2257 SLP105 P0000 60001 T01780172 10228 20178 55008 $=
27/05/2022 22:51->METAR KJFK 272251Z 17010KT 10SM -RA FEW008 FEW036 SCT070 OVC130 19/18 A2982 RMK AO2 SLP096 P0001 T01890178 $=
27/05/2022 21:51->METAR KJFK 272151Z 19015KT 10SM -RA FEW004 BKN060 OVC110 19/18 A2985 RMK AO2 PK WND 19028/2128 LTG DSNT N RAB19 SLP108 P0000 T01890178 $=
27/05/2022 20:51->METAR KJFK 272051Z 17017G27KT 1/4SM R04R/3500V6000FT BR BKN000 OVC004 19/18 A2987 RMK AO2 PK WND 18028/2032 SFC VIS 3/4 LTG DSNT SW-NW SLP113 BR BKN000 T01890178 56014=
27/05/2022 19:51->METAR KJFK 271951Z 18019KT 10SM FEW008 SCT045 SCT080 BKN140 BKN250 22/19 A2987 RMK AO2 PK WND 17027/1941 SLP114 T02170189=
27/05/2022 18:51->METAR KJFK 271851Z 17018G25KT 10SM FEW008 SCT045 BKN250 21/18 A2989 RMK AO2 SLP122 T02110178=
27/05/2022 17:51->METAR KJFK 271751Z 17014KT 10SM FEW008 SCT055 BKN250 22/18 A2991 RMK AO2 SLP127 60000 T02220183 10222 20167 58019=
27/05/2022 16:51->METAR KJFK 271651Z 18014KT 10SM FEW008 FEW021 BKN250 22/18 A2993 RMK AO2 SLP135 T02170178=
27/05/2022 15:51->METAR KJFK 271551Z 17012KT 10SM FEW006 BKN012 BKN250 21/18 A2995 RMK AO2 SLP142 T02110183=
27/05/2022 14:51->METAR KJFK 271451Z 18009KT 10SM FEW006 BKN011 OVC250 21/17 A2996 RMK AO2 SLP145 60000 T02060172 56012=
27/05/2022 13:51->METAR KJFK 271351Z 17009KT 3SM BR SCT004 BKN011 BKN250 19/17 A2997 RMK AO2 SFC VIS 6 SLP148 T01890172=
27/05/2022 12:51->METAR KJFK 271251Z 19012KT 2SM BR BKN003 OVC020 18/17 A2999 RMK AO2 SFC VIS 5 DZE1154 SLP154 P0000 T01780172=
27/05/2022 11:51->METAR KJFK 271151Z 17010KT 1/16SM R04R/2600V5500FT -DZ BR SCT000 OVC002 17/17 A3000 RMK AO2 SFC VIS 1 SLP158 BR SCT000 P0000 60000 T01670167 10172 20167 56003=
27/05/2022 10:51->METAR KJFK 271051Z 19008KT 1/16SM R04R/2000V2800FT -DZ FG VV002 17/17 A3000 RMK AO2 SFC VIS 1/4 DZB47 SLP158 P0000 T01670167=
27/05/2022 09:51->METAR KJFK 270951Z 18009KT 1/4SM R04R/2400V4000FT FG VV002 17/17 A3000 RMK AO2 SLP159 T01670167=
27/05/2022 08:51->METAR KJFK 270851Z 17007KT 1/2SM R04R/3500V4500FT BR OVC003 17/17 A3001 RMK AO2 SFC VIS 1 1/2 SLP160 T01670167 56021=
27/05/2022 07:51->METAR KJFK 270751Z 17005KT 1/2SM R04R/2000V2200FT BR OVC003 17/17 A3002 RMK AO2 SFC VIS 1 SLP166 T01670167=
27/05/2022 06:51->METAR KJFK 270651Z 17005KT 1/2SM R04R/P6000FT BR OVC003 17/17 A3004 RMK AO2 SFC VIS 2 SLP173 T01670167=
27/05/2022 05:51->METAR KJFK 270551Z 18008KT 1/2SM R04R/P6000FT BR OVC003 17/17 A3007 RMK AO2 SFC VIS 3 SLP181 T01720167 10172 20167 56022=
27/05/2022 04:51->METAR KJFK 270451Z 16005KT 1SM R04R/P6000FT BR OVC003 17/17 A3008 RMK AO2 SFC VIS 2 SLP187 T01670167 401940111=
27/05/2022 03:51->METAR KJFK 270351Z 19004KT 10SM OVC005 17/16 A3011 RMK AO2 SLP196 T01670161=
27/05/2022 02:51->METAR KJFK 270251Z 17006KT 10SM FEW007 BKN014 OVC041 17/15 A3013 RMK AO2 SLP203 T01720150 58010=
27/05/2022 01:51->METAR KJFK 270151Z 15005KT 10SM FEW025 OVC042 17/15 A3015 RMK AO2 SLP209 T01670150=
27/05/2022 00:51->METAR KJFK 270051Z 20006KT 10SM OVC041 17/14 A3016 RMK AO2 SLP211 T01670144=
26/05/2022 23:51->METAR KJFK 262351Z 18007KT 10SM FEW021 OVC044 17/14 A3016 RMK AO2 SLP213 T01720144 10194 20167 56013=
26/05/2022 22:51->METAR KJFK 262251Z 15010KT 10SM FEW021 BKN044 BKN250 17/14 A3017 RMK AO2 SLP214 T01720144=
26/05/2022 21:51->METAR KJFK 262151Z 15012KT 10SM FEW021 SCT037 BKN055 BKN250 18/14 A3018 RMK AO2 SLP219 T01780139=
26/05/2022 20:51->METAR KJFK 262051Z 15013KT 10SM FEW021 BKN038 BKN050 BKN250 18/14 A3020 RMK AO2 SLP226 T01830139 56024=
26/05/2022 19:51->METAR KJFK 261951Z 16013KT 10SM FEW020 BKN037 BKN050 BKN250 19/14 A3022 RMK AO2 SLP233 T01890139=
26/05/2022 18:51->METAR KJFK 261851Z 15012KT 10SM BKN033 BKN050 BKN250 18/13 A3025 RMK AO2 SLP242 T01780128=
26/05/2022 17:51->METAR KJFK 261751Z 17011KT 10SM SCT036 SCT060 BKN260 19/13 A3027 RMK AO2 SLP250 T01890128 10189 20150 58017=
26/05/2022 16:51->METAR KJFK 261651Z 14011KT 10SM FEW045 FEW060 BKN260 19/12 A3029 RMK AO2 SLP257 T01890122=
26/05/2022 15:51->METAR KJFK 261551Z 14012KT 10SM FEW038 FEW060 BKN260 18/12 A3031 RMK AO2 SLP263 T01830122=
26/05/2022 14:51->METAR KJFK 261451Z 13010KT 10SM FEW035 BKN260 18/12 A3032 RMK AO2 SLP267 T01780122 58006=
26/05/2022 13:51->METAR KJFK 261351Z 13010KT 10SM FEW032 FEW065 SCT210 BKN260 17/12 A3033 RMK AO2 SLP271 T01720122=
26/05/2022 12:51->METAR KJFK 261251Z 12007KT 10SM FEW027 FEW140 FEW210 BKN260 16/12 A3034 RMK AO2 SLP274 T01610117=
26/05/2022 11:51->METAR KJFK 261151Z 10008KT 10SM FEW024 FEW140 SCT190 BKN260 15/12 A3034 RMK AO2 SLP273 T01500117 10150 20111 50004=
26/05/2022 10:51->METAR KJFK 261051Z 08004KT 10SM FEW140 SCT190 BKN260 13/11 A3034 RMK AO2 SLP273 T01330106=
26/05/2022 09:51->METAR KJFK 260951Z 07004KT 10SM SCT190 OVC260 12/09 A3033 RMK AO2 SLP271 T01170094=
26/05/2022 08:51->METAR KJFK 260851Z 10004KT 10SM FEW130 OVC250 12/09 A3033 RMK AO2 SLP268 T01170094 56008=
26/05/2022 07:51->METAR KJFK 260751Z 07004KT 10SM FEW130 BKN250 12/09 A3033 RMK AO2 SLP268 T01220089=
26/05/2022 06:51->METAR KJFK 260651Z 08003KT 10SM FEW130 BKN250 12/09 A3033 RMK AO2 SLP271 T01170089=
26/05/2022 05:51->METAR KJFK 260551Z 09004KT 10SM FEW130 BKN250 11/08 A3035 RMK AO2 SLP276 T01110083 10133 20111 58012=
26/05/2022 04:51->METAR KJFK 260451Z 08003KT 10SM BKN250 12/08 A3037 RMK AO2 SLP285 T01170083 401830106=
26/05/2022 03:51->METAR KJFK 260351Z 15003KT 10SM BKN250 12/08 A3038 RMK AO2 SLP286 T01220078=
26/05/2022 02:51->METAR KJFK 260251Z 13004KT 10SM BKN250 12/07 A3039 RMK AO2 SLP289 T01220072 52001=
26/05/2022 01:51->METAR KJFK 260151Z 13003KT 10SM BKN250 13/07 A3038 RMK AO2 SLP288 T01280067=
26/05/2022 00:51->METAR KJFK 260051Z 15005KT 10SM BKN250 13/07 A3038 RMK AO2 SLP288 T01280072=
25/05/2022 23:51->METAR KJFK 252351Z 13008KT 10SM FEW100 BKN250 13/07 A3038 RMK AO2 SLP287 T01330067 10178 20133 53003=
25/05/2022 22:51->METAR KJFK 252251Z 14008KT 10SM FEW050 FEW100 BKN250 15/06 A3037 RMK AO2 SLP284 T01500061=
25/05/2022 21:51->METAR KJFK 252151Z 12010KT 10SM FEW050 FEW100 BKN250 15/06 A3037 RMK AO2 SLP285 T01500061=
25/05/2022 20:51->METAR KJFK 252051Z 12011KT 10SM FEW050 BKN250 16/08 A3037 RMK AO2 SLP284 T01610078 58007=
25/05/2022 19:51->METAR KJFK 251951Z 14010KT 10SM FEW050 BKN250 17/08 A3038 RMK AO2 SLP289 T01720078=
25/05/2022 18:51->METAR KJFK 251851Z 12010KT 10SM FEW050 FEW090 BKN260 17/08 A3039 RMK AO2 SLP290 T01720078=
25/05/2022 17:51->METAR KJFK 251751Z 14012KT 10SM FEW050 FEW090 BKN280 18/08 A3039 RMK AO2 SLP291 T01780083 10183 20144 58007=
25/05/2022 16:51->METAR KJFK 251651Z 14010KT 10SM FEW090 BKN300 18/08 A3040 RMK AO2 SLP292 T01780083=
25/05/2022 15:51->METAR KJFK 251551Z 15010KT 10SM FEW090 BKN300 18/08 A3042 RMK AO2 SLP299 T01830078=
25/05/2022 14:51->METAR KJFK 251451Z 15005KT 10SM FEW050 FEW090 BKN300 18/08 A3041 RMK AO2 SLP299 T01780078 51004=
25/05/2022 13:51->METAR KJFK 251351Z 14008KT 10SM FEW075 BKN300 17/07 A3041 RMK AO2 SLP297 T01670072=
25/05/2022 12:51->METAR KJFK 251251Z 11005KT 10SM FEW075 BKN310 16/09 A3041 RMK AO2 SLP297 T01560089=
25/05/2022 11:51->METAR KJFK 251151Z 07005KT 10SM FEW075 FEW250 BKN310 14/09 A3040 RMK AO2 SLP295 T01440089 10144 20106 53016=
25/05/2022 10:51->METAR KJFK 251051Z 08006KT 10SM FEW090 FEW250 BKN310 13/09 A3037 RMK AO2 SLP285 T01280089=
25/05/2022 09:51->METAR KJFK 250951Z 05006KT 10SM FEW090 BKN250 11/09 A3035 RMK AO2 SLP278 T01110089=
25/05/2022 08:51->METAR KJFK 250851Z 04005KT 10SM FEW090 BKN250 11/08 A3036 RMK AO2 SLP279 T01110083 53007=
25/05/2022 07:51->METAR KJFK 250751Z 04004KT 10SM SCT250 11/08 A3034 RMK AO2 SLP272 T01110083=
25/05/2022 06:51->METAR KJFK 250651Z 02004KT 10SM SCT250 12/08 A3035 RMK AO2 SLP275 T01220083=
25/05/2022 05:51->METAR KJFK 250551Z 06004KT 10SM SCT250 12/08 A3033 RMK AO2 SLP271 T01220083 10144 20117 55002=
25/05/2022 04:51->METAR KJFK 250451Z 08004KT 10SM SCT250 12/09 A3033 RMK AO2 SLP271 T01220089 402000122=
25/05/2022 03:51->METAR KJFK 250351Z 08005KT 10SM SCT250 12/09 A3034 RMK AO2 SLP273 T01220089=
25/05/2022 02:51->METAR KJFK 250251Z 09005KT 10SM FEW090 BKN250 13/09 A3034 RMK AO2 SLP274 T01280089 51008=
25/05/2022 01:51->METAR KJFK 250151Z 11006KT 10SM BKN090 BKN250 14/09 A3034 RMK AO2 SLP274 T01390089=
25/05/2022 00:51->METAR KJFK 250051Z 10007KT 10SM BKN090 BKN250 14/09 A3033 RMK AO2 SLP271 T01440089=
24/05/2022 23:51->METAR KJFK 242351Z 11010KT 10SM FEW055 BKN090 BKN250 14/08 A3032 RMK AO2 SLP266 T01440083 10200 20144 53008=
24/05/2022 22:51->METAR KJFK 242251Z 14013KT 10SM FEW055 BKN090 BKN250 15/09 A3031 RMK AO2 SLP263 T01500094=
24/05/2022 21:51->METAR KJFK 242151Z 14010KT 10SM FEW055 BKN090 BKN250 17/08 A3030 RMK AO2 SLP259 T01670078=
24/05/2022 20:51->METAR KJFK 242051Z 14008KT 10SM FEW055 BKN085 BKN250 19/06 A3029 RMK AO2 SLP257 T01890061 56006=
24/05/2022 19:51->METAR KJFK 241951Z 13013KT 10SM FEW055 BKN085 BKN250 18/07 A3029 RMK AO2 SLP258 T01830067=
24/05/2022 18:51->METAR KJFK 241851Z 12010KT 10SM FEW055 BKN090 BKN250 19/07 A3030 RMK AO2 SLP261 T01940072=
24/05/2022 17:51->METAR KJFK 241751Z 12013KT 10SM FEW045 SCT090 BKN260 18/08 A3031 RMK AO2 SLP263 T01830078 10194 20156 58003=
24/05/2022 16:51->METAR KJFK 241651Z 12015KT 10SM FEW042 BKN090 BKN260 17/08 A3032 RMK AO2 SLP266 T01720078=
24/05/2022 15:51->METAR KJFK 241551Z 11011KT 10SM FEW035 BKN090 BKN260 17/09 A3032 RMK AO2 SLP267 T01670094=
24/05/2022 14:51->METAR KJFK 241451Z 08008KT 10SM SCT033 BKN085 BKN130 BKN260 17/10 A3032 RMK AO2 SLP265 SCT V BKN T01720100 53007=
24/05/2022 13:51->METAR KJFK 241351Z 05010KT 10SM FEW046 SCT060 BKN090 OVC130 17/09 A3030 RMK AO2 SLP259 T01720094=
24/05/2022 12:51->METAR KJFK 241251Z 06010KT 10SM BKN050 BKN130 OVC260 17/09 A3030 RMK AO2 SLP261 T01670094=
24/05/2022 11:51->METAR KJFK 241151Z 05011KT 10SM BKN044 BKN130 OVC260 16/09 A3030 RMK AO2 SLP259 60000 T01560094 10161 20144 53020=
24/05/2022 10:51->METAR KJFK 241051Z 05007KT 10SM FEW095 SCT130 BKN260 16/11 A3027 RMK AO2 SLP250 T01560111 $=
24/05/2022 09:51->METAR KJFK 240951Z 07004KT 10SM FEW100 OVC130 15/11 A3026 RMK AO2 SLP246 T01500106 $=
24/05/2022 08:51->METAR KJFK 240851Z 08004KT 10SM OVC100 14/11 A3024 RMK AO2 RAB07E29 SLP239 P0000 60000 T01440111 50000 $=
24/05/2022 07:51->METAR KJFK 240751Z 10005KT 10SM OVC100 15/11 A3024 RMK AO2 RAE03 SLP240 P0000 T01500106 $=
24/05/2022 06:51->METAR KJFK 240651Z 11007KT 10SM -RA OVC100 16/11 A3024 RMK AO2 RAB48 SLP241 P0000 T01560111 $=
24/05/2022 05:51->METAR KJFK 240551Z 12007KT 10SM OVC110 16/12 A3024 RMK AO2 SLP239 T01610117 10211 20161 51005 $=
24/05/2022 04:51->METAR KJFK 240451Z 15005KT 10SM FEW095 OVC120 16/11 A3024 RMK AO2 SLP239 T01610106 402390006 $=
24/05/2022 03:51->METAR KJFK 240351Z 17003KT 10SM OVC110 16/11 A3024 RMK AO2 SLP239 T01610106 $=
24/05/2022 02:51->METAR KJFK 240251Z 15005KT 10SM OVC130 17/09 A3022 RMK AO2 SLP234 T01720094 51016 $=
24/05/2022 01:51->METAR KJFK 240151Z 12005KT 10SM BKN140 OVC230 17/10 A3021 RMK AO2 SLP230 T01720100 $=
24/05/2022 00:51->METAR KJFK 240051Z 15007KT 10SM SCT150 OVC230 18/11 A3019 RMK AO2 SLP222 T01780111 $=
23/05/2022 23:51->METAR KJFK 232351Z 01008KT 10SM FEW140 SCT200 OVC250 21/06 A3018 RMK AO2 SLP218 T02110056 10239 20211 53005 $=
23/05/2022 22:51->METAR KJFK 232251Z 36010KT 10SM SCT190 BKN250 22/06 A3016 RMK AO2 SLP214 T02170061 $=
23/05/2022 21:51->METAR KJFK 232151Z 35008KT 10SM FEW140 BKN240 22/07 A3017 RMK AO2 SLP215 T02220072 $=
23/05/2022 20:51->METAR KJFK 232051Z 03008KT 10SM FEW060 FEW140 BKN250 23/07 A3016 RMK AO2 SLP213 T02330067 55004 $=
23/05/2022 19:51->METAR KJFK 231951Z 02010KT 10SM FEW060 FEW140 BKN250 23/07 A3016 RMK AO2 SLP211 T02330067 $=
23/05/2022 18:51->METAR KJFK 231851Z 01010G15KT 10SM FEW140 BKN250 23/07 A3017 RMK AO2 SLP215 T02280067 $=
23/05/2022 17:51->METAR KJFK 231751Z 36008G16KT 10SM FEW160 BKN250 23/07 A3017 RMK AO2 SLP217 T02280067 10228 20172 58012 $=
23/05/2022 16:51->METAR KJFK 231651Z 01011KT 10SM FEW160 BKN250 22/06 A3019 RMK AO2 SLP223 T02170061 $=
23/05/2022 15:51->METAR KJFK 231551Z 03013G21KT 10SM FEW055 FEW160 BKN250 21/07 A3020 RMK AO2 SLP225 T02110067 $=
23/05/2022 14:51->METAR KJFK 231451Z 36017G21KT 10SM FEW048 FEW160 BKN250 20/06 A3021 RMK AO2 SLP228 T02000061 51012=
23/05/2022 13:51->METAR KJFK 231351Z 35016KT 10SM FEW041 SCT140 BKN250 19/06 A3020 RMK AO2 SLP225 T01890061=
23/05/2022 12:51->METAR KJFK 231251Z 36016G22KT 10SM FEW038 SCT140 BKN250 18/06 A3019 RMK AO2 SLP222 T01830061=
23/05/2022 11:51->METAR KJFK 231151Z 36018G23KT 10SM FEW035 BKN140 BKN250 18/08 A3017 RMK AO2 SLP217 60000 T01830078 10222 20172 51028=
23/05/2022 10:51->METAR KJFK 231051Z 36016G25KT 10SM FEW033 BKN140 BKN250 17/08 A3015 RMK AO2 PK WND 35026/1022 SLP208 T01720083=
23/05/2022 09:51->METAR KJFK 230951Z 36018G23KT 10SM SCT031 BKN130 BKN250 18/11 A3012 RMK AO2 SLP200 T01780106=
23/05/2022 08:51->METAR KJFK 230851Z 33013KT 10SM BKN027 OVC130 18/12 A3009 RMK AO2 RAB12E28 SLP189 P0000 60000 T01830117 53015=
23/05/2022 07:51->METAR KJFK 230751Z 33017G22KT 10SM SCT028 OVC130 19/13 A3005 RMK AO2 SLP175 T01940133=
23/05/2022 06:51->METAR KJFK 230651Z 34012KT 10SM SCT028 BKN140 OVC240 21/14 A3005 RMK AO2 SLP176 T02060144=
23/05/2022 05:51->METAR KJFK 230551Z 33013KT 10SM FEW060 BKN140 OVC230 22/16 A3005 RMK AO2 SLP174 T02220161 10261 20206 51009=
23/05/2022 04:51->METAR KJFK 230451Z 36009KT 10SM FEW050 SCT130 BKN250 23/19 A3004 RMK AO2 SLP173 T02280189 402890183=
23/05/2022 03:51->METAR KJFK 230351Z 35009KT 10SM SCT250 23/19 A3003 RMK AO2 SLP170 T02330189=
23/05/2022 02:51->METAR KJFK 230251Z 35012KT 10SM FEW080 SCT250 25/18 A3002 RMK AO2 SLP165 T02500183 53026=
23/05/2022 01:51->METAR KJFK 230151Z 32004KT 10SM SCT080 BKN180 BKN250 23/17 A2999 RMK AO2 SLP155 T02280172=
23/05/2022 00:51->METAR KJFK 230051Z 21004KT 10SM FEW050 SCT180 BKN250 21/17 A2996 RMK AO2 LTG DSNT NE SLP146 OCNL LTGIC DSNT NE T02110172=
22/05/2022 23:51->METAR KJFK 222351Z 20006KT 10SM FEW035 FEW050 BKN250 21/18 A2994 RMK AO2 LTG DSNT N AND NW SLP138 CB DSNT NW T02060178 10283 20206 52000=
22/05/2022 22:51->METAR KJFK 222251Z 19014KT 10SM FEW050 BKN250 22/18 A2994 RMK AO2 SLP139 TCU DSNT NW T02170183=
22/05/2022 21:51->METAR KJFK 222151Z 18017KT 10SM FEW050 SCT250 23/19 A2994 RMK AO2 SLP137 TCU DSNT W T02280189=
22/05/2022 20:51->METAR KJFK 222051Z 18016KT 10SM FEW050 FEW130 SCT250 23/18 A2994 RMK AO2 SLP138 T02330183 58016=
22/05/2022 19:51->METAR KJFK 221951Z 18015KT 10SM FEW050 SCT130 SCT250 24/18 A2995 RMK AO2 SLP143 T02440183=
22/05/2022 18:51->METAR KJFK 221851Z 18010KT 10SM FEW050 SCT130 SCT250 26/19 A2997 RMK AO2 SLP149 T02610194=
22/05/2022 17:51->METAR KJFK 221751Z 18009KT 10SM FEW050 SCT130 BKN200 BKN250 28/19 A2999 RMK AO2 SLP154 T02780194 10289 20200 58012=
22/05/2022 16:51->METAR KJFK 221651Z 17010KT 10SM FEW050 SCT130 BKN200 BKN250 26/19 A3000 RMK AO2 SLP160 T02560194=
22/05/2022 15:51->METAR KJFK 221551Z 20011KT 10SM FEW050 SCT130 BKN190 BKN250 27/20 A3001 RMK AO2 SLP164 T02670200=
22/05/2022 14:51->METAR KJFK 221451Z 24008KT 7SM FEW050 SCT160 BKN250 28/21 A3002 RMK AO2 SLP166 T02780211 58003=
22/05/2022 13:51->METAR KJFK 221351Z 21009KT 10SM FEW050 BKN160 BKN200 BKN250 26/20 A3003 RMK AO2 SLP169 T02560200=
22/05/2022 12:51->METAR KJFK 221251Z 21006KT 10SM FEW050 SCT200 SCT250 21/19 A3003 RMK AO2 SLP170 T02110194=
22/05/2022 11:51->METAR KJFK 221151Z 20006KT 9SM FEW050 BKN200 BKN250 21/18 A3003 RMK AO2 SLP169 T02060183 10206 20183 51010=
22/05/2022 10:51->METAR KJFK 221051Z 23004KT 9SM FEW050 BKN200 BKN250 19/18 A3003 RMK AO2 SLP168 T01940178=
22/05/2022 09:51->METAR KJFK 220951Z 00000KT 9SM SCT200 SCT250 19/17 A3001 RMK AO2 SLP161 T01890172=
22/05/2022 08:51->METAR KJFK 220851Z 19004KT 10SM SCT250 18/17 A3000 RMK AO2 SLP159 T01830167 56010=
22/05/2022 07:51->METAR KJFK 220751Z 14003KT 10SM FEW250 18/17 A3000 RMK AO2 SLP159 T01830167=
22/05/2022 06:51->METAR KJFK 220651Z 00000KT 10SM FEW250 19/17 A3002 RMK AO2 SLP165 T01940167=
22/05/2022 05:51->METAR KJFK 220551Z 18003KT 10SM FEW250 21/17 A3003 RMK AO2 SLP169 T02060167 10244 20194 58001=
22/05/2022 04:51->METAR KJFK 220451Z 00000KT 10SM FEW250 21/17 A3004 RMK AO2 SLP172 T02060167 403060150=
22/05/2022 03:51->METAR KJFK 220351Z 24006KT 10SM FEW250 23/17 A3006 RMK AO2 SLP178 T02330172=
22/05/2022 02:51->METAR KJFK 220251Z 22006KT 10SM FEW250 22/17 A3003 RMK AO2 SLP169 T02170167 53014=
22/05/2022 01:51->METAR KJFK 220151Z 19010KT 10SM CLR 22/16 A3001 RMK AO2 SLP163 T02170161=
22/05/2022 00:51->METAR KJFK 220051Z 19018KT 10SM FEW250 24/16 A2998 RMK AO2 SLP153 T02390161=
21/05/2022 23:51->METAR KJFK 212351Z 19015KT 10SM FEW065 FEW250 24/17 A2999 RMK AO2 SLP156 T02440167 10256 20217 58007=
21/05/2022 22:51->METAR KJFK 212251Z 19015KT 10SM FEW060 SCT250 26/18 A2999 RMK AO2 SLP156 T02560183=
21/05/2022 21:51->METAR KJFK 212151Z 19012KT 10SM FEW050 SCT250 25/18 A3001 RMK AO2 SLP162 T02500183=
21/05/2022 20:51->METAR KJFK 212051Z 18006KT 9SM SCT250 25/18 A3001 RMK AO2 SLP162 T02500183 58001=
21/05/2022 19:51->METAR KJFK 211951Z 16007KT 8SM FEW250 23/18 A3002 RMK AO2 SLP164 T02330178=
21/05/2022 18:51->METAR KJFK 211851Z 18012KT 7SM FEW250 23/18 A3003 RMK AO2 SLP167 T02280183=
21/05/2022 17:51->METAR KJFK 211751Z 20011KT 8SM FEW250 25/20 A3001 RMK AO2 SLP163 T02500200 10306 20172 55007=
21/05/2022 16:51->METAR KJFK 211651Z 22006KT 10SM FEW250 30/21 A3000 RMK AO2 SLP159 T03000206=
21/05/2022 15:51->METAR KJFK 211551Z 26005KT 10SM SCT250 28/21 A3002 RMK AO2 SLP167 T02780206=
21/05/2022 14:51->METAR KJFK 211451Z 27007KT 7SM FEW016 SCT250 25/20 A3004 RMK AO2 SLP170 T02500200 51008=
21/05/2022 13:51->METAR KJFK 211351Z 30007KT 4SM HZ FEW005 SCT250 22/19 A3003 RMK AO2 SLP170 T02220189=
21/05/2022 12:51->METAR KJFK 211251Z 33006KT 1/2SM R04R/P6000FT BR FEW000 BKN003 18/18 A3004 RMK AO2 SFC VIS 1 1/2 SLP172 BR FEW000 T01830178=
21/05/2022 11:51->METAR KJFK 211151Z 33006KT 1/8SM R04R/1400V2800FT FG VV002 17/17 A3001 RMK AO2 SFC VIS 1/2 SLP162 70049 T01720167 10172 20150 53021=
21/05/2022 10:51->METAR KJFK 211051Z 31004KT 1/8SM R04R/1200VP6000FT FG VV002 17/16 A2999 RMK AO2 SFC VIS 1/2 SLP153 T01670161=
21/05/2022 09:51->METAR KJFK 210951Z 00000KT 0SM R04R/1000V1400FT FG VV002 16/16 A2996 RMK AO2 SFC VIS 1/4 SLP144 T01560156=
21/05/2022 08:51->METAR KJFK 210851Z 00000KT 1/4SM R04R/1200V1400FT FG VV002 16/16 A2995 RMK AO2 TWR VIS 1/2 SLP141 T01560156 50003=
21/05/2022 07:51->METAR KJFK 210751Z 05003KT 1/2SM R04R/2000V2200FT FG VV002 16/16 A2995 RMK AO2 SLP142 T01560156=
21/05/2022 06:51->METAR KJFK 210651Z 08003KT 1/2SM R04R/3000V4000FT FG VV002 15/15 A2994 RMK AO2 SLP138 T01500150=
21/05/2022 05:51->METAR KJFK 210551Z 09004KT 1/2SM R04R/P6000FT FG VV002 15/15 A2994 RMK AO2 SLP138 T01500150 10178 20150 57004=
21/05/2022 04:51->METAR KJFK 210451Z 10004KT 1/2SM R04R/3000V4000FT BR OVC002 16/16 A2994 RMK AO2 SFC VIS 2 SLP139 T01610161 402060111=
21/05/2022 03:51->METAR KJFK 210351Z 12005KT 1/4SM R04R/1600V2000FT FG VV002 16/16 A2995 RMK AO2 TWR VIS 1/2 SLP141 T01610161=
21/05/2022 02:51->METAR KJFK 210251Z 14007KT 1/2SM R04R/2600V3500FT BR VV002 17/17 A2995 RMK AO2 SFC VIS 3/4 SLP142 T01720172 50008=
21/05/2022 01:51->METAR KJFK 210151Z 09005KT 1SM R04R/4000V4500FT BR SCT000 OVC003 17/17 A2996 RMK AO2 SFC VIS 1 1/4 SLP145 BR SCT000 T01720172=
21/05/2022 00:51->METAR KJFK 210051Z 10007KT 10SM OVC007 18/17 A2994 RMK AO2 CIG 006V011 SLP139 T01780167=
20/05/2022 23:51->METAR KJFK 202351Z 11009KT 7SM BKN015 BKN027 OVC110 17/17 A2993 RMK AO2 RAE06 SLP134 P0000 60049 T01720167 10189 20161 55019=
20/05/2022 22:51->METAR KJFK 202251Z 10008KT 8SM -RA FEW009 FEW029 BKN055 OVC140 17/17 A2994 RMK AO2 LTG DSNT E AND SE TSE42 SLP137 P0019 T01720167=
20/05/2022 21:51->METAR KJFK 202151Z VRB06G22KT 1/4SM R04R/3000VP6000FT +TSRA BR FEW008 BKN026CB OVC055 17/16 A2998 RMK AO2 SFC VIS 3/4 LTG DSNT SE-SW RAB16 TSB44 SLP153 FRQ LTGIC OHD AND SW-N TS OHD AND SW-N MOV E P0028 T01670161=
20/05/2022 20:51->METAR KJFK 202051Z 10008KT 10SM SCT005 SCT029 BKN110 BKN250 17/16 A2995 RMK AO2 LTG DSNT E-S RAB17E50 SLP141 CB DSNT SE P0002 60002 T01720161 56012=
20/05/2022 19:51->METAR KJFK 201951Z 11009KT 4SM BR OVC007 17/16 A2997 RMK AO2 LTG DSNT SW CIG 004V009 SLP147 VIS E-SE 2 T01720156=
20/05/2022 18:51->METAR KJFK 201851Z 12012KT 10SM BKN012 BKN110 OVC250 19/15 A2996 RMK AO2 SLP144 T01890150=
20/05/2022 17:51->METAR KJFK 201751Z 09008KT 10SM FEW008 BKN110 BKN250 16/13 A2999 RMK AO2 SLP153 T01610133 10206 20150 50003=
20/05/2022 16:51->METAR KJFK 201651Z 13010KT 10SM FEW011 FEW085 BKN110 OVC250 15/13 A3000 RMK AO2 SLP158 T01500128=
20/05/2022 15:51->METAR KJFK 201551Z 10012KT 10SM FEW080 BKN130 BKN250 18/14 A2998 RMK AO2 SLP151 T01830144=
20/05/2022 14:51->METAR KJFK 201451Z 11008KT 10SM SCT140 BKN250 19/15 A2998 RMK AO2 SLP150 T01940150 50005=
20/05/2022 13:51->METAR KJFK 201351Z 11006KT 10SM FEW180 BKN250 17/14 A2998 RMK AO2 SLP153 T01720139=
20/05/2022 12:51->METAR KJFK 201251Z 14004KT 10SM FEW011 BKN250 16/13 A2998 RMK AO2 SLP152 T01610133=
20/05/2022 11:51->METAR KJFK 201151Z 12004KT 10SM SCT007 BKN250 15/13 A2996 RMK AO2 SLP145 70004 T01500128 10150 20111 51026=
20/05/2022 10:51->METAR KJFK 201051Z 00000KT 9SM BKN008 BKN250 13/12 A2995 RMK AO2 SLP142 T01330117=
20/05/2022 09:51->METAR KJFK 200951Z 00000KT 6SM BR SCT006 BKN250 12/11 A2991 RMK AO2 SLP128 T01170111=
20/05/2022 08:51->METAR KJFK 200851Z 05003KT 10SM BKN005 12/11 A2989 RMK AO2 SLP120 T01220111 53004=
20/05/2022 07:51->METAR KJFK 200751Z 09004KT 10SM BKN007 OVC090 12/12 A2986 RMK AO2 SLP112 T01220117=
20/05/2022 06:51->METAR KJFK 200651Z 06003KT 10SM BKN005 BKN090 BKN250 12/11 A2987 RMK AO2 SLP113 T01170111=
20/05/2022 05:51->METAR KJFK 200551Z 15004KT 10SM BKN006 BKN080 BKN250 12/12 A2987 RMK AO2 SLP115 T01220117 10139 20122 53009=
20/05/2022 04:51->METAR KJFK 200451Z 16006KT 10SM FEW010 BKN250 13/12 A2985 RMK AO2 SLP109 T01280117 401720122=
20/05/2022 03:51->METAR KJFK 200351Z 14004KT 10SM SCT011 SCT250 12/11 A2987 RMK AO2 SLP113 T01220111=
20/05/2022 02:51->METAR KJFK 200251Z 16011KT 10SM FEW047 SCT080 BKN250 13/11 A2985 RMK AO2 SLP106 T01280111 53036=
20/05/2022 01:51->METAR KJFK 200151Z 16006KT 10SM SCT065 BKN095 13/12 A2982 RMK AO2 SLP096 T01330117=
20/05/2022 00:51->METAR KJFK 200051Z 08005KT 10SM FEW065 BKN090 BKN250 13/12 A2976 RMK AO2 SLP079 T01330117=
19/05/2022 23:51->METAR KJFK 192351Z 16007KT 10SM SCT035 SCT250 14/12 A2974 RMK AO2 SLP070 T01390117 10172 20139 53008=
19/05/2022 22:51->METAR KJFK 192251Z 15007KT 10SM FEW016 FEW033 FEW250 16/12 A2973 RMK AO2 SLP065 T01560122=
19/05/2022 21:51->METAR KJFK 192151Z 18006KT 10SM FEW033 FEW250 17/13 A2972 RMK AO2 SLP064 T01670128=
19/05/2022 20:51->METAR KJFK 192051Z 19008KT 10SM FEW016 SCT033 16/12 A2972 RMK AO2 SLP062 T01610122 58006=
19/05/2022 19:51->METAR KJFK 191951Z 22008KT 10SM BKN016 BKN037 16/13 A2973 RMK AO2 SLP068 BKN016 V SCT T01560128=
19/05/2022 18:51->METAR KJFK 191851Z VRB04KT 10SM OVC013 15/12 A2974 RMK AO2 SLP070 T01500122=
19/05/2022 17:51->METAR KJFK 191751Z 00000KT 10SM BKN011 OVC020 14/12 A2973 RMK AO2 SLP068 60004 T01440117 10144 20122 58011=
19/05/2022 16:51->METAR KJFK 191651Z 07005KT 10SM BKN010 OVC022 13/12 A2974 RMK AO2 SLP072 CIG 008V012 T01330117=
19/05/2022 15:51->METAR KJFK 191551Z 09011KT 7SM BKN008 OVC017 13/12 A2976 RMK AO2 RAE38 SLP076 P0000 T01330117=
19/05/2022 14:51->METAR KJFK 191451Z 08011KT 4SM -RA BR BKN008 OVC014 13/12 A2977 RMK AO2 SLP079 P0001 60004 T01280122 56013=
19/05/2022 13:51->METAR KJFK 191351Z 08008KT 2 1/2SM -RA BR BKN008 BKN019 OVC038 13/12 A2978 RMK SLP083 BKN008 V SCT P0003 T01280117=
19/05/2022 12:51->METAR KJFK 191251Z 09007KT 4SM -RA BR SCT006 BKN026 OVC042 12/12 A2979 RMK RAE00B16 SLP087 P0000 T01220117=
19/05/2022 11:51->METAR KJFK 191151Z 11008KT 5SM -RA BR SCT005 BKN026 OVC048 12/12 A2980 RMK SLP092 P0008 60099 70100 T01220117 10144 20122 56019=
19/05/2022 10:51->METAR KJFK 191051Z 13006KT 3SM RA BR BKN004 OVC046 12/12 A2982 RMK SFC VIS 4 SLP098 BKN V SCT P0025 T01220117=
19/05/2022 09:51->METAR KJFK 190951Z 16005KT 2SM RA BR BKN003 OVC050 12/12 A2982 RMK SFC VIS 3 SLP097 BKN003 V SCT P0030 T01220117=
19/05/2022 08:51->METAR KJFK 190851Z 19011KT 4SM +RA BR BKN036 OVC070 12/12 A2986 RMK SLP111 P0024 60036 T01220117 55010=
19/05/2022 07:51->METAR KJFK 190751Z 20006KT 6SM +RA BR BKN048 OVC090 13/12 A2985 RMK SLP109 P0008 T01330117=
19/05/2022 06:51->METAR KJFK 190651Z 19006KT 9SM -RA OVC070 14/12 A2987 RMK SLP115 P0004 T01390122=
19/05/2022 05:51->METAR KJFK 190551Z 00000KT 10SM -RA OVC075 14/12 A2989 RMK AO2 SLP121 P0001 60001 T01440122 10150 20139 50002=
19/05/2022 04:51->METAR KJFK 190451Z 17003KT 10SM -RA OVC080 14/12 A2990 RMK AO2 RAB0355 SLP123 P0000 T01440122 402110133=
19/05/2022 03:51->METAR KJFK 190351Z 20010KT 10SM OVC095 15/11 A2991 RMK AO2 SLP127 T01500111=
19/05/2022 02:51->METAR KJFK 190251Z 19012KT 10SM FEW095 BKN130 OVC250 14/11 A2988 RMK AO2 SLP118 T01440111 56004=
19/05/2022 01:51->METAR KJFK 190151Z 19014KT 10SM BKN130 BKN250 14/11 A2989 RMK AO2 SLP120 T01440106=
19/05/2022 00:51->METAR KJFK 190051Z 18012KT 10SM BKN140 BKN250 14/11 A2988 RMK AO2 SLP117 T01440106=
18/05/2022 23:51->METAR KJFK 182351Z 18014KT 10SM BKN160 BKN250 15/10 A2989 RMK AO2 SLP122 T01500100 10211 20150 58010=
18/05/2022 22:51->METAR KJFK 182251Z 19014KT 10SM FEW060 BKN190 BKN250 16/09 A2990 RMK AO2 SLP126 T01610089=
18/05/2022 21:51->METAR KJFK 182151Z 19017KT 10SM FEW060 FEW160 SCT250 16/08 A2992 RMK AO2 SLP132 T01610083=
18/05/2022 20:51->METAR KJFK 182051Z 19019KT 10SM FEW060 BKN250 19/07 A2992 RMK AO2 SLP132 T01890067 56012=
18/05/2022 19:51->METAR KJFK 181951Z 21015KT 10SM FEW060 SCT210 BKN250 21/06 A2993 RMK AO2 SLP135 T02110056=
18/05/2022 18:51->METAR KJFK 181851Z 20012KT 10SM FEW060 BKN250 20/06 A2994 RMK AO2 SLP139 T02000056=
18/05/2022 17:51->METAR KJFK 181751Z 24009KT 10SM FEW120 BKN250 21/04 A2996 RMK AO2 SLP143 T02060044 10206 20156 58013=
18/05/2022 16:51->METAR KJFK 181651Z 26007KT 230V290 10SM BKN250 20/03 A2997 RMK AO2 SLP147 T02000033=
18/05/2022 15:51->METAR KJFK 181551Z 32007G18KT 10SM BKN250 19/04 A2999 RMK AO2 SLP155 T01890039=
18/05/2022 14:51->METAR KJFK 181451Z 34014KT 10SM FEW055 BKN250 18/03 A2999 RMK AO2 SLP156 T01830033 50006=
18/05/2022 13:51->METAR KJFK 181351Z 34011G20KT 10SM FEW050 BKN250 17/04 A3001 RMK AO2 SLP161 T01720044=
18/05/2022 12:51->METAR KJFK 181251Z 33010G15KT 10SM FEW048 SCT250 17/05 A3000 RMK AO2 SLP159 T01720050=
18/05/2022 11:51->METAR KJFK 181151Z 33011KT 10SM FEW250 16/06 A2998 RMK AO2 SLP151 T01560056 10156 20133 53009=
18/05/2022 10:51->METAR KJFK 181051Z 32013KT 10SM FEW250 14/05 A2997 RMK AO2 SLP147 T01390050=
18/05/2022 09:51->METAR KJFK 180951Z 31019G23KT 10SM FEW065 FEW250 13/05 A2996 RMK AO2 SLP144 T01330050=
18/05/2022 08:51->METAR KJFK 180851Z 31015G21KT 10SM CLR 14/04 A2995 RMK AO2 SLP142 T01390044 53013=
18/05/2022 07:51->METAR KJFK 180751Z 31014G21KT 10SM CLR 14/04 A2994 RMK AO2 SLP136 T01440044=
18/05/2022 06:51->METAR KJFK 180651Z 31013KT 10SM CLR 15/04 A2992 RMK AO2 SLP130 T01500044=
18/05/2022 05:51->METAR KJFK 180551Z 31013KT 10SM CLR 15/04 A2991 RMK AO2 SLP129 T01500039 10222 20150 50011=
18/05/2022 04:51->METAR KJFK 180451Z 33015G22KT 10SM CLR 16/03 A2992 RMK AO2 PK WND 33027/0402 SLP130 T01560033 402610139=
18/05/2022 03:51->METAR KJFK 180351Z 33014KT 10SM CLR 17/03 A2990 RMK AO2 PK WND 33026/0325 SLP124 T01670028=
18/05/2022 02:51->METAR KJFK 180251Z 33018G25KT 10SM CLR 17/03 A2988 RMK AO2 PK WND 33028/0234 SLP118 T01720028 51034=
18/05/2022 01:51->METAR KJFK 180151Z 34015G26KT 10SM CLR 19/03 A2986 RMK AO2 PK WND 34026/0148 SLP113 T01890033=
18/05/2022 00:51->METAR KJFK 180051Z 34013G24KT 10SM FEW095 21/03 A2982 RMK AO2 SLP099 T02060028=
17/05/2022 23:51->METAR KJFK 172351Z 33013KT 10SM FEW095 FEW250 22/03 A2978 RMK AO2 SLP084 T02220033 10261 20222 53023=
17/05/2022 22:51->METAR KJFK 172251Z 29017G22KT 10SM FEW085 SCT100 SCT250 24/04 A2974 RMK AO2 SLP071 T02390044=
17/05/2022 21:51->METAR KJFK 172151Z 29014G25KT 10SM FEW085 SCT100 25/06 A2973 RMK AO2 SLP067 T02500056=
17/05/2022 20:51->METAR KJFK 172051Z 28018G24KT 10SM FEW075 SCT090 BKN110 24/04 A2971 RMK AO2 PK WND 30028/2027 SLP062 T02440044 55002=
17/05/2022 19:51->METAR KJFK 171951Z 28020G30KT 10SM FEW075 BKN100 25/06 A2971 RMK AO2 PK WND 26032/1926 SLP060 T02500056=
17/05/2022 18:51->METAR KJFK 171851Z 26018G26KT 10SM SCT075 BKN110 26/07 A2971 RMK AO2 PK WND 26032/1837 SLP061 T02560067=
17/05/2022 17:51->METAR KJFK 171751Z 27018G27KT 10SM BKN075 25/07 A2972 RMK AO2 PK WND 29036/1706 SLP064 T02500067 10256 20167 56020=
17/05/2022 16:51->METAR KJFK 171651Z 26019G25KT 10SM SCT075 25/07 A2973 RMK AO2 PK WND 26028/1638 SLP067 T02500072=
17/05/2022 15:51->METAR KJFK 171551Z 23014KT 10SM FEW055 22/11 A2976 RMK AO2 SLP076 T02170106=
17/05/2022 14:51->METAR KJFK 171451Z 23015KT 10SM FEW050 21/11 A2978 RMK AO2 SLP084 T02060106 58005=
17/05/2022 13:51->METAR KJFK 171351Z 24013KT 10SM FEW050 FEW220 19/11 A2979 RMK AO2 SLP086 T01940111=
17/05/2022 12:51->METAR KJFK 171251Z 24012KT 10SM CLR 17/11 A2980 RMK AO2 SLP091 T01720111=
17/05/2022 11:51->METAR KJFK 171151Z 24008KT 10SM FEW250 17/11 A2979 RMK AO2 SLP089 70009 T01670111 10167 20139 51013=
17/05/2022 10:51->METAR KJFK 171051Z 26008KT 10SM FEW250 16/10 A2979 RMK AO2 SLP086 T01560100=
17/05/2022 09:51->METAR KJFK 170951Z 27010KT 10SM FEW250 14/09 A2977 RMK AO2 SLP081 T01390089=
17/05/2022 08:51->METAR KJFK 170851Z 28009KT 10SM CLR 14/08 A2976 RMK AO2 SLP075 T01440083 53009=
17/05/2022 07:51->METAR KJFK 170751Z 29013KT 10SM CLR 15/08 A2974 RMK AO2 SLP070 T01500083=
17/05/2022 06:51->METAR KJFK 170651Z 30014G20KT 10SM CLR 16/08 A2972 RMK AO2 SLP065 T01560083=
17/05/2022 05:51->METAR KJFK 170551Z 30013G25KT 10SM CLR 16/07 A2973 RMK AO2 PK WND 30026/0528 SLP067 60002 T01560072 10189 20156 51022=
17/05/2022 04:51->METAR KJFK 170451Z 30015G21KT 10SM FEW036 17/10 A2971 RMK AO2 SLP060 T01670100 402060150=
17/05/2022 03:51->METAR KJFK 170351Z 30016G23KT 10SM FEW024 SCT047 SCT080 18/11 A2969 RMK AO2 SLP052 T01780111=
17/05/2022 02:51->METAR KJFK 170251Z 26006KT 10SM SCT045 17/16 A2966 RMK AO2 SLP045 60002 T01720156 53016=
17/05/2022 01:51->METAR KJFK 170151Z 23012KT 10SM FEW046 BKN100 BKN140 BKN250 18/15 A2963 RMK AO2 SLP034 T01780150=
17/05/2022 00:51->METAR KJFK 170051Z 26008KT 10SM SCT046 SCT065 BKN100 BKN250 19/16 A2960 RMK AO2 RAB2356E40 SLP023 P0002 T01890161=
16/05/2022 23:51->METAR KJFK 162351Z 17008KT 10SM SCT046 BKN065 BKN090 BKN140 BKN250 17/14 A2962 RMK AO2 PRESRR SLP029 CB DSNT SW VCSH E AND SW-W 60007 T01670144 10194 20161 53021=
16/05/2022 22:51->METAR KJFK 162251Z 19006KT 8SM BKN048TCU BKN110 BKN180 BKN250 16/14 A2957 RMK AO2 LTG DSNT ALQDS TSB19E34 SLP014 TCU W-N VCSH NW T01610144=
16/05/2022 21:51->METAR KJFK 162151Z 18013KT 9SM SCT028 BKN045TCU BKN110 BKN250 17/15 A2957 RMK AO2 SLP014 TCU OHD-NW T01670150=
16/05/2022 20:51->METAR KJFK 162051Z 17015KT 9SM FEW025 SCT045 SCT110 BKN130 BKN250 18/16 A2955 RMK AO2 RAE26 TSB01E35 SLP007 TCU DSNT NW P0007 60007 T01780161 56037=
16/05/2022 19:51->METAR KJFK 161951Z 17015G21KT 10SM -RA FEW005 SCT050 BKN100 BKN140 BKN250 17/14 A2958 RMK AO2 LTG DSNT SW RAB51 SLP016 TCU DSNT NW P0000 T01720144=
16/05/2022 18:51->METAR KJFK 161851Z 16015G20KT 10SM FEW006 FEW045 BKN120 BKN250 18/15 A2962 RMK AO2 SLP030 T01780150=
16/05/2022 17:51->METAR KJFK 161751Z 16013KT 10SM FEW045 SCT075 BKN140 BKN250 19/16 A2966 RMK AO2 SLP044 T01940161 10206 20156 58026=
16/05/2022 16:51->METAR KJFK 161651Z 17009KT 10SM FEW043 BKN110 BKN150 20/17 A2970 RMK AO2 LTG DSNT W SLP056 T02000167=
16/05/2022 15:51->METAR KJFK 161551Z 17010KT 10SM FEW009 SCT040 SCT085 BKN160 21/17 A2973 RMK AO2 SLP065 T02060172=
16/05/2022 14:51->METAR KJFK 161451Z 17008KT 10SM FEW008 BKN038 BKN120 BKN250 19/16 A2974 RMK AO2 SLP071 T01890161 58003=
16/05/2022 13:51->METAR KJFK 161351Z 00000KT 10SM FEW005 BKN042 BKN110 BKN250 19/17 A2974 RMK AO2 SLP071 T01940167=
16/05/2022 12:51->METAR KJFK 161251Z 18005KT 10SM BKN005 OVC120 16/14 A2975 RMK AO2 SLP075 T01610144=
16/05/2022 11:51->METAR KJFK 161151Z 16004KT 9SM FEW003 SCT130 BKN250 17/16 A2975 RMK AO2 SLP073 T01720156 10172 20150 55005=
16/05/2022 10:51->METAR KJFK 161051Z 10003KT 10SM FEW012 FEW033 BKN130 BKN250 17/16 A2975 RMK AO2 SLP073 T01720156=
16/05/2022 09:51->METAR KJFK 160951Z 00000KT 10SM FEW040 BKN130 BKN250 16/15 A2976 RMK AO2 SLP079 T01560150=
16/05/2022 08:51->METAR KJFK 160851Z 18004KT 10SM SCT140 BKN250 15/14 A2976 RMK AO2 SLP079 T01500144 56012 $=
16/05/2022 07:51->METAR KJFK 160751Z 22005KT 10SM BKN140 BKN250 16/15 A2977 RMK AO2 SLP080 T01560150 $=
16/05/2022 06:51->METAR KJFK 160651Z 18004KT 10SM BKN120 BKN250 17/16 A2978 RMK AO2 SLP082 T01720161 $=
16/05/2022 05:51->METAR KJFK 160551Z 00000KT 10SM BKN140 OVC250 16/15 A2980 RMK AO2 SLP090 T01610150 10167 20150 56014 $=
16/05/2022 04:51->METAR KJFK 160451Z 18003KT 10SM FEW045 BKN190 OVC250 16/14 A2981 RMK AO2 SLP094 T01560144 402280128 $=
16/05/2022 03:51->METAR KJFK 160351Z 00000KT 10SM BKN045 BKN190 OVC250 16/14 A2983 RMK AO2 SLP099 T01560139 $=
16/05/2022 02:51->METAR KJFK 160251Z 07003KT 10SM BKN042 BKN130 OVC250 16/14 A2984 RMK AO2 SLP104 T01560144 51010 $=
16/05/2022 01:51->METAR KJFK 160151Z 17007KT 10SM FEW040 BKN250 15/14 A2984 RMK AO2 SLP104 T01500139 $=
16/05/2022 00:51->METAR KJFK 160051Z 00000KT 10SM SCT045 BKN250 16/14 A2983 RMK AO2 SLP101 T01560144 $=
15/05/2022 23:51->METAR KJFK 152351Z 17012KT 10SM SCT045 BKN250 17/15 A2981 RMK AO2 SLP094 T01670150 10228 20167 55005 $=
15/05/2022 22:51->METAR KJFK 152251Z 17012KT 10SM FEW009 SCT045 BKN250 18/15 A2981 RMK AO2 SLP093 T01780150 $=
15/05/2022 21:51->METAR KJFK 152151Z 17010KT 10SM FEW003 FEW045 BKN250 18/16 A2982 RMK AO2 SLP097 T01830156 $=
15/05/2022 20:51->METAR KJFK 152051Z 16009KT 10SM FEW003 FEW045 BKN250 19/16 A2982 RMK AO2 SLP099 T01940161 58020 $=
15/05/2022 19:51->METAR KJFK 151951Z 17010KT 10SM FEW003 SCT015 SCT033 BKN250 20/16 A2984 RMK AO2 SLP106 T02000161 $=
15/05/2022 18:51->METAR KJFK 151851Z 18010KT 10SM FEW009 SCT015 SCT033 SCT250 20/16 A2987 RMK AO2 SLP113 T02000161 $=
15/05/2022 17:51->METAR KJFK 151751Z 17008KT 10SM FEW009 SCT015 SCT033 SCT250 21/17 A2988 RMK AO2 SLP119 T02110167 10222 20139 56016 $=
15/05/2022 16:51->METAR KJFK 151651Z 19009KT 10SM FEW008 SCT014 22/17 A2990 RMK AO2 SLP123 T02170172 $=
15/05/2022 15:51->METAR KJFK 151551Z 24008KT 7SM FEW008 BKN011 21/18 A2992 RMK AO2 SLP130 T02110178 $=
15/05/2022 14:51->METAR KJFK 151451Z 21007KT 3/4SM R04R/P6000FT BR OVC005 18/17 A2993 RMK AO2 SFC VIS 2 SLP135 T01780167 55001 $=
15/05/2022 13:51->METAR KJFK 151351Z 20004KT 1/4SM R04R/1000V1600FT FG VV002 16/16 A2993 RMK AO2 SLP133 T01610161 $=
15/05/2022 12:51->METAR KJFK 151251Z 20005KT 1/4SM R04R/1400V2600FT FG OVC002 16/15 A2994 RMK AO2 SFC VIS 1/2 SLP136 T01560150 $=
15/05/2022 11:51->METAR KJFK 151151Z 18005KT 1/8SM R04R/1000FT FG VV002 14/14 A2993 RMK AO2 SLP136 70015 T01440139 10144 20128 53006 $=
15/05/2022 10:51->METAR KJFK 151051Z 00000KT 1/4SM R04R/1400V1800FT FG VV002 14/14 A2992 RMK AO2 TWR VIS 1/4 SLP130 T01390139 $=
15/05/2022 09:51->METAR KJFK 150951Z VRB03KT 1/4SM R04R/2400V3500FT FG VV003 13/13 A2992 RMK AO2 SFC VIS 1/2 SLP130 T01280128 $=
15/05/2022 08:51->METAR KJFK 150851Z 00000KT 1/4SM R04R/2400V3000FT BR OVC002 13/13 A2992 RMK AO2 SFC VIS 1 3/4 SLP130 T01330133 56012 $=
15/05/2022 07:51->METAR KJFK 150751Z 16003KT 1/4SM R04R/2000V3500FT FG VV003 13/13 A2992 RMK AO2 SFC VIS 1/2 SLP131 T01330133 $=
15/05/2022 06:51->METAR KJFK 150651Z 26003KT 1/4SM R04R/2600V3500FT FG VV003 14/13 A2993 RMK AO2 SFC VIS 1/2 SLP136 T01390133 $=
15/05/2022 05:51->METAR KJFK 150551Z 17005KT 1/4SM R04R/2200V2800FT FG VV002 14/14 A2995 RMK AO2 TWR VIS 1/2 SLP142 T01390139 10161 20139 58008 $=
15/05/2022 04:51->METAR KJFK 150451Z 18009KT 1/2SM R04R/3000V6000FT BR VV003 14/14 A2997 RMK AO2 SFC VIS 3/4 SLP147 T01440144 402110139 $=
15/05/2022 03:51->METAR KJFK 150351Z 17008KT 1/2SM R04R/4000V6000FT BR OVC002 16/16 A2997 RMK AO2 SFC VIS 1 1/4 SLP148 T01560156 $=
15/05/2022 02:51->METAR KJFK 150251Z 15007KT 1/2SM R04R/4500VP6000FT BR OVC002 16/16 A2998 RMK AO2 SFC VIS 1 1/4 SLP150 T01610156 58002 $=
15/05/2022 01:51->METAR KJFK 150151Z 12005KT 2 1/2SM BR BKN003 OVC008 15/15 A2998 RMK AO2 SLP150 T01500150 $=
15/05/2022 00:51->METAR KJFK 150051Z 15005KT 1/4SM R04R/5000V5500FT FG VV003 14/14 A2998 RMK AO2 SLP152 T01440144 $=
14/05/2022 23:51->METAR KJFK 142351Z 15005KT 1/4SM R04R/2000V3000FT FG VV002 15/15 A2998 RMK AO2 RAE33 SLP152 P0000 60015 T01500150 10206 20150 57010 $=
14/05/2022 22:51->METAR KJFK 142251Z 16004KT 2 1/2SM -RA BR OVC002 17/16 A2999 RMK AO2 SLP154 P0002 T01670161 $=
14/05/2022 21:51->METAR KJFK 142151Z 14004KT 2 1/2SM -RA BR FEW003 BKN006 OVC110 17/17 A3001 RMK AO2 SLP160 P0002 T01720167 $=
14/05/2022 20:51->METAR KJFK 142051Z 09004KT 10SM -RA FEW006 OVC100 18/17 A3001 RMK AO2 SLP163 P0007 60011 T01780167 58021 $=
14/05/2022 19:51->METAR KJFK 141951Z 17004KT 2SM -RA BR BKN004 BKN031 OVC050 16/16 A3004 RMK AO2 SFC VIS 3 RAB13 SLP174 P0004 T01610161 $=
14/05/2022 18:51->METAR KJFK 141851Z 12008KT 10SM OVC006 19/17 A3006 RMK AO2 SLP180 T01890172 $=
14/05/2022 17:51->METAR KJFK 141751Z 10006KT 10SM BKN008 OVC038 20/18 A3007 RMK AO2 SLP184 60000 T02000178 10211 20156 58013 $=
14/05/2022 16:51->METAR KJFK 141651Z 14008KT 8SM BKN007 BKN039 19/17 A3009 RMK AO2 SLP188 T01940172 $=
14/05/2022 15:51->METAR KJFK 141551Z 13008KT 9SM SCT007 BKN012 BKN045 21/18 A3010 RMK AO2 SLP193 T02060178=
14/05/2022 14:51->METAR KJFK 141451Z 13006KT 8SM BKN007 BKN045 20/18 A3011 RMK AO2 SLP196 60000 T02000178 58011=
14/05/2022 13:51->METAR KJFK 141351Z 12005KT 1 1/2SM BR BKN004 OVC009 18/18 A3014 RMK AO2 SFC VIS 2 SLP204 T01830178=
14/05/2022 12:51->METAR KJFK 141251Z 00000KT 1/2SM R04R/P6000FT BR OVC003 17/17 A3014 RMK AO2 SFC VIS 3 DZE10 SLP207 P0000 T01670167=
14/05/2022 11:51->METAR KJFK 141151Z 08004KT 1/4SM R04R/3000V3500FT -DZ BR OVC002 16/16 A3014 RMK AO2 SFC VIS 1 1/4 DZE1052B46 SLP207 P0000 60000 T01560156 10156 20139 50000=
14/05/2022 10:51->METAR KJFK 141051Z 12004KT 1/4SM R04R/3500V4000FT -DZ BR OVC002 16/15 A3015 RMK AO2 SFC VIS 1 DZB48 SLP210 P0000 T01560150=
14/05/2022 09:51->METAR KJFK 140951Z 00000KT 1SM R04R/6000VP6000FT BR OVC003 15/15 A3014 RMK AO2 SFC VIS 3 DZE11 SLP207 P0000 T01500150=
14/05/2022 08:51->METAR KJFK 140851Z 00000KT 1SM R04R/2400V2600FT -DZ BR VV002 14/14 A3014 RMK AO2 DZB12 SLP207 P0000 60000 T01440144 58008=
14/05/2022 07:51->METAR KJFK 140751Z 00000KT 1SM R04R/1600V2000FT BR OVC002 15/15 A3016 RMK AO2 SFC VIS 6 SLP211 T01500150=
14/05/2022 06:51->METAR KJFK 140651Z 21003KT 1/4SM R04R/1800V3500FT FG VV003 15/15 A3017 RMK AO2 TWR VIS 1 SLP215 T01500150=
14/05/2022 05:51->METAR KJFK 140551Z 00000KT 3/4SM R04R/P6000FT BR OVC004 15/14 A3016 RMK AO2 SFC VIS 6 SLP213 T01500144 10150 20139 56020=
14/05/2022 04:51->METAR KJFK 140451Z 00000KT 3/4SM R04R/P6000FT BR OVC004 14/14 A3018 RMK AO2 SFC VIS 1 1/2 SLP220 T01440144 402390139=
14/05/2022 03:51->METAR KJFK 140351Z 14004KT 1SM R04R/3500V6000FT BR OVC002 14/14 A3020 RMK AO2 SFC VIS 1 1/4 SLP226 T01440144=
14/05/2022 02:51->METAR KJFK 140251Z 15004KT 1SM R04R/P6000FT BR OVC003 14/14 A3022 RMK AO2 SFC VIS 5 SLP233 T01440139 51009=
14/05/2022 01:51->METAR KJFK 140151Z 00000KT 1/2SM R04R/5000VP6000FT FG VV002 14/14 A3022 RMK AO2 SLP231 T01440144=
14/05/2022 00:51->METAR KJFK 140051Z 12003KT 1/2SM R04R/2200V3000FT FG VV002 14/14 A3020 RMK AO2 SLP227 T01440144=
13/05/2022 23:51->METAR KJFK 132351Z 11004KT 1/2SM R04R/4000V5000FT BR OVC002 15/15 A3019 RMK AO2 SFC VIS 1 1/2 RAB04E26 SLP224 P0000 60000 T01500150 10239 20150 56007=
13/05/2022 22:51->METAR KJFK 132251Z 13008KT 1/2SM R04R/2600V5000FT BR OVC002 16/16 A3020 RMK AO2 SFC VIS 3/4 SLP226 T01610156=
13/05/2022 21:51->METAR KJFK 132151Z 12008KT 10SM OVC006 18/17 A3020 RMK AO2 SLP227 T01780167=
13/05/2022 20:51->METAR KJFK 132051Z 12010KT 10SM BKN008 BKN013 BKN031 BKN250 19/17 A3022 RMK AO2 RAB1956E07 SLP232 BKN008 V SCT P0000 60000 T01890167 56016=
13/05/2022 19:51->METAR KJFK 131951Z 11008KT 10SM FEW015 FEW034 BKN044 BKN130 BKN250 20/17 A3023 RMK AO2 SLP235 T02000172=
13/05/2022 18:51->METAR KJFK 131851Z 12011KT 10SM BKN019 BKN025 BKN250 20/17 A3024 RMK AO2 SLP239 T02000167=
13/05/2022 17:51->METAR KJFK 131751Z 12009KT 10SM OVC016 23/18 A3026 RMK AO2 SLP247 T02330183 10233 20156 56018=
13/05/2022 16:51->METAR KJFK 131651Z 05006KT 10SM BKN016 BKN310 23/18 A3027 RMK AO2 SLP249 T02280178=
13/05/2022 15:51->METAR KJFK 131551Z 00000KT 7SM OVC011 20/17 A3030 RMK AO2 SLP258 T02000167=
13/05/2022 14:51->METAR KJFK 131451Z 10004KT 6SM BR OVC007 19/17 A3031 RMK AO2 SLP265 T01890167 51004=
13/05/2022 13:51->METAR KJFK 131351Z 06006KT 2SM BR OVC004 17/16 A3031 RMK AO2 SFC VIS 3 SLP264 T01670161=
13/05/2022 12:51->METAR KJFK 131251Z 06006KT 3/4SM R04R/P6000FT BR OVC003 16/16 A3031 RMK AO2 SFC VIS 2 1/2 SLP263 CIG 002V004 T01610156=
13/05/2022 11:51->METAR KJFK 131151Z 05006KT 3/4SM R04R/5000VP6000FT BR OVC003 16/15 A3030 RMK AO2 SFC VIS 2 SLP261 T01560150 10161 20144 53013=
13/05/2022 10:51->METAR KJFK 131051Z 05006KT 1/4SM R04R/4500V6000FT BR FEW000 OVC002 15/15 A3029 RMK AO2 SFC VIS 1 1/2 SLP256 BR FEW000 T01500150=
13/05/2022 09:51->METAR KJFK 130951Z 04007KT 1/2SM R04R/P6000FT BR OVC002 15/15 A3027 RMK AO2 SFC VIS 1 1/2 SLP250 T01500150=
13/05/2022 08:51->METAR KJFK 130851Z 03004KT 1/2SM R04R/2800V4000FT BR VV003 16/16 A3026 RMK AO2 SFC VIS 3/4 SLP247 T01610156 58007=
13/05/2022 07:51->METAR KJFK 130751Z 07003KT 1/2SM R04R/2600V2800FT BR OVC003 16/15 A3027 RMK AO2 SFC VIS 1 SLP249 T01560150=
13/05/2022 06:51->METAR KJFK 130651Z 07003KT 1/2SM R04R/5000VP6000FT BR OVC003 15/15 A3028 RMK AO2 SFC VIS 1 1/2 SLP253 T01500150=
13/05/2022 05:51->METAR KJFK 130551Z 06007KT 1/2SM R04R/P6000FT BR OVC002 14/14 A3028 RMK AO2 SFC VIS 1 3/4 SLP254 T01440144 10156 20133 58003=
13/05/2022 04:51->METAR KJFK 130451Z 10005KT 1/2SM R04R/4000V5000FT BR VV002 14/13 A3030 RMK AO2 SFC VIS 3/4 SLP259 T01390133 402170117=
13/05/2022 03:51->METAR KJFK 130351Z 09006KT 1/2SM R04R/3000V4000FT FG VV002 13/13 A3030 RMK AO2 SLP260 T01330133=
13/05/2022 02:51->METAR KJFK 130251Z 10012KT 1/2SM R04R/6000VP6000FT BR OVC003 15/14 A3029 RMK AO2 SFC VIS 2 1/2 SLP257 T01500144 58004=
13/05/2022 01:51->METAR KJFK 130151Z 10009KT 1/2SM R04R/5000VP6000FT BR OVC003 16/15 A3031 RMK AO2 SFC VIS 3 SLP262 T01560150=
13/05/2022 00:51->METAR KJFK 130051Z 09009KT 1/2SM R04R/4500VP6000FT BR BKN002 BKN250 15/14 A3030 RMK AO2 SFC VIS 5 SLP261 T01500144=
12/05/2022 23:51->METAR KJFK 122351Z 10013KT 10SM FEW004 BKN250 16/14 A3030 RMK AO2 SLP260 T01560139 10211 20156 58002=
12/05/2022 22:51->METAR KJFK 122251Z 11008KT 1/2SM R04R/P6000FT BKN006 BKN250 16/14 A3031 RMK AO2 SFC VIS 10 SLP262 VIS E-SE 3 BKN006 V SCT T01610144=
12/05/2022 21:51->METAR KJFK 122151Z 12007KT 10SM FEW015 FEW032 FEW250 18/14 A3031 RMK AO2 SLP263 T01830144=
12/05/2022 20:51->METAR KJFK 122051Z 13008KT 10SM FEW020 FEW032 SCT250 20/15 A3031 RMK AO2 SLP262 T02000150 58005=
12/05/2022 19:51->METAR KJFK 121951Z 12010KT 10SM FEW027 SCT032 BKN250 20/14 A3031 RMK AO2 SLP264 T02000144=
12/05/2022 18:51->METAR KJFK 121851Z 15006KT 10SM FEW027 SCT032 BKN250 20/14 A3032 RMK AO2 SLP268 T02000144=
12/05/2022 17:51->METAR KJFK 121751Z 12008KT 10SM BKN024 21/15 A3032 RMK AO2 SLP265 T02060150 10217 20139 55006=
12/05/2022 16:51->METAR KJFK 121651Z 14008KT 10SM BKN024 21/15 A3031 RMK AO2 SLP264 T02110150=
12/05/2022 15:51->METAR KJFK 121551Z 15006KT 10SM FEW012 SCT022 19/14 A3032 RMK AO2 SLP268 T01890139=
12/05/2022 14:51->METAR KJFK 121451Z 13008KT 10SM FEW007 BKN015 OVC022 17/13 A3033 RMK AO2 SLP271 CIG 013V017 T01670133 53015=
12/05/2022 13:51->METAR KJFK 121351Z 02007KT 10SM FEW007 OVC015 18/14 A3031 RMK AO2 SLP264 CIG 013V017 T01780139=
12/05/2022 12:51->METAR KJFK 121251Z 04003KT 10SM FEW007 BKN014 16/13 A3030 RMK AO2 SLP261 T01610128=
12/05/2022 11:51->METAR KJFK 121151Z 13007KT 10SM FEW009 BKN016 14/12 A3029 RMK AO2 SLP256 T01390117 10167 20122 53019=
12/05/2022 10:51->METAR KJFK 121051Z 00000KT 10SM BKN016 14/12 A3027 RMK AO2 SLP251 T01390117=
12/05/2022 09:51->METAR KJFK 120951Z 02005KT 10SM BKN017 OVC042 16/12 A3024 RMK AO2 SLP241 T01610117=
12/05/2022 08:51->METAR KJFK 120851Z 00000KT 10SM BKN017 OVC043 14/11 A3023 RMK AO2 SLP238 T01440111 56006=
12/05/2022 07:51->METAR KJFK 120751Z 18003KT 10SM BKN020 OVC047 13/11 A3024 RMK AO2 SLP240 T01330111=
12/05/2022 06:51->METAR KJFK 120651Z 00000KT 10SM BKN024 13/11 A3024 RMK AO2 SLP240 T01330111=
12/05/2022 05:51->METAR KJFK 120551Z 00000KT 10SM FEW028 BKN055 12/11 A3025 RMK AO2 SLP243 T01220106 10150 20117 55004=
12/05/2022 04:51->METAR KJFK 120451Z 20005KT 10SM BKN043 13/11 A3025 RMK AO2 SLP243 T01280106 402330117=
12/05/2022 03:51->METAR KJFK 120351Z 33004KT 10SM BKN044 14/10 A3026 RMK AO2 SLP246 T01440100=
12/05/2022 02:51->METAR KJFK 120251Z 10004KT 10SM BKN048 13/10 A3026 RMK AO2 SLP248 T01330100 50006=
12/05/2022 01:51->METAR KJFK 120151Z 10003KT 10SM FEW060 13/09 A3028 RMK AO2 SLP251 T01280094=
12/05/2022 00:51->METAR KJFK 120051Z 11008KT 10SM FEW060 13/09 A3025 RMK AO2 SLP244 T01280094=
11/05/2022 23:51->METAR KJFK 112351Z 16005KT 10SM SCT060 SCT250 14/09 A3025 RMK AO2 SLP241 T01390094 10233 20139 53001=
11/05/2022 22:51->METAR KJFK 112251Z 19004KT 10SM SCT060 SCT250 16/10 A3024 RMK AO2 SLP240 T01560100=
11/05/2022 21:51->METAR KJFK 112151Z 15007KT 10SM BKN055 BKN250 17/10 A3025 RMK AO2 SLP241 T01670100=
11/05/2022 20:51->METAR KJFK 112051Z 16008KT 10SM SCT050 SCT250 17/10 A3024 RMK AO2 SLP240 T01670100 55006=
11/05/2022 19:51->METAR KJFK 111951Z 18007KT 10SM SCT049 20/11 A3024 RMK AO2 SLP239 T02000106=
11/05/2022 18:51->METAR KJFK 111851Z 05013G18KT 10SM OVC047 22/09 A3025 RMK AO2 SLP243 T02220094=
11/05/2022 17:51->METAR KJFK 111751Z 05012G21KT 10SM BKN038 22/09 A3026 RMK AO2 SLP247 T02170094 10222 20139 58007=
11/05/2022 16:51->METAR KJFK 111651Z 03018G25KT 10SM BKN032 BKN055 20/08 A3027 RMK AO2 SLP250 T02000078=
11/05/2022 15:51->METAR KJFK 111551Z 04015G22KT 10SM BKN032 BKN050 20/07 A3028 RMK AO2 PK WND 05028/1503 SLP253 T02000072=
11/05/2022 14:51->METAR KJFK 111451Z 05020G26KT 10SM BKN031 BKN050 18/06 A3028 RMK AO2 PK WND 04029/1439 SLP254 T01830061 50004=
11/05/2022 13:51->METAR KJFK 111351Z 03019G26KT 10SM BKN035 BKN055 16/04 A3029 RMK AO2 PK WND 03027/1322 SLP256 T01610044=
11/05/2022 12:51->METAR KJFK 111251Z 03017G25KT 10SM FEW038 BKN049 14/02 A3027 RMK AO2 PK WND 04028/1229 SLP251 T01440022=
11/05/2022 11:51->METAR KJFK 111151Z 04018KT 10SM FEW038 BKN060 14/M02 A3027 RMK AO2 PK WND 05026/1137 SLP249 T01391022 10139 20117 53005=
11/05/2022 10:51->METAR KJFK 111051Z 02017G23KT 10SM SCT045 SCT065 SCT250 13/M04 A3026 RMK AO2 SLP247 T01281039=
11/05/2022 09:51->METAR KJFK 110951Z 02015G24KT 10SM SCT045 SCT250 12/M04 A3025 RMK AO2 SLP244 T01221039=
11/05/2022 08:51->METAR KJFK 110851Z 01013KT 10SM SCT250 12/M04 A3025 RMK AO2 SLP244 T01171039 58013=
11/05/2022 07:51->METAR KJFK 110751Z 36011G22KT 10SM SCT250 12/M04 A3027 RMK AO2 SLP249 T01171039=
11/05/2022 06:51->METAR KJFK 110651Z 02012KT 10SM FEW250 12/M05 A3028 RMK AO2 SLP254 T01221050=
11/05/2022 05:51->METAR KJFK 110551Z 02008KT 10SM FEW250 12/M06 A3029 RMK AO2 SLP257 T01221061 10178 20122 58015=
11/05/2022 04:51->METAR KJFK 110451Z 03009KT 10SM CLR 13/M07 A3031 RMK AO2 SLP265 T01281072 402280100=
11/05/2022 03:51->METAR KJFK 110351Z 04013KT 10SM CLR 14/M07 A3032 RMK AO2 SLP268 T01391072=
11/05/2022 02:51->METAR KJFK 110251Z 04011KT 10SM CLR 14/M07 A3033 RMK AO2 SLP272 T01441067 50007=
11/05/2022 01:51->METAR KJFK 110151Z 05009KT 10SM FEW080 16/M07 A3034 RMK AO2 SLP273 T01561072=
11/05/2022 00:51->METAR KJFK 110051Z 07012KT 10SM BKN080 17/M07 A3033 RMK AO2 SLP270 T01721067=
10/05/2022 23:51->METAR KJFK 102351Z 07011KT 10SM FEW075 SCT090 SCT250 18/M05 A3031 RMK AO2 SLP264 T01781050 10228 20172 53006=
10/05/2022 22:51->METAR KJFK 102251Z 06012G20KT 10SM BKN065 BKN095 19/M05 A3030 RMK AO2 SLP260 T01941050=
10/05/2022 21:51->METAR KJFK 102151Z 04011G16KT 10SM BKN065 19/02 A3030 RMK AO2 SLP259 T01890022=
10/05/2022 20:51->METAR KJFK 102051Z 11009KT 10SM BKN065 18/04 A3029 RMK AO2 SLP258 T01780039 56005=
10/05/2022 19:51->METAR KJFK 101951Z 05015KT 10SM BKN070 22/M03 A3030 RMK AO2 PK WND 04027/1859 SLP259 T02171033=
10/05/2022 18:51->METAR KJFK 101851Z 03015G22KT 10SM FEW090 FEW250 23/M02 A3030 RMK AO2 PK WND 06031/1805 SLP260 T02281017=
10/05/2022 17:51->METAR KJFK 101751Z 03017G23KT 10SM FEW090 FEW250 22/M02 A3031 RMK AO2 PK WND 05028/1724 SLP263 T02171022 10222 20128 58017=
10/05/2022 16:51->METAR KJFK 101651Z 04017G27KT 10SM FEW090 FEW250 21/M02 A3032 RMK AO2 PK WND 04030/1556 SLP268 T02061022=
10/05/2022 15:51->METAR KJFK 101551Z 03017G28KT 10SM FEW090 19/M03 A3035 RMK AO2 PK WND 04031/1535 SLP277 T01891033=
10/05/2022 14:51->METAR KJFK 101451Z 03020G27KT 10SM CLR 18/M04 A3036 RMK AO2 PK WND 02031/1430 SLP279 T01781039 50006=
10/05/2022 13:51->METAR KJFK 101351Z 02023G28KT 10SM CLR 16/M04 A3036 RMK AO2 PK WND 04031/1326 SLP281 T01611044=
10/05/2022 12:51->METAR KJFK 101251Z 03020G26KT 10SM FEW250 14/M03 A3036 RMK AO2 PK WND 04029/1155 SLP280 T01441033=
10/05/2022 11:51->METAR KJFK 101151Z 04018G26KT 10SM FEW250 13/M04 A3034 RMK AO2 PK WND 04027/1135 SLP273 T01281039 10128 20100 53017=
10/05/2022 10:51->METAR KJFK 101051Z 04016KT 10SM FEW090 FEW250 11/M04 A3033 RMK AO2 SLP269 T01111044=
10/05/2022 09:51->METAR KJFK 100951Z 02014KT 10SM FEW090 FEW250 11/M06 A3030 RMK AO2 SLP260 T01061056=
10/05/2022 08:51->METAR KJFK 100851Z 02014KT 10SM FEW250 11/M07 A3029 RMK AO2 SLP257 T01061067 53001=
10/05/2022 07:51->METAR KJFK 100751Z 02013KT 10SM FEW250 11/M09 A3028 RMK AO2 SLP254 T01061089=
10/05/2022 06:51->METAR KJFK 100651Z 02013G21KT 10SM FEW250 11/M10 A3028 RMK AO2 SLP253 T01061100=
10/05/2022 05:51->METAR KJFK 100551Z 02014G19KT 10SM CLR 11/M10 A3029 RMK AO2 SLP255 T01111100 10167 20111 58005=
10/05/2022 04:51->METAR KJFK 100451Z 03016G26KT 10SM CLR 12/M11 A3030 RMK AO2 PK WND 04029/0405 SLP258 T01171111 402110072=
10/05/2022 03:51->METAR KJFK 100351Z 03016G23KT 10SM CLR 12/M11 A3031 RMK AO2 PK WND 04030/0256 SLP262 T01221111=
10/05/2022 02:51->METAR KJFK 100251Z 04018G28KT 10SM CLR 13/M14 A3030 RMK AO2 PK WND 04034/0216 SLP260 T01281139 51012=
10/05/2022 01:51->METAR KJFK 100151Z 03021G28KT 10SM FEW065 15/M11 A3030 RMK AO2 PK WND 03028/0150 SLP259 T01501106=
10/05/2022 00:51->METAR KJFK 100051Z 04013G23KT 10SM FEW065 16/M09 A3028 RMK AO2 SLP253 T01561089=
09/05/2022 23:51->METAR KJFK 092351Z 03015G25KT 10SM SCT065 17/M08 A3027 RMK AO2 PK WND 03028/2254 SLP249 T01671078 10211 20167 53022=
09/05/2022 22:51->METAR KJFK 092251Z 05016G24KT 10SM BKN065 BKN250 18/M07 A3024 RMK AO2 PK WND 04034/2211 SLP239 T01831067=
09/05/2022 21:51->METAR KJFK 092151Z 06021G27KT 10SM SCT100 SCT250 20/M07 A3022 RMK AO2 PK WND 03028/2059 SLP232 T02001072=
09/05/2022 20:51->METAR KJFK 092051Z 03020G26KT 10SM SCT090 SCT250 21/M07 A3020 RMK AO2 PK WND 05028/2012 SLP226 T02111072 55004=
09/05/2022 19:51->METAR KJFK 091951Z 02018G27KT 10SM FEW120 FEW250 21/M07 A3020 RMK AO2 PK WND 02028/1915 SLP225 T02061067=
09/05/2022 18:51->METAR KJFK 091851Z 03016G27KT 10SM FEW120 FEW250 20/M06 A3020 RMK AO2 PK WND 04028/1841 SLP225 T02001061=
09/05/2022 17:51->METAR KJFK 091751Z 03016G26KT 10SM FEW150 SCT250 19/M04 A3021 RMK AO2 PK WND 04028/1702 SLP230 T01891044 10189 20100 56006=
09/05/2022 16:51->METAR KJFK 091651Z 04019KT 10SM FEW150 SCT250 18/M04 A3021 RMK AO2 PK WND 03031/1630 SLP230 T01781044=
09/05/2022 15:51->METAR KJFK 091551Z 04021G28KT 10SM SCT250 17/M06 A3023 RMK AO2 PK WND 03029/1533 SLP235 T01671056=
09/05/2022 14:51->METAR KJFK 091451Z 03023G30KT 10SM FEW130 SCT250 15/M05 A3023 RMK AO2 PK WND 04032/1411 SLP236 T01501050 51008=
09/05/2022 13:51->METAR KJFK 091351Z 03023G30KT 10SM FEW095 FEW130 SCT250 13/M04 A3023 RMK AO2 PK WND 04032/1332 SLP235 T01331044=
09/05/2022 12:51->METAR KJFK 091251Z 03023G28KT 10SM FEW130 SCT250 12/M04 A3022 RMK AO2 PK WND 04032/1238 SLP232 T01171044=
09/05/2022 11:51->METAR KJFK 091151Z 03019KT 10SM FEW130 SCT250 10/M05 A3021 RMK AO2 PK WND 01027/1127 SLP229 T01001050 10100 20072 51019=
09/05/2022 10:51->METAR KJFK 091051Z 01014G24KT 10SM FEW130 SCT250 08/M05 A3019 RMK AO2 SLP222 T00831050=
09/05/2022 09:51->METAR KJFK 090951Z 02013KT 10SM SCT250 07/M05 A3017 RMK AO2 SLP216 T00721050=
09/05/2022 08:51->METAR KJFK 090851Z 01012KT 10SM FEW130 SCT250 07/M05 A3015 RMK AO2 SLP209 T00721050 55002=
09/05/2022 07:51->METAR KJFK 090751Z 02014KT 10SM SCT250 08/M05 A3015 RMK AO2 SLP209 T00781050=
09/05/2022 06:51->METAR KJFK 090651Z 02011KT 10SM FEW180 SCT250 08/M05 A3015 RMK AO2 SLP209 T00781050=
09/05/2022 05:51->METAR KJFK 090551Z 02014KT 10SM FEW090 BKN190 09/M06 A3016 RMK AO2 SLP211 T00891061 10128 20089 58005=
09/05/2022 04:51->METAR KJFK 090451Z 03010KT 10SM FEW090 BKN150 BKN230 09/M06 A3017 RMK AO2 SLP215 T00941061 401440067=
09/05/2022 03:51->METAR KJFK 090351Z 03015G20KT 10SM SCT090 BKN140 BKN210 11/M05 A3017 RMK AO2 SLP217 T01061050=
09/05/2022 02:51->METAR KJFK 090251Z 03014KT 10SM OVC110 11/M04 A3017 RMK AO2 SLP217 T01061044 51008=
09/05/2022 01:51->METAR KJFK 090151Z 04016KT 10SM OVC110 11/M05 A3017 RMK AO2 SLP217 T01111050=
09/05/2022 00:51->METAR KJFK 090051Z 04013G22KT 10SM BKN110 12/M06 A3016 RMK AO2 SLP212 T01171061=
08/05/2022 23:51->METAR KJFK 082351Z 05014KT 10SM BKN075 13/M07 A3015 RMK AO2 PK WND 05026/2307 SLP208 T01281067 10144 20128 53018=
08/05/2022 22:51->METAR KJFK 082251Z 05016KT 10SM BKN090 BKN180 13/M07 A3012 RMK AO2 PK WND 05027/2217 SLP200 T01281067=
08/05/2022 21:51->METAR KJFK 082151Z 05012KT 10SM BKN110 BKN180 14/M05 A3010 RMK AO2 PK WND 04026/2053 SLP193 T01391050=
08/05/2022 20:51->METAR KJFK 082051Z 05020G25KT 10SM FEW050 BKN100 OVC180 14/M04 A3010 RMK AO2 PK WND 05029/2001 SLP191 T01391039 56001=
08/05/2022 19:51->METAR KJFK 081951Z 04017G27KT 10SM BKN100 OVC180 14/M03 A3010 RMK AO2 PK WND 06027/1905 SLP191 T01441033=
08/05/2022 18:51->METAR KJFK 081851Z 05017G25KT 10SM FEW040 BKN090 OVC180 14/M02 A3010 RMK AO2 PK WND 06027/1833 SLP192 T01441017=
08/05/2022 17:51->METAR KJFK 081751Z 05019G24KT 10SM FEW040 BKN080 BKN110 BKN170 14/M01 A3010 RMK AO2 PK WND 04029/1713 SLP192 60000 T01391011 10139 20089 58005=
08/05/2022 16:51->METAR KJFK 081651Z 04017G26KT 10SM FEW050 BKN080 BKN110 OVC170 12/M01 A3011 RMK AO2 PK WND 06028/1558 RAB16E31 SLP195 P0000 T01221011=
08/05/2022 15:51->METAR KJFK 081551Z 05019G33KT 10SM FEW040 BKN080 BKN100 OVC150 12/M01 A3012 RMK AO2 PK WND 05034/1539 SLP198 T01171011=
08/05/2022 14:51->METAR KJFK 081451Z 05021G30KT 10SM FEW040 BKN075 BKN100 OVC150 11/M01 A3012 RMK AO2 PK WND 04030/1422 SLP197 T01061011 53021=
08/05/2022 13:51->METAR KJFK 081351Z 04020G32KT 10SM FEW040 SCT060 BKN100 OVC150 11/01 A3010 RMK AO2 PK WND 05033/1317 SLP191 T01060006=
08/05/2022 12:51->METAR KJFK 081251Z 04021G29KT 10SM FEW040 BKN080 OVC150 09/01 A3007 RMK AO2 PK WND 04031/1206 SLP182 T00940006=
08/05/2022 11:51->METAR KJFK 081151Z 03021G27KT 10SM BKN075 OVC150 09/01 A3005 RMK AO2 PK WND 03027/1151 RAB1052E16 SLP176 P0000 60000 70073 T00890006 10089 20072 53017=
08/05/2022 10:51->METAR KJFK 081051Z 03015G23KT 10SM OVC075 08/01 A3004 RMK AO2 SLP171 T00830011=
08/05/2022 09:51->METAR KJFK 080951Z 03017KT 10SM OVC070 08/01 A3001 RMK AO2 SLP162 T00830011=
08/05/2022 08:51->METAR KJFK 080851Z 04018G22KT 10SM OVC070 08/02 A3000 RMK AO2 SLP159 60000 T00830017 53001=
08/05/2022 07:51->METAR KJFK 080751Z 04015G21KT 10SM OVC070 08/02 A3000 RMK AO2 RAB11E28 SLP157 P0000 T00830017=
08/05/2022 06:51->METAR KJFK 080651Z 04016G21KT 10SM OVC070 08/02 A2999 RMK AO2 RAE03 SLP155 P0000 T00780022=
08/05/2022 05:51->METAR KJFK 080551Z 03014KT 10SM -RA OVC070 07/02 A3000 RMK AO2 RAE08B25 SLP158 P0000 60003 T00720022 10083 20067 58002=
08/05/2022 04:51->METAR KJFK 080451Z 04011KT 10SM -RA OVC065 07/02 A3002 RMK AO2 SLP164 P0001 T00670022 401060067=
08/05/2022 03:51->METAR KJFK 080351Z 05016G24KT 10SM -RA OVC060 07/01 A3001 RMK AO2 PK WND 04028/0303 SLP162 P0001 T00720011=
08/05/2022 02:51->METAR KJFK 080251Z 05015G28KT 10SM -RA OVC055 08/01 A3001 RMK AO2 PK WND 06028/0242 RAB03 SLP160 P0001 60001 T00780011 51024=
08/05/2022 01:51->METAR KJFK 080151Z 04015G24KT 10SM OVC060 08/01 A2999 RMK AO2 PK WND 05029/0056 SLP155 T00830011=
08/05/2022 00:51->METAR KJFK 080051Z 05017G26KT 10SM OVC060 08/02 A2996 RMK AO2 PK WND 05029/2357 SLP146 T00830022=
07/05/2022 23:51->METAR KJFK 072351Z 04018G30KT 10SM FEW046 OVC060 08/04 A2993 RMK AO2 PK WND 04030/2344 RAE51 SLP136 P0003 60020 T00830039 10083 20072 53019=
07/05/2022 22:51->METAR KJFK 072251Z 03020G30KT 5SM -RA OVC065 08/05 A2991 RMK AO2 PK WND 04030/2241 SLP126 P0002 T00780050=
07/05/2022 21:51->METAR KJFK 072151Z 03018G25KT 8SM -RA SCT044 OVC065 08/06 A2989 RMK AO2 PK WND 04029/2109 SLP121 P0002 T00780056=
07/05/2022 20:51->METAR KJFK 072051Z 04018G26KT 8SM -RA FEW016 SCT049 OVC070 08/06 A2988 RMK AO2 PK WND 02028/2036 SLP117 P0001 60013 T00780056 50006=
07/05/2022 19:51->METAR KJFK 071951Z 05020G26KT 6SM -RA BR FEW016 BKN049 OVC070 07/06 A2988 RMK AO2 PK WND 04029/1853 SLP118 P0002 T00720061=
07/05/2022 18:51->METAR KJFK 071851Z 05020G31KT 5SM -RA BR SCT014 BKN030 OVC075 08/07 A2987 RMK AO2 PK WND 04031/1844 SLP114 P0010 T00830067=
07/05/2022 17:51->METAR KJFK 071751Z 04017G29KT 2SM RA BR FEW018 BKN034 OVC055 08/07 A2986 RMK AO2 PK WND 04029/1745 TWR VIS 2 1/2 SLP111 P0018 60050 T00830067 10100 20083 51014=
07/05/2022 16:51->METAR KJFK 071651Z 05019G28KT 2SM R04R/4500VP6000FT +RA BR SCT011 OVC018 09/07 A2985 RMK AO2 PK WND 04029/1641 SFC VIS 2 1/2 CIG 013 W SLP107 P0017 T00890072=
07/05/2022 15:51->METAR KJFK 071551Z 05020G27KT 2SM -RA BR BKN012 OVC018 09/08 A2982 RMK AO2 PK WND 05030/1513 SFC VIS 2 1/2 SLP098 P0004 T00940078=
07/05/2022 14:51->METAR KJFK 071451Z 06016G26KT 9SM -RA BKN012 BKN017 OVC032 10/08 A2981 RMK AO2 PK WND 06028/1438 RAE37B42 SLP092 P0000 60011 T01000083 51010=
07/05/2022 13:51->METAR KJFK 071351Z 07017KT 10SM -RA SCT014 BKN021 OVC028 10/08 A2980 RMK AO2 PK WND 06028/1329 SLP090 P0004 T01000083=
07/05/2022 12:51->METAR KJFK 071251Z 07017G26KT 6SM -RA BR SCT016 BKN022 OVC070 10/08 A2979 RMK AO2 PK WND 07029/1229 SLP087 P0007 T01000083=
07/05/2022 11:51->METAR KJFK 071151Z 07016G24KT 8SM -RA BKN017 BKN025 OVC034 10/08 A2977 RMK AO2 PK WND 07026/1114 RAB19 SLP082 P0001 60018 70108 T01000083 10106 20100 51008=
07/05/2022 10:51->METAR KJFK 071051Z 07015G24KT 10SM SCT015 BKN021 OVC060 10/08 A2977 RMK AO2 RAE51 SLP082 P0002 T01000083=
07/05/2022 09:51->METAR KJFK 070951Z 07011KT 8SM -RA SCT014 SCT019 OVC055 10/09 A2977 RMK AO2 SLP082 P0005 T01000089=
07/05/2022 08:51->METAR KJFK 070851Z 06013KT 8SM -RA BKN014 OVC060 11/09 A2975 RMK AO2 SLP074 P0004 60010 T01060089 55017=
07/05/2022 07:51->METAR KJFK 070751Z 05015KT 10SM -RA BKN011 OVC060 10/09 A2974 RMK AO2 SLP070 P0002 T01000089=
07/05/2022 06:51->METAR KJFK 070651Z 05014G22KT 10SM -RA BKN011 BKN028 OVC065 10/09 A2976 RMK AO2 SLP078 P0004 T01000089=
07/05/2022 05:51->METAR KJFK 070551Z 04011KT 7SM -RA OVC010 10/09 A2980 RMK AO2 SLP091 P0006 60047 T01000089 10100 20089 56021=
07/05/2022 04:51->METAR KJFK 070451Z 04011KT 6SM -RA BR BKN009 BKN026 OVC050 09/09 A2982 RMK AO2 SLP098 P0009 T00940089 401440089=
07/05/2022 03:51->METAR KJFK 070351Z 06007KT 8SM RA BKN009 BKN034 OVC048 09/08 A2984 RMK AO2 SLP106 P0006 T00940083=
07/05/2022 02:51->METAR KJFK 070251Z 05009KT 7SM RA BKN007 OVC012 09/08 A2986 RMK AO2 SLP113 P0008 60026 T00940083 53001=
07/05/2022 01:51->METAR KJFK 070151Z 07009KT 9SM -RA OVC008 09/08 A2987 RMK AO2 CIG 006V011 SLP113 P0006 T00940083=
07/05/2022 00:51->METAR KJFK 070051Z 08008KT 7SM -RA BKN008 BKN011 OVC075 09/08 A2986 RMK AO2 SLP110 P0012 T00940083=
06/05/2022 23:51->METAR KJFK 062351Z 10008KT 5SM RA BR SCT008 BKN011 OVC060 09/08 A2986 RMK AO2 SLP112 P0009 60036 T00940083 10133 20094 55018=
06/05/2022 22:51->METAR KJFK 062251Z 10010KT 7SM -RA SCT009 SCT019 OVC055 10/08 A2986 RMK AO2 PRESFR SLP110 P0005 T01000083=
06/05/2022 21:51->METAR KJFK 062151Z 11009KT 6SM -RA BR SCT011 SCT034 OVC060 11/09 A2990 RMK AO2 SLP124 P0006 T01060089=
06/05/2022 20:51->METAR KJFK 062051Z 11010KT 6SM -RA BR SCT010 SCT034 OVC060 11/09 A2992 RMK AO2 SLP130 P0005 60016 T01110094 55009=
06/05/2022 19:51->METAR KJFK 061951Z 12007KT 7SM -RA SCT019 SCT037 OVC090 12/11 A2991 RMK AO2 SLP127 P0007 T01170106=
06/05/2022 18:51->METAR KJFK 061851Z 13004KT 10SM -RA FEW014 OVC060 13/11 A2993 RMK AO2 SLP136 P0004 T01280106=
06/05/2022 17:51->METAR KJFK 061751Z 15005KT 10SM -RA FEW014 SCT047 OVC075 13/11 A2994 RMK AO2 SLP139 P0001 60007 T01330106 10144 20128 58009=
06/05/2022 16:51->METAR KJFK 061651Z 14003KT 10SM -RA FEW012 BKN075 OVC090 13/11 A2995 RMK AO2 SLP141 P0003 T01330106=
06/05/2022 15:51->METAR KJFK 061551Z 15007KT 10SM -RA SCT012 BKN060 OVC090 13/11 A2997 RMK AO2 SLP149 P0000 T01330111=
06/05/2022 14:51->METAR KJFK 061451Z 15010KT 10SM -RA BKN012 BKN075 OVC090 13/12 A2997 RMK AO2 RAE00B24 SLP148 P0000 60003 T01330117 56009=
06/05/2022 13:51->METAR KJFK 061351Z 05006KT 10SM -RA FEW028 BKN075 OVC090 14/12 A2997 RMK AO2 SLP148 P0001 T01440122=
06/05/2022 12:51->METAR KJFK 061251Z 03003KT 10SM -RA SCT038 SCT060 OVC070 13/11 A3000 RMK AO2 SLP157 P0002 T01330111=
06/05/2022 11:51->METAR KJFK 061151Z 00000KT 10SM -RA FEW025 BKN075 OVC090 13/11 A2999 RMK AO2 SLP155 P0000 60000 T01280106 10133 20122 53005=
06/05/2022 10:51->METAR KJFK 061051Z 13006KT 10SM -RA FEW027 BKN080 OVC120 12/10 A2998 RMK AO2 RAB26 SLP152 P0000 T01220100=
06/05/2022 09:51->METAR KJFK 060951Z 18003KT 10SM OVC120 13/09 A2998 RMK AO2 SLP151 T01330094=
06/05/2022 08:51->METAR KJFK 060851Z 19003KT 10SM OVC140 13/09 A2998 RMK AO2 SLP150 T01330094 58005=
06/05/2022 07:51->METAR KJFK 060751Z 24006KT 10SM OVC130 13/10 A3001 RMK AO2 SLP161 T01280100=
06/05/2022 06:51->METAR KJFK 060651Z 00000KT 10SM OVC140 13/10 A2999 RMK AO2 SLP156 T01280100=
06/05/2022 05:51->METAR KJFK 060551Z 00000KT 10SM OVC150 13/10 A2999 RMK AO2 SLP155 T01280100 10139 20122 58017=
06/05/2022 04:51->METAR KJFK 060451Z 14004KT 10SM OVC180 12/10 A3002 RMK AO2 SLP166 T01220100 402110122=
06/05/2022 03:51->METAR KJFK 060351Z 00000KT 10SM BKN180 BKN250 12/10 A3004 RMK AO2 SLP172 T01220100=
06/05/2022 02:51->METAR KJFK 060251Z 18007KT 10SM BKN190 BKN250 12/09 A3004 RMK AO2 SLP173 T01220094 53000=
06/05/2022 01:51->METAR KJFK 060151Z 19006KT 10SM BKN210 OVC250 13/09 A3004 RMK AO2 SLP171 T01280094=
06/05/2022 00:51->METAR KJFK 060051Z 19008KT 10SM FEW060 SCT210 BKN240 13/08 A3004 RMK AO2 SLP170 T01330083=
05/05/2022 23:51->METAR KJFK 052351Z 19012KT 10SM FEW060 BKN230 14/08 A3004 RMK AO2 SLP172 T01390083 10189 20139 50002=
05/05/2022 22:51->METAR KJFK 052251Z 19012KT 10SM FEW060 BKN230 15/08 A3004 RMK AO2 SLP173 T01500083=
05/05/2022 21:51->METAR KJFK 052151Z 19011KT 10SM FEW060 FEW160 BKN230 16/08 A3003 RMK AO2 SLP170 T01610083=
05/05/2022 20:51->METAR KJFK 052051Z 19011KT 10SM FEW060 BKN250 17/09 A3003 RMK AO2 SLP170 T01720094 58013=
05/05/2022 19:51->METAR KJFK 051951Z 18009KT 10SM FEW055 FEW210 BKN250 19/08 A3005 RMK AO2 SLP175 T01890083=
05/05/2022 18:51->METAR KJFK 051851Z 20011KT 10SM FEW055 BKN250 18/09 A3007 RMK AO2 SLP182 T01830089=
05/05/2022 17:51->METAR KJFK 051751Z 19012KT 10SM FEW055 BKN250 18/09 A3007 RMK AO2 SLP183 T01830089 10211 20150 56012=
05/05/2022 16:51->METAR KJFK 051651Z 00000KT 10SM FEW055 BKN250 20/06 A3008 RMK AO2 SLP185 T02000061=
05/05/2022 15:51->METAR KJFK 051551Z 35006KT 10SM FEW050 FEW085 BKN250 19/07 A3009 RMK AO2 SLP190 T01940072=
05/05/2022 14:51->METAR KJFK 051451Z 36008KT 10SM FEW046 FEW085 SCT250 18/07 A3011 RMK AO2 SLP195 T01830072 51011=
05/05/2022 13:51->METAR KJFK 051351Z 36011KT 10SM FEW044 FEW085 FEW250 18/08 A3011 RMK AO2 SLP194 T01780083=
05/05/2022 12:51->METAR KJFK 051251Z 36013KT 10SM FEW050 FEW085 FEW250 17/09 A3011 RMK AO2 SLP194 T01670089=
05/05/2022 11:51->METAR KJFK 051151Z 36014KT 10SM FEW049 FEW085 SCT250 15/09 A3007 RMK AO2 SLP184 70002 T01500094 10150 20128 51015=
05/05/2022 10:51->METAR KJFK 051051Z 36009KT 10SM FEW049 SCT080 SCT250 14/10 A3006 RMK AO2 SLP180 T01390100=
05/05/2022 09:51->METAR KJFK 050951Z 36006KT 10SM FEW080 SCT250 13/09 A3004 RMK AO2 SLP173 T01330094=
05/05/2022 08:51->METAR KJFK 050851Z 36011KT 10SM BKN075 14/09 A3003 RMK AO2 SLP168 T01440094 53006=
05/05/2022 07:51->METAR KJFK 050751Z 36014KT 10SM FEW045 BKN075 14/10 A3002 RMK AO2 SLP166 T01440100=
05/05/2022 06:51->METAR KJFK 050651Z 36014KT 10SM SCT038 OVC060 15/11 A3001 RMK AO2 SLP162 T01500106=
05/05/2022 05:51->METAR KJFK 050551Z 01009KT 10SM OVC035 15/11 A3001 RMK AO2 SLP162 T01500111 10156 20128 50002=
05/05/2022 04:51->METAR KJFK 050451Z 34012KT 10SM OVC023 16/12 A3002 RMK AO2 SLP166 T01560117 401890094=
05/05/2022 03:51->METAR KJFK 050351Z 01008KT 10SM SCT027 BKN070 16/12 A3001 RMK AO2 SLP160 T01560122=
05/05/2022 02:51->METAR KJFK 050251Z 00000KT 10SM SCT028 OVC065 13/12 A3000 RMK AO2 CIG 028 W SLP160 T01280117 53024=
05/05/2022 01:51->METAR KJFK 050151Z 14004KT 10SM FEW020 BKN031 BKN110 13/12 A2998 RMK AO2 SLP151 T01330117=
05/05/2022 00:51->METAR KJFK 050051Z 18007KT 10SM FEW080 BKN110 13/11 A2996 RMK AO2 SLP144 T01280111=
04/05/2022 23:51->METAR KJFK 042351Z 18005KT 10SM BKN080 BKN120 14/12 A2993 RMK AO2 SLP136 T01390117 10189 20139 53002=
04/05/2022 22:51->METAR KJFK 042251Z 27005KT 10SM FEW045 BKN120 BKN250 18/13 A2992 RMK AO2 SLP131 T01830128=
04/05/2022 21:51->METAR KJFK 042151Z 24009KT 10SM FEW020 FEW045 BKN120 17/13 A2991 RMK AO2 SLP129 T01720128=
04/05/2022 20:51->METAR KJFK 042051Z 23008KT 10SM SCT055 17/13 A2993 RMK AO2 SLP134 T01720128 56013=
04/05/2022 19:51->METAR KJFK 041951Z 21005KT 9SM FEW012 BKN045 BKN060 15/13 A2993 RMK AO2 SLP135 T01500128=
04/05/2022 18:51->METAR KJFK 041851Z 33006KT 10SM FEW012 BKN050 OVC110 16/12 A2994 RMK AO2 SLP140 T01610117=
04/05/2022 17:51->METAR KJFK 041751Z 35006KT 10SM BKN011 BKN090 15/12 A2997 RMK AO2 RAB16E26 SLP147 P0000 60002 T01500117 10150 20106 58007=
04/05/2022 16:51->METAR KJFK 041651Z VRB05KT 6SM BR BKN006 BKN026 BKN095 14/13 A2997 RMK AO2 SLP149 T01440128=
04/05/2022 15:51->METAR KJFK 041551Z 33005KT 2 1/2SM BR OVC005 12/11 A3000 RMK AO2 SFC VIS 6 RAB1456E29 SLP158 CIG 004V006 P0001 T01220111=
04/05/2022 14:51->METAR KJFK 041451Z 10003KT 2 1/2SM OVC004 12/11 A2999 RMK AO2 SFC VIS 7 RAE41 SLP154 P0000 60001 T01170111 50001=
04/05/2022 13:51->METAR KJFK 041351Z 07005KT 2 1/2SM -RA BR OVC004 11/11 A3000 RMK AO2 SFC VIS 6 DZE05RAB20 SLP158 P0001 T01110106=
04/05/2022 12:51->METAR KJFK 041251Z 00000KT 6SM -DZ BR OVC004 11/11 A3001 RMK AO2 PRESRR SLP163 P0000 T01110106=
04/05/2022 11:51->METAR KJFK 041151Z 09008KT 7SM -DZ OVC005 11/10 A2998 RMK AO2 RAE1055B11E23DZB49 SLP153 P0000 60002 70002 T01060100 10106 20094 58021=
04/05/2022 10:51->METAR KJFK 041051Z 03007KT 9SM -RA OVC008 10/09 A3001 RMK AO2 RAB08 SLP160 P0000 T01000094=
04/05/2022 09:51->METAR KJFK 040951Z 06005KT 10SM OVC006 10/09 A3003 RMK AO2 SLP170 T01000094=
04/05/2022 08:51->METAR KJFK 040851Z 08004KT 3SM BR OVC006 09/09 A3005 RMK AO2 SFC VIS 6 RAE25 SLP174 P0002 60002 T00940089 58016=
04/05/2022 07:51->METAR KJFK 040751Z 00000KT 1 1/2SM -RA BR OVC003 09/09 A3009 RMK AO2 SFC VIS 6 DZE13RAB44 SLP189 P0000 T00940094=
04/05/2022 06:51->METAR KJFK 040651Z 12009KT 5SM -DZ BR OVC005 09/09 A3008 RMK AO2 SLP184 P0000 T00940089=
04/05/2022 05:51->METAR KJFK 040551Z 12007KT 5SM -DZ BR OVC004 09/09 A3009 RMK AO2 SLP189 P0000 60000 T00940089 10106 20094 58013=
04/05/2022 04:51->METAR KJFK 040451Z 11009KT 4SM -DZ BR OVC005 09/08 A3010 RMK AO2 SLP193 P0000 T00940083 401670094=
04/05/2022 03:51->METAR KJFK 040351Z 12009KT 4SM -DZ BR OVC005 09/08 A3012 RMK AO2 DZB39 SLP200 P0000 T00940083=
04/05/2022 02:51->METAR KJFK 040251Z 12010KT 10SM OVC008 10/08 A3013 RMK AO2 SLP203 T01000083 58001=
04/05/2022 01:51->METAR KJFK 040151Z 10010KT 10SM BKN011 OVC023 11/08 A3013 RMK AO2 SLP202 T01060083=
04/05/2022 00:51->METAR KJFK 040051Z 10011KT 10SM SCT023 BKN170 BKN250 11/08 A3014 RMK AO2 SLP204 T01060078=
03/05/2022 23:51->METAR KJFK 032351Z 10010KT 10SM SCT023 BKN170 BKN250 11/08 A3013 RMK AO2 SLP203 T01060078 10167 20106 58008=
03/05/2022 22:51->METAR KJFK 032251Z 11010KT 10SM SCT025 SCT170 BKN250 12/08 A3015 RMK AO2 SLP209 T01170078=
03/05/2022 21:51->METAR KJFK 032151Z 11010KT 10SM SCT023 BKN160 OVC250 12/07 A3016 RMK AO2 SLP214 T01220072=
03/05/2022 20:51->METAR KJFK 032051Z 11015KT 10SM FEW034 BKN180 OVC250 13/08 A3016 RMK AO2 SLP212 T01330083 58004=
03/05/2022 19:51->METAR KJFK 031951Z 12013KT 10SM SCT034 BKN170 OVC250 14/08 A3016 RMK AO2 SLP214 T01390083=
03/05/2022 18:51->METAR KJFK 031851Z 13015KT 10SM SCT034 SCT180 OVC250 15/09 A3017 RMK AO2 SLP215 T01500089=
03/05/2022 17:51->METAR KJFK 031751Z 11006KT 10SM FEW028 BKN200 BKN250 16/08 A3017 RMK AO2 SLP215 T01610078 10167 20122 57004=
03/05/2022 16:51->METAR KJFK 031651Z 06006KT 10SM FEW026 SCT210 BKN250 16/08 A3017 RMK AO2 SLP215 T01610083=
03/05/2022 15:51->METAR KJFK 031551Z 02008KT 10SM BKN250 16/08 A3018 RMK AO2 SLP219 T01560083=
03/05/2022 14:51->METAR KJFK 031451Z 03011KT 10SM SCT021 SCT095 BKN250 15/08 A3018 RMK AO2 SLP219 T01500083 51009=
03/05/2022 13:51->METAR KJFK 031351Z 02012KT 10SM SCT018 BKN250 14/08 A3017 RMK AO2 SLP217 T01390083=
03/05/2022 12:51->METAR KJFK 031251Z 04012KT 10SM SCT018 BKN250 13/08 A3017 RMK AO2 SLP216 SCT V BKN T01280083=
03/05/2022 11:51->METAR KJFK 031151Z 02013KT 10SM SCT015 SCT250 12/08 A3015 RMK AO2 SLP210 70002 T01220083 10122 20100 53008=
03/05/2022 10:51->METAR KJFK 031051Z 02009KT 10SM FEW009 FEW250 11/08 A3014 RMK AO2 SLP206 T01110083=
03/05/2022 09:51->METAR KJFK 030951Z 36007KT 10SM FEW009 10/08 A3013 RMK AO2 SLP204 T01000083=
03/05/2022 08:51->METAR KJFK 030851Z 03005KT 10SM OVC011 11/09 A3013 RMK AO2 SLP202 T01060089 53006=
03/05/2022 07:51->METAR KJFK 030751Z 03004KT 10SM OVC012 11/09 A3012 RMK AO2 SLP199 T01110094=
03/05/2022 06:51->METAR KJFK 030651Z 01008KT 10SM OVC012 11/09 A3011 RMK AO2 SLP195 T01060094=
03/05/2022 05:51->METAR KJFK 030551Z 35006KT 10SM BKN014 11/09 A3011 RMK AO2 SLP195 T01060094 10111 20100 50007=
03/05/2022 04:51->METAR KJFK 030451Z 33007KT 10SM BKN011 11/09 A3012 RMK AO2 SLP197 T01110094 401280100=
03/05/2022 03:51->METAR KJFK 030351Z 34004KT 10SM FEW008 FEW022 10/09 A3010 RMK AO2 SLP191 T01000094=
03/05/2022 02:51->METAR KJFK 030251Z 03007KT 10SM FEW008 SCT023 11/09 A3009 RMK AO2 SLP188 T01060089 51009=
03/05/2022 01:51->METAR KJFK 030151Z 03009KT 10SM BKN008 11/09 A3009 RMK AO2 SLP188 BKN V SCT T01060094=
03/05/2022 00:51->METAR KJFK 030051Z 01007KT 10SM BKN008 OVC021 11/09 A3007 RMK AO2 CIG 007V010 SLP182 T01110094=
02/05/2022 23:51->METAR KJFK 022351Z 01012KT 10SM BKN006 OVC012 11/09 A3006 RMK AO2 SLP179 60000 T01110094 10128 20106 53012=
02/05/2022 22:51->METAR KJFK 022251Z 36010KT 10SM SCT006 BKN012 OVC020 11/09 A3004 RMK AO2 SLP171 T01110094=
02/05/2022 21:51->METAR KJFK 022151Z 34009KT 10SM OVC005 12/11 A3003 RMK AO2 DZE47 SLP169 P0000 T01220111=
02/05/2022 20:51->METAR KJFK 022051Z 33006KT 6SM -DZ BR OVC005 13/12 A3003 RMK AO2 DZB49 SLP167 P0000 60000 T01280117 55000=
02/05/2022 19:51->METAR KJFK 021951Z 03007KT 8SM OVC005 13/12 A3001 RMK AO2 SLP162 T01280117=
02/05/2022 18:51->METAR KJFK 021851Z 06008KT 8SM OVC005 13/12 A3001 RMK AO2 DZE48 SLP163 P0000 T01280117=
02/05/2022 17:51->METAR KJFK 021751Z 08012KT 3SM -DZ BR OVC006 12/11 A3003 RMK AO2 SFC VIS 4 SLP167 P0001 60002 T01220111 10128 20117 58007=
02/05/2022 16:51->METAR KJFK 021651Z 08010KT 2 1/2SM -DZ BR OVC007 12/11 A3004 RMK AO2 SLP172 P0000 T01170111=
02/05/2022 15:51->METAR KJFK 021551Z 09012KT 5SM -DZ BR OVC008 12/11 A3004 RMK AO2 DZB11 SLP172 P0000 T01220106=
02/05/2022 14:51->METAR KJFK 021451Z 09011KT 10SM OVC012 13/11 A3005 RMK AO2 SLP174 60001 T01280106 58007=
02/05/2022 13:51->METAR KJFK 021351Z 09009KT 10SM FEW011 BKN018 OVC039 12/11 A3005 RMK AO2 RAE07 SLP177 P0000 T01220106=
02/05/2022 12:51->METAR KJFK 021251Z 07005KT 10SM -RA SCT012 BKN023 OVC070 12/11 A3007 RMK AO2 SLP182 P0001 T01220111=
02/05/2022 11:51->METAR KJFK 021151Z 20007KT 10SM -RA BKN011 OVC023 13/11 A3007 RMK AO2 PK WND 13026/1053 WSHFT 1039 SLP182 P0010 60049 70049 T01280106 10128 20106 53011=
02/05/2022 10:51->METAR KJFK 021051Z 13020G25KT 4SM R04R/6000VP6000FT TSRA BR BKN011CB OVC036 11/10 A3001 RMK AO2 LTG DSNT SW RAE14B16 TSB15 SLP163 OCNL LTGICCG NE-S TS NE-S MOV E P0037 T01110100=
02/05/2022 09:51->METAR KJFK 020951Z 11009KT 7SM -RA OVC015 11/09 A3004 RMK AO2 LTG DSNT SW AND W RAE01B47 SLP171 P0000 T01110089=
02/05/2022 08:51->METAR KJFK 020851Z 10007KT 10SM -RA BKN023 OVC028 11/07 A3004 RMK AO2 RAB17 SLP170 P0002 60002 T01110072 56015=
02/05/2022 07:51->METAR KJFK 020751Z 12006KT 10SM OVC026 12/07 A3005 RMK AO2 SLP174 T01220067=
02/05/2022 06:51->METAR KJFK 020651Z 10004KT 10SM OVC027 12/08 A3006 RMK AO2 SLP177 T01170078=
02/05/2022 05:51->METAR KJFK 020551Z 10004KT 10SM OVC055 12/08 A3008 RMK AO2 SLP185 60000 T01170078 10133 20111 58007=
02/05/2022 04:51->METAR KJFK 020451Z 13004KT 10SM BKN060 OVC100 12/08 A3010 RMK AO2 RAE0354 SLP191 P0000 T01170083 401720056=
02/05/2022 03:51->METAR KJFK 020351Z 15005KT 10SM -RA BKN065 OVC100 11/08 A3010 RMK AO2 RAB0259E22B43 SLP192 P0000 T01110083=
02/05/2022 02:51->METAR KJFK 020251Z 18010KT 10SM FEW060 OVC100 12/08 A3010 RMK AO2 SLP192 T01170078 53010=
02/05/2022 01:51->METAR KJFK 020151Z 17012KT 10SM FEW080 BKN100 12/06 A3008 RMK AO2 SLP186 T01220061=
02/05/2022 00:51->METAR KJFK 020051Z 16008KT 10SM FEW080 BKN110 12/06 A3007 RMK AO2 SLP181 T01220061=
01/05/2022 23:51->METAR KJFK 012351Z 13009KT 10SM SCT120 OVC200 13/03 A3007 RMK AO2 SLP181 T01280033 10172 20128 58011=
01/05/2022 22:51->METAR KJFK 012251Z 15007KT 10SM FEW140 OVC210 13/07 A3009 RMK AO2 SLP187 T01280067=
01/05/2022 21:51->METAR KJFK 012151Z 17009KT 10SM FEW140 SCT200 OVC220 14/05 A3010 RMK AO2 SLP194 T01390050=
01/05/2022 20:51->METAR KJFK 012051Z 17011KT 10SM FEW200 OVC240 14/02 A3010 RMK AO2 SLP192 T01440022 56012=
01/05/2022 19:51->METAR KJFK 011951Z 14009KT 10SM FEW140 FEW200 BKN240 16/01 A3010 RMK AO2 SLP193 T01560011=
01/05/2022 18:51->METAR KJFK 011851Z 17012KT 10SM FEW200 BKN240 17/02 A3012 RMK AO2 SLP198 T01670017=
01/05/2022 17:51->METAR KJFK 011751Z 17010KT 10SM FEW200 BKN250 17/02 A3014 RMK AO2 SLP204 T01670017 10167 20106 58007=
01/05/2022 16:51->METAR KJFK 011651Z 15013KT 10SM FEW200 BKN250 16/03 A3015 RMK AO2 SLP209 T01610028=
01/05/2022 15:51->METAR KJFK 011551Z 18009KT 10SM BKN250 15/04 A3016 RMK AO2 SLP211 T01500044=
01/05/2022 14:51->METAR KJFK 011451Z 19008KT 10SM BKN250 16/06 A3016 RMK AO2 SLP211 T01560061 53004=
01/05/2022 13:51->METAR KJFK 011351Z 07005KT 10SM CLR 16/M01 A3014 RMK AO2 SLP207 T01611006=
01/05/2022 12:51->METAR KJFK 011251Z 06006KT 10SM SCT250 14/02 A3015 RMK AO2 SLP208 T01390022=
01/05/2022 11:51->METAR KJFK 011151Z 05005KT 10SM SCT250 11/06 A3015 RMK AO2 SLP207 T01060056 10106 20056 53009=
01/05/2022 10:51->METAR KJFK 011051Z 05005KT 10SM FEW250 07/06 A3014 RMK AO2 SLP205 T00720056=
01/05/2022 09:51->METAR KJFK 010951Z 06003KT 10SM CLR 06/04 A3012 RMK AO2 SLP199 T00560044=
01/05/2022 08:51->METAR KJFK 010851Z 05004KT 10SM CLR 07/06 A3012 RMK AO2 SLP198 T00720056 53002=
01/05/2022 07:51->METAR KJFK 010751Z 31003KT 10SM CLR 08/06 A3011 RMK AO2 SLP196 T00830061=
01/05/2022 06:51->METAR KJFK 010651Z 22006KT 10SM FEW250 07/06 A3011 RMK AO2 SLP196 T00670056=
01/05/2022 05:51->METAR KJFK 010551Z 22005KT 10SM CLR 08/06 A3011 RMK AO2 SLP196 T00780056 10111 20067 58002=
01/05/2022 04:51->METAR KJFK 010451Z 21005KT 10SM CLR 07/05 A3012 RMK AO2 SLP199 T00720050 401890067=
01/05/2022 03:51->METAR KJFK 010351Z 22005KT 10SM FEW250 08/04 A3012 RMK AO2 SLP198 T00780044=
01/05/2022 02:51->METAR KJFK 010251Z 20006KT 10SM FEW250 08/04 A3012 RMK AO2 SLP198 T00830039 51013=
01/05/2022 01:51->METAR KJFK 010151Z 21010KT 10SM FEW250 10/03 A3012 RMK AO2 SLP198 T01000033=
01/05/2022 00:51->METAR KJFK 010051Z 20010KT 10SM FEW250 11/02 A3010 RMK AO2 SLP193 T01060022=
30/04/2022 23:51->METAR KJFK 302351Z 19013KT 10SM FEW250 11/01 A3008 RMK AO2 SLP185 T01060006 10189 20106 53008=
30/04/2022 22:51->METAR KJFK 302251Z 19015KT 10SM FEW250 12/01 A3007 RMK AO2 SLP180 T01170011=
30/04/2022 21:51->METAR KJFK 302151Z 19018KT 10SM CLR 13/01 A3006 RMK AO2 SLP180 T01280011=
30/04/2022 20:51->METAR KJFK 302051Z 19013KT 10SM CLR 15/01 A3006 RMK AO2 SLP177 WSHFT 2009 T01500011 55008=
30/04/2022 19:51->METAR KJFK 301951Z 32012G20KT 290V360 10SM CLR 19/M06 A3005 RMK AO2 SLP175 T01891061=
30/04/2022 18:51->METAR KJFK 301851Z 33011G16KT 10SM CLR 18/M07 A3006 RMK AO2 SLP179 T01781067=
30/04/2022 17:51->METAR KJFK 301751Z VRB04G18KT 10SM CLR 16/M07 A3008 RMK AO2 SLP185 T01611072 10172 20100 58016=
30/04/2022 16:51->METAR KJFK 301651Z 36012G22KT 10SM CLR 17/M07 A3010 RMK AO2 SLP193 T01671067=
30/04/2022 15:51->METAR KJFK 301551Z 33004G16KT 10SM CLR 16/M08 A3011 RMK AO2 SLP195 T01561078=
30/04/2022 14:51->METAR KJFK 301451Z 31013G17KT 10SM CLR 14/M08 A3013 RMK AO2 SLP201 T01441078 58012=
30/04/2022 13:51->METAR KJFK 301351Z 35010KT 10SM CLR 13/M07 A3014 RMK AO2 SLP207 T01281072=
30/04/2022 12:51->METAR KJFK 301251Z 33008KT 10SM CLR 12/M07 A3016 RMK AO2 SLP211 T01171072=
30/04/2022 11:51->METAR KJFK 301151Z 32011KT 10SM CLR 10/M07 A3016 RMK AO2 SLP213 T01001072 10100 20067 51011=
30/04/2022 10:51->METAR KJFK 301051Z 31010KT 10SM CLR 08/M07 A3015 RMK AO2 SLP211 T00781067=
30/04/2022 09:51->METAR KJFK 300951Z 32009KT 10SM CLR 07/M08 A3014 RMK AO2 SLP207 T00671078=
30/04/2022 08:51->METAR KJFK 300851Z 33010KT 10SM CLR 07/M08 A3013 RMK AO2 SLP202 T00721078 55001=
30/04/2022 07:51->METAR KJFK 300751Z 33009KT 10SM CLR 08/M08 A3013 RMK AO2 SLP202 T00781078=
30/04/2022 06:51->METAR KJFK 300651Z 33009KT 10SM CLR 08/M08 A3013 RMK AO2 SLP202 T00831078=
30/04/2022 05:51->METAR KJFK 300551Z 34012KT 10SM CLR 09/M08 A3013 RMK AO2 SLP203 T00941083 10144 20094 50009=
30/04/2022 04:51->METAR KJFK 300451Z 33012KT 10SM CLR 10/M09 A3014 RMK AO2 SLP205 T01001089 401720056=
30/04/2022 03:51->METAR KJFK 300351Z 34013KT 10SM CLR 11/M09 A3012 RMK AO2 SLP198 T01061094=
30/04/2022 02:51->METAR KJFK 300251Z 34015KT 10SM CLR 12/M11 A3011 RMK AO2 SLP194 T01171111 51027=
30/04/2022 01:51->METAR KJFK 300151Z 34015G20KT 10SM CLR 13/M12 A3009 RMK AO2 SLP189 T01281122=
30/04/2022 00:51->METAR KJFK 300051Z 33015KT 10SM FEW250 13/M13 A3006 RMK AO2 SLP179 T01331133=
29/04/2022 23:51->METAR KJFK 292351Z 35016KT 10SM CLR 14/M14 A3003 RMK AO2 PK WND 35026/2323 SLP167 T01441144 10172 20144 53013=
29/04/2022 22:51->METAR KJFK 292251Z 34016KT 10SM CLR 16/M14 A3000 RMK AO2 PK WND 33027/2216 SLP159 T01561144=
29/04/2022 21:51->METAR KJFK 292151Z 34016G23KT 10SM FEW250 17/M14 A2999 RMK AO2 PK WND 34032/2110 SLP156 T01671139=
29/04/2022 20:51->METAR KJFK 292051Z 33015G24KT 10SM FEW250 17/M13 A2999 RMK AO2 PK WND 33028/2007 SLP154 T01721133 55009=
29/04/2022 19:51->METAR KJFK 291951Z 31015G28KT 10SM FEW250 17/M13 A2999 RMK AO2 PK WND 35031/1904 SLP153 T01721133=
29/04/2022 18:51->METAR KJFK 291851Z 30021G27KT 10SM FEW250 17/M14 A3000 RMK AO2 PK WND 33032/1829 SLP158 T01671144=
29/04/2022 17:51->METAR KJFK 291751Z 33022G29KT 10SM FEW250 16/M15 A3001 RMK AO2 PK WND 32032/1704 SLP163 T01561150 10161 20072 58026=
29/04/2022 16:51->METAR KJFK 291651Z 31021G27KT 10SM FEW250 15/M13 A3004 RMK AO2 PK WND 32029/1607 SLP173 T01501133=
29/04/2022 15:51->METAR KJFK 291551Z 30019G29KT 10SM FEW250 13/M12 A3007 RMK AO2 PK WND 32031/1541 SLP183 T01331117=
29/04/2022 14:51->METAR KJFK 291451Z 32017G27KT 10SM FEW250 11/M12 A3009 RMK AO2 PK WND 33028/1436 SLP190 T01111122 58010=
29/04/2022 13:51->METAR KJFK 291351Z 31018G27KT 10SM FEW250 10/M12 A3010 RMK AO2 PK WND 34029/1341 SLP193 T01001122=
29/04/2022 12:51->METAR KJFK 291251Z 31017G23KT 10SM FEW250 08/M11 A3012 RMK AO2 SLP198 T00831111=
29/04/2022 11:51->METAR KJFK 291151Z 31017KT 10SM FEW250 07/M11 A3012 RMK AO2 SLP200 T00721111 10072 20056 50008=
29/04/2022 10:51->METAR KJFK 291051Z 30016G22KT 10SM FEW250 06/M11 A3012 RMK AO2 SLP200 T00611106=
29/04/2022 09:51->METAR KJFK 290951Z 30015KT 10SM CLR 06/M11 A3011 RMK AO2 SLP197 T00561111=
29/04/2022 08:51->METAR KJFK 290851Z 31012KT 10SM CLR 06/M11 A3010 RMK AO2 SLP192 T00561111 53002=
29/04/2022 07:51->METAR KJFK 290751Z 30011KT 10SM CLR 06/M12 A3010 RMK AO2 SLP191 T00611117=
29/04/2022 06:51->METAR KJFK 290651Z 30013KT 10SM CLR 07/M12 A3009 RMK AO2 SLP190 T00671122=
29/04/2022 05:51->METAR KJFK 290551Z 31013KT 10SM CLR 07/M12 A3009 RMK AO2 SLP190 T00671122 10111 20067 50001=
29/04/2022 04:51->METAR KJFK 290451Z 30014KT 10SM CLR 07/M12 A3010 RMK AO2 SLP192 T00721122 401440044=
29/04/2022 03:51->METAR KJFK 290351Z 32015G21KT 10SM CLR 08/M12 A3010 RMK AO2 PK WND 33031/0309 SLP192 T00781122=
29/04/2022 02:51->METAR KJFK 290251Z 33023G29KT 10SM CLR 08/M13 A3009 RMK AO2 PK WND 32029/0242 SLP189 T00831128 51032=
29/04/2022 01:51->METAR KJFK 290151Z 33021G26KT 10SM CLR 09/M12 A3007 RMK AO2 PK WND 34032/0118 SLP180 T00891122=
29/04/2022 00:51->METAR KJFK 290051Z 33012G21KT 10SM CLR 10/M13 A3003 RMK AO2 PK WND 32030/0001 SLP168 T01001133=
28/04/2022 23:51->METAR KJFK 282351Z 33019G34KT 10SM CLR 11/M14 A2999 RMK AO2 PK WND 33035/2313 SLP156 T01111139 10144 20111 53019=
28/04/2022 22:51->METAR KJFK 282251Z 33025G36KT 10SM CLR 12/M14 A2996 RMK AO2 PK WND 32036/2246 SLP145 T01221144=
28/04/2022 21:51->METAR KJFK 282151Z 33020G29KT 10SM CLR 13/M15 A2995 RMK AO2 PK WND 32033/2121 SLP141 T01331150=
28/04/2022 20:51->METAR KJFK 282051Z 34022G36KT 10SM CLR 14/M15 A2994 RMK AO2 PK WND 30040/2017 SLP137 T01391150 56005=
28/04/2022 19:51->METAR KJFK 281951Z 31023G34KT 10SM CLR 14/M14 A2994 RMK AO2 PK WND 33038/1912 SLP138 T01391139=
28/04/2022 18:51->METAR KJFK 281851Z 32024G32KT 10SM CLR 14/M13 A2994 RMK AO2 PK WND 31037/1827 SLP139 T01391128=
28/04/2022 17:51->METAR KJFK 281751Z 31019G34KT 10SM CLR 14/M11 A2995 RMK AO2 PK WND 31037/1729 SLP142 T01391111 10139 20061 58021=
28/04/2022 16:51->METAR KJFK 281651Z 30020G32KT 10SM FEW070 12/M10 A2998 RMK AO2 PK WND 31033/1618 SLP151 T01221100=
28/04/2022 15:51->METAR KJFK 281551Z 31021G33KT 10SM FEW065 11/M09 A3000 RMK AO2 PK WND 31033/1546 SLP158 T01111094=
28/04/2022 14:51->METAR KJFK 281451Z 32022G34KT 10SM FEW055 10/M07 A3002 RMK AO2 PK WND 32034/1448 SLP164 T01001072 58007=
28/04/2022 13:51->METAR KJFK 281351Z 33019G29KT 10SM SCT049 08/M07 A3003 RMK AO2 PK WND 33030/1315 SLP167 T00831067=
28/04/2022 12:51->METAR KJFK 281251Z 33019G31KT 10SM BKN047 BKN230 07/M06 A3003 RMK AO2 PK WND 33031/1245 SLP170 T00671056=
28/04/2022 11:51->METAR KJFK 281151Z 31015G28KT 10SM BKN046 BKN230 06/M05 A3004 RMK AO2 PK WND 32029/1117 SLP171 T00611050 10061 20044 53019=
28/04/2022 10:51->METAR KJFK 281051Z 33015G22KT 10SM SCT045 BKN200 05/M04 A3001 RMK AO2 SLP163 T00501044=
28/04/2022 09:51->METAR KJFK 280951Z 31022G27KT 10SM BKN044 BKN200 04/M04 A3000 RMK AO2 PK WND 33030/0940 SLP157 T00441044=
28/04/2022 08:51->METAR KJFK 280851Z 32019G24KT 10SM OVC048 05/M04 A2998 RMK AO2 SLP152 T00501044 56011=
28/04/2022 07:51->METAR KJFK 280751Z 31017G24KT 10SM BKN050 05/M05 A2999 RMK AO2 PK WND 31026/0701 SLP156 T00501050=
28/04/2022 06:51->METAR KJFK 280651Z 31017G23KT 10SM BKN049 05/M05 A3000 RMK AO2 PK WND 30030/0625 SLP159 T00501050=
28/04/2022 05:51->METAR KJFK 280551Z 30015KT 10SM FEW050 05/M06 A3001 RMK AO2 SLP163 T00501061 10089 20050 58003=
28/04/2022 04:51->METAR KJFK 280451Z 30016KT 10SM FEW050 05/M07 A3002 RMK AO2 PK WND 31027/0428 SLP166 T00501067 401440050=
28/04/2022 03:51->METAR KJFK 280351Z 31018G31KT 10SM SCT055 06/M07 A3003 RMK AO2 PK WND 33031/0342 SLP167 T00561067=
28/04/2022 02:51->METAR KJFK 280251Z 30022G28KT 10SM SCT060 06/M06 A3002 RMK AO2 PK WND 33029/0159 SLP166 T00611056 51018=
28/04/2022 01:51->METAR KJFK 280151Z 32023G30KT 10SM SCT060 07/M06 A3002 RMK AO2 PK WND 33032/0109 SLP165 T00671056=
28/04/2022 00:51->METAR KJFK 280051Z 31023G31KT 10SM BKN065 08/M06 A2999 RMK AO2 PK WND 33031/0015 SLP154 T00781061=
27/04/2022 23:51->METAR KJFK 272351Z 31027G34KT 10SM BKN065 BKN080 09/M06 A2997 RMK AO2 PK WND 32034/2350 SLP148 T00891056 10139 20089 51019=
27/04/2022 22:51->METAR KJFK 272251Z 30020G29KT 10SM BKN065 BKN080 10/M05 A2995 RMK AO2 PK WND 29029/2243 SLP141 VIRGA SE-S T01001050=
27/04/2022 21:51->METAR KJFK 272151Z 28021G30KT 10SM SCT070 SCT085 SCT250 11/M06 A2994 RMK AO2 PK WND 31031/2100 SLP137 T01111056=
27/04/2022 20:51->METAR KJFK 272051Z 29022G32KT 10SM SCT070 SCT250 12/M05 A2991 RMK AO2 PK WND 29032/1952 SLP129 T01221050 51003=
27/04/2022 19:51->METAR KJFK 271951Z 30020G32KT 10SM SCT070 SCT250 13/M04 A2991 RMK AO2 PK WND 30034/1925 SLP127 T01331044=
27/04/2022 18:51->METAR KJFK 271851Z 30022G32KT 10SM BKN070 BKN250 13/M04 A2991 RMK AO2 PK WND 30032/1846 SLP128 T01331044=
27/04/2022 17:51->METAR KJFK 271751Z 31022G28KT 10SM BKN075 12/M04 A2991 RMK AO2 PK WND 31031/1706 SLP126 T01221039 10144 20100 55009=
27/04/2022 16:51->METAR KJFK 271651Z 30016G27KT 10SM BKN070 13/M04 A2990 RMK AO2 PK WND 30031/1616 SLP124 T01281039=
27/04/2022 15:51->METAR KJFK 271551Z 28018G25KT 10SM BKN065 BKN095 12/M03 A2992 RMK AO2 PK WND 28028/1521 SLP130 T01221033=
27/04/2022 14:51->METAR KJFK 271451Z 30016G23KT 10SM SCT060 SCT250 13/M02 A2993 RMK AO2 PK WND 30026/1436 SLP135 T01281022 57011=
27/04/2022 13:51->METAR KJFK 271351Z 30018G28KT 10SM FEW055 FEW085 FEW250 12/M02 A2994 RMK AO2 PK WND 30030/1309 SLP138 T01221017=
27/04/2022 12:51->METAR KJFK 271251Z 31019G26KT 10SM FEW055 FEW085 SCT250 11/M02 A2996 RMK AO2 PK WND 33031/1224 SLP143 T01111017=
27/04/2022 11:51->METAR KJFK 271151Z 31018KT 10SM FEW055 SCT250 10/M02 A2996 RMK AO2 PK WND 30026/1137 SLP146 70006 T01001017 10139 20089 50003=
27/04/2022 10:51->METAR KJFK 271051Z 30018G24KT 10SM FEW055 SCT250 09/M01 A2997 RMK AO2 SLP147 T00941011=
27/04/2022 09:51->METAR KJFK 270951Z 31017G25KT 10SM SCT055 09/02 A2996 RMK AO2 SLP145 T00940017=
27/04/2022 08:51->METAR KJFK 270851Z 32014G21KT 10SM OVC049 09/02 A2995 RMK AO2 PK WND 30026/0810 SLP143 T00940022 51014=
27/04/2022 07:51->METAR KJFK 270751Z 31015KT 10SM SCT039 BKN065 10/03 A2995 RMK AO2 SLP141 T01000033=
27/04/2022 06:51->METAR KJFK 270651Z 32015G24KT 10SM FEW022 BKN055 11/07 A2992 RMK AO2 PK WND 30031/0611 SLP133 T01110067=
27/04/2022 05:51->METAR KJFK 270551Z 27012KT 10SM BKN070 BKN140 14/12 A2991 RMK AO2 SLP129 60001 T01390117 10139 20122 58008=
27/04/2022 04:51->METAR KJFK 270451Z 24006KT 6SM BR SCT016 SCT065 OVC140 12/12 A2992 RMK AO2 SLP133 T01220117 401560106=
27/04/2022 03:51->METAR KJFK 270351Z 23007KT 6SM BR SCT020 OVC100 12/12 A2994 RMK AO2 RAE0258B15E46 SLP137 P0000 T01220117=
27/04/2022 02:51->METAR KJFK 270251Z 21004KT 8SM -RA OVC090 13/12 A2994 RMK AO2 RAE03B23 SLP138 P0000 60001 T01280122 56010=
27/04/2022 01:51->METAR KJFK 270151Z 04003KT 10SM -RA OVC080 13/12 A2995 RMK AO2 RAB12 SLP143 P0001 T01330122=
27/04/2022 00:51->METAR KJFK 270051Z 05005KT 10SM FEW029 OVC075 13/12 A2995 RMK AO2 RAE2353B24E41 SLP143 P0000 T01330117=
26/04/2022 23:51->METAR KJFK 262351Z 03005KT 10SM -RA FEW065 BKN080 BKN095 OVC160 13/12 A2997 RMK AO2 RAB03 SLP148 P0004 60005 T01280117 10156 20128 58000=
26/04/2022 22:51->METAR KJFK 262251Z 35007KT 10SM FEW017 SCT041 OVC065 13/12 A2998 RMK AO2 RAB29E50 SLP153 P0001 T01330117=
26/04/2022 21:51->METAR KJFK 262151Z 34008KT 10SM FEW017 SCT050 BKN095 BKN250 14/11 A2997 RMK AO2 SLP149 T01440111=
26/04/2022 20:51->METAR KJFK 262051Z 36009KT 10SM FEW014 BKN029 BKN044 14/11 A2997 RMK AO2 SLP149 T01390106 58007=
26/04/2022 19:51->METAR KJFK 261951Z 32012KT 10SM OVC011 14/10 A2999 RMK AO2 WSHFT 1937 SLP155 T01390100=
26/04/2022 18:51->METAR KJFK 261851Z 11004KT 10SM BKN009 OVC016 14/12 A2999 RMK AO2 SLP155 T01440122=
26/04/2022 17:51->METAR KJFK 261751Z 15005KT 10SM OVC012 15/12 A3001 RMK AO2 SLP162 T01500117 10156 20111 56023=
26/04/2022 16:51->METAR KJFK 261651Z 11007KT 10SM OVC014 15/11 A3003 RMK AO2 SLP168 T01500111=
26/04/2022 15:51->METAR KJFK 261551Z 07006KT 10SM OVC024 14/11 A3006 RMK AO2 SLP179 T01440111=
26/04/2022 14:51->METAR KJFK 261451Z 05005KT 10SM FEW005 OVC023 13/11 A3008 RMK AO2 SLP185 T01330111 56016=
26/04/2022 13:51->METAR KJFK 261351Z 07006KT 10SM FEW005 OVC022 12/11 A3009 RMK AO2 SLP189 T01220111=
26/04/2022 12:51->METAR KJFK 261251Z 05006KT 7SM SCT004 OVC021 12/11 A3011 RMK AO2 SLP195 T01170106=
26/04/2022 11:51->METAR KJFK 261151Z 05006KT 6SM BR OVC022 11/10 A3013 RMK AO2 SLP202 60000 T01110100 10111 20106 58004=
26/04/2022 10:51->METAR KJFK 261051Z 06006KT 7SM OVC021 11/09 A3013 RMK AO2 SLP203 T01060089=
26/04/2022 09:51->METAR KJFK 260951Z 06006KT 10SM OVC018 11/08 A3014 RMK AO2 RAB04E13 SLP206 P0000 T01110078=
26/04/2022 08:51->METAR KJFK 260851Z 09006KT 10SM OVC023 11/07 A3014 RMK AO2 SLP206 T01110072 56013=
26/04/2022 07:51->METAR KJFK 260751Z 10006KT 10SM OVC025 11/07 A3014 RMK AO2 SLP207 T01060067=
26/04/2022 06:51->METAR KJFK 260651Z 11008KT 10SM OVC028 11/06 A3015 RMK AO2 SLP209 T01060061=
26/04/2022 05:51->METAR KJFK 260551Z 11009KT 10SM OVC028 11/06 A3018 RMK AO2 SLP218 T01060061 10106 20100 58014=
26/04/2022 04:51->METAR KJFK 260451Z 11009KT 10SM OVC034 11/06 A3020 RMK AO2 SLP227 T01060056 401280067=
26/04/2022 03:51->METAR KJFK 260351Z 11009KT 10SM OVC034 11/05 A3021 RMK AO2 SLP229 T01060050=
26/04/2022 02:51->METAR KJFK 260251Z 10008KT 10SM OVC033 10/04 A3022 RMK AO2 SLP232 T01000044 58006=
26/04/2022 01:51->METAR KJFK 260151Z 11008KT 10SM OVC031 11/04 A3023 RMK AO2 SLP236 T01060039=
26/04/2022 00:51->METAR KJFK 260051Z 10010KT 10SM OVC035 10/03 A3023 RMK AO2 SLP237 T01000033=
25/04/2022 23:51->METAR KJFK 252351Z 11006KT 10SM OVC034 11/03 A3024 RMK AO2 SLP238 T01060028 10122 20106 56011=
25/04/2022 22:51->METAR KJFK 252251Z 09009KT 10SM OVC034 11/03 A3024 RMK AO2 SLP240 T01060028=
25/04/2022 21:51->METAR KJFK 252151Z 11008KT 10SM OVC035 12/02 A3026 RMK AO2 SLP245 T01170017=
25/04/2022 20:51->METAR KJFK 252051Z 12011KT 10SM OVC036 12/01 A3027 RMK AO2 SLP249 T01220011 56008=
25/04/2022 19:51->METAR KJFK 251951Z 11014KT 10SM OVC036 12/02 A3027 RMK AO2 SLP250 T01170017=
25/04/2022 18:51->METAR KJFK 251851Z 10014KT 10SM OVC037 12/01 A3028 RMK AO2 SLP252 T01220011=
25/04/2022 17:51->METAR KJFK 251751Z 10013KT 10SM OVC039 12/01 A3029 RMK AO2 SLP257 T01220006 10128 20094 53005=
25/04/2022 16:51->METAR KJFK 251651Z 10009KT 10SM FEW026 OVC037 12/00 A3028 RMK AO2 SLP255 T01220000=
25/04/2022 15:51->METAR KJFK 251551Z 12008KT 10SM OVC035 12/M02 A3028 RMK AO2 SLP253 T01221022=
25/04/2022 14:51->METAR KJFK 251451Z 10010KT 10SM BKN035 OVC250 13/M07 A3027 RMK AO2 SLP251 T01281072 52007=
25/04/2022 13:51->METAR KJFK 251351Z 10011KT 10SM BKN044 OVC250 12/M06 A3026 RMK AO2 SLP247 T01221056=
25/04/2022 12:51->METAR KJFK 251251Z 08010KT 10SM FEW026 BKN046 BKN250 11/M02 A3027 RMK AO2 SLP249 T01111022=
25/04/2022 11:51->METAR KJFK 251151Z 08008KT 10SM FEW026 BKN046 BKN250 09/02 A3026 RMK AO2 SLP245 T00940017 10094 20067 51014=
25/04/2022 10:51->METAR KJFK 251051Z 04007KT 10SM FEW024 BKN250 08/03 A3025 RMK AO2 SLP242 T00780028=
25/04/2022 09:51->METAR KJFK 250951Z 04006KT 10SM FEW024 BKN250 07/02 A3023 RMK AO2 SLP237 T00670022=
25/04/2022 08:51->METAR KJFK 250851Z 06004KT 10SM BKN250 07/02 A3021 RMK AO2 SLP231 T00720022 55002=
25/04/2022 07:51->METAR KJFK 250751Z 08007KT 10SM BKN250 08/03 A3021 RMK AO2 SLP228 T00780028=
25/04/2022 06:51->METAR KJFK 250651Z 07004KT 10SM BKN250 07/02 A3021 RMK AO2 SLP231 T00720022=
25/04/2022 05:51->METAR KJFK 250551Z 08005KT 10SM BKN250 07/02 A3022 RMK AO2 SLP233 T00720022 10083 20072 58009=
25/04/2022 04:51->METAR KJFK 250451Z 07005KT 10SM SCT250 07/03 A3023 RMK AO2 SLP237 T00720028 401560072=
25/04/2022 03:51->METAR KJFK 250351Z 08004KT 10SM FEW250 07/03 A3024 RMK AO2 SLP239 T00720028=
25/04/2022 02:51->METAR KJFK 250251Z 08004KT 10SM FEW250 08/02 A3025 RMK AO2 SLP242 T00780022 58005=
25/04/2022 01:51->METAR KJFK 250151Z 09004KT 10SM SCT250 08/02 A3026 RMK AO2 SLP246 T00780017=
25/04/2022 00:51->METAR KJFK 250051Z 08008KT 10SM SCT250 08/01 A3027 RMK AO2 SLP248 T00780011=
24/04/2022 23:51->METAR KJFK 242351Z 10011KT 10SM BKN250 08/00 A3026 RMK AO2 SLP247 T00830000 10133 20083 50001=
24/04/2022 22:51->METAR KJFK 242251Z 10013KT 10SM FEW250 09/00 A3026 RMK AO2 SLP248 T00940000=
24/04/2022 21:51->METAR KJFK 242151Z 12015G21KT 10SM FEW250 10/01 A3026 RMK AO2 SLP247 T01000011=
24/04/2022 20:51->METAR KJFK 242051Z 10012G22KT 10SM FEW150 SCT250 11/02 A3026 RMK AO2 SLP246 T01110022 56004=
24/04/2022 19:51->METAR KJFK 241951Z 11017KT 10SM FEW150 BKN250 12/02 A3026 RMK AO2 SLP247 T01170017=
24/04/2022 18:51->METAR KJFK 241851Z 10020G25KT 10SM FEW040 SCT150 BKN250 12/02 A3027 RMK AO2 SLP248 T01220017=
24/04/2022 17:51->METAR KJFK 241751Z 10020G27KT 10SM FEW040 SCT090 BKN150 12/02 A3027 RMK AO2 PK WND 11028/1733 SLP250 T01220022 10156 20117 50001=
24/04/2022 16:51->METAR KJFK 241651Z 12018G25KT 10SM FEW065 SCT090 BKN150 12/00 A3029 RMK AO2 PK WND 11027/1640 SLP255 T01170000=
24/04/2022 15:51->METAR KJFK 241551Z 11017G26KT 10SM FEW065 BKN150 13/01 A3028 RMK AO2 PK WND 09026/1546 SLP252 T01330011=
24/04/2022 14:51->METAR KJFK 241451Z 11020KT 10SM FEW060 FEW090 BKN170 13/01 A3027 RMK AO2 SLP249 T01330011 53005=
24/04/2022 13:51->METAR KJFK 241351Z 10018KT 10SM FEW060 FEW090 SCT160 13/01 A3026 RMK AO2 SLP247 T01330006=
24/04/2022 12:51->METAR KJFK 241251Z 11010KT 10SM SCT060 SCT090 BKN160 15/02 A3025 RMK AO2 SLP243 T01500022=
24/04/2022 11:51->METAR KJFK 241151Z 06009KT 10SM FEW055 SCT070 SCT090 BKN160 13/06 A3025 RMK AO2 SLP244 T01280056 10128 20089 53009=
24/04/2022 10:51->METAR KJFK 241051Z 06006KT 10SM FEW070 BKN090 BKN160 10/07 A3025 RMK AO2 SLP242 T01000072=
24/04/2022 09:51->METAR KJFK 240951Z 04006KT 10SM FEW080 SCT130 09/07 A3023 RMK AO2 SLP236 T00890067=
24/04/2022 08:51->METAR KJFK 240851Z 07003KT 10SM BKN085 BKN120 10/08 A3023 RMK AO2 SLP235 T01000078 55006=
24/04/2022 07:51->METAR KJFK 240751Z 00000KT 10SM SCT110 BKN140 10/08 A3022 RMK AO2 SLP233 T01000078=
24/04/2022 06:51->METAR KJFK 240651Z 00000KT 10SM SCT110 BKN150 10/07 A3023 RMK AO2 SLP235 T01000072=
24/04/2022 05:51->METAR KJFK 240551Z 15003KT 10SM SCT080 BKN090 OVC110 11/08 A3024 RMK AO2 SLP241 T01060078 10111 20106 58011=
24/04/2022 04:51->METAR KJFK 240451Z 12005KT 10SM FEW080 OVC110 11/08 A3027 RMK AO2 SLP248 T01060078 401500089=
24/04/2022 03:51->METAR KJFK 240351Z 10005KT 10SM BKN080 OVC110 11/08 A3027 RMK AO2 SLP249 T01110078=
24/04/2022 02:51->METAR KJFK 240251Z 12004KT 10SM OVC080 11/08 A3028 RMK AO2 SLP252 T01110078 50004=
24/04/2022 01:51->METAR KJFK 240151Z 12003KT 10SM OVC095 11/07 A3028 RMK AO2 SLP255 T01110072=
24/04/2022 00:51->METAR KJFK 240051Z 17004KT 10SM BKN060 BKN100 OVC110 11/07 A3027 RMK AO2 SLP249 T01110072=
23/04/2022 23:51->METAR KJFK 232351Z 19006KT 10SM OVC070 11/07 A3027 RMK AO2 SLP248 T01110067 10144 20111 58004=
23/04/2022 22:51->METAR KJFK 232251Z 18009KT 10SM BKN060 OVC085 11/06 A3027 RMK AO2 SLP249 T01110061=
23/04/2022 21:51->METAR KJFK 232151Z 16007KT 10SM SCT080 BKN120 BKN250 12/05 A3028 RMK AO2 SLP253 T01220050=
23/04/2022 20:51->METAR KJFK 232051Z 14010KT 10SM FEW080 BKN250 13/03 A3028 RMK AO2 SLP252 T01330033 56029=
23/04/2022 19:51->METAR KJFK 231951Z 15012KT 10SM SCT100 BKN250 14/02 A3030 RMK AO2 SLP261 T01390022=
23/04/2022 18:51->METAR KJFK 231851Z 15010KT 10SM BKN100 BKN250 14/02 A3033 RMK AO2 SLP271 T01390017=
23/04/2022 17:51->METAR KJFK 231751Z 15011KT 10SM SCT090 BKN120 BKN250 14/01 A3036 RMK AO2 SLP281 T01440006 10150 20106 58017=
23/04/2022 16:51->METAR KJFK 231651Z 14011KT 10SM FEW090 BKN120 BKN250 15/00 A3039 RMK AO2 SLP289 T01500000=
23/04/2022 15:51->METAR KJFK 231551Z 13008KT 10SM BKN100 BKN250 14/00 A3040 RMK AO2 SLP292 T01440000=
23/04/2022 14:51->METAR KJFK 231451Z 11007KT 10SM BKN110 BKN250 15/M01 A3041 RMK AO2 SLP299 T01501006 58007=
23/04/2022 13:51->METAR KJFK 231351Z VRB04KT 10SM BKN120 BKN250 14/M01 A3043 RMK AO2 SLP303 T01391011=
23/04/2022 12:51->METAR KJFK 231251Z 07008KT 10SM BKN130 BKN250 12/M01 A3043 RMK AO2 SLP305 T01171006=
23/04/2022 11:51->METAR KJFK 231151Z 05007KT 10SM BKN140 BKN250 11/M01 A3044 RMK AO2 SLP306 T01061006 10117 20089 53013=
23/04/2022 10:51->METAR KJFK 231051Z 03007KT 10SM BKN150 BKN250 11/M01 A3042 RMK AO2 SLP301 T01061006=
23/04/2022 09:51->METAR KJFK 230951Z 01006KT 10SM BKN150 BKN250 10/00 A3040 RMK AO2 SLP294 T01000000=
23/04/2022 08:51->METAR KJFK 230851Z 01005KT 10SM BKN250 10/M01 A3040 RMK AO2 SLP293 T01001006 55004=
23/04/2022 07:51->METAR KJFK 230751Z 01006KT 10SM BKN250 10/M01 A3039 RMK AO2 SLP290 T01001011=
23/04/2022 06:51->METAR KJFK 230651Z 02006KT 10SM BKN250 10/M01 A3039 RMK AO2 SLP290 T01001011=
23/04/2022 05:51->METAR KJFK 230551Z 01005KT 10SM BKN250 11/M01 A3041 RMK AO2 SLP297 T01111011 10178 20111 50004=
23/04/2022 04:51->METAR KJFK 230451Z 03006KT 10SM BKN250 11/M01 A3042 RMK AO2 SLP300 T01111011 402110072=
23/04/2022 03:51->METAR KJFK 230351Z 02008KT 10SM BKN250 13/M01 A3040 RMK AO2 SLP295 T01281011=
23/04/2022 02:51->METAR KJFK 230251Z 02010KT 10SM BKN250 14/M02 A3040 RMK AO2 SLP293 T01441022 51017=
23/04/2022 01:51->METAR KJFK 230151Z 33012KT 10SM BKN250 16/M03 A3038 RMK AO2 SLP288 T01611028=
23/04/2022 00:51->METAR KJFK 230051Z 31009KT 10SM BKN250 17/M03 A3037 RMK AO2 SLP283 T01671033=
22/04/2022 23:51->METAR KJFK 222351Z 34009KT 10SM BKN250 17/M04 A3035 RMK AO2 SLP277 T01721039 10211 20172 53012=
22/04/2022 22:51->METAR KJFK 222251Z 33015KT 10SM BKN250 19/M04 A3033 RMK AO2 SLP269 T01891044=
22/04/2022 21:51->METAR KJFK 222151Z 34013G22KT 10SM SCT250 20/M04 A3032 RMK AO2 SLP268 T02001044=
22/04/2022 20:51->METAR KJFK 222051Z 30011G21KT 10SM FEW250 21/M04 A3031 RMK AO2 SLP265 T02061039 55008=
22/04/2022 19:51->METAR KJFK 221951Z 30011KT 10SM FEW250 21/M04 A3031 RMK AO2 SLP264 T02061039=
22/04/2022 18:51->METAR KJFK 221851Z 32019G23KT 10SM FEW250 21/M04 A3033 RMK AO2 SLP271 T02061039=
22/04/2022 17:51->METAR KJFK 221751Z 33019G25KT 10SM SCT250 21/M04 A3034 RMK AO2 PK WND 33027/1729 SLP273 T02061044 10206 20139 58011=
22/04/2022 16:51->METAR KJFK 221651Z 30017G23KT 10SM FEW075 FEW250 20/00 A3036 RMK AO2 PK WND 30026/1611 SLP279 T02000000=
22/04/2022 15:51->METAR KJFK 221551Z 31014G24KT 10SM FEW070 FEW250 19/03 A3036 RMK AO2 SLP281 T01890028=
22/04/2022 14:51->METAR KJFK 221451Z 32020KT 10SM FEW070 FEW250 18/03 A3037 RMK AO2 PK WND 36030/1418 SLP284 T01830033 52003=
22/04/2022 13:51->METAR KJFK 221351Z 33014KT 10SM FEW250 17/07 A3037 RMK AO2 SLP282 T01720072=
22/04/2022 12:51->METAR KJFK 221251Z 31014KT 10SM FEW250 16/08 A3037 RMK AO2 SLP283 T01610083=
22/04/2022 11:51->METAR KJFK 221151Z 27010KT 10SM FEW045 FEW250 14/07 A3036 RMK AO2 SLP281 T01390072 10139 20072 53015=
22/04/2022 10:51->METAR KJFK 221051Z 26007KT 10SM FEW045 FEW250 11/07 A3035 RMK AO2 SLP275 T01060067=
22/04/2022 09:51->METAR KJFK 220951Z 25008KT 10SM FEW045 09/06 A3033 RMK AO2 SLP269 T00890061=
22/04/2022 08:51->METAR KJFK 220851Z 22006KT 10SM CLR 08/06 A3032 RMK AO2 SLP266 T00780056 56007=
22/04/2022 07:51->METAR KJFK 220751Z 22007KT 10SM CLR 08/06 A3032 RMK AO2 SLP268 T00780056=
22/04/2022 06:51->METAR KJFK 220651Z 21005KT 10SM CLR 08/06 A3033 RMK AO2 SLP271 T00830056=
22/04/2022 05:51->METAR KJFK 220551Z 21006KT 10SM FEW045 08/06 A3034 RMK AO2 SLP273 T00780056 10106 20078 58002=
22/04/2022 04:51->METAR KJFK 220451Z 18005KT 10SM FEW045 08/06 A3035 RMK AO2 SLP276 T00830061 401330044=
22/04/2022 03:51->METAR KJFK 220351Z 17006KT 10SM FEW047 09/06 A3035 RMK AO2 SLP276 T00890061=
22/04/2022 02:51->METAR KJFK 220251Z 19009KT 10SM OVC047 11/07 A3035 RMK AO2 SLP276 T01060067 58002=
22/04/2022 01:51->METAR KJFK 220151Z 19011KT 10SM BKN045 BKN060 11/07 A3035 RMK AO2 SLP278 T01060067=
22/04/2022 00:51->METAR KJFK 220051Z 18015KT 10SM SCT065 BKN080 BKN120 11/06 A3035 RMK AO2 SLP277 T01060061=
21/04/2022 23:51->METAR KJFK 212351Z 18017KT 10SM SCT065 BKN095 BKN110 OVC130 11/06 A3035 RMK AO2 SLP278 60000 T01060061 10133 20100 58005=
21/04/2022 22:51->METAR KJFK 212251Z 18018G25KT 10SM BKN075 BKN100 BKN140 OVC250 10/06 A3035 RMK AO2 SLP278 T01000061=
21/04/2022 21:51->METAR KJFK 212151Z 17016KT 10SM FEW060 BKN110 BKN140 OVC250 10/06 A3037 RMK AO2 RAB30E39 SLP284 P0000 T01000056=
21/04/2022 20:51->METAR KJFK 212051Z 17018G24KT 10SM BKN110 BKN160 OVC250 11/05 A3037 RMK AO2 PK WND 17027/2028 SLP284 T01060050 56030=
21/04/2022 19:51->METAR KJFK 211951Z 16021G26KT 10SM BKN140 OVC250 11/05 A3040 RMK AO2 PK WND 15029/1854 SLP292 T01060050=
21/04/2022 18:51->METAR KJFK 211851Z 17016G26KT 10SM BKN150 OVC250 12/05 A3043 RMK AO2 PK WND 17031/1836 SLP304 T01170050=
21/04/2022 17:51->METAR KJFK 211751Z 17019G29KT 10SM SCT160 BKN230 13/04 A3046 RMK AO2 PK WND 18029/1749 SLP314 T01280039 10133 20089 58021=
21/04/2022 16:51->METAR KJFK 211651Z 17019KT 10SM BKN160 BKN250 12/03 A3049 RMK AO2 SLP324 T01220033=
21/04/2022 15:51->METAR KJFK 211551Z 17013KT 10SM BKN190 BKN250 13/07 A3051 RMK AO2 SLP330 T01280067=
21/04/2022 14:51->METAR KJFK 211451Z 18012KT 10SM FEW130 BKN190 BKN250 12/07 A3052 RMK AO2 SLP335 T01170072 56003=
21/04/2022 13:51->METAR KJFK 211351Z 17010KT 10SM FEW130 SCT210 BKN250 11/07 A3052 RMK AO2 SLP335 T01110072=
21/04/2022 12:51->METAR KJFK 211251Z 17008KT 10SM FEW130 BKN250 11/06 A3052 RMK AO2 SLP336 T01060056=
21/04/2022 11:51->METAR KJFK 211151Z 17007KT 10SM FEW130 FEW160 BKN250 09/04 A3053 RMK AO2 SLP338 T00890039 10089 20044 51013=
21/04/2022 10:51->METAR KJFK 211051Z 14003KT 10SM FEW130 FEW160 BKN250 07/04 A3052 RMK AO2 SLP334 T00720044=
21/04/2022 09:51->METAR KJFK 210951Z 00000KT 10SM SCT160 BKN250 06/06 A3051 RMK AO2 SLP331 T00610056=
21/04/2022 08:51->METAR KJFK 210851Z 11004KT 10SM FEW150 BKN250 05/04 A3049 RMK AO2 SLP325 T00500044 53001=
21/04/2022 07:51->METAR KJFK 210751Z 07005KT 10SM FEW250 04/04 A3048 RMK AO2 SLP321 T00440039=
21/04/2022 06:51->METAR KJFK 210651Z 07003KT 10SM FEW250 04/03 A3048 RMK AO2 SLP321 T00440033=
21/04/2022 05:51->METAR KJFK 210551Z 00000KT 10SM FEW250 05/03 A3049 RMK AO2 SLP323 T00500033 10089 20050 50004=
21/04/2022 04:51->METAR KJFK 210451Z 10006KT 10SM FEW250 06/03 A3049 RMK AO2 SLP324 T00560033 401560050=
21/04/2022 03:51->METAR KJFK 210351Z 10003KT 10SM SCT250 06/03 A3049 RMK AO2 SLP325 T00610033=
21/04/2022 02:51->METAR KJFK 210251Z 15003KT 10SM BKN250 08/04 A3048 RMK AO2 SLP320 T00780044 51018=
21/04/2022 01:51->METAR KJFK 210151Z 19005KT 10SM BKN250 08/04 A3047 RMK AO2 SLP318 T00830039=
21/04/2022 00:51->METAR KJFK 210051Z 18006KT 10SM SCT250 08/03 A3045 RMK AO2 SLP310 T00830033=
20/04/2022 23:51->METAR KJFK 202351Z 20012KT 10SM SCT250 09/02 A3042 RMK AO2 SLP302 T00890017 10156 20089 51022=
20/04/2022 22:51->METAR KJFK 202251Z 18012KT 10SM BKN250 09/03 A3040 RMK AO2 SLP294 T00940028=
20/04/2022 21:51->METAR KJFK 202151Z 19016KT 10SM SCT250 11/02 A3039 RMK AO2 SLP290 T01060017=
20/04/2022 20:51->METAR KJFK 202051Z 22011KT 10SM FEW250 14/M03 A3036 RMK AO2 SLP280 T01441033 53006=
20/04/2022 19:51->METAR KJFK 201951Z 28008G19KT 10SM FEW250 15/M06 A3035 RMK AO2 SLP276 T01501056=
20/04/2022 18:51->METAR KJFK 201851Z 29012G20KT 10SM FEW065 FEW250 14/M05 A3035 RMK AO2 SLP278 T01391050=
20/04/2022 17:51->METAR KJFK 201751Z 29012G21KT 10SM FEW065 FEW250 13/M04 A3034 RMK AO2 SLP274 T01331044 10139 20072 53007=
20/04/2022 16:51->METAR KJFK 201651Z 30014G24KT 10SM FEW060 FEW250 13/M04 A3033 RMK AO2 SLP270 T01281039=
20/04/2022 15:51->METAR KJFK 201551Z 32014KT 10SM FEW060 FEW250 12/M04 A3033 RMK AO2 SLP271 T01221039=
20/04/2022 14:51->METAR KJFK 201451Z 31021G28KT 10SM FEW055 FEW250 11/M05 A3032 RMK AO2 PK WND 32028/1451 SLP267 T01061050 51010=
20/04/2022 13:51->METAR KJFK 201351Z 32013G22KT 10SM SCT055 10/M04 A3031 RMK AO2 PK WND 32027/1324 SLP264 T01001039=
20/04/2022 12:51->METAR KJFK 201251Z 31016G28KT 10SM SCT055 09/M04 A3030 RMK AO2 PK WND 30028/1245 SLP261 T00891039=
20/04/2022 11:51->METAR KJFK 201151Z 27012KT 10SM SCT055 07/M01 A3029 RMK AO2 SLP256 T00721011 10072 20050 53040=
20/04/2022 10:51->METAR KJFK 201051Z 25010KT 10SM SCT060 06/M01 A3025 RMK AO2 SLP243 T00611011=
20/04/2022 09:51->METAR KJFK 200951Z 25014KT 10SM SCT055 05/M02 A3020 RMK AO2 SLP227 T00501017=
20/04/2022 08:51->METAR KJFK 200851Z 26013KT 10SM BKN055 06/M02 A3017 RMK AO2 SLP216 T00561022 53029=
20/04/2022 07:51->METAR KJFK 200751Z 26018G23KT 10SM BKN055 06/M03 A3014 RMK AO2 SLP207 T00561028=
20/04/2022 06:51->METAR KJFK 200651Z 26019G25KT 10SM FEW060 06/M03 A3011 RMK AO2 SLP195 T00561028=
20/04/2022 05:51->METAR KJFK 200551Z 26019KT 10SM FEW050 06/M03 A3009 RMK AO2 PK WND 26026/0509 SLP188 60000 T00611033 10078 20061 53023=
20/04/2022 04:51->METAR KJFK 200451Z 26018G25KT 10SM CLR 06/M03 A3006 RMK AO2 PK WND 25027/0431 SLP180 T00611028 401110044=
20/04/2022 03:51->METAR KJFK 200351Z 25021G26KT 10SM FEW050 07/M03 A3004 RMK AO2 PK WND 26029/0253 SLP171 T00671028=
20/04/2022 02:51->METAR KJFK 200251Z 25017G27KT 10SM FEW050 07/M02 A3002 RMK AO2 PK WND 25029/0226 SLP165 60000 T00671022 51029=
20/04/2022 01:51->METAR KJFK 200151Z 26018G29KT 10SM FEW050 07/M01 A2999 RMK AO2 PK WND 25031/0128 SLP156 T00721011=
20/04/2022 00:51->METAR KJFK 200051Z 25018G25KT 10SM FEW045 FEW075 SCT110 07/M02 A2997 RMK AO2 PK WND 28030/0020 RAB27E37 SLP147 P0000 T00721017=
19/04/2022 23:51->METAR KJFK 192351Z 27013KT 10SM FEW028 SCT080 SCT110 07/00 A2993 RMK AO2 PK WND 28038/2310 RAB12E32 SLP135 P0000 60000 T00670000 10111 20061 53033=
19/04/2022 22:51->METAR KJFK 192251Z 26020G23KT 10SM FEW050 SCT070 SCT110 09/M02 A2989 RMK AO2 PK WND 24031/2222 SLP119 T00891017=
19/04/2022 21:51->METAR KJFK 192151Z 27020G27KT 10SM FEW055 BKN070 BKN095 10/M03 A2986 RMK AO2 PK WND 27031/2107 SLP110 T01001033=
19/04/2022 20:51->METAR KJFK 192051Z 28018G25KT 10SM FEW055 SCT070 BKN090 11/M03 A2984 RMK AO2 PK WND 26032/1956 SLP103 T01061028 53018=
19/04/2022 19:51->METAR KJFK 191951Z 27022G30KT 10SM SCT055 BKN070 10/M03 A2982 RMK AO2 PK WND 26033/1855 SLP097 T01001033=
19/04/2022 18:51->METAR KJFK 191851Z 27017G34KT 10SM SCT050 BKN065 10/M03 A2980 RMK AO2 PK WND 26035/1756 SLP089 T01001028=
19/04/2022 17:51->METAR KJFK 191751Z 27023G33KT 10SM BKN050 09/M02 A2978 RMK AO2 PK WND 27038/1652 SLP085 T00941022 10100 20061 51026=
19/04/2022 16:51->METAR KJFK 191651Z 27021G31KT 10SM BKN045 BKN060 09/M02 A2977 RMK AO2 PK WND 26035/1600 SLP080 T00891022=
19/04/2022 15:51->METAR KJFK 191551Z 27023G29KT 10SM FEW028 BKN039 08/01 A2974 RMK AO2 PK WND 25031/1529 SLP070 T00780006=
19/04/2022 14:51->METAR KJFK 191451Z 28021G30KT 10SM FEW025 BKN034 07/00 A2971 RMK AO2 PK WND 27030/1442 SLP059 T00720000 53037=
19/04/2022 13:51->METAR KJFK 191351Z 28016G23KT 10SM BKN026 BKN045 07/02 A2967 RMK AO2 PK WND 28030/1324 SLP047 T00720017=
19/04/2022 12:51->METAR KJFK 191251Z 28016G28KT 10SM BKN021 BKN046 06/02 A2962 RMK AO2 PK WND 28029/1210 SLP031 T00610022=
19/04/2022 11:51->METAR KJFK 191151Z 28016G22KT 10SM FEW012 BKN018 BKN037 06/04 A2960 RMK AO2 PK WND 29026/1100 SLP021 BKN018 V SCT 60038 70155 T00610039 10100 20044 51060=
19/04/2022 10:51->METAR KJFK 191051Z 29022G29KT 10SM BKN011 BKN016 OVC034 05/03 A2954 RMK AO2 PK WND 29030/1000 RAE35 SLP004 P0001 T00500033=
19/04/2022 09:51->METAR KJFK 190951Z 30022G28KT 2SM -RA BR OVC007 07/06 A2948 RMK AO2 PK WND 28028/0946 SFC VIS 3 SLP982 P0000 T00670061=
19/04/2022 08:51->METAR KJFK 190851Z 35012KT 2SM -RA BR OVC009 08/07 A2942 RMK AO2 WSHFT 0801 SFC VIS 4 SLP961 P0008 60037 T00830072 58055=
19/04/2022 07:51->METAR KJFK 190751Z 04012KT 6SM -RA BR OVC011 09/09 A2946 RMK AO2 PK WND 09032/0701 SLP975 P0011 T00940089=
19/04/2022 06:51->METAR KJFK 190651Z 06018G26KT 5SM -RA BR OVC010 09/08 A2954 RMK AO2 PK WND 09040/0558 SLP003 P0018 T00890078=
19/04/2022 05:51->METAR KJFK 190551Z 08026G41KT 5SM +RA BR OVC011 08/07 A2958 RMK AO2 PK WND 09041/0549 PRESFR SLP017 P0026 60117 T00780067 10083 20056 58107=
19/04/2022 04:51->METAR KJFK 190451Z 07024G31KT 3SM +RA BR OVC012 07/06 A2970 RMK AO2 PK WND 07033/0357 PRESFR SLP057 P0037 T00720061 401110028=
19/04/2022 03:51->METAR KJFK 190351Z 07020G27KT 4SM +RA BR OVC012 07/05 A2981 RMK AO2 PK WND 06029/0320 SLP095 P0024 T00670050=
19/04/2022 02:51->METAR KJFK 190251Z 05018G26KT 5SM RA BR BKN022 OVC041 06/04 A2990 RMK AO2 PK WND 07026/0243 PRESFR SLP123 P0025 60030 T00560039 58067=
19/04/2022 01:51->METAR KJFK 190151Z 06016G21KT 5SM RA OVC039 07/03 A3000 RMK AO2 PK WND 06029/0058 RAB23 PRESFR SLP159 P0005 T00670033=
19/04/2022 00:51->METAR KJFK 190051Z 06022G31KT 10SM FEW042 SCT050 OVC090 08/02 A3004 RMK AO2 PK WND 06031/0050 CIG 048 W PRESFR SLP171 T00780022=
18/04/2022 23:51->METAR KJFK 182351Z 08015G22KT 10SM FEW025 SCT060 OVC100 08/02 A3009 RMK AO2 RAB2252E16 SLP190 P0000 60000 T00780017 10089 20072 58042=
18/04/2022 22:51->METAR KJFK 182251Z 08015KT 10SM SCT032 SCT060 OVC075 08/01 A3017 RMK AO2 SLP214 T00780006=
18/04/2022 21:51->METAR KJFK 182151Z 09012KT 10SM SCT032 OVC110 08/00 A3020 RMK AO2 SLP227 T00780000=
18/04/2022 20:51->METAR KJFK 182051Z 08010KT 10SM FEW039 BKN080 OVC100 08/M02 A3022 RMK AO2 SLP232 T00831017 58034=
18/04/2022 19:51->METAR KJFK 181951Z 11011KT 10SM FEW042 OVC100 08/M01 A3028 RMK AO2 SLP253 T00831011=
18/04/2022 18:51->METAR KJFK 181851Z 13012G20KT 10SM FEW042 BKN130 OVC250 09/M01 A3030 RMK AO2 SLP261 T00891006=
18/04/2022 17:51->METAR KJFK 181751Z 14015G21KT 10SM FEW042 BKN160 OVC250 09/00 A3032 RMK AO2 SLP266 T00890000 10111 20067 58009=
18/04/2022 16:51->METAR KJFK 181651Z 14019KT 10SM FEW045 FEW210 OVC250 10/M01 A3033 RMK AO2 SLP269 T01001011=
18/04/2022 15:51->METAR KJFK 181551Z 12017KT 10SM FEW050 BKN250 10/M04 A3034 RMK AO2 SLP275 T01001039 $=
18/04/2022 14:51->METAR KJFK 181451Z 12017KT 10SM BKN250 10/M03 A3035 RMK AO2 SLP275 T01001033 58003=
18/04/2022 13:51->METAR KJFK 181351Z 10011KT 10SM BKN250 10/M04 A3036 RMK AO2 SLP279 T01001044=
18/04/2022 12:51->METAR KJFK 181251Z 07011KT 10SM SCT250 08/M04 A3036 RMK AO2 SLP282 T00831044=
18/04/2022 11:51->METAR KJFK 181151Z 05011KT 10SM FEW250 07/M04 A3036 RMK AO2 SLP279 T00671039 10067 20028 58004=
18/04/2022 10:51->METAR KJFK 181051Z 02009KT 10SM FEW250 04/M04 A3036 RMK AO2 SLP280 T00441044=
18/04/2022 09:51->METAR KJFK 180951Z 01005KT 10SM CLR 03/M06 A3038 RMK AO2 SLP286 T00331056=
18/04/2022 08:51->METAR KJFK 180851Z 36005KT 10SM FEW250 03/M05 A3037 RMK AO2 SLP282 T00331050 53005=
18/04/2022 07:51->METAR KJFK 180751Z 34005KT 10SM FEW250 03/M06 A3036 RMK AO2 SLP280 T00331061=
18/04/2022 06:51->METAR KJFK 180651Z 34005KT 10SM FEW250 04/M07 A3035 RMK AO2 SLP278 T00391067=
18/04/2022 05:51->METAR KJFK 180551Z 32005KT 10SM FEW250 05/M07 A3035 RMK AO2 SLP277 T00501072 10078 20044 51009=
18/04/2022 04:51->METAR KJFK 180451Z 35005KT 10SM CLR 04/M07 A3034 RMK AO2 SLP274 T00441072 401110044=
18/04/2022 03:51->METAR KJFK 180351Z 34006KT 10SM CLR 05/M08 A3033 RMK AO2 SLP271 T00501078=
18/04/2022 02:51->METAR KJFK 180251Z 34013G18KT 10SM CLR 06/M08 A3032 RMK AO2 SLP267 T00611083 51023=
18/04/2022 01:51->METAR KJFK 180151Z 33014KT 10SM CLR 07/M09 A3031 RMK AO2 SLP264 T00721089=
18/04/2022 00:51->METAR KJFK 180051Z 33012KT 10SM FEW065 07/M08 A3030 RMK AO2 SLP260 T00721083=
17/04/2022 23:51->METAR KJFK 172351Z 34015KT 10SM FEW060 08/M08 A3025 RMK AO2 SLP244 T00781078 10111 20078 53023=
17/04/2022 22:51->METAR KJFK 172251Z 31015G21KT 10SM FEW075 09/M09 A3022 RMK AO2 SLP234 T00891089=
17/04/2022 21:51->METAR KJFK 172151Z 32019KT 10SM BKN080 09/M09 A3021 RMK AO2 PK WND 35026/2128 SLP228 T00891089=
17/04/2022 20:51->METAR KJFK 172051Z 34017G24KT 10SM BKN080 09/M08 A3019 RMK AO2 PK WND 33028/2000 SLP221 T00941083 53017=
17/04/2022 19:51->METAR KJFK 171951Z 33021G26KT 10SM BKN075 09/M08 A3015 RMK AO2 PK WND 28031/1905 SLP209 T00941078=
17/04/2022 18:51->METAR KJFK 171851Z 30022G28KT 10SM BKN075 09/M08 A3014 RMK AO2 PK WND 29030/1755 SLP205 T00891083=
17/04/2022 17:51->METAR KJFK 171751Z 31019G29KT 10SM SCT070 11/M07 A3013 RMK AO2 PK WND 32031/1654 SLP204 T01061067 10106 20067 53008=
17/04/2022 16:51->METAR KJFK 171651Z 29021G31KT 10SM BKN075 09/M07 A3013 RMK AO2 PK WND 30031/1642 SLP202 T00941072=
17/04/2022 15:51->METAR KJFK 171551Z 31017G24KT 10SM SCT060 09/M06 A3011 RMK AO2 PK WND 27028/1533 SLP197 T00941061=
17/04/2022 14:51->METAR KJFK 171451Z 29016G26KT 10SM FEW050 09/M06 A3011 RMK AO2 PK WND 29026/1445 SLP196 T00891056 51009=
17/04/2022 13:51->METAR KJFK 171351Z 30011KT 10SM FEW040 08/M04 A3011 RMK AO2 SLP194 T00831039=
17/04/2022 12:51->METAR KJFK 171251Z 29014KT 10SM FEW035 08/M03 A3010 RMK AO2 SLP194 T00781028=
17/04/2022 11:51->METAR KJFK 171151Z 31016G23KT 10SM FEW030 07/M01 A3008 RMK AO2 SLP186 70009 T00671011 10072 20056 51036=
17/04/2022 10:51->METAR KJFK 171051Z 31013KT 10SM FEW030 FEW130 06/M01 A3004 RMK AO2 SLP173 T00611006=
17/04/2022 09:51->METAR KJFK 170951Z 32014KT 10SM FEW130 06/01 A3002 RMK AO2 SLP164 T00610006=
17/04/2022 08:51->METAR KJFK 170851Z 32013KT 10SM FEW090 FEW130 07/02 A2998 RMK AO2 SLP150 T00670022 53004=
17/04/2022 07:51->METAR KJFK 170751Z 34004KT 10SM BKN120 07/03 A2996 RMK AO2 SLP144 T00720033=
17/04/2022 06:51->METAR KJFK 170651Z 34005KT 10SM FEW065 BKN095 07/04 A2996 RMK AO2 SLP143 T00720039=
17/04/2022 05:51->METAR KJFK 170551Z 32010KT 10SM FEW070 FEW090 BKN110 07/04 A2996 RMK AO2 RAE0458 SLP146 P0000 60009 T00720039 10133 20072 53009=
17/04/2022 04:51->METAR KJFK 170451Z 33009KT 10SM -RA SCT060 SCT075 OVC095 07/04 A2994 RMK AO2 SLP137 P0001 T00720044 401670072=
17/04/2022 03:51->METAR KJFK 170351Z 01008KT 8SM RA FEW014 BKN048 OVC065 07/05 A2992 RMK AO2 SLP131 P0006 T00720050=
17/04/2022 02:51->METAR KJFK 170251Z 33014KT 10SM -RA SCT047 OVC065 08/05 A2994 RMK AO2 RAB0156 SLP137 P0002 60002 T00780050 51043=
17/04/2022 01:51->METAR KJFK 170151Z 35011KT 10SM FEW032 BKN055 OVC140 10/06 A2991 RMK AO2 PK WND 36026/0112 LTG DSNT NW RAB20E34 SLP129 P0000 T01000056=
17/04/2022 00:51->METAR KJFK 170051Z 34017G22KT 10SM FEW040 SCT110 BKN220 12/06 A2988 RMK AO2 PK WND 36026/0015 PRESRR SLP118 T01170056=
16/04/2022 23:51->METAR KJFK 162351Z 35020G23KT 10SM FEW030 SCT100 BKN250 13/06 A2981 RMK AO2 SLP094 T01330061 10161 20122 53010=
16/04/2022 22:51->METAR KJFK 162251Z 21012KT 10SM SCT100 BKN250 12/09 A2979 RMK AO2 PK WND 19029/2153 PRESRR SLP086 T01220094=
16/04/2022 21:51->METAR KJFK 162151Z 19023G29KT 10SM BKN100 BKN250 13/09 A2977 RMK AO2 PK WND 18029/2146 SLP080 T01280094=
16/04/2022 20:51->METAR KJFK 162051Z 18020G26KT 10SM FEW060 FEW140 BKN250 14/09 A2978 RMK AO2 PK WND 19029/2018 SLP084 T01390094 56046=
16/04/2022 19:51->METAR KJFK 161951Z 18022G30KT 10SM FEW055 SCT130 BKN250 14/09 A2981 RMK AO2 PK WND 19030/1938 SLP093 T01390089 $=
16/04/2022 18:51->METAR KJFK 161851Z 19018KT 10SM FEW050 SCT130 BKN250 15/09 A2987 RMK AO2 SLP114 T01500089 $=
16/04/2022 17:51->METAR KJFK 161751Z 18017KT 10SM FEW020 SCT130 BKN250 15/09 A2992 RMK AO2 SLP130 T01500089 10167 20117 56029 $=
16/04/2022 16:51->METAR KJFK 161651Z 17011KT 10SM FEW035 SCT130 BKN250 16/08 A2993 RMK AO2 SLP136 T01610078 $=
16/04/2022 15:51->METAR KJFK 161551Z 18006KT 10SM FEW035 BKN130 BKN250 14/06 A2997 RMK AO2 SLP147 T01390061 $=
16/04/2022 14:51->METAR KJFK 161451Z 18010KT 10SM FEW035 BKN130 BKN250 13/05 A3000 RMK AO2 SLP159 T01330050 58003 $=
16/04/2022 13:51->METAR KJFK 161351Z 18011KT 10SM FEW045 BKN150 BKN250 14/03 A3000 RMK AO2 SLP160 T01390033 $=
16/04/2022 12:51->METAR KJFK 161251Z 19011KT 10SM FEW045 BKN150 OVC250 13/04 A3002 RMK AO2 SLP166 T01280039 $=
16/04/2022 11:51->METAR KJFK 161151Z 17010KT 10SM BKN150 OVC250 12/04 A3001 RMK AO2 SLP161 T01170039 10117 20100 55003 $=
16/04/2022 10:51->METAR KJFK 161051Z 17007KT 10SM FEW030 BKN150 11/03 A3001 RMK AO2 SLP161 T01060033 $=
16/04/2022 09:51->METAR KJFK 160951Z 19004KT 10SM BKN190 11/04 A3001 RMK AO2 SLP161 T01060039 $=
16/04/2022 08:51->METAR KJFK 160851Z 18011KT 10SM BKN200 10/04 A3002 RMK AO2 SLP165 T01000044 56008 $=
16/04/2022 07:51->METAR KJFK 160751Z 19012KT 10SM BKN210 10/06 A3002 RMK AO2 SLP165 T01000056 $=
16/04/2022 06:51->METAR KJFK 160651Z 18012KT 10SM SCT190 BKN260 10/06 A3004 RMK AO2 SLP171 T01000056 $=
16/04/2022 05:51->METAR KJFK 160551Z 19014KT 10SM FEW200 FEW250 11/06 A3004 RMK AO2 SLP173 60000 T01060061 10128 20100 58014 $=
16/04/2022 04:51->METAR KJFK 160451Z 19016KT 10SM SCT190 SCT250 10/06 A3006 RMK AO2 SLP180 T01000056 401940078 $=
16/04/2022 03:51->METAR KJFK 160351Z 19016G24KT 10SM SCT250 11/06 A3007 RMK AO2 SLP183 T01060056 $=
16/04/2022 02:51->METAR KJFK 160251Z 19016KT 10SM FEW250 11/04 A3008 RMK AO2 SLP187 60000 T01110044 50008 $=
16/04/2022 01:51->METAR KJFK 160151Z 19019KT 10SM SCT250 12/03 A3009 RMK AO2 SLP190 T01220033=
16/04/2022 00:51->METAR KJFK 160051Z 19022KT 10SM FEW250 12/04 A3009 RMK AO2 PK WND 19030/2358 SLP189 T01220039=
15/04/2022 23:51->METAR KJFK 152351Z 19023G28KT 10SM FEW250 12/04 A3006 RMK AO2 PK WND 17032/2306 SLP178 T01170039 10194 20117 55009=
15/04/2022 22:51->METAR KJFK 152251Z 19022G30KT 10SM FEW250 13/02 A3006 RMK AO2 PK WND 18034/2201 SLP178 T01280017=
15/04/2022 21:51->METAR KJFK 152151Z 18022G29KT 10SM FEW075 FEW250 14/01 A3006 RMK AO2 PK WND 19031/2115 SLP177 T01440011=
15/04/2022 20:51->METAR KJFK 152051Z 18022G28KT 10SM FEW075 FEW250 15/03 A3008 RMK AO2 PK WND 18029/2035 SLP187 T01500028 56007=
15/04/2022 19:51->METAR KJFK 151951Z 17019KT 10SM FEW075 FEW250 16/03 A3009 RMK AO2 SLP188 T01610028=
15/04/2022 18:51->METAR KJFK 151851Z 18019KT 10SM FEW075 FEW250 18/01 A3010 RMK AO2 SLP191 T01780011=
15/04/2022 17:51->METAR KJFK 151751Z 20014KT 10SM FEW070 SCT250 19/M05 A3011 RMK AO2 SLP194 T01891050 10194 20128 58018=
15/04/2022 16:51->METAR KJFK 151651Z 23012KT 10SM FEW070 FEW250 18/M03 A3013 RMK AO2 SLP202 T01781028=
15/04/2022 15:51->METAR KJFK 151551Z 24013G18KT 10SM FEW070 SCT250 18/M06 A3014 RMK AO2 SLP207 T01831056=
15/04/2022 14:51->METAR KJFK 151451Z 29012G18KT 10SM FEW070 SCT250 17/M06 A3016 RMK AO2 SLP212 T01721056 50006=
15/04/2022 13:51->METAR KJFK 151351Z 28008G20KT 10SM SCT250 17/M02 A3017 RMK AO2 SLP215 T01671017=
15/04/2022 12:51->METAR KJFK 151251Z 23006KT 10SM FEW250 14/03 A3016 RMK AO2 SLP213 T01440028=
15/04/2022 11:51->METAR KJFK 151151Z 24007KT 10SM FEW130 FEW250 13/06 A3014 RMK AO2 SLP205 70009 T01280061 10139 20078 53023=
15/04/2022 10:51->METAR KJFK 151051Z 00000KT 10SM FEW130 SCT250 08/01 A3011 RMK AO2 SLP196 T00830011=
15/04/2022 09:51->METAR KJFK 150951Z 03003KT 10SM FEW130 SCT250 09/00 A3009 RMK AO2 SLP189 T00940000 $=
15/04/2022 08:51->METAR KJFK 150851Z 01005KT 10SM FEW120 BKN250 12/M01 A3007 RMK AO2 SLP182 T01171006 51024 $=
15/04/2022 07:51->METAR KJFK 150751Z 35003KT 10SM FEW110 BKN250 12/01 A3006 RMK AO2 SLP179 T01220011 $=
15/04/2022 06:51->METAR KJFK 150651Z 01004KT 10SM FEW048 SCT110 BKN250 12/03 A3003 RMK AO2 SLP169 T01220033 $=
15/04/2022 05:51->METAR KJFK 150551Z 01007KT 10SM SCT046 BKN120 14/04 A3000 RMK AO2 RAB01E25 SLP158 P0001 60001 T01390039 10178 20139 51023 $=
15/04/2022 04:51->METAR KJFK 150451Z 33015KT 10SM FEW042 BKN075 OVC140 16/01 A2998 RMK AO2 SLP153 T01560011 402110117 $=
15/04/2022 03:51->METAR KJFK 150351Z 31010KT 10SM BKN070 BKN130 OVC250 16/01 A2995 RMK AO2 RAE38 SLP140 P0000 T01610011 $=
15/04/2022 02:51->METAR KJFK 150251Z 32015KT 10SM -RA OVC065 17/02 A2993 RMK AO2 RAB47 SLP134 P0000 60000 T01670017 51031=
15/04/2022 01:51->METAR KJFK 150151Z 33015G23KT 10SM SCT060 BKN080 17/04 A2990 RMK AO2 RAE0059 SLP125 P0000 T01720039=
15/04/2022 00:51->METAR KJFK 150051Z 35011KT 10SM -RA BKN065 BKN080 BKN090 17/12 A2987 RMK AO2 SLP114 P0000 T01670122=
14/04/2022 23:51->METAR KJFK 142351Z 32014KT 10SM -RA FEW025 BKN110 17/14 A2984 RMK AO2 PK WND 32028/2321 SLP103 TCU DSNT S P0008 60008 T01720139 10211 20167 53046=
14/04/2022 22:51->METAR KJFK 142251Z 33009KT 10SM -RA BKN070 OVC085 20/17 A2977 RMK AO2 RAB36 SLP081 P0000 T02000167=
14/04/2022 21:51->METAR KJFK 142151Z 28015G19KT 10SM FEW040 SCT080 BKN240 17/12 A2973 RMK AO2 SLP068 VCSH NW T01670117=
14/04/2022 20:51->METAR KJFK 142051Z 18015KT 10SM FEW040 SCT140 BKN240 19/13 A2970 RMK AO2 SLP057 T01890128 58015=
14/04/2022 19:51->METAR KJFK 141951Z 19016KT 10SM FEW040 SCT140 BKN250 19/12 A2973 RMK AO2 SLP066 TCU DSNT W T01890122=
14/04/2022 18:51->METAR KJFK 141851Z 17012KT 10SM FEW080 SCT140 BKN250 20/13 A2973 RMK AO2 SLP068 T02000128=
14/04/2022 17:51->METAR KJFK 141751Z 17010KT 10SM FEW050 FEW140 BKN250 19/12 A2974 RMK AO2 SLP072 T01940122 10200 20139 58009=
14/04/2022 16:51->METAR KJFK 141651Z 17008KT 10SM FEW050 FEW160 BKN250 19/12 A2976 RMK AO2 SLP077 T01940122=
14/04/2022 15:51->METAR KJFK 141551Z 17007KT 10SM FEW160 SCT250 19/12 A2976 RMK AO2 SLP078 T01940122=
14/04/2022 14:51->METAR KJFK 141451Z 19006KT 10SM FEW160 SCT250 18/12 A2977 RMK AO2 SLP081 T01830122 56004=
14/04/2022 13:51->METAR KJFK 141351Z 17007KT 10SM FEW120 SCT250 17/12 A2977 RMK AO2 SLP082 T01670117=
14/04/2022 12:51->METAR KJFK 141251Z 15004KT 10SM FEW050 FEW120 SCT210 17/12 A2977 RMK AO2 SLP081 T01670117=
14/04/2022 11:51->METAR KJFK 141151Z 17004KT 10SM FEW110 BKN210 14/11 A2978 RMK AO2 SLP085 T01440111 10144 20117 51011=
14/04/2022 10:51->METAR KJFK 141051Z 19003KT 10SM FEW065 SCT110 BKN180 BKN250 12/11 A2978 RMK AO2 SLP084 T01220106=
14/04/2022 09:51->METAR KJFK 140951Z 21005KT 10SM FEW080 BKN130 OVC250 12/11 A2976 RMK AO2 SLP079 T01220106=
14/04/2022 08:51->METAR KJFK 140851Z 19006KT 10SM BKN210 OVC250 12/11 A2975 RMK AO2 SLP075 T01170106 56017=
14/04/2022 07:51->METAR KJFK 140751Z 19006KT 10SM FEW160 SCT190 BKN250 12/11 A2977 RMK AO2 SLP080 T01170106=
14/04/2022 06:51->METAR KJFK 140651Z 16009KT 10SM SCT160 BKN250 12/11 A2978 RMK AO2 SLP084 T01170106=
14/04/2022 05:51->METAR KJFK 140551Z 17009KT 10SM FEW160 BKN250 12/11 A2980 RMK AO2 SLP091 T01220106 10139 20122 56017=
14/04/2022 04:51->METAR KJFK 140451Z 19007KT 10SM BKN160 OVC250 13/11 A2982 RMK AO2 SLP097 T01280106 401830078=
14/04/2022 03:51->METAR KJFK 140351Z 14006KT 10SM OVC150 14/11 A2982 RMK AO2 SLP098 T01390111=
14/04/2022 02:51->METAR KJFK 140251Z 18006KT 10SM BKN130 OVC250 13/11 A2985 RMK AO2 SLP109 T01330106 58009=
14/04/2022 01:51->METAR KJFK 140151Z 16004KT 10SM BKN160 BKN250 13/11 A2987 RMK AO2 SLP115 T01330106=
14/04/2022 00:51->METAR KJFK 140051Z 14005KT 10SM BKN190 BKN250 14/11 A2987 RMK AO2 SLP116 T01390106=
13/04/2022 23:51->METAR KJFK 132351Z 13005KT 10SM BKN200 BKN250 14/11 A2988 RMK AO2 SLP118 T01390106 10156 20139 55008=
13/04/2022 22:51->METAR KJFK 132251Z 12006KT 10SM BKN150 BKN250 14/11 A2988 RMK AO2 SLP117 T01440106=
13/04/2022 21:51->METAR KJFK 132151Z 14005KT 10SM SCT160 BKN250 14/11 A2989 RMK AO2 SLP121 T01440111=
13/04/2022 20:51->METAR KJFK 132051Z 15006KT 10SM FEW210 BKN250 15/11 A2990 RMK AO2 SLP126 T01500111 56031=
13/04/2022 19:51->METAR KJFK 131951Z 15006KT 10SM SCT006 BKN250 15/12 A2993 RMK AO2 SLP133 T01500117=
13/04/2022 18:51->METAR KJFK 131851Z 14009KT 10SM BKN006 15/12 A2996 RMK AO2 SLP145 T01500117=
13/04/2022 17:51->METAR KJFK 131751Z 16011KT 10SM FEW003 BKN008 BKN250 15/12 A3000 RMK AO2 SLP157 T01500117 10183 20117 58023=
13/04/2022 16:51->METAR KJFK 131651Z 15011KT 10SM FEW015 FEW100 BKN250 18/11 A3003 RMK AO2 SLP167 T01780111=
13/04/2022 15:51->METAR KJFK 131551Z 14013KT 10SM FEW100 BKN250 17/08 A3006 RMK AO2 SLP178 T01720083=
13/04/2022 14:51->METAR KJFK 131451Z 12016KT 10SM FEW100 SCT250 17/07 A3006 RMK AO2 SLP180 T01670067 58019=
13/04/2022 13:51->METAR KJFK 131351Z 11011KT 10SM FEW032 SCT100 BKN250 16/08 A3009 RMK AO2 SLP190 T01560078=
13/04/2022 12:51->METAR KJFK 131251Z 09010KT 10SM SCT100 BKN250 16/06 A3010 RMK AO2 SLP192 T01560056=
13/04/2022 11:51->METAR KJFK 131151Z 07003KT 10SM FEW070 BKN100 BKN250 12/08 A3012 RMK AO2 SLP199 70002 T01170078 10117 20078 53012=
13/04/2022 10:51->METAR KJFK 131051Z 08004KT 10SM BKN070 BKN100 BKN250 11/08 A3011 RMK AO2 SLP195 T01060078=
13/04/2022 09:51->METAR KJFK 130951Z 06005KT 10SM BKN080 10/07 A3008 RMK AO2 SLP186 T01000072=
13/04/2022 08:51->METAR KJFK 130851Z 04006KT 10SM SCT085 SCT250 09/07 A3009 RMK AO2 SLP187 T00890067 56000=
13/04/2022 07:51->METAR KJFK 130751Z 04004KT 10SM SCT080 BKN250 09/07 A3009 RMK AO2 SLP187 T00890067=
13/04/2022 06:51->METAR KJFK 130651Z 00000KT 10SM FEW060 SCT250 08/06 A3008 RMK AO2 SLP186 T00830061=
13/04/2022 05:51->METAR KJFK 130551Z 06003KT 10SM FEW250 09/07 A3009 RMK AO2 SLP188 T00890067 10133 20089 58000=
13/04/2022 04:51->METAR KJFK 130451Z 18006KT 10SM CLR 09/07 A3010 RMK AO2 SLP191 T00940072 402220083=
13/04/2022 03:51->METAR KJFK 130351Z 00000KT 10SM CLR 11/07 A3008 RMK AO2 SLP187 T01060072=
13/04/2022 02:51->METAR KJFK 130251Z 18004KT 10SM FEW250 11/07 A3009 RMK AO2 SLP188 T01060072 51009=
13/04/2022 01:51->METAR KJFK 130151Z 18009KT 10SM FEW250 12/07 A3009 RMK AO2 SLP188 T01220072=
13/04/2022 00:51->METAR KJFK 130051Z 21006KT 10SM SCT250 12/08 A3008 RMK AO2 SLP187 T01220083=
12/04/2022 23:51->METAR KJFK 122351Z 21008KT 10SM SCT250 13/08 A3006 RMK AO2 SLP179 T01280083 10222 20128 53021=
12/04/2022 22:51->METAR KJFK 122251Z 19012KT 10SM FEW050 FEW250 16/09 A3004 RMK AO2 SLP170 T01610089=
12/04/2022 21:51->METAR KJFK 122151Z 21008KT 10SM FEW050 FEW250 20/08 A3002 RMK AO2 SLP164 T02000083=
12/04/2022 20:51->METAR KJFK 122051Z 21011KT 10SM FEW050 19/09 A3000 RMK AO2 SLP159 T01890089 55010=
12/04/2022 19:51->METAR KJFK 121951Z 30008KT 10SM FEW050 21/08 A2999 RMK AO2 SLP155 T02110078=
12/04/2022 18:51->METAR KJFK 121851Z 35010KT 10SM SCT045 20/08 A3001 RMK AO2 SLP162 T02000083 $=
12/04/2022 17:51->METAR KJFK 121751Z 33012KT 10SM FEW035 FEW090 19/08 A3003 RMK AO2 SLP169 60002 T01890078 10194 20094 51017=
12/04/2022 16:51->METAR KJFK 121651Z 01011KT 10SM FEW035 FEW090 FEW250 17/08 A3002 RMK AO2 SLP167 T01720083=
12/04/2022 15:51->METAR KJFK 121551Z 32013KT 10SM FEW035 FEW090 SCT250 15/09 A3002 RMK AO2 RAE1459 SLP164 P0000 T01500094=
12/04/2022 14:51->METAR KJFK 121451Z 25005KT 10SM -RA FEW033 SCT060 BKN090 11/08 A2998 RMK AO2 SLP152 P0002 60002 T01110078 58002=
12/04/2022 13:51->METAR KJFK 121351Z 29011KT 10SM -RA BKN065 OVC095 11/06 A3001 RMK AO2 RAE17B36 SLP162 P0000 T01110056=
12/04/2022 12:51->METAR KJFK 121251Z 26008KT 10SM -RA FEW047 BKN080 OVC095 11/06 A2999 RMK AO2 RAB30 SLP156 P0000 T01110061=
12/04/2022 11:51->METAR KJFK 121151Z 22006KT 10SM FEW055 OVC095 09/05 A2999 RMK AO2 SLP154 60000 T00940050 10094 20083 53006=
12/04/2022 10:51->METAR KJFK 121051Z 19005KT 10SM FEW055 OVC090 09/06 A2998 RMK AO2 RAB24E42 SLP151 P0000 T00890061=
12/04/2022 09:51->METAR KJFK 120951Z 22004KT 10SM FEW070 OVC100 09/06 A2997 RMK AO2 RAB10E21 SLP147 P0000 T00890056=
12/04/2022 08:51->METAR KJFK 120851Z 21006KT 10SM BKN075 OVC090 08/05 A2997 RMK AO2 RAE48 SLP148 P0000 60000 T00830050 56022=
12/04/2022 07:51->METAR KJFK 120751Z 20005KT 10SM -RA BKN095 OVC110 09/03 A2998 RMK AO2 RAB42 PRESFR SLP150 P0000 T00890033=
12/04/2022 06:51->METAR KJFK 120651Z 20006KT 10SM OVC100 09/04 A3001 RMK AO2 SLP162 T00890039=
12/04/2022 05:51->METAR KJFK 120551Z 20009KT 10SM BKN130 OVC250 09/03 A3003 RMK AO2 SLP170 T00890033 10100 20083 58013=
12/04/2022 04:51->METAR KJFK 120451Z 20013KT 10SM BKN140 OVC250 09/03 A3006 RMK AO2 SLP177 T00890033 401330039=
12/04/2022 03:51->METAR KJFK 120351Z 20013KT 10SM FEW120 BKN180 OVC250 09/03 A3007 RMK AO2 SLP181 T00890033=
12/04/2022 02:51->METAR KJFK 120251Z 20016KT 10SM BKN120 BKN150 BKN250 10/03 A3007 RMK AO2 SLP182 T01000033 50004=
12/04/2022 01:51->METAR KJFK 120151Z 20014KT 10SM SCT120 BKN170 BKN250 09/06 A3008 RMK AO2 SLP185 T00890056=
12/04/2022 00:51->METAR KJFK 120051Z 18013KT 10SM BKN120 OVC160 09/05 A3007 RMK AO2 SLP182 T00890050=
11/04/2022 23:51->METAR KJFK 112351Z 17013KT 10SM SCT160 SCT200 BKN250 08/04 A3006 RMK AO2 SLP178 T00830039 10133 20083 58008=
11/04/2022 22:51->METAR KJFK 112251Z 18016KT 10SM FEW190 BKN250 09/03 A3006 RMK AO2 SLP180 T00890033=
11/04/2022 21:51->METAR KJFK 112151Z 18015KT 10SM FEW210 BKN250 09/03 A3008 RMK AO2 SLP185 T00940028=
11/04/2022 20:51->METAR KJFK 112051Z 19015KT 10SM BKN250 09/02 A3008 RMK AO2 SLP186 T00940017 55016=
11/04/2022 19:51->METAR KJFK 111951Z 18012KT 10SM BKN250 12/00 A3007 RMK AO2 SLP183 T01170000=
11/04/2022 18:51->METAR KJFK 111851Z 18012KT 10SM BKN250 12/01 A3010 RMK WSHFT 1832 SLP193 T01170006=
11/04/2022 17:51->METAR KJFK 111751Z 21010KT 10SM BKN250 12/M02 A3013 RMK SLP202 T01221017 10128 20067 58008=
11/04/2022 16:51->METAR KJFK 111651Z 21011KT 10SM BKN250 11/M02 A3014 RMK SLP206 T01111017=
11/04/2022 15:51->METAR KJFK 111551Z 20010KT 10SM SCT250 11/M02 A3015 RMK SLP211 T01061022=
11/04/2022 14:51->METAR KJFK 111451Z VRB05KT 10SM FEW250 10/M03 A3015 RMK SLP210 T01001033 53003=
11/04/2022 13:51->METAR KJFK 111351Z 01006KT 10SM FEW250 09/M04 A3014 RMK SLP205 T00891039=
11/04/2022 12:51->METAR KJFK 111251Z 32009KT 10SM CLR 08/M03 A3015 RMK SLP208 T00781033=
11/04/2022 11:51->METAR KJFK 111151Z 31010KT 10SM CLR 07/M04 A3014 RMK SLP207 T00671039 10067 20039 51029=
11/04/2022 10:51->METAR KJFK 111051Z 30010KT 10SM CLR 05/M04 A3012 RMK SLP199 T00501039=
11/04/2022 09:51->METAR KJFK 110951Z 32012KT 10SM CLR 04/M04 A3010 RMK SLP191 T00441039=
11/04/2022 08:51->METAR KJFK 110851Z 32013KT 10SM CLR 05/M04 A3006 RMK SLP170 T00501039 53016=
11/04/2022 06:51->METAR KJFK 110651Z 30012KT 10SM CLR 06/M04 A3002 RMK AO2 SLP164 T00561044=
11/04/2022 05:51->METAR KJFK 110551Z 31012KT 10SM CLR 06/M05 A3001 RMK AO2 SLP162 T00561050 10083 20056 52017=
11/04/2022 04:51->METAR KJFK 110451Z 30012G22KT 10SM FEW070 06/M06 A3000 RMK AO2 SLP158 T00611056 401110061=
11/04/2022 03:51->METAR KJFK 110351Z 31020KT 10SM FEW070 07/M06 A2997 RMK AO2 PK WND 31027/0252 SLP150 T00671056=
11/04/2022 02:51->METAR KJFK 110251Z 31020G25KT 10SM SCT070 07/M05 A2996 RMK AO2 PK WND 30032/0156 SLP146 T00721050 51029=
11/04/2022 01:51->METAR KJFK 110151Z 31023G29KT 10SM SCT060 BKN070 08/M05 A2995 RMK AO2 PK WND 30033/0128 SLP140 T00781050=
11/04/2022 00:51->METAR KJFK 110051Z 31018G25KT 10SM SCT060 BKN070 08/M06 A2992 RMK AO2 PK WND 32034/0015 SLP131 T00781056=
10/04/2022 23:51->METAR KJFK 102351Z 31023G28KT 10SM SCT065 BKN075 BKN250 08/M06 A2988 RMK AO2 PK WND 31033/2339 PRESRR SLP116 T00831056 10111 20083 53032=
10/04/2022 22:51->METAR KJFK 102251Z 31025G32KT 10SM SCT065 BKN075 BKN250 08/M05 A2984 RMK AO2 PK WND 30032/2246 SLP104 T00831050=
10/04/2022 21:51->METAR KJFK 102151Z 32019G29KT 10SM SCT055 BKN070 09/M04 A2981 RMK AO2 PK WND 31031/2052 SLP095 T00941044=
10/04/2022 20:51->METAR KJFK 102051Z 31021G30KT 10SM FEW060 OVC080 11/M04 A2978 RMK AO2 PK WND 32030/2048 SLP085 T01111044 53006=
10/04/2022 19:51->METAR KJFK 101951Z 29017G24KT 10SM FEW055 BKN060 BKN090 10/M04 A2977 RMK AO2 PK WND 29033/1915 SLP080 VIRGA W T01001039=
10/04/2022 18:51->METAR KJFK 101851Z 30018G24KT 10SM SCT055 BKN070 OVC080 09/M04 A2977 RMK AO2 PK WND 29027/1805 SLP079 VCSH T00941039=
10/04/2022 17:51->METAR KJFK 101751Z 33022G27KT 10SM SCT055 BKN070 BKN200 BKN250 11/M04 A2976 RMK AO2 PK WND 32029/1727 SLP078 T01061039 10111 20067 58006=
10/04/2022 16:51->METAR KJFK 101651Z 29019G26KT 10SM SCT055 BKN070 BKN200 BKN250 09/M04 A2977 RMK AO2 PK WND 30026/1646 SLP081 T00891044=
10/04/2022 15:51->METAR KJFK 101551Z 31018G26KT 10SM BKN060 BKN200 BKN250 09/M04 A2978 RMK AO2 PK WND 31028/1539 SLP084 T00891044=
10/04/2022 14:51->METAR KJFK 101451Z 33020G23KT 10SM SCT050 SCT100 BKN200 BKN250 09/M04 A2978 RMK AO2 SLP085 T00941039 51006=
10/04/2022 13:51->METAR KJFK 101351Z 32020G25KT 10SM FEW040 FEW095 SCT250 09/M04 A2978 RMK AO2 PK WND 30027/1321 SLP085 T00891039=
10/04/2022 12:51->METAR KJFK 101251Z 31015G24KT 10SM FEW030 SCT095 SCT250 08/M03 A2978 RMK AO2 SLP085 T00781028=
10/04/2022 11:51->METAR KJFK 101151Z 29015G21KT 10SM BKN031 BKN055 BKN095 BKN250 07/M01 A2976 RMK AO2 SLP079 T00671006 10094 20067 51025=
10/04/2022 10:51->METAR KJFK 101051Z 33014KT 10SM SCT030 BKN055 OVC075 07/01 A2974 RMK AO2 SLP071 VCSH SE T00720011=
10/04/2022 09:51->METAR KJFK 100951Z 32018KT 10SM FEW060 SCT080 OVC110 07/00 A2972 RMK AO2 CIG 055 W SLP062 T00720000=
10/04/2022 08:51->METAR KJFK 100851Z 32015G20KT 10SM BKN100 BKN130 08/00 A2969 RMK AO2 SLP054 T00780000 53005=
10/04/2022 07:51->METAR KJFK 100751Z 32012KT 10SM FEW100 BKN110 08/01 A2968 RMK AO2 SLP049 T00830011=
10/04/2022 06:51->METAR KJFK 100651Z 31009KT 10SM SCT060 BKN075 BKN100 09/02 A2967 RMK AO2 SLP048 T00890022=
10/04/2022 05:51->METAR KJFK 100551Z 32007KT 10SM SCT080 BKN100 09/02 A2968 RMK AO2 CIG 080 W SLP049 60000 T00940022 10111 20089 58004=
10/04/2022 04:51->METAR KJFK 100451Z 30009KT 10SM OVC100 09/03 A2969 RMK AO2 SLP053 T00940028 401390083=
10/04/2022 03:51->METAR KJFK 100351Z 28010KT 10SM BKN080 BKN120 09/04 A2969 RMK AO2 SLP054 T00940039=
10/04/2022 02:51->METAR KJFK 100251Z 31005KT 10SM BKN090 OVC100 09/03 A2969 RMK AO2 RAE0159 SLP053 P0000 60000 T00940028 50016=
10/04/2022 01:51->METAR KJFK 100151Z 27012KT 10SM -RA BKN047 OVC060 09/03 A2969 RMK AO2 RAB34 CIG 035 W SLP055 P0000 T00890033=
10/04/2022 00:51->METAR KJFK 100051Z 24012G16KT 10SM BKN055 11/03 A2968 RMK AO2 SLP051 VCSH W T01060033=
09/04/2022 23:51->METAR KJFK 092351Z 33009KT 10SM SCT075 11/01 A2964 RMK AO2 SLP037 VCSH W 60000 T01110011 10139 20111 53008=
09/04/2022 22:51->METAR KJFK 092251Z 31011KT 10SM FEW065 OVC085 12/01 A2963 RMK AO2 WSHFT 2147 RAB08E22 SLP033 VCSH NE P0000 T01170011=
09/04/2022 21:51->METAR KJFK 092151Z 28011KT 10SM BKN075 13/02 A2962 RMK AO2 SLP029 VCSH NW T01280017=
09/04/2022 20:51->METAR KJFK 092051Z 26013KT 10SM SCT047 BKN060 13/02 A2962 RMK AO2 SLP029 T01280017 55002=
09/04/2022 19:51->METAR KJFK 091951Z 28013KT 10SM FEW041 FEW050 FEW060 13/02 A2962 RMK AO2 SLP028 T01330022=
09/04/2022 18:51->METAR KJFK 091851Z 27015KT 10SM FEW036 BKN047 12/03 A2963 RMK AO2 SLP032 T01220028=
09/04/2022 17:51->METAR KJFK 091751Z 27016G22KT 10SM BKN032 BKN042 12/03 A2963 RMK AO2 PK WND 25026/1703 SLP031 60000 T01170033 10128 20089 55003=
09/04/2022 16:51->METAR KJFK 091651Z 26020KT 10SM FEW028 BKN035 BKN050 13/05 A2962 RMK AO2 PK WND 26027/1629 SLP028 T01280050=
09/04/2022 15:51->METAR KJFK 091551Z 23019KT 10SM FEW023 SCT033 BKN049 12/06 A2962 RMK AO2 RAB23E44 SLP029 P0000 T01220061=
09/04/2022 14:51->METAR KJFK 091451Z 19010KT 10SM BKN033 BKN055 11/07 A2963 RMK AO2 RAB12E42 SLP034 P0000 60000 T01060072 58001=
09/04/2022 13:51->METAR KJFK 091351Z 18007KT 10SM OVC038 09/06 A2963 RMK AO2 SLP034 T00940061=
09/04/2022 12:51->METAR KJFK 091251Z 00000KT 10SM BKN044 BKN090 BKN140 10/06 A2964 RMK AO2 SLP035 T01000061=
09/04/2022 11:51->METAR KJFK 091151Z 08003KT 10SM FEW040 SCT085 BKN140 09/06 A2964 RMK AO2 SLP035 60002 70002 T00940061 10106 20083 58002=
09/04/2022 10:51->METAR KJFK 091051Z 08004KT 10SM SCT080 BKN130 09/06 A2964 RMK AO2 RAE16 SLP038 P0002 T00890056=
09/04/2022 09:51->METAR KJFK 090951Z 27003KT 10SM -RA FEW045 BKN060 OVC100 10/04 A2966 RMK AO2 RAB19 SLP042 P0000 T01000044=
09/04/2022 08:51->METAR KJFK 090851Z 30006KT 10SM FEW080 FEW095 BKN110 10/04 A2964 RMK AO2 CIG 060 W SLP038 60000 T01000039 58009=
09/04/2022 07:51->METAR KJFK 090751Z 27007KT 10SM OVC075 10/04 A2966 RMK AO2 RAE21 SLP042 P0000 T01000044=
09/04/2022 06:51->METAR KJFK 090651Z 19006KT 10SM -RA BKN060 BKN090 OVC100 09/04 A2966 RMK AO2 RAB19E29B50 SLP045 P0000 T00890044=
09/04/2022 05:51->METAR KJFK 090551Z 23009KT 10SM BKN090 BKN120 10/04 A2967 RMK AO2 SLP046 T01000039 10100 20089 56008=
09/04/2022 04:51->METAR KJFK 090451Z 23007KT 10SM BKN070 BKN150 09/04 A2967 RMK AO2 SLP048 T00940044 401720089=
09/04/2022 03:51->METAR KJFK 090351Z 19004KT 10SM BKN060 BKN140 09/06 A2968 RMK AO2 SLP051 T00940056=
09/04/2022 02:51->METAR KJFK 090251Z 21007KT 10SM FEW065 09/05 A2969 RMK AO2 SLP055 T00940050 50006=
09/04/2022 01:51->METAR KJFK 090151Z 19012KT 10SM FEW060 FEW130 10/05 A2970 RMK AO2 SLP058 T01000050=
09/04/2022 00:51->METAR KJFK 090051Z 16007KT 10SM FEW060 FEW090 09/05 A2970 RMK AO2 SLP056 T00890050=
08/04/2022 23:51->METAR KJFK 082351Z 16008KT 10SM FEW060 FEW090 09/04 A2968 RMK AO2 SLP049 T00940044 10172 20094 51006=
08/04/2022 22:51->METAR KJFK 082251Z 18008KT 10SM FEW060 12/05 A2967 RMK AO2 SLP046 T01170050=
08/04/2022 21:51->METAR KJFK 082151Z 17013KT 10SM FEW060 13/05 A2967 RMK AO2 SLP046 T01280050=
08/04/2022 20:51->METAR KJFK 082051Z 17012KT 10SM FEW060 14/04 A2966 RMK AO2 WSHFT 2032 SLP042 T01440039 53001=
08/04/2022 19:51->METAR KJFK 081951Z 22015KT 10SM FEW060 17/M01 A2964 RMK AO2 SLP035 T01721006 $=
08/04/2022 18:51->METAR KJFK 081851Z 23016KT 10SM FEW060 16/02 A2964 RMK AO2 SLP037 T01610017 $=
08/04/2022 17:51->METAR KJFK 081751Z 23018KT 10SM SCT055 16/04 A2965 RMK AO2 SLP041 T01610039 10161 20100 53003=
08/04/2022 16:51->METAR KJFK 081651Z 23019KT 10SM SCT042 15/06 A2965 RMK AO2 SLP039 T01500056=
08/04/2022 15:51->METAR KJFK 081551Z 26013KT 10SM FEW030 15/06 A2965 RMK AO2 SLP039 T01500056=
08/04/2022 14:51->METAR KJFK 081451Z 30010KT 10SM FEW030 14/05 A2964 RMK AO2 SLP038 T01390050 53013=
08/04/2022 13:51->METAR KJFK 081351Z 29012KT 10SM FEW025 12/06 A2964 RMK AO2 SLP036 T01220056=
08/04/2022 12:51->METAR KJFK 081251Z 30012G19KT 10SM FEW020 11/06 A2961 RMK AO2 SLP026 T01110061=
08/04/2022 11:51->METAR KJFK 081151Z 30013G20KT 10SM BKN019 10/06 A2959 RMK AO2 SLP019 60000 70049 T01000061 10106 20089 52014=
08/04/2022 10:51->METAR KJFK 081051Z 29018G23KT 10SM BKN017 10/07 A2957 RMK AO2 SLP012 T01000072=
08/04/2022 09:51->METAR KJFK 080951Z 27013KT 10SM OVC012 10/09 A2954 RMK AO2 SLP004 T01000089=
08/04/2022 08:51->METAR KJFK 080851Z 27013KT 5SM BR OVC005 10/10 A2952 RMK AO2 SLP995 60000 T01000100 53013=
08/04/2022 07:51->METAR KJFK 080751Z 26010KT 1/2SM R04R/1800VP6000FT FG VV002 10/10 A2948 RMK AO2 SLP983 T01000100=
08/04/2022 06:51->METAR KJFK 080651Z 22010KT 1/2SM R04R/1800V2600FT FG VV002 09/09 A2947 RMK AO2 RAE22 SLP978 P0000 T00890089=
08/04/2022 05:51->METAR KJFK 080551Z 13008KT 1/2SM R04R/4000VP6000FT -RA BR OVC003 10/10 A2948 RMK AO2 SFC VIS 1 1/2 RAB0455E06B34 SLP981 P0004 60032 T01000100 10111 20094 58010=
08/04/2022 04:51->METAR KJFK 080451Z 14005KT 1/2SM R04R/P6000FT BR OVC003 11/11 A2948 RMK AO2 SFC VIS 4 RAE51 SLP984 P0005 T01060106 401110072=
08/04/2022 03:51->METAR KJFK 080351Z 24015G27KT 1/2SM R04R/5500VP6000FT -RA BR OVC003 11/11 A2951 RMK AO2 PK WND 12033/0335 WSHFT 0337 SFC VIS 2 SLP994 P0013 T01060106=
08/04/2022 02:51->METAR KJFK 080251Z 12024G30KT 1/2SM R04R/4500VP6000FT -RA BR OVC003 11/11 A2951 RMK AO2 PK WND 12032/0216 SFC VIS 2 RAE0153B11 PRESFR SLP991 P0003 60010 T01060106 58022=
08/04/2022 01:51->METAR KJFK 080151Z 11020G30KT 2SM -RA BR OVC003 11/10 A2955 RMK AO2 PK WND 11033/0107 SFC VIS 2 1/2 SLP005 P0000 T01060100=
08/04/2022 00:51->METAR KJFK 080051Z 10024G36KT 2SM -RA BR OVC004 09/09 A2955 RMK AO2 PK WND 10036/0043 SFC VIS 5 SLP005 P0007 T00940089=
07/04/2022 23:51->METAR KJFK 072351Z 10023G32KT 1 1/2SM -RA BR OVC005 09/09 A2957 RMK AO2 PK WND 10034/2338 SFC VIS 5 RAB31 SLP013 P0000 60013 T00940089 10100 20089 58029=
07/04/2022 22:51->METAR KJFK 072251Z 10024G32KT 1 1/2SM BR OVC005 09/08 A2961 RMK AO2 PK WND 11034/2207 SFC VIS 5 RAE39 SLP027 P0002 T00940083=
07/04/2022 21:51->METAR KJFK 072151Z 10024G35KT 1 1/2SM -RA BR BKN006 OVC015 09/08 A2964 RMK AO2 PK WND 10037/2133 SFC VIS 4 SLP035 P0002 T00940083=
07/04/2022 20:51->METAR KJFK 072051Z 10022G33KT 1 1/2SM -RA BR BKN006 OVC012 09/08 A2966 RMK AO2 PK WND 10036/2008 SFC VIS 6 SLP042 P0006 60009 T00890083 56030=
07/04/2022 19:51->METAR KJFK 071951Z 10026G36KT 1 1/2SM -RA BR BKN006 OVC013 09/08 A2966 RMK AO2 PK WND 10036/1950 SFC VIS 4 SLP044 P0003 T00940083=
07/04/2022 18:51->METAR KJFK 071851Z 10020G29KT 1 1/2SM -RA BR OVC004 09/08 A2970 RMK AO2 PK WND 10034/1813 SFC VIS 3 RAB1752E06B48 PRESFR SLP058 P0000 T00890083=
07/04/2022 17:51->METAR KJFK 071751Z 09015G24KT 1 1/2SM BR OVC006 09/08 A2975 RMK AO2 SFC VIS 4 RAE49 SLP072 P0004 60004 T00890078 10089 20078 58045=
07/04/2022 16:51->METAR KJFK 071651Z 08013KT 1/2SM R04R/P6000FT -RA BR FEW000 OVC004 09/08 A2979 RMK AO2 SFC VIS 1 3/4 RAB46 PRESFR SLP088 CIG 003V006 BR FEW000 P0000 T00890078=
07/04/2022 15:51->METAR KJFK 071551Z 09012KT 1/2SM R04R/P6000FT BR OVC004 08/07 A2984 RMK AO2 SFC VIS 2 1/2 SLP104 T00830072=
07/04/2022 14:51->METAR KJFK 071451Z 11015G21KT 1/4SM R04R/4000VP6000FT BR OVC003 08/07 A2988 RMK AO2 SFC VIS 3 SLP117 T00780072 53012=
07/04/2022 13:51->METAR KJFK 071351Z 09016G28KT 1 1/2SM R04R/4000VP6000FT BR OVC004 08/07 A2984 RMK AO2 PK WND 10028/1347 SFC VIS 3 SLP104 CIG 003V005 T00780072=
07/04/2022 12:51->METAR KJFK 071251Z 09016G20KT 9SM OVC006 08/06 A2987 RMK AO2 SLP115 T00780061=
07/04/2022 11:51->METAR KJFK 071151Z 09017G23KT 7SM OVC005 08/06 A2984 RMK AO2 SLP105 70021 T00780061 10089 20072 56014=
07/04/2022 10:51->METAR KJFK 071051Z 08010KT 10SM OVC012 07/04 A2986 RMK AO2 SLP112 T00720044=
07/04/2022 09:51->METAR KJFK 070951Z 08011KT 10SM OVC015 08/04 A2986 RMK AO2 SLP111 T00780044=
07/04/2022 08:51->METAR KJFK 070851Z 08008KT 10SM OVC018 08/04 A2988 RMK AO2 SLP119 T00830044 58008=
07/04/2022 07:51->METAR KJFK 070751Z 07006KT 10SM FEW012 OVC020 08/06 A2992 RMK AO2 SLP130 T00830056=
07/04/2022 06:51->METAR KJFK 070651Z 06004KT 10SM FEW015 FEW044 OVC140 08/06 A2993 RMK AO2 SLP135 T00830061=
07/04/2022 05:51->METAR KJFK 070551Z 07004KT 10SM SCT015 BKN043 09/06 A2991 RMK AO2 SLP127 T00890061 10106 20089 58003=
07/04/2022 04:51->METAR KJFK 070451Z 08006KT 10SM BKN016 OVC044 09/07 A2992 RMK AO2 SLP131 T00940067 401220083=
07/04/2022 03:51->METAR KJFK 070351Z 08008KT 10SM FEW015 OVC044 09/07 A2992 RMK AO2 SLP131 T00940067=
07/04/2022 02:51->METAR KJFK 070251Z 07008KT 10SM FEW013 OVC037 10/07 A2992 RMK AO2 SLP130 T01000067 50003=
07/04/2022 01:51->METAR KJFK 070151Z 05009KT 10SM OVC013 10/07 A2993 RMK AO2 SLP134 T01000072=
07/04/2022 00:51->METAR KJFK 070051Z 05009KT 10SM OVC013 10/07 A2992 RMK AO2 SLP131 T01000072=
06/04/2022 23:51->METAR KJFK 062351Z 04006KT 10SM OVC013 11/08 A2991 RMK AO2 SLP127 T01060078 10122 20106 53030=
06/04/2022 22:51->METAR KJFK 062251Z 06010KT 10SM OVC012 11/08 A2987 RMK AO2 SLP114 T01060078=
06/04/2022 21:51->METAR KJFK 062151Z 04016G21KT 10SM OVC012 11/08 A2982 RMK AO2 SLP098 T01110083=
06/04/2022 20:51->METAR KJFK 062051Z 05015KT 10SM FEW009 OVC014 12/08 A2982 RMK AO2 PK WND 04029/2012 SLP097 T01170083 55006=
06/04/2022 19:51->METAR KJFK 061951Z 04021G25KT 10SM BKN009 OVC023 12/09 A2981 RMK AO2 SLP094 T01170094=
06/04/2022 18:51->METAR KJFK 061851Z 01014KT 10SM OVC009 11/08 A2984 RMK AO2 SLP103 T01060083=
06/04/2022 17:51->METAR KJFK 061751Z 04015G24KT 10SM OVC010 11/08 A2979 RMK AO2 PK WND 04027/1724 SLP086 CIG 008V012 60021 T01060083 10111 20083 53001=
06/04/2022 16:51->METAR KJFK 061651Z 04021G27KT 10SM BKN011 OVC021 11/09 A2976 RMK AO2 PK WND 05028/1601 RAE15 SLP077 P0000 T01110094=
06/04/2022 15:51->METAR KJFK 061551Z 05019G26KT 10SM -RA OVC010 10/08 A2977 RMK AO2 PK WND 04027/1500 SLP081 CIG 008V012 P0002 T01000083=
06/04/2022 14:51->METAR KJFK 061451Z 04018G24KT 9SM -RA BKN008 OVC016 09/08 A2978 RMK AO2 SLP086 P0005 60019 T00940078 53014=
06/04/2022 13:51->METAR KJFK 061351Z 03018KT 8SM -RA BKN007 OVC019 08/07 A2976 RMK AO2 SLP078 P0006 T00830072=
06/04/2022 12:51->METAR KJFK 061251Z 03015KT 8SM -RA OVC005 09/08 A2975 RMK AO2 SLP074 P0008 T00890078=
06/04/2022 11:51->METAR KJFK 061151Z 02012KT 4SM +RA BR OVC006 09/08 A2974 RMK AO2 SLP072 P0010 60031 70039 T00890083 10100 20083 56020=
06/04/2022 10:51->METAR KJFK 061051Z 05013KT 6SM -RA BR OVC006 10/09 A2975 RMK AO2 SLP074 P0005 T01000089=
06/04/2022 09:51->METAR KJFK 060951Z 05014KT 6SM -RA BR OVC005 09/09 A2977 RMK AO2 SLP082 P0004 T00940089=
06/04/2022 08:51->METAR KJFK 060851Z 06011KT 8SM -RA OVC006 09/08 A2980 RMK AO2 SLP092 P0005 60012 T00890083 58030=
06/04/2022 07:51->METAR KJFK 060751Z 06010KT 6SM -RA BR OVC006 08/08 A2984 RMK AO2 SLP104 P0005 T00830078=
06/04/2022 06:51->METAR KJFK 060651Z 06010KT 8SM -RA OVC007 08/07 A2986 RMK AO2 SLP111 P0002 T00830072=
06/04/2022 05:51->METAR KJFK 060551Z 06012KT 8SM -RA OVC007 08/07 A2989 RMK AO2 SLP122 P0002 60008 T00830072 10083 20078 58028=
06/04/2022 04:51->METAR KJFK 060451Z 05010KT 9SM -RA OVC008 08/07 A2993 RMK AO2 SLP134 P0004 T00830072 401170033=
06/04/2022 03:51->METAR KJFK 060351Z 02005KT 8SM -RA OVC008 08/07 A2996 RMK AO2 SLP144 P0002 T00830067=
06/04/2022 02:51->METAR KJFK 060251Z 08010KT 10SM -RA OVC010 08/06 A2998 RMK AO2 SLP150 P0000 60000 T00830061 58010=
06/04/2022 01:51->METAR KJFK 060151Z 09008KT 10SM -RA OVC013 08/05 A3000 RMK AO2 RAB51 SLP160 P0000 T00830050=
06/04/2022 00:51->METAR KJFK 060051Z 10009KT 10SM OVC016 08/05 A3002 RMK AO2 SLP164 T00830050=
05/04/2022 23:51->METAR KJFK 052351Z 10009KT 10SM OVC019 08/04 A3001 RMK AO2 SLP161 T00830044 10111 20083 56008=
05/04/2022 22:51->METAR KJFK 052251Z 11008KT 10SM OVC022 08/05 A3002 RMK AO2 SLP166 T00830050=
05/04/2022 21:51->METAR KJFK 052151Z 13010KT 10SM OVC022 09/03 A3001 RMK AO2 SLP162 T00890033=
05/04/2022 20:51->METAR KJFK 052051Z 14010KT 10SM OVC030 10/01 A3003 RMK AO2 SLP169 T01000011 56012=
05/04/2022 19:51->METAR KJFK 051951Z 14010KT 10SM OVC039 11/M01 A3004 RMK AO2 SLP173 T01061011=
05/04/2022 18:51->METAR KJFK 051851Z 13009KT 10SM OVC047 11/M01 A3005 RMK AO2 SLP174 T01061006=
05/04/2022 17:51->METAR KJFK 051751Z 14008KT 10SM BKN055 OVC100 11/M02 A3007 RMK AO2 SLP181 T01061017 10117 20072 56003=
05/04/2022 16:51->METAR KJFK 051651Z 15008KT 10SM SCT060 BKN085 OVC180 11/M02 A3007 RMK AO2 SLP181 T01111022=
05/04/2022 15:51->METAR KJFK 051551Z 14006KT 10SM BKN090 OVC180 11/M02 A3007 RMK AO2 SLP183 T01111022=
05/04/2022 14:51->METAR KJFK 051451Z 19006KT 10SM BKN090 OVC200 11/M02 A3007 RMK AO2 SLP184 T01061017 58008=
05/04/2022 13:51->METAR KJFK 051351Z 17004KT 10SM BKN085 OVC220 10/M01 A3009 RMK AO2 SLP189 T01001011=
05/04/2022 12:51->METAR KJFK 051251Z 00000KT 10SM BKN075 BKN110 BKN220 08/01 A3010 RMK AO2 SLP191 T00780011=
05/04/2022 11:51->METAR KJFK 051151Z 17005KT 10SM BKN110 BKN230 07/02 A3010 RMK AO2 SLP192 T00720017 10072 20033 53012=
05/04/2022 10:51->METAR KJFK 051051Z 08003KT 10SM BKN110 BKN230 06/00 A3007 RMK AO2 SLP182 T00560000=
05/04/2022 09:51->METAR KJFK 050951Z 06005KT 10SM OVC110 06/00 A3006 RMK AO2 SLP179 T00610000=
05/04/2022 08:51->METAR KJFK 050851Z 00000KT 10SM OVC100 04/00 A3006 RMK AO2 SLP180 T00440000 53004=
05/04/2022 07:51->METAR KJFK 050751Z 00000KT 10SM BKN095 05/00 A3006 RMK AO2 SLP178 T00500000=
05/04/2022 06:51->METAR KJFK 050651Z 00000KT 10SM SCT100 04/M02 A3004 RMK AO2 SLP173 T00391017=
05/04/2022 05:51->METAR KJFK 050551Z 00000KT 10SM FEW100 06/M02 A3005 RMK AO2 SLP176 T00611022 10106 20050 51009=
05/04/2022 04:51->METAR KJFK 050451Z 33003KT 10SM FEW250 08/M03 A3005 RMK AO2 SLP174 T00781028 401280039=
05/04/2022 03:51->METAR KJFK 050351Z 32006KT 10SM FEW100 FEW250 08/M03 A3003 RMK AO2 SLP170 T00781028=
05/04/2022 02:51->METAR KJFK 050251Z 31008KT 10SM SCT100 BKN250 09/M03 A3002 RMK AO2 SLP167 T00891028 51015=
05/04/2022 01:51->METAR KJFK 050151Z 27008KT 10SM FEW120 BKN140 BKN250 10/M02 A3002 RMK AO2 SLP164 T01001017=
05/04/2022 00:51->METAR KJFK 050051Z 26009KT 10SM BKN120 BKN160 BKN250 10/M02 A3000 RMK AO2 SLP158 T01001017=
04/04/2022 23:51->METAR KJFK 042351Z 26014KT 10SM FEW060 BKN130 BKN170 BKN250 11/M02 A2998 RMK AO2 SLP151 T01061022 10128 20100 51011=
04/04/2022 22:51->METAR KJFK 042251Z 26010KT 10SM FEW060 SCT140 SCT180 BKN250 11/M03 A2996 RMK AO2 SLP146 T01061028=
04/04/2022 21:51->METAR KJFK 042151Z 27015KT 10SM FEW060 BKN140 BKN250 11/M02 A2996 RMK AO2 SLP146 T01111017=
04/04/2022 20:51->METAR KJFK 042051Z 26013KT 10SM FEW060 SCT140 BKN250 12/M02 A2995 RMK AO2 SLP141 T01171022 58007=
04/04/2022 19:51->METAR KJFK 041951Z 26013KT 10SM FEW060 FEW160 BKN250 12/M02 A2996 RMK AO2 SLP145 T01221017=
04/04/2022 18:51->METAR KJFK 041851Z 29013G18KT 10SM FEW055 SCT160 BKN250 12/M02 A2996 RMK AO2 SLP146 T01221022=
04/04/2022 17:51->METAR KJFK 041751Z 28012G19KT 10SM FEW055 BKN250 12/M03 A2997 RMK AO2 SLP148 T01171028 10122 20061 58007=
04/04/2022 16:51->METAR KJFK 041651Z 30011G20KT 10SM FEW050 SCT250 11/M03 A2998 RMK AO2 SLP151 T01111028=
04/04/2022 15:51->METAR KJFK 041551Z 33013KT 10SM SCT050 SCT250 11/M02 A3001 RMK AO2 SLP160 T01061022=
04/04/2022 14:51->METAR KJFK 041451Z 33015G21KT 10SM SCT050 SCT250 10/M02 A2999 RMK AO2 SLP155 T01001022 53002=
04/04/2022 13:51->METAR KJFK 041351Z 32011G22KT 10SM FEW048 08/M02 A2998 RMK AO2 SLP153 T00831022=
04/04/2022 12:51->METAR KJFK 041251Z 31011KT 10SM FEW045 07/M01 A2998 RMK AO2 SLP152 T00721011=
04/04/2022 11:51->METAR KJFK 041151Z 30009KT 10SM FEW045 FEW100 06/M01 A2998 RMK AO2 SLP152 70010 T00611011 10061 20039 52022=
04/04/2022 10:51->METAR KJFK 041051Z 31012KT 10SM FEW045 FEW100 04/M02 A2996 RMK AO2 SLP145 T00441017=
04/04/2022 09:51->METAR KJFK 040951Z 32011KT 10SM FEW045 04/M02 A2994 RMK AO2 SLP137 T00391022=
04/04/2022 08:51->METAR KJFK 040851Z 31015KT 10SM FEW045 04/M02 A2992 RMK AO2 SLP130 T00441022 52016=
04/04/2022 07:51->METAR KJFK 040751Z 32014KT 10SM FEW045 FEW070 04/M02 A2990 RMK AO2 SLP124 T00441017=
04/04/2022 06:51->METAR KJFK 040651Z 31012KT 10SM SCT043 SCT065 04/M01 A2989 RMK AO2 SLP120 T00441011=
04/04/2022 05:51->METAR KJFK 040551Z 32016KT 10SM SCT065 04/M02 A2987 RMK AO2 SLP114 T00441017 10078 20044 53012=
04/04/2022 04:51->METAR KJFK 040451Z 32016KT 10SM FEW036 SCT065 SCT220 04/M02 A2986 RMK AO2 SLP109 T00441017 400780033=
04/04/2022 03:51->METAR KJFK 040351Z 31013G24KT 10SM FEW036 FEW200 05/M02 A2984 RMK AO2 PK WND 31026/0306 SLP105 T00501017=
04/04/2022 02:51->METAR KJFK 040251Z 31018G25KT 10SM FEW036 FEW110 SCT200 06/M01 A2983 RMK AO2 PK WND 32028/0232 SLP102 T00561011 51014=
04/04/2022 01:51->METAR KJFK 040151Z 30012KT 10SM SCT033 BKN110 BKN200 07/01 A2983 RMK AO2 PK WND 29026/0126 SLP101 T00670006=
04/04/2022 00:51->METAR KJFK 040051Z 32017KT 10SM SCT030 BKN038 BKN090 BKN210 07/02 A2982 RMK AO2 SLP097 T00720017=
03/04/2022 23:51->METAR KJFK 032351Z 30016KT 10SM BKN036 BKN065 BKN200 08/03 A2979 RMK AO2 RAB2256E06 SLP089 P0000 60000 T00780028 10078 20067 53013=
03/04/2022 22:51->METAR KJFK 032251Z 01005KT 9SM SCT016 BKN023 BKN038 BKN250 07/04 A2978 RMK AO2 RAE10B30E50 SLP083 P0000 T00720044=
03/04/2022 21:51->METAR KJFK 032151Z VRB05KT 10SM -RA BKN020 OVC028 07/03 A2976 RMK AO2 RAB44 SLP078 P0000 T00720033=
03/04/2022 20:51->METAR KJFK 032051Z 22004KT 10SM BKN021 OVC035 08/03 A2976 RMK AO2 SLP076 60000 T00780028 56012=
03/04/2022 19:51->METAR KJFK 031951Z 09003KT 10SM FEW015 BKN020 OVC030 07/03 A2976 RMK AO2 SLP076 T00720033=
03/04/2022 18:51->METAR KJFK 031851Z VRB05KT 10SM FEW013 BKN020 OVC028 07/04 A2977 RMK AO2 RAE1754 SLP080 P0000 T00720039=
03/04/2022 17:51->METAR KJFK 031751Z 13006KT 10SM -RA FEW015 BKN020 OVC033 07/04 A2979 RMK AO2 SLP088 P0002 60010 T00670039 10078 20061 58010=
03/04/2022 16:51->METAR KJFK 031651Z 14004KT 10SM -RA BKN022 OVC033 07/04 A2981 RMK AO2 SLP094 P0004 T00670039=
03/04/2022 15:51->METAR KJFK 031551Z 16010KT 10SM -RA FEW022 BKN031 OVC047 07/03 A2981 RMK AO2 SLP095 P0003 T00670033=
03/04/2022 14:51->METAR KJFK 031451Z 00000KT 10SM -RA FEW015 BKN039 OVC060 08/05 A2982 RMK AO2 RAE22B44 SLP098 P0000 60001 T00780050 55006=
03/04/2022 13:51->METAR KJFK 031351Z 08006KT 10SM -RA FEW011 BKN046 OVC055 07/05 A2982 RMK AO2 RAB26 SLP097 P0001 T00720050=
03/04/2022 12:51->METAR KJFK 031251Z 16003KT 10SM BKN011 OVC080 07/05 A2984 RMK AO2 SLP104 T00720050=
03/04/2022 11:51->METAR KJFK 031151Z 14004KT 10SM FEW080 SCT130 BKN170 BKN250 06/04 A2985 RMK AO2 SLP109 T00610039 10061 20033 56014=
03/04/2022 10:51->METAR KJFK 031051Z 13003KT 10SM BKN170 BKN250 04/02 A2987 RMK AO2 SLP114 T00440022=
03/04/2022 09:51->METAR KJFK 030951Z 13004KT 10SM OVC160 05/02 A2988 RMK AO2 SLP117 T00500022=
03/04/2022 08:51->METAR KJFK 030851Z 00000KT 10SM OVC190 05/02 A2990 RMK AO2 SLP123 T00500022 58016=
03/04/2022 07:51->METAR KJFK 030751Z 22008KT 10SM BKN210 05/02 A2992 RMK AO2 SLP130 T00500017=
03/04/2022 06:51->METAR KJFK 030651Z 22008KT 10SM BKN200 04/01 A2993 RMK AO2 SLP135 T00390011=
03/04/2022 05:51->METAR KJFK 030551Z 22006KT 10SM OVC220 05/01 A2994 RMK AO2 SLP139 T00500011 10061 20050 56014=
03/04/2022 04:51->METAR KJFK 030451Z 19011KT 10SM BKN250 06/03 A2995 RMK AO2 SLP140 T00610033 401110039=
03/04/2022 03:51->METAR KJFK 030351Z 19011KT 10SM BKN250 06/03 A2997 RMK AO2 SLP147 T00610028=
03/04/2022 02:51->METAR KJFK 030251Z 19011KT 10SM BKN250 06/03 A2998 RMK AO2 SLP152 T00610028 58008=
03/04/2022 01:51->METAR KJFK 030151Z 18010KT 10SM BKN250 06/01 A3001 RMK AO2 SLP160 T00560011=
03/04/2022 00:51->METAR KJFK 030051Z 18015KT 10SM BKN250 06/02 A3002 RMK AO2 SLP164 T00610017=
02/04/2022 23:51->METAR KJFK 022351Z 20017KT 10SM BKN250 06/00 A3000 RMK AO2 SLP160 T00610000 10111 20061 53006=
02/04/2022 22:51->METAR KJFK 022251Z 19014G19KT 10SM SCT250 07/00 A2998 RMK AO2 SLP153 T00720000=
02/04/2022 21:51->METAR KJFK 022151Z 22012KT 10SM FEW250 11/M05 A2998 RMK AO2 SLP152 T01061050=
02/04/2022 20:51->METAR KJFK 022051Z 21013KT 10SM FEW250 11/M04 A2999 RMK AO2 SLP154 T01061044 56022=
02/04/2022 19:51->METAR KJFK 021951Z 22012KT 10SM BKN250 11/M05 A2999 RMK AO2 SLP156 T01111050=
02/04/2022 18:51->METAR KJFK 021851Z 24009KT 10SM BKN250 11/M06 A3002 RMK AO2 SLP165 T01061056=
02/04/2022 17:51->METAR KJFK 021751Z 33008KT 10SM FEW250 10/M06 A3005 RMK AO2 SLP176 T01001056 10100 20039 58021=
02/04/2022 16:51->METAR KJFK 021651Z 29011G18KT 10SM FEW250 09/M06 A3008 RMK AO2 SLP184 T00891056=
02/04/2022 15:51->METAR KJFK 021551Z 31013KT 10SM FEW250 08/M06 A3010 RMK AO2 SLP191 T00781056=
02/04/2022 14:51->METAR KJFK 021451Z 31013KT 10SM FEW044 FEW250 07/M06 A3011 RMK AO2 SLP197 T00671056 51008=
02/04/2022 13:51->METAR KJFK 021351Z 31017G21KT 10SM SCT044 SCT250 06/M06 A3011 RMK AO2 SLP197 T00561056=
02/04/2022 12:51->METAR KJFK 021251Z 33020G25KT 10SM SCT043 06/M06 A3009 RMK AO2 PK WND 30028/1218 SLP190 T00561056=
02/04/2022 11:51->METAR KJFK 021151Z 31018G26KT 10SM BKN044 04/M06 A3009 RMK AO2 PK WND 30027/1056 SLP188 T00391061 10061 20039 53026=
02/04/2022 10:51->METAR KJFK 021051Z 30018G28KT 10SM SCT048 04/M07 A3006 RMK AO2 PK WND 31030/1040 SLP179 T00391067=
02/04/2022 09:51->METAR KJFK 020951Z 31020G27KT 10SM BKN050 04/M07 A3003 RMK AO2 PK WND 31027/0947 SLP169 T00441067=
02/04/2022 08:51->METAR KJFK 020851Z 32016KT 10SM OVC049 04/M06 A3001 RMK AO2 PK WND 31029/0826 SLP162 T00441061 53017=
02/04/2022 07:51->METAR KJFK 020751Z 31017G21KT 10SM OVC048 05/M06 A2999 RMK AO2 SLP156 T00501056=
02/04/2022 06:51->METAR KJFK 020651Z 31015KT 10SM OVC050 06/M06 A2998 RMK AO2 PK WND 31033/0621 SLP151 T00561056=
02/04/2022 05:51->METAR KJFK 020551Z 30018G27KT 10SM OVC055 06/M06 A2996 RMK AO2 PK WND 28032/0516 SLP145 T00611061 10078 20061 51025=
02/04/2022 04:51->METAR KJFK 020451Z 28021G29KT 10SM OVC060 06/M07 A2995 RMK AO2 PK WND 31038/0357 SLP140 T00611072 401500061=
02/04/2022 03:51->METAR KJFK 020351Z 30023G35KT 10SM OVC060 07/M07 A2992 RMK AO2 PK WND 31035/0346 SLP130 T00671067=
02/04/2022 02:51->METAR KJFK 020251Z 29020G28KT 10SM BKN060 07/M06 A2989 RMK AO2 PK WND 31031/0202 SLP120 T00721056 51035=
02/04/2022 01:51->METAR KJFK 020151Z 29020G28KT 10SM SCT050 SCT070 07/M05 A2987 RMK AO2 PK WND 30042/0054 SLP113 T00721050=
02/04/2022 00:51->METAR KJFK 020051Z 29020G28KT 10SM FEW050 FEW100 08/M04 A2983 RMK AO2 PK WND 30032/0030 SLP102 T00781039=
01/04/2022 23:51->METAR KJFK 012351Z 29022G31KT 10SM SCT070 SCT100 08/M02 A2978 RMK AO2 PK WND 30033/2315 SLP085 60000 T00781022 10144 20078 51046=
01/04/2022 22:51->METAR KJFK 012251Z 29018G29KT 10SM FEW050 BKN065 BKN110 09/M02 A2975 RMK AO2 PK WND 30036/2227 SLP072 VCSH W-N T00891017=
01/04/2022 21:51->METAR KJFK 012151Z 27024G30KT 10SM FEW033 BKN055 BKN090 10/M01 A2970 RMK AO2 PK WND 29031/2121 WSHFT 2117 RAB23E40 SLP056 VCSH N-E AND W-NW P0000 T01001011=
01/04/2022 20:51->METAR KJFK 012051Z 26018KT 10SM FEW055 SCT080 BKN095 11/M01 A2965 RMK AO2 PK WND 27030/1952 RAB12E36 SLP039 VCSH NE AND SW-NW P0000 60000 T01061011 53019=
01/04/2022 19:51->METAR KJFK 011951Z 27020G30KT 10SM SCT060 BKN075 12/M01 A2961 RMK AO2 PK WND 25035/1915 SLP028 VCSH W-NW T01221011=
01/04/2022 18:51->METAR KJFK 011851Z 25022G26KT 10SM BKN060 BKN080 13/01 A2959 RMK AO2 PK WND 27033/1836 SLP020 T01280006=
01/04/2022 17:51->METAR KJFK 011751Z 27020G28KT 10SM FEW046 BKN065 BKN120 13/M01 A2959 RMK AO2 PK WND 28031/1712 SLP020 60000 T01331011 10150 20111 58004=
01/04/2022 16:51->METAR KJFK 011651Z 27021G29KT 10SM BKN050 BKN075 BKN120 BKN170 13/M01 A2959 RMK AO2 PK WND 27029/1642 SLP020 T01331006=
01/04/2022 15:51->METAR KJFK 011551Z 26018G23KT 10SM SCT046 BKN120 13/03 A2961 RMK AO2 PK WND 26026/1452 SLP026 T01330028=
01/04/2022 14:51->METAR KJFK 011451Z 26021KT 10SM FEW031 SCT075 BKN120 12/02 A2960 RMK AO2 SLP025 60000 T01220022 53010=
01/04/2022 13:51->METAR KJFK 011351Z 28011KT 10SM SCT046 BKN075 BKN110 12/05 A2959 RMK AO2 SLP018 T01170050=
01/04/2022 12:51->METAR KJFK 011251Z 31011KT 10SM FEW023 BKN075 BKN095 11/06 A2955 RMK AO2 RAB09E18 SLP007 VCSH SW P0000 T01110056=
01/04/2022 11:51->METAR KJFK 011151Z 31015G22KT 10SM FEW020 BKN065 BKN095 12/07 A2957 RMK AO2 RAE04B26E41 SLP014 VCSH E-S P0000 60008 70011 T01170072 10150 20094 53040=
01/04/2022 10:51->METAR KJFK 011051Z 31014KT 10SM -RA FEW032 SCT065 BKN090 12/08 A2950 RMK AO2 RAB16 SLP990 P0000 T01220083=
01/04/2022 09:51->METAR KJFK 010951Z 30012KT 10SM FEW028 OVC060 14/09 A2947 RMK AO2 SLP980 T01390094=
01/04/2022 08:51->METAR KJFK 010851Z 29013KT 10SM SCT035 OVC075 15/13 A2946 RMK AO2 RAE16 SLP974 P0002 60008 T01500128 56001=
01/04/2022 07:51->METAR KJFK 010751Z 29010KT 5SM RA BR FEW002 BKN035 OVC075 13/13 A2947 RMK AO2 RAB25 SLP978 P0006 T01330128=
01/04/2022 06:51->METAR KJFK 010651Z 18012KT 1/8SM R04R/2800V3500FT FG VV002 09/09 A2942 RMK AO2 SFC VIS 1/2 SLP962 T00940094=
01/04/2022 05:51->METAR KJFK 010551Z 18013KT 1/8SM R04R/5500V6000FT BR BKN002 OVC018 11/11 A2946 RMK AO2 SFC VIS 1 1/2 RAE18 SLP975 P0000 60003 T01060106 10139 20106 58017=
01/04/2022 04:51->METAR KJFK 010451Z 17010KT 1/8SM R04R/4000VP6000FT -RA BR BKN002 OVC025 11/11 A2949 RMK AO2 PK WND 18027/0408 SFC VIS 2 1/2 SLP986 P0000 T01110111 401390067=
01/04/2022 03:51->METAR KJFK 010351Z 19019KT 4SM -RA BR BKN019 OVC039 12/12 A2950 RMK AO2 PK WND 19027/0259 RAB45 SLP988 P0000 T01220117=
01/04/2022 02:51->METAR KJFK 010251Z 19025G29KT 8SM FEW003 BKN016 OVC026 13/12 A2951 RMK AO2 PK WND 19035/0155 SLP992 60003 T01280122 56014=
01/04/2022 01:51->METAR KJFK 010151Z 19029G37KT 7SM BKN006 OVC014 13/13 A2952 RMK AO2 PK WND 18046/0115 RAE28 SLP994 P0003 T01330133=
01/04/2022 00:51->METAR KJFK 010051Z 18027G37KT 7SM -RA SCT006 BKN014 OVC065 12/12 A2953 RMK AO2 PK WND 18039/0036 RAB26 SLP998 SCT V BKN P0000 T01220117=
31/01/2022 23:51->METAR KJFK 312351Z 04005KT 10SM FEW250 M04/M13 A3043 RMK AO2 SLP304 4/009 T10441128 10000 21050 53021=
31/01/2022 22:51->METAR KJFK 312251Z 02006KT 10SM FEW170 SCT250 M03/M13 A3041 RMK AO2 SLP296 T10331128=
31/01/2022 21:51->METAR KJFK 312151Z 01006KT 10SM FEW170 BKN250 M02/M13 A3039 RMK AO2 SLP290 T10221128=
31/01/2022 20:51->METAR KJFK 312051Z 00000KT 10SM FEW170 BKN250 M01/M13 A3037 RMK AO2 SLP283 T10111133 55004=
31/01/2022 19:51->METAR KJFK 311951Z 07003KT 10SM BKN250 M01/M14 A3036 RMK AO2 SLP281 T10111139=
31/01/2022 18:51->METAR KJFK 311851Z 00000KT 10SM FEW050 FEW210 BKN260 M02/M15 A3037 RMK AO2 SLP284 T10171150=
31/01/2022 17:51->METAR KJFK 311751Z 00000KT 10SM FEW170 BKN260 M02/M17 A3038 RMK AO2 SLP287 4/009 933007 T10221167 11011 21089 50002=
31/01/2022 16:51->METAR KJFK 311651Z 00000KT 10SM FEW170 BKN260 M02/M16 A3040 RMK AO2 SLP292 T10171156=
31/01/2022 15:51->METAR KJFK 311551Z 04004KT 10SM BKN170 BKN260 M03/M14 A3040 RMK AO2 SLP293 T10281144=
31/01/2022 14:51->METAR KJFK 311451Z 07004KT 10SM SCT190 BKN260 M04/M15 A3037 RMK AO2 SLP285 T10441150 53023=
31/01/2022 13:51->METAR KJFK 311351Z 06005KT 10SM FEW130 FEW180 BKN260 M06/M13 A3035 RMK AO2 SLP277 T10611133=
31/01/2022 12:51->METAR KJFK 311251Z 05006KT 10SM FEW180 BKN260 M08/M13 A3032 RMK AO2 SLP268 T10781128=
31/01/2022 11:51->METAR KJFK 311151Z 06006KT 10SM FEW180 BKN260 M08/M14 A3031 RMK AO2 SLP261 4/009 T10781139 11050 21083 53020=
31/01/2022 10:51->METAR KJFK 311051Z 03004KT 10SM FEW250 M08/M13 A3028 RMK AO2 SLP253 T10781128=
31/01/2022 09:51->METAR KJFK 310951Z 03003KT 10SM FEW110 M08/M14 A3026 RMK AO2 SLP246 T10831144=
31/01/2022 08:51->METAR KJFK 310851Z 01003KT 10SM BKN110 M07/M14 A3025 RMK AO2 SLP242 T10671139 53011=
31/01/2022 07:51->METAR KJFK 310751Z 01004KT 10SM BKN120 M06/M14 A3024 RMK AO2 SLP238 T10611139=
31/01/2022 06:51->METAR KJFK 310651Z 36005KT 10SM BKN120 M06/M14 A3022 RMK AO2 SLP234 T10561139=
31/01/2022 05:51->METAR KJFK 310551Z 36003KT 10SM OVC130 M06/M13 A3021 RMK AO2 SLP231 4/009 T10561133 11039 21061 50010=
31/01/2022 04:51->METAR KJFK 310451Z 34006KT 10SM R04R/4500VP6000FT OVC130 M04/M14 A3021 RMK AO2 SLP231 T10441139 410391111=
31/01/2022 03:51->METAR KJFK 310351Z 28008KT 10SM FEW085 OVC140 M04/M14 A3021 RMK AO2 SLP228 T10441139=
31/01/2022 02:51->METAR KJFK 310251Z 27010KT 10SM OVC130 M04/M14 A3019 RMK AO2 SLP221 T10441144 51025=
31/01/2022 01:51->METAR KJFK 310151Z 27011KT 10SM OVC130 M04/M14 A3016 RMK AO2 SLP212 T10441139=
31/01/2022 00:51->METAR KJFK 310051Z 26012KT 10SM BKN140 BKN220 M04/M14 A3014 RMK AO2 SLP205 T10441144=
30/01/2022 23:51->METAR KJFK 302351Z 26012KT 10SM SCT140 BKN210 M05/M14 A3011 RMK AO2 SLP196 4/010 T10501144 11039 21061 53032=
30/01/2022 22:51->METAR KJFK 302251Z 26012KT 10SM FEW250 M06/M14 A3007 RMK AO2 SLP183 T10561144=
30/01/2022 21:51->METAR KJFK 302151Z 24013KT 10SM FEW055 FEW250 M06/M14 A3004 RMK AO2 SLP171 T10561144=
30/01/2022 20:51->METAR KJFK 302051Z 26010KT 10SM CLR M04/M16 A3002 RMK AO2 SLP164 T10441156 53004=
30/01/2022 19:51->METAR KJFK 301951Z 25010KT 10SM CLR M04/M14 A3001 RMK AO2 SLP160 T10441144=
30/01/2022 18:51->METAR KJFK 301851Z 27009KT 10SM FEW250 M05/M14 A3000 RMK AO2 SLP159 T10501144=
30/01/2022 17:51->METAR KJFK 301751Z 30008KT 10SM FEW200 FEW250 M06/M16 A3000 RMK AO2 SLP160 4/010 933005 T10561156 11056 21106 58010=
30/01/2022 16:51->METAR KJFK 301651Z 29011KT 10SM FEW030 FEW200 SCT250 M07/M16 A3002 RMK AO2 SLP166 T10671156 $=
30/01/2022 15:51->METAR KJFK 301551Z 29014KT 10SM FEW030 FEW200 SCT250 M07/M16 A3005 RMK AO2 SLP176 T10721156 $=
30/01/2022 14:51->METAR KJFK 301451Z 31010KT 10SM FEW030 SCT200 BKN250 M08/M16 A3004 RMK AO2 SLP170 T10831161 51019 $=
30/01/2022 13:51->METAR KJFK 301351Z 28009KT 10SM FEW030 FEW200 SCT250 M09/M17 A3003 RMK AO2 SLP167 T10941172 $=
30/01/2022 12:51->METAR KJFK 301251Z 29008KT 10SM FEW030 FEW250 M11/M18 A3001 RMK AO2 SLP163 T11061178 $=
30/01/2022 11:51->METAR KJFK 301151Z 31013KT 10SM FEW030 FEW250 M10/M19 A2998 RMK AO2 SLP151 4/010 70006 T11001189 11100 21111 53033 $=
30/01/2022 10:51->METAR KJFK 301051Z 30011KT 10SM FEW250 M11/M19 A2994 RMK AO2 SLP138 T11061189 $=
30/01/2022 09:51->METAR KJFK 300951Z 30015KT 10SM FEW250 M11/M18 A2991 RMK AO2 SLP126 T11061183 $=
30/01/2022 08:51->METAR KJFK 300851Z 30018G23KT 10SM FEW100 FEW250 M11/M19 A2988 RMK AO2 PK WND 31030/0756 SLP117 T11061189 51018 $=
30/01/2022 07:51->METAR KJFK 300751Z 31019G30KT 10SM FEW110 SCT250 M11/M18 A2986 RMK AO2 PK WND 31030/0743 SLP111 T11061183 $=
30/01/2022 06:51->METAR KJFK 300651Z 31020G26KT 10SM FEW110 SCT250 M11/M19 A2985 RMK AO2 PK WND 30029/0635 SLP107 T11111194 $=
30/01/2022 05:51->METAR KJFK 300551Z 31020G30KT 10SM FEW110 FEW160 BKN240 M11/M20 A2983 RMK AO2 PK WND 32032/0509 SLP100 4/010 T11111200 11072 21111 51021 $=
30/01/2022 04:51->METAR KJFK 300451Z 31024G33KT 10SM FEW160 BKN240 M11/M19 A2981 RMK AO2 PK WND 31033/0451 SLP095 T11111194 410171111 $=
30/01/2022 03:51->METAR KJFK 300351Z 31019G28KT 8SM FEW120 FEW160 BKN250 M10/M19 A2980 RMK AO2 PK WND 32029/0310 SLP091 T11001194 $=
30/01/2022 02:51->METAR KJFK 300251Z 32019G28KT 10SM FEW110 SCT160 BKN240 M10/M19 A2976 RMK AO2 PK WND 33032/0240 SLP079 T11001189 51034 $=
30/01/2022 01:51->METAR KJFK 300151Z 31026G34KT 10SM BKN100 BKN160 M09/M17 A2974 RMK AO2 PK WND 31034/0150 SLP070 T10891172 $=
30/01/2022 00:51->METAR KJFK 300051Z 31022G28KT 10SM BKN090 BKN160 M08/M17 A2970 RMK AO2 PK WND 30030/0018 SLP058 T10781172 $=
29/01/2022 23:51->METAR KJFK 292351Z 31018G31KT 10SM OVC085 M08/M17 A2966 RMK AO2 PK WND 31035/2333 UPB16E26 SLP044 4/011 P0000 60000 T10781172 11067 21089 53019 $=
29/01/2022 22:51->METAR KJFK 292251Z 32020G27KT 10SM OVC080 M07/M17 A2964 RMK AO2 PK WND 31029/2239 SLP037 T10721167 $=
29/01/2022 21:51->METAR KJFK 292151Z 30020G25KT 9SM OVC048 M07/M16 A2962 RMK AO2 PK WND 31030/2114 UPB13E21 SLP030 P0000 T10721156 $=
29/01/2022 20:51->METAR KJFK 292051Z 31020G27KT 7SM OVC031 M07/M12 A2961 RMK AO2 PK WND 30028/2039 SNE45 SLP025 P0000 60000 T10721122 55003 $=
29/01/2022 19:51->METAR KJFK 291951Z 32019G29KT 1 1/2SM -SN BLSN OVC024 M07/M10 A2960 RMK AO2 PK WND 32035/1856 SLP023 P0000 T10721100 $=
29/01/2022 18:51->METAR KJFK 291851Z 32025G31KT 1 1/4SM -SN BLSN BKN026 OVC033 M08/M11 A2959 RMK AO2 PK WND 33037/1752 SLP019 P0000 T10781106 $=
29/01/2022 17:51->METAR KJFK 291751Z 33027G34KT 1/4SM R04R/2400V3500FT +SN BLSN FZFG VV009 M09/M11 A2962 RMK AO2 PK WND 32040/1729 SFC VIS 1/2 SLP029 SNINCR 1/11 4/011 933006 P0001 60006 T10891111 11067 21094 58018 $=
29/01/2022 16:51->METAR KJFK 291651Z 33026G36KT 1/4SM R04R/2400V3000FT SN BLSN FZFG VV009 M09/M12 A2966 RMK AO2 PK WND 33037/1621 SLP042 SNINCR 1/10 P0002 T10941117=
29/01/2022 15:51->METAR KJFK 291551Z 33028G33KT 1/4SM R04R/2200V3000FT +SN BLSN FZFG VV009 M09/M11 A2966 RMK AO2 PK WND 33036/1502 SLP045 SNINCR 1/9 P0001 T10891111=
29/01/2022 14:51->METAR KJFK 291451Z 34027G34KT 1/4SM R04R/1600V2800FT +SN BLSN FZFG VV008 M09/M11 A2967 RMK AO2 PK WND 34035/1420 SLP046 SNINCR 1/8 P0000 60002 T10941111 51001=
29/01/2022 13:51->METAR KJFK 291351Z 35023G31KT 1/4SM R04R/2400V3000FT +SN BLSN FZFG VV009 M09/M11 A2967 RMK AO2 PK WND 34033/1314 SLP045 SNINCR 1/7 P0002 T10891106=
29/01/2022 12:51->METAR KJFK 291251Z 35023G30KT 1/2SM R04R/3500V4000FT SN BLSN FZFG VV011 M08/M10 A2968 RMK AO2 PK WND 35032/1242 TWR VIS 3/4 SLP049 SNINCR 1/6 P0000 T10781100=
29/01/2022 11:51->METAR KJFK 291151Z 35021G32KT 3/4SM R04R/5000V6000FT -SN BLSN BR VV011 M07/M09 A2967 RMK AO2 PK WND 35032/1144 SFC VIS 1 SLP046 4/005 P0000 60009 70023 T10671089 11017 21067 56028=
29/01/2022 10:51->METAR KJFK 291051Z 35026G30KT 1SM R04R/4000VP6000FT -SN BLSN BR VV015 M06/M08 A2968 RMK AO2 PK WND 35034/0955 SLP050 P0001 T10611078=
29/01/2022 09:51->METAR KJFK 290951Z 36023G32KT 1SM R04R/4500VP6000FT -SN BLSN BR OVC017 M05/M07 A2971 RMK AO2 PK WND 36037/0919 SFC VIS 1 1/4 SLP059 P0000 T10501067 $=
29/01/2022 08:51->METAR KJFK 290851Z 36021KT 3/4SM R04R/3500VP6000FT -SN BLSN BR VV010 M04/M06 A2975 RMK AO2 PK WND 35030/0840 SLP073 SNINCR 1/4 P0001 60008 T10441061 58044 $=
29/01/2022 07:51->METAR KJFK 290751Z 36019G25KT 3/4SM R04R/3500V5000FT -SN BR VV008 M03/M04 A2980 RMK AO2 SLP091 P0003 T10331044=
29/01/2022 06:51->METAR KJFK 290651Z 01017G24KT 3/4SM R04R/5500VP6000FT -SN BR VV008 M02/M03 A2985 RMK AO2 SLP107 SNINCR 1/3 P0004 T10171033=
29/01/2022 05:51->METAR KJFK 290551Z 02018G24KT 1SM R04R/6000VP6000FT -SN BR VV009 M02/M03 A2988 RMK AO2 SLP117 4/002 P0002 60012 T10171028 11006 21017 58035=
29/01/2022 04:51->METAR KJFK 290451Z 02016KT 1 1/4SM -SN BR OVC009 M01/M03 A2992 RMK AO2 SLP131 SNINCR 1/2 P0004 T10111028 400171017=
29/01/2022 03:51->METAR KJFK 290351Z 02015KT 1SM R04R/P6000FT -SN BR SCT000 SCT007 OVC012 M01/M03 A2995 RMK AO2 SFC VIS 1 1/2 SLP142 SN SCT000 P0002 T10111028=
29/01/2022 02:51->METAR KJFK 290251Z 02013KT 1SM R04R/P6000FT -SN BR SCT000 SCT007 OVC012 M01/M02 A2998 RMK AO2 SFC VIS 1 1/2 PRESFR SLP152 SN SCT000 P0002 60004 T10111022 58023=
29/01/2022 01:51->METAR KJFK 290151Z 02008KT 2 1/2SM -SN BR FEW000 SCT008 OVC025 M01/M02 A3003 RMK AO2 SLP168 SN FEW000 P0002 T10061022=
29/01/2022 00:51->METAR KJFK 290051Z 03008KT 2 1/2SM -SN BR FEW000 FEW014 OVC021 M01/M03 A3004 RMK AO2 SFC VIS 3 SNB07 SLP173 SN FEW000 P0000 T10061028=
28/01/2022 23:51->METAR KJFK 282351Z 04009KT 9SM FEW014 FEW028 OVC065 M01/M04 A3005 RMK AO2 SLP175 60000 T10061039 10017 21006 55003=
28/01/2022 22:51->METAR KJFK 282251Z 03010KT 10SM FEW014 BKN026 OVC090 00/M03 A3005 RMK AO2 SLP174 T00001033=
28/01/2022 21:51->METAR KJFK 282151Z 01008KT 9SM FEW014 SCT038 BKN075 OVC250 01/M03 A3006 RMK AO2 SNE45 SLP178 P0000 T00061033=
28/01/2022 20:51->METAR KJFK 282051Z 04006KT 7SM -SN OVC017 01/M02 A3008 RMK AO2 SLP184 P0000 60000 T00111022 56015=
28/01/2022 19:51->METAR KJFK 281951Z 00000KT 7SM -SN BKN017 OVC030 01/M02 A3008 RMK AO2 SLP185 P0000 T00111022=
28/01/2022 18:51->METAR KJFK 281851Z 00000KT 2 1/2SM -SN SCT013 BKN028 BKN050 OVC140 01/M02 A3010 RMK AO2 SFC VIS 4 SNE31B48 SLP191 P0000 T00111022=
28/01/2022 17:51->METAR KJFK 281751Z 00000KT 2SM -SN BR FEW027 OVC050 00/M02 A3012 RMK AO2 SFC VIS 2 1/2 SLP199 P0000 60002 T00001022 10000 21017 58017=
28/01/2022 16:51->METAR KJFK 281651Z 00000KT 4SM -SN BR FEW017 SCT032 OVC060 M01/M03 A3014 RMK AO2 SLP205 P0000 T10061028=
28/01/2022 15:51->METAR KJFK 281551Z 20003KT 2 1/2SM -SN BR SCT012 BKN029 OVC047 M01/M03 A3016 RMK AO2 SLP214 P0001 T10111028=
28/01/2022 14:51->METAR KJFK 281451Z 22004KT 2 1/2SM -SN BR BKN012 BKN020 OVC037 M02/M03 A3017 RMK AO2 SFC VIS 3 SLP215 P0000 60001 T10171033 51002=
28/01/2022 13:51->METAR KJFK 281351Z 28003KT 2 1/2SM -SN BR FEW013 BKN027 OVC041 M02/M04 A3017 RMK AO2 SLP216 P0001 T10171039=
28/01/2022 12:51->METAR KJFK 281251Z 26006KT 8SM -SN BKN036 OVC085 M01/M08 A3017 RMK AO2 SNB47 SLP217 P0000 T10061078=
28/01/2022 11:51->METAR KJFK 281151Z 24004KT 10SM BKN070 M01/M08 A3016 RMK AO2 SLP213 T10061083 11006 21011 58003=
28/01/2022 10:51->METAR KJFK 281051Z 24006KT 10SM BKN060 OVC090 M01/M08 A3017 RMK AO2 SLP215 T10061083=
28/01/2022 09:51->METAR KJFK 280951Z 25006KT 10SM OVC070 M01/M08 A3017 RMK AO2 CIG 055 W SLP215 T10061078=
28/01/2022 08:51->METAR KJFK 280851Z 23007KT 10SM OVC070 M01/M08 A3017 RMK AO2 SLP216 T10061078 58021=
28/01/2022 07:51->METAR KJFK 280751Z 23010KT 10SM OVC070 M01/M09 A3020 RMK AO2 SLP225 T10061089=
28/01/2022 06:51->METAR KJFK 280651Z 23009KT 10SM OVC065 M01/M09 A3021 RMK AO2 SLP230 T10111094=
28/01/2022 05:51->METAR KJFK 280551Z 23010KT 10SM OVC060 M01/M10 A3023 RMK AO2 SLP237 T10111100 11011 21022 58011=
28/01/2022 04:51->METAR KJFK 280451Z 23010KT 10SM OVC075 M01/M10 A3025 RMK AO2 SLP242 T10111100 400001106=
28/01/2022 03:51->METAR KJFK 280351Z 23011KT 10SM SCT080 OVC100 M01/M11 A3026 RMK AO2 SLP247 T10111106=
28/01/2022 02:51->METAR KJFK 280251Z 24010KT 10SM SCT190 BKN250 M02/M09 A3027 RMK AO2 SLP248 T10171089 56011=
28/01/2022 01:51->METAR KJFK 280151Z 23012KT 10SM FEW040 FEW120 BKN250 M01/M10 A3027 RMK AO2 SLP250 T10111100=
28/01/2022 00:51->METAR KJFK 280051Z 22010KT 10SM FEW120 BKN250 M02/M09 A3029 RMK AO2 SLP256 T10171089=
27/01/2022 23:51->METAR KJFK 272351Z 23011KT 10SM FEW037 SCT250 M02/M08 A3030 RMK AO2 SLP259 T10171083 10000 21022 56008=
27/01/2022 22:51->METAR KJFK 272251Z 20011KT 10SM FEW036 FEW250 M01/M08 A3030 RMK AO2 SLP259 T10111083=
27/01/2022 21:51->METAR KJFK 272151Z 19011KT 10SM SCT036 SCT250 M01/M09 A3031 RMK AO2 SLP262 T10111089=
27/01/2022 20:51->METAR KJFK 272051Z 17013KT 10SM SCT036 SCT250 00/M08 A3032 RMK AO2 SLP267 T00001083 56035=
27/01/2022 19:51->METAR KJFK 271951Z 17013KT 10SM SCT034 M01/M09 A3034 RMK AO2 SLP274 T10061094=
27/01/2022 18:51->METAR KJFK 271851Z 17011KT 10SM SCT033 M01/M10 A3037 RMK AO2 SLP283 T10111100=
27/01/2022 17:51->METAR KJFK 271751Z 18010KT 10SM BKN037 BKN250 M02/M11 A3043 RMK AO2 SLP302 T10171111 11017 21100 58022=
27/01/2022 16:51->METAR KJFK 271651Z 18008KT 10SM SCT040 SCT250 M03/M12 A3045 RMK AO2 SLP312 T10281122=
27/01/2022 15:51->METAR KJFK 271551Z 12006KT 10SM FEW040 FEW250 M03/M13 A3048 RMK AO2 SLP319 T10281128=
27/01/2022 14:51->METAR KJFK 271451Z 11003KT 10SM FEW040 FEW250 M04/M17 A3049 RMK AO2 SLP324 T10441167 58006=
27/01/2022 13:51->METAR KJFK 271351Z 07007KT 10SM FEW040 FEW250 M06/M15 A3050 RMK AO2 SLP326 T10611150=
27/01/2022 12:51->METAR KJFK 271251Z 07004KT 10SM FEW040 FEW250 M09/M13 A3051 RMK AO2 SLP329 T10891133=
27/01/2022 11:51->METAR KJFK 271151Z 07004KT 10SM FEW040 M09/M16 A3051 RMK AO2 SLP330 T10891156 11083 21106 53005=
27/01/2022 10:51->METAR KJFK 271051Z 03003KT 10SM FEW250 M09/M16 A3050 RMK AO2 SLP326 T10891156=
27/01/2022 09:51->METAR KJFK 270951Z 05004KT 10SM FEW250 M09/M16 A3049 RMK AO2 SLP323 T10891161=
27/01/2022 08:51->METAR KJFK 270851Z 02004KT 10SM FEW250 M09/M16 A3049 RMK AO2 SLP325 T10891161 58001=
27/01/2022 07:51->METAR KJFK 270751Z 05004KT 10SM FEW250 M09/M16 A3050 RMK AO2 SLP328 T10891161=
27/01/2022 06:51->METAR KJFK 270651Z 06006KT 10SM CLR M09/M17 A3050 RMK AO2 SLP327 T10891167=
27/01/2022 05:51->METAR KJFK 270551Z 04007KT 10SM CLR M08/M17 A3050 RMK AO2 SLP326 T10831167 11044 21083 52006=
27/01/2022 04:51->METAR KJFK 270451Z 03005KT 10SM CLR M08/M17 A3049 RMK AO2 SLP324 T10781172 410171078=
27/01/2022 03:51->METAR KJFK 270351Z 04007KT 10SM CLR M07/M17 A3048 RMK AO2 SLP321 T10671172=
27/01/2022 02:51->METAR KJFK 270251Z 03008KT 10SM CLR M07/M18 A3048 RMK AO2 SLP320 T10671178 51016=
27/01/2022 01:51->METAR KJFK 270151Z 02009KT 10SM CLR M06/M18 A3047 RMK AO2 SLP317 T10561183=
27/01/2022 00:51->METAR KJFK 270051Z 35012KT 10SM CLR M05/M19 A3045 RMK AO2 SLP311 T10501194=
26/01/2022 23:51->METAR KJFK 262351Z 35013KT 10SM FEW065 M04/M19 A3043 RMK AO2 SLP304 T10441194 11017 21044 53028=
26/01/2022 22:51->METAR KJFK 262251Z 33014KT 10SM FEW065 M04/M19 A3040 RMK AO2 SLP294 T10391189=
26/01/2022 21:51->METAR KJFK 262151Z 34012KT 10SM FEW065 M03/M19 A3037 RMK AO2 SLP283 T10331189=
26/01/2022 20:51->METAR KJFK 262051Z 31014G23KT 10SM FEW065 M02/M19 A3035 RMK AO2 SLP275 T10221189 53006=
26/01/2022 19:51->METAR KJFK 261951Z 33012G20KT 10SM FEW065 M02/M18 A3033 RMK AO2 SLP271 T10221183=
26/01/2022 18:51->METAR KJFK 261851Z 35014G22KT 10SM FEW065 M02/M18 A3033 RMK AO2 PK WND 31026/1819 SLP268 T10221183=
26/01/2022 17:51->METAR KJFK 261751Z 33017G22KT 10SM FEW065 M02/M18 A3033 RMK AO2 SLP270 T10171178 11017 21061 58015=
26/01/2022 16:51->METAR KJFK 261651Z 33018KT 10SM FEW060 M03/M18 A3035 RMK AO2 SLP276 T10281183=
26/01/2022 15:51->METAR KJFK 261551Z 34016G26KT 10SM FEW060 M03/M17 A3038 RMK AO2 PK WND 32026/1547 SLP285 T10331167=
26/01/2022 14:51->METAR KJFK 261451Z 36008KT 10SM FEW055 FEW250 M04/M15 A3037 RMK AO2 SLP284 T10391150 51023=
26/01/2022 13:51->METAR KJFK 261351Z 33014KT 10SM FEW055 FEW250 M04/M14 A3036 RMK AO2 SLP280 T10441144=
26/01/2022 12:51->METAR KJFK 261251Z 34010KT 10SM FEW055 M06/M14 A3033 RMK AO2 SLP271 T10561139=
26/01/2022 11:51->METAR KJFK 261151Z 35013KT 10SM FEW055 FEW180 FEW250 M06/M15 A3030 RMK AO2 SLP261 T10561150 11022 21056 53021=
26/01/2022 10:51->METAR KJFK 261051Z 33014KT 10SM FEW055 FEW250 M06/M16 A3028 RMK AO2 SLP252 T10561156=
26/01/2022 09:51->METAR KJFK 260951Z 33011KT 10SM FEW055 M05/M14 A3025 RMK AO2 SLP244 T10501144 $=
26/01/2022 08:51->METAR KJFK 260851Z 33012KT 10SM FEW060 M04/M15 A3024 RMK AO2 SLP240 T10441150 51020 $=
26/01/2022 07:51->METAR KJFK 260751Z 33010KT 10SM FEW060 M04/M14 A3023 RMK AO2 SLP236 T10391144 $=
26/01/2022 06:51->METAR KJFK 260651Z 33017KT 10SM FEW060 M03/M14 A3020 RMK AO2 SLP227 T10331139 $=
26/01/2022 05:51->METAR KJFK 260551Z 35012KT 10SM FEW060 FEW250 M02/M14 A3018 RMK AO2 SLP220 T10221139 10017 21022 53011 $=
26/01/2022 04:51->METAR KJFK 260451Z 34017KT 10SM CLR M02/M13 A3017 RMK AO2 SLP215 T10171128 400671017=
26/01/2022 03:51->METAR KJFK 260351Z 33012KT 10SM FEW250 M01/M11 A3016 RMK AO2 SLP213 T10111111=
26/01/2022 02:51->METAR KJFK 260251Z 34011KT 10SM FEW250 00/M10 A3015 RMK AO2 SLP209 T00001100 51024=
26/01/2022 01:51->METAR KJFK 260151Z 34011KT 10SM FEW050 FEW250 01/M09 A3013 RMK AO2 SLP201 T00061094=
26/01/2022 00:51->METAR KJFK 260051Z 32014KT 10SM FEW250 01/M09 A3011 RMK AO2 SLP194 T00111094=
25/01/2022 23:51->METAR KJFK 252351Z 33013KT 10SM FEW049 FEW250 02/M07 A3008 RMK AO2 SLP185 T00171072 10067 20017 53033=
25/01/2022 22:51->METAR KJFK 252251Z 28011KT 10SM SCT049 SCT250 03/M07 A3004 RMK AO2 SLP173 T00331072=
25/01/2022 21:51->METAR KJFK 252151Z 33011KT 10SM FEW049 FEW065 SCT250 04/M05 A3001 RMK AO2 SLP162 T00391050=
25/01/2022 20:51->METAR KJFK 252051Z 30011KT 10SM FEW065 SCT220 BKN250 06/M05 A2998 RMK AO2 SLP152 T00611050 53009=
25/01/2022 19:51->METAR KJFK 251951Z 25007KT 10SM FEW050 BKN060 BKN210 06/M03 A2997 RMK AO2 SLP147 T00611033=
25/01/2022 18:51->METAR KJFK 251851Z 25007KT 10SM FEW038 BKN055 BKN250 06/M03 A2995 RMK AO2 SLP142 T00561028=
25/01/2022 17:51->METAR KJFK 251751Z 24008KT 8SM BKN060 BKN250 04/M03 A2995 RMK AO2 SLP143 T00441028 10044 20000 58001=
25/01/2022 16:51->METAR KJFK 251651Z 25009KT 10SM BKN049 BKN075 BKN250 04/M02 A2997 RMK AO2 SLP147 T00391022=
25/01/2022 15:51->METAR KJFK 251551Z 27007KT 10SM BKN055 BKN075 BKN250 04/M02 A2997 RMK AO2 SLP149 T00441022=
25/01/2022 14:51->METAR KJFK 251451Z 28007KT 10SM SCT044 BKN075 OVC250 04/M02 A2996 RMK AO2 SLP144 T00441022 51029=
25/01/2022 13:51->METAR KJFK 251351Z 24008KT 10SM BKN047 BKN085 BKN250 03/M02 A2994 RMK AO2 SLP136 T00331017=
25/01/2022 12:51->METAR KJFK 251251Z 24007KT 10SM BKN085 BKN260 01/M02 A2990 RMK AO2 SLP124 T00111022=
25/01/2022 11:51->METAR KJFK 251151Z 23005KT 10SM FEW050 SCT085 BKN260 00/M03 A2987 RMK AO2 SLP115 T00001033 10044 20000 53008=
25/01/2022 10:51->METAR KJFK 251051Z 27007KT 10SM FEW050 OVC070 02/M02 A2986 RMK AO2 SLP111 T00221022=
25/01/2022 09:51->METAR KJFK 250951Z 26007KT 10SM SCT055 BKN070 OVC095 03/M02 A2985 RMK AO2 CIG 055 W SLP108 T00281022=
25/01/2022 08:51->METAR KJFK 250851Z 26006KT 10SM OVC055 03/M02 A2985 RMK AO2 SLP106 T00331022 55001=
25/01/2022 07:51->METAR KJFK 250751Z 23007KT 10SM OVC060 04/M01 A2984 RMK AO2 SLP105 T00391011=
25/01/2022 06:51->METAR KJFK 250651Z 20017KT 10SM OVC060 04/M02 A2984 RMK AO2 SLP103 T00441017=
25/01/2022 05:51->METAR KJFK 250551Z 19013G21KT 10SM OVC060 04/M01 A2985 RMK AO2 SLP107 60000 T00391011 10039 20000 58017=
25/01/2022 04:51->METAR KJFK 250451Z 19015KT 10SM OVC065 03/M02 A2987 RMK AO2 SLP114 T00331017 400331022=
25/01/2022 03:51->METAR KJFK 250351Z 20013KT 10SM FEW041 OVC070 03/M03 A2988 RMK AO2 SNE08 SLP119 P0000 T00281028=
25/01/2022 02:51->METAR KJFK 250251Z 20015KT 10SM -SN FEW029 OVC055 02/M04 A2990 RMK AO2 SNB38 SLP124 P0000 60000 T00171044 55001=
25/01/2022 01:51->METAR KJFK 250151Z 19013KT 10SM FEW029 BKN090 OVC110 02/M04 A2988 RMK AO2 SLP119 T00171044=
25/01/2022 00:51->METAR KJFK 250051Z 18012KT 10SM SCT031 OVC100 01/M05 A2989 RMK AO2 SLP122 T00111050=
24/01/2022 23:51->METAR KJFK 242351Z 17007KT 10SM SCT027 BKN100 BKN140 OVC250 00/M05 A2990 RMK AO2 SLP125 T00001050 10011 21017 50004=
24/01/2022 22:51->METAR KJFK 242251Z 16004KT 10SM FEW028 BKN110 BKN250 M01/M06 A2990 RMK AO2 SLP126 T10061056=
24/01/2022 21:51->METAR KJFK 242151Z 18006KT 10SM FEW033 FEW180 BKN250 M01/M07 A2990 RMK AO2 SLP125 T10111067=
24/01/2022 20:51->METAR KJFK 242051Z 18007KT 10SM FEW033 SCT180 BKN250 00/M07 A2989 RMK AO2 SLP121 T00001072 55007=
24/01/2022 19:51->METAR KJFK 241951Z 23003KT 10SM SCT031 SCT190 BKN250 M01/M08 A2988 RMK AO2 SLP117 T10061078=
24/01/2022 18:51->METAR KJFK 241851Z 16003KT 10SM BKN031 BKN250 01/M07 A2990 RMK AO2 SLP123 T00061072=
24/01/2022 17:51->METAR KJFK 241751Z VRB03KT 10SM BKN030 00/M08 A2991 RMK AO2 SLP128 60000 T00001078 10006 21022 58015=
24/01/2022 16:51->METAR KJFK 241651Z 34005KT 10SM SCT028 M01/M07 A2993 RMK AO2 SLP136 SCT V BKN T10061072=
24/01/2022 15:51->METAR KJFK 241551Z 01008KT 10SM FEW028 SCT045 SCT250 M01/M06 A2995 RMK AO2 SNE22 SLP142 P0000 T10061061=
24/01/2022 14:51->METAR KJFK 241451Z 34010KT 4SM -SN BKN018 BKN036 BKN046 M02/M06 A2995 RMK AO2 SLP142 BKN018 V SCT P0000 60000 T10171056 51025=
24/01/2022 13:51->METAR KJFK 241351Z 01007KT 2 1/2SM -SN OVC024 M02/M04 A2994 RMK AO2 TWR VIS 3 SNB1254 SLP137 P0000 T10171044=
24/01/2022 12:51->METAR KJFK 241251Z 03009KT 8SM BKN017 OVC035 M02/M05 A2992 RMK AO2 SNB34E45 SLP131 P0000 T10171050=
24/01/2022 11:51->METAR KJFK 241151Z 36009KT 9SM BKN017 BKN044 BKN250 M01/M04 A2988 RMK AO2 SLP117 T10061039 10000 21017 53018=
24/01/2022 10:51->METAR KJFK 241051Z 34007KT 10SM OVC024 00/M04 A2986 RMK AO2 SLP110 T00001044=
24/01/2022 09:51->METAR KJFK 240951Z 26008KT 9SM OVC034 M01/M03 A2984 RMK AO2 SLP103 T10061033=
24/01/2022 08:51->METAR KJFK 240851Z 22005KT 9SM OVC035 M01/M04 A2983 RMK AO2 SLP100 T10111039 53009=
24/01/2022 07:51->METAR KJFK 240751Z 21003KT 10SM OVC041 M01/M03 A2982 RMK AO2 SLP097 T10111033=
24/01/2022 06:51->METAR KJFK 240651Z 00000KT 9SM SCT042 OVC070 M01/M03 A2981 RMK AO2 CIG 043 W SLP092 T10111033=
24/01/2022 05:51->METAR KJFK 240551Z 00000KT 10SM OVC070 M01/M03 A2980 RMK AO2 SLP091 60000 T10111033 10011 21017 56008=
24/01/2022 04:51->METAR KJFK 240451Z 00000KT 10SM FEW012 BKN055 OVC085 M01/M03 A2981 RMK AO2 SLP094 T10111033 400281044=
24/01/2022 03:51->METAR KJFK 240351Z 34003KT 10SM SCT016 OVC095 M01/M03 A2981 RMK AO2 SNE27 SLP095 P0000 T10111033=
24/01/2022 02:51->METAR KJFK 240251Z 30005KT 5SM -SN BKN013 OVC100 M01/M03 A2983 RMK AO2 SLP099 P0000 60000 T10061033 50003=
24/01/2022 01:51->METAR KJFK 240151Z 28005KT 7SM -SN FEW014 OVC043 00/M03 A2983 RMK AO2 SLP102 P0000 T00001033=
24/01/2022 00:51->METAR KJFK 240051Z 26006KT 5SM -SN OVC044 00/M04 A2983 RMK AO2 SLP100 P0000 T00001039=
23/01/2022 23:51->METAR KJFK 232351Z 23008KT 10SM -SN OVC046 01/M08 A2982 RMK AO2 SNB49 SLP096 P0000 60000 T00111078 10028 20011 53004=
23/01/2022 22:51->METAR KJFK 232251Z 23008KT 10SM BKN060 BKN080 BKN250 01/M08 A2980 RMK AO2 SLP092 T00111078=
23/01/2022 21:51->METAR KJFK 232151Z 22007KT 10SM FEW050 SCT065 BKN200 BKN250 01/M09 A2980 RMK AO2 SLP090 T00111089=
23/01/2022 20:51->METAR KJFK 232051Z 22011KT 10SM SCT075 BKN090 BKN250 02/M09 A2981 RMK AO2 SLP092 T00221094 56020=
23/01/2022 19:51->METAR KJFK 231951Z 23012KT 10SM FEW090 FEW200 BKN250 02/M10 A2982 RMK AO2 SLP097 T00221100=
23/01/2022 18:51->METAR KJFK 231851Z 24011KT 10SM FEW120 SCT200 BKN250 02/M09 A2983 RMK AO2 SLP101 T00171094=
23/01/2022 17:51->METAR KJFK 231751Z 23011KT 10SM FEW120 FEW200 SCT250 01/M09 A2986 RMK AO2 SLP112 T00111094 10017 21044 58033=
23/01/2022 16:51->METAR KJFK 231651Z 26012KT 10SM FEW120 FEW200 SCT250 01/M11 A2991 RMK AO2 SLP127 T00111111=
23/01/2022 15:51->METAR KJFK 231551Z 27012KT 10SM SCT120 SCT200 BKN250 01/M12 A2995 RMK AO2 SLP140 T00061117=
23/01/2022 14:51->METAR KJFK 231451Z 26007KT 10SM BKN100 BKN190 BKN250 M01/M12 A2996 RMK AO2 SLP145 T10111122 58018=
23/01/2022 13:51->METAR KJFK 231351Z 23008KT 10SM FEW100 BKN190 BKN250 M02/M12 A2998 RMK AO2 SLP151 T10221122=
23/01/2022 12:51->METAR KJFK 231251Z 26009KT 10SM FEW070 SCT250 M03/M13 A3000 RMK AO2 SLP159 T10331133=
23/01/2022 11:51->METAR KJFK 231151Z 27008KT 10SM FEW070 SCT250 M04/M14 A3001 RMK AO2 SLP163 T10391144 11028 21044 55007=
23/01/2022 10:51->METAR KJFK 231051Z 27011KT 10SM SCT250 M04/M15 A3001 RMK AO2 SLP161 T10391150=
23/01/2022 09:51->METAR KJFK 230951Z 27010KT 10SM FEW075 BKN250 M04/M15 A3002 RMK AO2 SLP163 T10391150=
23/01/2022 08:51->METAR KJFK 230851Z 26010KT 10SM BKN070 BKN230 M03/M15 A3003 RMK AO2 SLP169 T10331150 58018=
23/01/2022 07:51->METAR KJFK 230751Z 25014KT 10SM BKN075 BKN240 M03/M15 A3006 RMK AO2 SLP177 T10331150=
23/01/2022 06:51->METAR KJFK 230651Z 25011KT 10SM BKN080 OVC220 M03/M13 A3007 RMK AO2 SLP182 T10281133=
23/01/2022 05:51->METAR KJFK 230551Z 24012KT 10SM FEW130 SCT250 M03/M13 A3009 RMK AO2 SLP187 T10331133 11028 21050 56020=
23/01/2022 04:51->METAR KJFK 230451Z 23010KT 10SM FEW120 SCT250 M03/M12 A3010 RMK AO2 SLP193 T10331122 400001100=
23/01/2022 03:51->METAR KJFK 230351Z 23010KT 10SM FEW110 SCT160 BKN250 M03/M11 A3012 RMK AO2 SLP199 T10331111=
23/01/2022 02:51->METAR KJFK 230251Z 24011KT 10SM SCT150 BKN250 M03/M11 A3015 RMK AO2 SLP207 T10281111 58019=
23/01/2022 01:51->METAR KJFK 230151Z 24006KT 10SM BKN250 M04/M11 A3017 RMK AO2 SLP215 T10441111=
23/01/2022 00:51->METAR KJFK 230051Z 24007KT 10SM BKN250 M05/M11 A3019 RMK AO2 SLP223 T10501106=
22/01/2022 23:51->METAR KJFK 222351Z 24006KT 10SM BKN250 M04/M10 A3020 RMK AO2 SLP227 T10441100 10000 21050 56015=
22/01/2022 22:51->METAR KJFK 222251Z 23006KT 10SM BKN250 M04/M11 A3021 RMK AO2 SLP230 T10441106=
22/01/2022 21:51->METAR KJFK 222151Z 23004KT 10SM FEW050 SCT250 M03/M12 A3022 RMK AO2 SLP233 T10331117=
22/01/2022 20:51->METAR KJFK 222051Z 34003KT 10SM FEW050 SCT250 M01/M12 A3025 RMK AO2 SLP241 T10061117 56025=
22/01/2022 19:51->METAR KJFK 221951Z 27006KT 10SM FEW050 00/M12 A3028 RMK AO2 SLP252 T00001117=
22/01/2022 18:51->METAR KJFK 221851Z 36005KT 10SM FEW050 M01/M11 A3029 RMK AO2 SLP255 T10061111=
22/01/2022 17:51->METAR KJFK 221751Z 04005KT 10SM FEW045 M02/M11 A3032 RMK AO2 PRESFR SLP266 T10171111 11017 21100 58037=
22/01/2022 16:51->METAR KJFK 221651Z 36007KT 10SM FEW045 M03/M12 A3036 RMK AO2 PRESFR SLP280 T10281122=
22/01/2022 15:51->METAR KJFK 221551Z 35009KT 10SM FEW045 M04/M13 A3042 RMK AO2 SLP300 T10391128=
22/01/2022 14:51->METAR KJFK 221451Z 35010KT 10SM FEW045 FEW200 M06/M13 A3043 RMK AO2 SLP304 T10561133 58004=
22/01/2022 13:51->METAR KJFK 221351Z 01009KT 10SM FEW045 FEW200 M08/M15 A3044 RMK AO2 SLP306 T10781150=
22/01/2022 12:51->METAR KJFK 221251Z 36010KT 10SM FEW050 FEW200 M09/M16 A3045 RMK AO2 SLP310 T10941156=
22/01/2022 11:51->METAR KJFK 221151Z 36011KT 10SM FEW250 M09/M16 A3044 RMK AO2 SLP307 T10941156 11072 21100 53001=
22/01/2022 10:51->METAR KJFK 221051Z 36011KT 10SM FEW250 M09/M16 A3043 RMK AO2 SLP303 T10941161=
22/01/2022 09:51->METAR KJFK 220951Z 01013KT 10SM FEW190 SCT240 M09/M16 A3043 RMK AO2 SLP302 T10891161=
22/01/2022 08:51->METAR KJFK 220851Z 02014KT 10SM SCT220 M09/M17 A3044 RMK AO2 SLP307 T10891167 58021=
22/01/2022 07:51->METAR KJFK 220751Z 01014G19KT 10SM SCT180 BKN230 M08/M17 A3046 RMK AO2 SLP315 T10831167=
22/01/2022 06:51->METAR KJFK 220651Z 01014KT 10SM OVC200 M08/M16 A3049 RMK AO2 SLP322 T10781161=
22/01/2022 05:51->METAR KJFK 220551Z 01014KT 10SM OVC210 M07/M16 A3050 RMK AO2 SLP328 T10721161 11061 21072 58017=
22/01/2022 04:51->METAR KJFK 220451Z 02013KT 10SM OVC190 M07/M16 A3053 RMK AO2 SLP338 T10671161 410441100=
22/01/2022 03:51->METAR KJFK 220351Z 02011KT 10SM SCT190 BKN250 M07/M17 A3054 RMK AO2 SLP341 T10671167=
22/01/2022 02:51->METAR KJFK 220251Z 02013KT 10SM BKN180 BKN250 M07/M16 A3055 RMK AO2 SLP345 T10671161 58002=
22/01/2022 01:51->METAR KJFK 220151Z 02010KT 10SM BKN180 BKN250 M07/M16 A3056 RMK AO2 SLP347 T10671161=
22/01/2022 00:51->METAR KJFK 220051Z 01009KT 10SM BKN180 BKN250 M07/M17 A3057 RMK AO2 SLP350 T10671167=
21/01/2022 23:51->METAR KJFK 212351Z 36011KT 10SM SCT190 BKN240 M06/M17 A3056 RMK AO2 SLP347 T10611172 11044 21061 51010=
21/01/2022 22:51->METAR KJFK 212251Z 36012KT 10SM BKN190 BKN250 M06/M17 A3055 RMK AO2 SLP345 T10561172=
21/01/2022 21:51->METAR KJFK 212151Z 02010KT 10SM FEW050 SCT170 BKN250 M06/M18 A3054 RMK AO2 SLP342 T10561178=
21/01/2022 20:51->METAR KJFK 212051Z 36009KT 10SM FEW050 SCT170 BKN250 M05/M18 A3053 RMK AO2 SLP336 T10501178 55000=
21/01/2022 19:51->METAR KJFK 211951Z 02011KT 10SM SCT190 BKN250 M05/M18 A3052 RMK AO2 SLP334 T10501183=
21/01/2022 18:51->METAR KJFK 211851Z 35012KT 10SM FEW180 BKN250 M05/M18 A3052 RMK AO2 SLP335 T10501178=
21/01/2022 17:51->METAR KJFK 211751Z 35014KT 10SM FEW150 SCT250 M06/M18 A3053 RMK AO2 SLP337 T10561178 11056 21100 58012=
21/01/2022 16:51->METAR KJFK 211651Z 36016G19KT 10SM FEW050 SCT150 BKN260 M06/M18 A3055 RMK AO2 SLP344 T10611183=
21/01/2022 15:51->METAR KJFK 211551Z 36019KT 10SM FEW050 BKN150 BKN250 M08/M18 A3057 RMK AO2 PK WND 36027/1514 SLP351 T10781183=
21/01/2022 14:51->METAR KJFK 211451Z 36020G26KT 10SM FEW050 BKN150 BKN220 M09/M19 A3056 RMK AO2 PK WND 36027/1404 SLP349 T10891194 51015=
21/01/2022 13:51->METAR KJFK 211351Z 36019KT 10SM FEW050 BKN160 BKN220 M09/M19 A3056 RMK AO2 SLP347 T10941194=
21/01/2022 12:51->METAR KJFK 211251Z 36014KT 10SM FEW045 BKN140 BKN210 M10/M19 A3055 RMK AO2 SLP343 T11001194=
21/01/2022 11:51->METAR KJFK 211151Z 36015G23KT 10SM BKN160 BKN210 M10/M18 A3052 RMK AO2 SLP334 70013 T11001183 11067 21100 53025=
21/01/2022 10:51->METAR KJFK 211051Z 01012KT 10SM BKN180 M09/M17 A3049 RMK AO2 SLP323 T10941172=
21/01/2022 09:51->METAR KJFK 210951Z 35016KT 10SM CLR M09/M17 A3046 RMK AO2 SLP314 T10891172=
21/01/2022 08:51->METAR KJFK 210851Z 36020KT 10SM BKN220 M08/M18 A3044 RMK AO2 SLP308 T10831178 51013=
21/01/2022 07:51->METAR KJFK 210751Z 36013KT 10SM BKN210 M08/M18 A3043 RMK AO2 SLP305 T10781178=
21/01/2022 06:51->METAR KJFK 210651Z 36017KT 10SM BKN220 M07/M17 A3042 RMK AO2 PK WND 35027/0557 SLP300 T10721172=
21/01/2022 05:51->METAR KJFK 210551Z 35020KT 10SM FEW250 M07/M17 A3041 RMK AO2 SLP296 T10671172 11006 21067 51015=
21/01/2022 04:51->METAR KJFK 210451Z 36015G24KT 10SM FEW250 M06/M16 A3039 RMK AO2 PK WND 35026/0354 SLP292 T10561161 400721056=
21/01/2022 03:51->METAR KJFK 210351Z 35018G25KT 10SM FEW150 SCT250 M05/M16 A3039 RMK AO2 SLP290 T10501156=
21/01/2022 02:51->METAR KJFK 210251Z 35019G24KT 10SM FEW150 BKN250 M04/M15 A3036 RMK AO2 SLP280 T10391150 51029=
21/01/2022 01:51->METAR KJFK 210151Z 36016KT 10SM SCT150 SCT250 M03/M13 A3034 RMK AO2 SLP272 T10281133=
21/01/2022 00:51->METAR KJFK 210051Z 01015G23KT 10SM FEW038 SCT150 BKN250 M02/M13 A3031 RMK AO2 SLP264 T10221128=
20/01/2022 23:51->METAR KJFK 202351Z 36011KT 10SM FEW038 BKN180 BKN250 M01/M09 A3028 RMK AO2 SLP252 T10061094 10017 21006 53030=
20/01/2022 22:51->METAR KJFK 202251Z 35012KT 10SM FEW038 FEW080 BKN180 BKN250 01/M10 A3024 RMK AO2 SLP240 T00061100=
20/01/2022 21:51->METAR KJFK 202151Z 35012KT 10SM FEW038 FEW095 BKN170 BKN250 01/M09 A3021 RMK AO2 SLP230 T00061089=
20/01/2022 20:51->METAR KJFK 202051Z 33013KT 10SM FEW038 SCT080 BKN170 BKN250 01/M06 A3019 RMK AO2 SLP221 T00111061 53014=
20/01/2022 19:51->METAR KJFK 201951Z 35011KT 10SM SCT031 BKN080 BKN250 02/M06 A3017 RMK AO2 SLP214 SCT V BKN T00171056=
20/01/2022 18:51->METAR KJFK 201851Z 33012KT 10SM SCT025 BKN080 BKN250 02/M03 A3015 RMK AO2 SLP211 T00171028=
20/01/2022 17:51->METAR KJFK 201751Z 35016G19KT 10SM BKN018 BKN038 OVC085 02/M02 A3015 RMK AO2 SNE19 SLP207 P0000 60013 T00171017 10044 20006 53002=
20/01/2022 16:51->METAR KJFK 201651Z 35016KT 3SM -SN BR BKN011 BKN033 OVC043 01/M01 A3014 RMK AO2 SFC VIS 5 SLP204 P0001 T00061011=
20/01/2022 15:51->METAR KJFK 201551Z 35010KT 2SM -SN BR BKN008 OVC022 01/00 A3015 RMK AO2 SFC VIS 2 1/2 RAE02 SLP208 P0001 T00110000=
20/01/2022 14:51->METAR KJFK 201451Z 36012KT 5SM -SNRA BR BKN008 BKN013 OVC036 02/01 A3014 RMK AO2 SNB30 SLP206 P0002 60011 T00170006 53034=
20/01/2022 13:51->METAR KJFK 201351Z 33017KT 7SM -RA FEW008 BKN013 OVC022 03/01 A3010 RMK AO2 SLP192 P0005 T00280011=
20/01/2022 12:51->METAR KJFK 201251Z 29008KT 6SM -RA BR FEW009 BKN016 OVC037 04/03 A3007 RMK AO2 SLP182 P0004 T00440033=
20/01/2022 11:51->METAR KJFK 201151Z 24008KT 8SM -RA FEW027 OVC047 03/02 A3004 RMK AO2 SLP172 P0002 60012 70012 T00330022 10067 20033 53011=
20/01/2022 10:51->METAR KJFK 201051Z 24005KT 9SM -RA OVC039 04/02 A3001 RMK AO2 SLP162 P0005 T00390022=
20/01/2022 09:51->METAR KJFK 200951Z 31009KT 8SM -RA OVC031 04/02 A3001 RMK AO2 SLP161 P0005 T00440017=
20/01/2022 08:51->METAR KJFK 200851Z 26007KT 10SM -RA OVC048 04/01 A3001 RMK AO2 SLP161 P0000 60000 T00440006 53013=
20/01/2022 07:51->METAR KJFK 200751Z 23009KT 10SM -RA OVC060 05/00 A3000 RMK AO2 RAB36 SLP158 P0000 T00500000=
20/01/2022 06:51->METAR KJFK 200651Z 22010KT 10SM OVC070 06/M01 A2998 RMK AO2 SLP151 T00561011=
20/01/2022 05:51->METAR KJFK 200551Z 26009KT 10SM OVC095 07/M01 A2997 RMK AO2 SLP148 T00671011 10072 20050 58007=
20/01/2022 04:51->METAR KJFK 200451Z 26010KT 10SM BKN130 OVC250 07/M02 A2998 RMK AO2 SLP151 T00671017 401001056=
20/01/2022 03:51->METAR KJFK 200351Z 24011KT 10SM FEW060 OVC140 07/M01 A2999 RMK AO2 SLP155 T00671011=
20/01/2022 02:51->METAR KJFK 200251Z 21006KT 10SM BKN060 BKN140 OVC230 06/00 A2999 RMK AO2 SLP155 T00560000 55000=
20/01/2022 01:51->METAR KJFK 200151Z 21009KT 10SM BKN180 BKN230 06/00 A2999 RMK AO2 SLP155 T00560000=
20/01/2022 00:51->METAR KJFK 200051Z 22011KT 10SM FEW150 BKN230 06/M01 A2999 RMK AO2 SLP155 T00611006=
19/01/2022 23:51->METAR KJFK 192351Z 22012KT 10SM FEW150 BKN250 07/00 A2999 RMK AO2 SLP155 T00670000 10100 20050 53007=
19/01/2022 22:51->METAR KJFK 192251Z 20012KT 10SM FEW150 BKN250 06/02 A2997 RMK AO2 SLP149 T00560022=
19/01/2022 21:51->METAR KJFK 192151Z 19013KT 10SM FEW150 SCT250 06/02 A2996 RMK AO2 SLP146 T00610017=
19/01/2022 20:51->METAR KJFK 192051Z 20012KT 10SM FEW150 SCT250 07/02 A2997 RMK AO2 SLP148 T00720022 56017=
19/01/2022 19:51->METAR KJFK 191951Z 19012KT 10SM FEW150 BKN250 08/02 A2998 RMK AO2 SLP151 T00830022=
19/01/2022 18:51->METAR KJFK 191851Z 21012KT 10SM FEW150 FEW210 BKN250 09/M03 A2998 RMK AO2 SLP153 T00941028=
19/01/2022 17:51->METAR KJFK 191751Z 22014KT 10SM SCT150 BKN210 BKN250 09/M03 A3002 RMK AO2 SLP165 T00891033 10089 20017 58040=
19/01/2022 16:51->METAR KJFK 191651Z 21010KT 10SM FEW095 BKN150 BKN190 BKN250 06/M02 A3005 RMK AO2 PRESFR SLP176 T00611017=
19/01/2022 15:51->METAR KJFK 191551Z 21012G24KT 10SM FEW120 BKN160 BKN250 05/M02 A3011 RMK AO2 PK WND 21029/1507 SLP195 T00501022=
19/01/2022 14:51->METAR KJFK 191451Z 20019G26KT 10SM BKN140 BKN250 05/M03 A3014 RMK AO2 PK WND 21026/1446 SLP205 T00501033 58008=
19/01/2022 13:51->METAR KJFK 191351Z 21019KT 10SM FEW085 BKN120 BKN220 03/M03 A3016 RMK AO2 PK WND 21028/1333 SLP213 T00331033=
19/01/2022 12:51->METAR KJFK 191251Z 20016G24KT 10SM FEW085 BKN120 BKN220 03/M04 A3016 RMK AO2 SLP214 T00331039=
19/01/2022 11:51->METAR KJFK 191151Z 20020KT 10SM FEW085 SCT130 BKN220 02/M05 A3016 RMK AO2 SLP213 T00171050 10017 21056 56009=
19/01/2022 10:51->METAR KJFK 191051Z 20011KT 10SM BKN130 BKN250 01/M05 A3017 RMK AO2 SLP215 T00061050=
19/01/2022 09:51->METAR KJFK 190951Z 22007KT 10SM BKN130 BKN250 M01/M05 A3017 RMK AO2 SLP217 T10111050=
19/01/2022 08:51->METAR KJFK 190851Z 22008KT 10SM FEW130 SCT250 M03/M06 A3019 RMK AO2 SLP222 T10281061 58002=
19/01/2022 07:51->METAR KJFK 190751Z 05003KT 10SM FEW150 M04/M08 A3020 RMK AO2 SLP227 T10441078=
19/01/2022 06:51->METAR KJFK 190651Z 00000KT 10SM FEW150 M04/M09 A3019 RMK AO2 SLP223 T10391089=
19/01/2022 05:51->METAR KJFK 190551Z 11004KT 10SM FEW150 M04/M09 A3020 RMK AO2 SLP224 T10391089 10000 21044 51005=
19/01/2022 04:51->METAR KJFK 190451Z 00000KT 10SM CLR M03/M09 A3019 RMK AO2 SLP224 T10331094 400391044=
19/01/2022 03:51->METAR KJFK 190351Z 28004KT 10SM CLR M01/M09 A3020 RMK AO2 SLP224 T10111094=
19/01/2022 02:51->METAR KJFK 190251Z 33007KT 10SM CLR M02/M10 A3018 RMK AO2 SLP219 T10221100 51018=
19/01/2022 01:51->METAR KJFK 190151Z 32008KT 10SM FEW060 M01/M11 A3016 RMK AO2 SLP213 T10111106=
19/01/2022 00:51->METAR KJFK 190051Z 32010KT 10SM FEW060 M01/M11 A3015 RMK AO2 SLP208 T10061106=
18/01/2022 23:51->METAR KJFK 182351Z 33014KT 10SM FEW060 00/M11 A3013 RMK AO2 SLP201 T00001106 10039 20000 51044=
18/01/2022 22:51->METAR KJFK 182251Z 30014G23KT 10SM FEW060 01/M11 A3009 RMK AO2 SLP189 T00111111=
18/01/2022 21:51->METAR KJFK 182151Z 31021G26KT 10SM FEW060 01/M12 A3005 RMK AO2 PK WND 29032/2105 PRESRR SLP176 T00111117=
18/01/2022 20:51->METAR KJFK 182051Z 28021G29KT 10SM FEW060 02/M12 A3000 RMK AO2 PK WND 29033/2024 SLP157 T00221117 53031=
18/01/2022 19:51->METAR KJFK 181951Z 28021G31KT 10SM SCT060 03/M11 A2996 RMK AO2 PK WND 29034/1906 SLP146 T00331111=
18/01/2022 18:51->METAR KJFK 181851Z 29019KT 10SM SCT050 03/M11 A2994 RMK AO2 PK WND 29027/1839 SLP136 T00331106=
18/01/2022 17:51->METAR KJFK 181751Z 31018G23KT 10SM BKN060 03/M11 A2991 RMK AO2 PK WND 29032/1652 SLP126 VIRGA NW T00331106 10039 21006 51013=
18/01/2022 16:51->METAR KJFK 181651Z 30024G33KT 10SM BKN060 03/M11 A2990 RMK AO2 PK WND 29036/1629 SLP123 VIRGA SW-N T00281106=
18/01/2022 15:51->METAR KJFK 181551Z 30019G25KT 10SM BKN050 03/M09 A2989 RMK AO2 PK WND 32031/1457 SLP120 T00331089=
18/01/2022 14:51->METAR KJFK 181451Z 29017G22KT 10SM BKN049 BKN170 01/M09 A2987 RMK AO2 PK WND 29027/1426 SLP113 VIRGA SW T00111089 51036=
18/01/2022 13:51->METAR KJFK 181351Z 29012G18KT 10SM SCT045 BKN170 01/M08 A2984 RMK AO2 SLP102 T00111078=
18/01/2022 12:51->METAR KJFK 181251Z 31019G24KT 10SM BKN044 BKN170 00/M08 A2980 RMK AO2 PK WND 28028/1157 SLP091 T00001083=
18/01/2022 11:51->METAR KJFK 181151Z 29015G23KT 10SM BKN044 BKN170 M01/M08 A2976 RMK AO2 PK WND 30030/1121 SLP078 T10061083 10011 21011 53047=
18/01/2022 10:51->METAR KJFK 181051Z 30020G26KT 10SM SCT046 OVC170 M01/M09 A2971 RMK AO2 PK WND 29033/1033 SLP060 T10061089=
18/01/2022 09:51->METAR KJFK 180951Z 29017G25KT 10SM SCT044 BKN190 M01/M09 A2966 RMK AO2 PK WND 31029/0920 SLP042 T10061094=
18/01/2022 08:51->METAR KJFK 180851Z 29018G29KT 10SM FEW044 M01/M11 A2962 RMK AO2 PK WND 28035/0809 SLP030 T10111106 51051=
18/01/2022 07:51->METAR KJFK 180751Z 29025G33KT 10SM SCT044 00/M09 A2959 RMK AO2 PK WND 29034/0717 SLP018 T00001094=
18/01/2022 06:51->METAR KJFK 180651Z 29019G29KT 10SM OVC044 01/M07 A2952 RMK AO2 PK WND 27031/0556 PRESRR SLP996 T00111067=
18/01/2022 05:51->METAR KJFK 180551Z 29020G30KT 10SM BKN041 01/M07 A2947 RMK AO2 PK WND 30035/0507 SLP979 60000 T00111067 10028 20011 51040=
18/01/2022 04:51->METAR KJFK 180451Z 30025G32KT 10SM OVC042 02/M07 A2943 RMK AO2 PK WND 29032/0352 SLP965 T00171067 400780017=
18/01/2022 03:51->METAR KJFK 180351Z 29022G31KT 10SM OVC046 02/M07 A2941 RMK AO2 PK WND 28039/0321 PRESRR SLP958 T00171067=
18/01/2022 02:51->METAR KJFK 180251Z 27017G26KT 10SM BKN042 02/M05 A2935 RMK AO2 PK WND 27030/0231 SNE25 SLP940 P0000 60000 T00221050 53026=
18/01/2022 01:51->METAR KJFK 180151Z 26016G22KT 10SM -SN FEW027 BKN035 OVC047 02/M03 A2933 RMK AO2 PK WND 27029/0053 SLP931 P0000 T00221033=
18/01/2022 00:51->METAR KJFK 180051Z 27022G29KT 10SM -SN FEW038 BKN047 OVC060 03/M03 A2930 RMK AO2 PK WND 27029/0051 SLP922 P0000 T00281028=
17/01/2022 23:51->METAR KJFK 172351Z 25020G26KT 10SM -SN FEW025 OVC047 02/M02 A2928 RMK AO2 PK WND 24028/2255 SLP914 P0000 60000 T00221017 10033 20017 53034=
17/01/2022 22:51->METAR KJFK 172251Z 24024KT 9SM -SN FEW025 OVC040 02/M02 A2924 RMK AO2 PK WND 25032/2204 SLP901 P0000 T00171017=
17/01/2022 21:51->METAR KJFK 172151Z 24024G30KT 10SM -SN FEW029 OVC035 02/M02 A2920 RMK AO2 PK WND 24034/2134 SNB48 SLP889 P0000 T00221022=
17/01/2022 20:51->METAR KJFK 172051Z 24024G31KT 10SM OVC032 03/M02 A2918 RMK AO2 PK WND 24033/2027 SLP880 T00281022 51015=
17/01/2022 19:51->METAR KJFK 171951Z 24022G29KT 10SM OVC030 03/M02 A2916 RMK AO2 PK WND 23029/1951 SLP875 T00281022=
17/01/2022 18:51->METAR KJFK 171851Z 23023KT 10SM BKN021 OVC120 03/M02 A2913 RMK AO2 PK WND 23032/1822 SLP865 T00281017=
17/01/2022 17:51->METAR KJFK 171751Z 23020G26KT 10SM BKN020 OVC120 03/M01 A2912 RMK AO2 PK WND 21028/1653 SLP861 60000 T00281011 10072 20028 58001=
17/01/2022 16:51->METAR KJFK 171651Z 23020G27KT 10SM BKN022 OVC110 04/M01 A2912 RMK AO2 PK WND 23028/1646 SLP861 T00391006=
17/01/2022 15:51->METAR KJFK 171551Z 22021G25KT 10SM FEW018 BKN025 BKN130 04/01 A2914 RMK AO2 SLP866 T00440011=
17/01/2022 14:51->METAR KJFK 171451Z 22020KT 10SM FEW018 SCT025 BKN060 BKN130 BKN250 05/02 A2912 RMK AO2 PK WND 20036/1353 RAE05 SLP862 P0000 60000 T00500017 58006=
17/01/2022 13:51->METAR KJFK 171351Z 21028G36KT 9SM -RA BKN018 BKN026 BKN075 BKN130 04/01 A2915 RMK AO2 PK WND 20036/1351 RAE1252B46 SLP871 P0000 T00390011=
17/01/2022 12:51->METAR KJFK 171251Z 19021G27KT 10SM -RA FEW022 BKN029 BKN047 BKN130 06/03 A2914 RMK AO2 PK WND 20030/1231 RAB1154 SLP867 BKN029 V SCT P0000 T00560028=
17/01/2022 11:51->METAR KJFK 171151Z 18017KT 10SM SCT026 BKN070 OVC110 07/03 A2914 RMK AO2 SLP868 SCT V BKN 60077 70145 T00720028 10078 20061 56043=
17/01/2022 10:51->METAR KJFK 171051Z 16012KT 10SM FEW015 BKN028 OVC055 07/06 A2915 RMK AO2 RAE0956B19E28 SLP870 P0001 T00720061=
17/01/2022 09:51->METAR KJFK 170951Z 11015G26KT 6SM -RA BR BKN011 OVC025 07/07 A2917 RMK AO2 PK WND 07034/0856 SLP879 P0033 T00720067=
17/01/2022 08:51->METAR KJFK 170851Z 09027G39KT 4SM +RA BR OVC013 07/06 A2927 RMK AO2 PK WND 09047/0816 SLP911 P0020 60043 T00720061 56094=
17/01/2022 07:51->METAR KJFK 170751Z 08035G49KT 5SM RA BR OVC011 07/06 A2929 RMK AO2 PK WND 07049/0750 LTG DSNT S PRESFR SLP918 P0013 T00720061=
17/01/2022 06:51->METAR KJFK 170651Z 07032G45KT 6SM -RA BR OVC011 07/05 A2941 RMK AO2 PK WND 10045/0647 PRESFR SLP959 P0010 T00670050=
17/01/2022 05:51->METAR KJFK 170551Z 08023G38KT 5SM RA BR OVC011 06/04 A2955 RMK AO2 PK WND 06043/0529 PRESFR SLP005 P0018 60068 T00610044 10061 20000 58110=
17/01/2022 04:51->METAR KJFK 170451Z 07026G36KT 5SM RA BR OVC013 06/04 A2966 RMK AO2 PK WND 09036/0443 PRESFR SLP044 P0016 T00560039 400561128=
17/01/2022 03:51->METAR KJFK 170351Z 08020G29KT 6SM RA BR FEW009 OVC026 05/03 A2977 RMK AO2 PK WND 06031/0309 PRESFR SLP080 P0014 T00500033=
17/01/2022 02:51->METAR KJFK 170251Z 08017G26KT 6SM RA BR OVC024 04/03 A2987 RMK AO2 PK WND 07026/0248 PRESFR SLP115 P0011 60020 T00440028 56072=
17/01/2022 01:51->METAR KJFK 170151Z 07013KT 6SM -RA BR OVC020 03/02 A2994 RMK AO2 RAB06SNE24 PRESFR SLP139 P0006 T00280017=
17/01/2022 00:51->METAR KJFK 170051Z 05013KT 5SM -SN BR OVC022 01/M01 A3001 RMK AO2 SLP162 P0003 T00061011=
16/01/2022 23:51->METAR KJFK 162351Z 05011KT 8SM -SN OVC023 01/M04 A3008 RMK AO2 SNB38 SLP187 P0000 60000 T00061039 10006 21022 56027=
16/01/2022 22:51->METAR KJFK 162251Z 05010KT 10SM BKN027 OVC034 M01/M06 A3012 RMK AO2 SLP199 T10061056=
16/01/2022 21:51->METAR KJFK 162151Z 04010KT 10SM BKN030 OVC120 M02/M07 A3017 RMK AO2 SLP214 T10171067=
16/01/2022 20:51->METAR KJFK 162051Z 05014KT 10SM BKN035 OVC140 M02/M08 A3017 RMK AO2 SLP217 T10221078 58046=
16/01/2022 19:51->METAR KJFK 161951Z 05012KT 10SM OVC040 M02/M08 A3023 RMK AO2 SLP236 T10221083=
16/01/2022 18:51->METAR KJFK 161851Z 03007KT 10SM OVC034 M01/M09 A3027 RMK AO2 SLP249 T10111089=
16/01/2022 17:51->METAR KJFK 161751Z 07005KT 10SM FEW015 OVC031 M02/M09 A3031 RMK AO2 SLP263 T10221094 11022 21128 56040=
16/01/2022 16:51->METAR KJFK 161651Z 03007KT 10SM FEW018 OVC029 M03/M11 A3035 RMK AO2 PRESFR SLP276 T10331106=
16/01/2022 15:51->METAR KJFK 161551Z 02009KT 10SM SCT022 BKN250 M05/M13 A3039 RMK AO2 SLP289 T10501128=
16/01/2022 14:51->METAR KJFK 161451Z 02009KT 10SM BKN019 BKN240 M07/M14 A3043 RMK AO2 SLP303 T10721144 58001=
16/01/2022 13:51->METAR KJFK 161351Z 03009KT 10SM BKN016 M10/M16 A3045 RMK AO2 SLP309 T11001161=
16/01/2022 12:51->METAR KJFK 161251Z 03007KT 10SM FEW030 FEW250 M12/M17 A3044 RMK AO2 SLP305 T11171172=
16/01/2022 11:51->METAR KJFK 161151Z 04007KT 10SM FEW030 FEW250 M12/M18 A3043 RMK AO2 SLP304 T11221183 11111 21128 53003=
16/01/2022 10:51->METAR KJFK 161051Z 36003KT 10SM CLR M12/M18 A3043 RMK AO2 SLP303 T11221183=
16/01/2022 09:51->METAR KJFK 160951Z 01005KT 10SM CLR M12/M18 A3042 RMK AO2 SLP299 T11221183=
16/01/2022 08:51->METAR KJFK 160851Z 36007KT 10SM CLR M12/M19 A3042 RMK AO2 SLP301 T11171194 51011=
16/01/2022 07:51->METAR KJFK 160751Z 01012KT 10SM CLR M12/M21 A3041 RMK AO2 SLP298 T11171206=
16/01/2022 06:51->METAR KJFK 160651Z 36012KT 10SM CLR M11/M20 A3043 RMK AO2 SLP302 T11111200=
16/01/2022 05:51->METAR KJFK 160551Z 36013KT 10SM CLR M11/M20 A3039 RMK AO2 SLP290 T11111200 11078 21111 58007=
16/01/2022 04:51->METAR KJFK 160451Z 35016KT 10SM CLR M11/M21 A3042 RMK AO2 SLP301 T11061206 410611117=
16/01/2022 03:51->METAR KJFK 160351Z 36014KT 10SM FEW250 M11/M21 A3041 RMK AO2 SLP298 T11061206=
16/01/2022 02:51->METAR KJFK 160251Z 35012KT 10SM SCT180 BKN250 M10/M21 A3041 RMK AO2 SLP298 T11001206 51013=
16/01/2022 01:51->METAR KJFK 160151Z 35014KT 10SM SCT190 SCT250 M09/M20 A3040 RMK AO2 SLP295 T10891200=
16/01/2022 00:51->METAR KJFK 160051Z 36011KT 10SM BKN200 BKN250 M09/M19 A3040 RMK AO2 SLP292 T10891194=
15/01/2022 23:51->METAR KJFK 152351Z 36013KT 10SM SCT180 BKN250 M08/M19 A3038 RMK AO2 SLP285 T10781194 11067 21083 51018=
15/01/2022 22:51->METAR KJFK 152251Z 36015KT 10SM BKN170 BKN250 M08/M19 A3036 RMK AO2 SLP280 T10781194=
15/01/2022 21:51->METAR KJFK 152151Z 35012KT 10SM BKN250 M08/M20 A3034 RMK AO2 SLP274 T10781200=
15/01/2022 20:51->METAR KJFK 152051Z 35011KT 10SM BKN250 M07/M21 A3032 RMK AO2 SLP267 T10721211 53008=
15/01/2022 19:51->METAR KJFK 151951Z 34014KT 10SM BKN250 M07/M22 A3031 RMK AO2 PK WND 35026/1918 SLP263 T10721222=
15/01/2022 18:51->METAR KJFK 151851Z 35015G25KT 10SM BKN250 M08/M24 A3030 RMK AO2 PK WND 34028/1839 SLP261 T10781244=
15/01/2022 17:51->METAR KJFK 151751Z 33020G27KT 10SM BKN250 M08/M23 A3030 RMK AO2 PK WND 33027/1746 SLP259 T10781233 11072 21117 58001=
15/01/2022 16:51->METAR KJFK 151651Z 35021G25KT 10SM FEW050 BKN250 M08/M23 A3030 RMK AO2 PK WND 33028/1628 SLP261 T10831228=
15/01/2022 15:51->METAR KJFK 151551Z 34018G24KT 10SM FEW050 SCT250 M09/M23 A3031 RMK AO2 PK WND 34028/1514 SLP264 T10941228=
15/01/2022 14:51->METAR KJFK 151451Z 34022G28KT 10SM FEW050 SCT250 M10/M22 A3030 RMK AO2 PK WND 34028/1450 SLP260 T11001222 51033=
15/01/2022 13:51->METAR KJFK 151351Z 35016KT 10SM FEW050 SCT250 M11/M20 A3027 RMK AO2 SLP250 T11061200=
15/01/2022 12:51->METAR KJFK 151251Z 35017KT 10SM FEW050 FEW250 M11/M19 A3023 RMK AO2 SLP237 T11111194=
15/01/2022 11:51->METAR KJFK 151151Z 36017KT 10SM FEW050 M11/M18 A3020 RMK AO2 SLP227 T11111183 11072 21111 53039=
15/01/2022 10:51->METAR KJFK 151051Z 35014G20KT 10SM FEW250 M11/M17 A3016 RMK AO2 SLP211 T11061172=
15/01/2022 09:51->METAR KJFK 150951Z 35014KT 10SM FEW250 M09/M17 A3012 RMK AO2 SLP199 T10941167=
15/01/2022 08:51->METAR KJFK 150851Z 35014KT 10SM CLR M09/M16 A3009 RMK AO2 SLP188 T10891156 51035=
15/01/2022 07:51->METAR KJFK 150751Z 34017G21KT 10SM FEW036 M08/M15 A3006 RMK AO2 PK WND 34027/0705 SLP178 T10831150=
15/01/2022 06:51->METAR KJFK 150651Z 33019G28KT 10SM FEW036 M08/M14 A3002 RMK AO2 PK WND 33029/0641 SLP166 T10781144=
15/01/2022 05:51->METAR KJFK 150551Z 33020G27KT 10SM FEW033 M07/M13 A2999 RMK AO2 PK WND 32031/0532 SLP154 T10721133 10000 21072 51022=
15/01/2022 04:51->METAR KJFK 150451Z 33022G29KT 10SM FEW033 M06/M12 A2996 RMK AO2 PK WND 33029/0449 SLP146 T10561122 400721056=
15/01/2022 03:51->METAR KJFK 150351Z 35015G29KT 10SM FEW035 FEW250 M04/M11 A2995 RMK AO2 PK WND 34029/0339 SLP140 T10441111=
15/01/2022 02:51->METAR KJFK 150251Z 34020G30KT 10SM FEW040 FEW250 M03/M09 A2992 RMK AO2 PK WND 34031/0233 SLP132 T10331094 51025=
15/01/2022 01:51->METAR KJFK 150151Z 34017G26KT 10SM FEW040 SCT250 M02/M08 A2991 RMK AO2 PK WND 34027/0140 SLP128 T10171083=
15/01/2022 00:51->METAR KJFK 150051Z 34022G28KT 10SM FEW040 SCT250 M01/M07 A2988 RMK AO2 PK WND 34036/2354 SLP119 T10061072=
14/01/2022 23:51->METAR KJFK 142351Z 35023G32KT 10SM FEW040 FEW250 00/M07 A2985 RMK AO2 PK WND 35034/2329 SLP106 T00001067 10067 20000 53026=
14/01/2022 22:51->METAR KJFK 142251Z 35027G33KT 10SM FEW040 FEW250 01/M05 A2982 RMK AO2 PK WND 35038/2202 SLP096 T00111050=
14/01/2022 21:51->METAR KJFK 142151Z 34023G34KT 10SM FEW040 FEW150 SCT250 02/M04 A2979 RMK AO2 PK WND 36042/2124 SLP086 T00221044=
14/01/2022 20:51->METAR KJFK 142051Z 34026G35KT 10SM FEW040 FEW150 BKN250 04/M04 A2977 RMK AO2 PK WND 34036/2011 SLP080 T00391039 53014=
14/01/2022 19:51->METAR KJFK 141951Z 34023G31KT 10SM FEW040 BKN250 05/M03 A2974 RMK AO2 PK WND 36035/1913 SLP072 T00501028=
14/01/2022 18:51->METAR KJFK 141851Z 33024G33KT 10SM FEW040 SCT190 BKN260 06/M03 A2974 RMK AO2 PK WND 34035/1809 SLP070 T00561028=
14/01/2022 17:51->METAR KJFK 141751Z 35024G31KT 10SM FEW040 FEW160 BKN260 06/M02 A2973 RMK AO2 PK WND 35032/1732 SLP066 T00611017 10072 20039 58017=
14/01/2022 16:51->METAR KJFK 141651Z 35024G31KT 10SM FEW037 FEW160 FEW220 BKN260 07/M01 A2975 RMK AO2 PK WND 35035/1616 SLP074 T00671011=
14/01/2022 15:51->METAR KJFK 141551Z 36019G28KT 10SM FEW037 FEW220 BKN250 07/M01 A2976 RMK AO2 PK WND 36029/1533 SLP077 T00671006=
14/01/2022 14:51->METAR KJFK 141451Z 35016G24KT 10SM FEW033 SCT220 BKN250 06/M01 A2978 RMK AO2 SLP084 T00561011 53001=
14/01/2022 13:51->METAR KJFK 141351Z 36017G24KT 10SM FEW030 SCT180 BKN250 04/M01 A2978 RMK AO2 SLP082 T00441011=
14/01/2022 12:51->METAR KJFK 141251Z 36012KT 10SM FEW028 BKN180 OVC250 04/01 A2978 RMK AO2 SLP082 T00440011=
14/01/2022 11:51->METAR KJFK 141151Z 36011KT 10SM FEW028 OVC180 04/02 A2978 RMK AO2 SLP083 T00440017 10050 20039 56005=
14/01/2022 10:51->METAR KJFK 141051Z 36008KT 10SM FEW009 SCT028 OVC190 04/02 A2978 RMK AO2 SLP084 T00440022=
14/01/2022 09:51->METAR KJFK 140951Z 01009KT 10SM OVC007 04/03 A2978 RMK AO2 SLP082 T00440028=
14/01/2022 08:51->METAR KJFK 140851Z 36010KT 10SM OVC006 04/03 A2979 RMK AO2 SLP088 T00440028 58009=
14/01/2022 07:51->METAR KJFK 140751Z 01009KT 8SM OVC006 04/03 A2982 RMK AO2 SLP097 T00440028=
14/01/2022 06:51->METAR KJFK 140651Z 02010KT 10SM BKN007 OVC200 04/02 A2981 RMK AO2 SLP095 T00440022=
14/01/2022 05:51->METAR KJFK 140551Z 02007KT 10SM BKN160 OVC250 04/01 A2982 RMK AO2 SLP098 T00390011 10044 20028 56021=
14/01/2022 04:51->METAR KJFK 140451Z 02008KT 10SM FEW150 OVC250 04/02 A2984 RMK AO2 SLP105 T00390017 400941022=
14/01/2022 03:51->METAR KJFK 140351Z 36009KT 10SM BKN150 OVC250 04/01 A2986 RMK AO2 SLP111 T00440011=
14/01/2022 02:51->METAR KJFK 140251Z 02007KT 10SM BKN150 OVC250 04/01 A2988 RMK AO2 SLP118 T00390011 58012=
14/01/2022 01:51->METAR KJFK 140151Z 03005KT 10SM BKN160 OVC250 03/00 A2989 RMK AO2 SLP123 T00280000=
14/01/2022 00:51->METAR KJFK 140051Z 01005KT 10SM BKN170 OVC250 04/00 A2991 RMK AO2 SLP127 T00390000=
13/01/2022 23:51->METAR KJFK 132351Z 01005KT 10SM SCT180 BKN250 04/00 A2992 RMK AO2 SLP130 T00440000 10089 20039 55003=
13/01/2022 22:51->METAR KJFK 132251Z 08004KT 10SM SCT150 BKN250 05/M01 A2992 RMK AO2 SLP129 T00501006=
13/01/2022 21:51->METAR KJFK 132151Z 11003KT 10SM SCT170 OVC250 06/00 A2992 RMK AO2 SLP132 T00610000=
13/01/2022 20:51->METAR KJFK 132051Z 11004KT 10SM FEW190 BKN250 07/00 A2993 RMK AO2 SLP133 T00720000 56015=
13/01/2022 19:51->METAR KJFK 131951Z 15006KT 10SM SCT180 BKN250 08/M01 A2993 RMK AO2 SLP136 T00831006=
13/01/2022 18:51->METAR KJFK 131851Z 17005KT 10SM FEW095 SCT200 BKN250 08/M03 A2994 RMK AO2 SLP138 T00831028=
13/01/2022 17:51->METAR KJFK 131751Z 12006KT 10SM FEW095 FEW180 BKN250 09/M04 A2997 RMK AO2 SLP148 T00891044 10094 21011 58029=
13/01/2022 16:51->METAR KJFK 131651Z 00000KT 10SM FEW110 FEW180 BKN250 08/M05 A3000 RMK AO2 SLP157 T00831050=
13/01/2022 15:51->METAR KJFK 131551Z 00000KT 10SM FEW110 BKN250 08/M04 A3004 RMK AO2 SLP170 T00781039=
13/01/2022 14:51->METAR KJFK 131451Z 36003KT 10SM FEW110 BKN250 06/M03 A3006 RMK AO2 SLP177 T00561028 51005=
13/01/2022 13:51->METAR KJFK 131351Z 06003KT 10SM SCT110 BKN250 03/M02 A3005 RMK AO2 SLP175 T00331017=
13/01/2022 12:51->METAR KJFK 131251Z 30005KT 10SM SCT110 SCT210 BKN250 02/M03 A3005 RMK AO2 SLP176 T00171033=
13/01/2022 11:51->METAR KJFK 131151Z 00000KT 10SM FEW140 SCT210 SCT250 M01/M04 A3004 RMK AO2 SLP173 T10111039 10017 21022 58002=
13/01/2022 10:51->METAR KJFK 131051Z 00000KT 10SM BKN140 OVC210 00/M03 A3004 RMK AO2 SLP173 T00001033=
13/01/2022 09:51->METAR KJFK 130951Z 00000KT 10SM BKN150 OVC250 M01/M04 A3005 RMK AO2 SLP174 T10111039=
13/01/2022 08:51->METAR KJFK 130851Z 00000KT 10SM SCT190 BKN250 M01/M04 A3005 RMK AO2 SLP174 T10111044 58014=
13/01/2022 07:51->METAR KJFK 130751Z 20004KT 10SM BKN180 BKN250 00/M04 A3007 RMK AO2 SLP183 T00001044=
13/01/2022 06:51->METAR KJFK 130651Z 00000KT 10SM BKN250 M02/M06 A3008 RMK AO2 SLP186 T10171056=
13/01/2022 05:51->METAR KJFK 130551Z 22003KT 10SM FEW130 BKN250 01/M04 A3009 RMK AO2 SLP188 T00111044 10022 21006 58010=
13/01/2022 04:51->METAR KJFK 130451Z 22004KT 10SM BKN250 01/M04 A3010 RMK AO2 SLP191 T00061044 400501094=
13/01/2022 03:51->METAR KJFK 130351Z 19004KT 10SM BKN250 00/M05 A3011 RMK AO2 SLP197 T00001050=
13/01/2022 02:51->METAR KJFK 130251Z 23005KT 10SM BKN250 01/M05 A3012 RMK AO2 SLP198 T00061050 51002=
13/01/2022 01:51->METAR KJFK 130151Z 23008KT 10SM BKN250 02/M06 A3012 RMK AO2 SLP198 T00171056=
13/01/2022 00:51->METAR KJFK 130051Z 24007KT 10SM BKN250 02/M06 A3012 RMK AO2 SLP198 T00171056=
12/01/2022 23:51->METAR KJFK 122351Z 22005KT 10SM BKN250 02/M05 A3011 RMK AO2 SLP196 T00171050 10050 20011 53008=
12/01/2022 22:51->METAR KJFK 122251Z 25007KT 10SM SCT250 02/M06 A3010 RMK AO2 SLP192 T00171061=
12/01/2022 21:51->METAR KJFK 122151Z 26007KT 10SM SCT250 03/M06 A3009 RMK AO2 SLP190 T00281061=
12/01/2022 20:51->METAR KJFK 122051Z 25006KT 10SM FEW170 BKN250 04/M06 A3009 RMK AO2 SLP188 T00441061 56014=
12/01/2022 19:51->METAR KJFK 121951Z 26011KT 10SM FEW170 BKN250 04/M07 A3010 RMK AO2 SLP191 T00441072=
12/01/2022 18:51->METAR KJFK 121851Z 24013KT 10SM FEW170 BKN250 05/M07 A3010 RMK AO2 SLP191 T00501067=
12/01/2022 17:51->METAR KJFK 121751Z 26012KT 10SM BKN250 04/M07 A3013 RMK AO2 SLP201 T00441067 10044 21022 56036=
12/01/2022 16:51->METAR KJFK 121651Z 24016KT 10SM FEW200 BKN250 03/M07 A3015 RMK AO2 SLP209 T00331072=
12/01/2022 15:51->METAR KJFK 121551Z 24019KT 10SM FEW200 BKN250 03/M08 A3019 RMK AO2 SLP223 T00281078=
12/01/2022 14:51->METAR KJFK 121451Z 22018G28KT 10SM FEW040 FEW200 BKN250 01/M09 A3023 RMK AO2 PK WND 22028/1445 SLP237 T00111089 58025=
12/01/2022 13:51->METAR KJFK 121351Z 22018G23KT 10SM FEW035 SCT200 BKN250 00/M08 A3027 RMK AO2 PK WND 21026/1331 SLP249 T00001083=
12/01/2022 12:51->METAR KJFK 121251Z 22019KT 10SM FEW032 SCT170 BKN250 M02/M10 A3028 RMK AO2 PK WND 21027/1226 SLP253 T10171100=
12/01/2022 11:51->METAR KJFK 121151Z 21018G25KT 10SM FEW032 SCT250 M02/M08 A3031 RMK AO2 SLP263 T10221078 11022 21078 56030=
12/01/2022 10:51->METAR KJFK 121051Z 22016KT 10SM SCT250 M03/M09 A3033 RMK AO2 SLP270 T10331089=
12/01/2022 09:51->METAR KJFK 120951Z 21015KT 10SM BKN250 M04/M11 A3035 RMK AO2 SLP277 T10391111=
12/01/2022 08:51->METAR KJFK 120851Z 22017KT 10SM BKN250 M05/M13 A3040 RMK AO2 SLP293 T10501128 58022=
12/01/2022 07:51->METAR KJFK 120751Z 22015KT 10SM SCT250 M05/M13 A3042 RMK AO2 SLP301 T10501133=
12/01/2022 06:51->METAR KJFK 120651Z 22012KT 10SM SCT250 M06/M14 A3045 RMK AO2 SLP312 T10561139=
12/01/2022 05:51->METAR KJFK 120551Z 20003KT 10SM FEW250 M08/M16 A3046 RMK AO2 SLP314 T10781156 11078 21100 58023=
12/01/2022 04:51->METAR KJFK 120451Z 08004KT 10SM SCT250 M09/M17 A3049 RMK AO2 SLP325 T10941172 410391100=
12/01/2022 03:51->METAR KJFK 120351Z 09005KT 10SM FEW250 M09/M17 A3051 RMK AO2 SLP329 T10941172=
12/01/2022 02:51->METAR KJFK 120251Z 09005KT 10SM FEW250 M09/M18 A3053 RMK AO2 SLP337 T10891183 56011=
12/01/2022 01:51->METAR KJFK 120151Z 01005KT 10SM FEW250 M08/M19 A3054 RMK AO2 SLP339 T10831189=
12/01/2022 00:51->METAR KJFK 120051Z 03007KT 10SM FEW250 M08/M19 A3055 RMK AO2 SLP344 T10831189=
11/01/2022 23:51->METAR KJFK 112351Z 34006KT 10SM FEW250 M08/M20 A3056 RMK AO2 SLP348 T10781200 11056 21078 50013=
11/01/2022 22:51->METAR KJFK 112251Z 32009KT 10SM FEW250 M07/M20 A3057 RMK AO2 SLP350 T10721200=
11/01/2022 21:51->METAR KJFK 112151Z 32008KT 10SM FEW060 FEW250 M07/M21 A3055 RMK AO2 SLP344 T10721206=
11/01/2022 20:51->METAR KJFK 112051Z 34011KT 10SM FEW060 FEW250 M07/M21 A3052 RMK AO2 SLP336 T10671206 53006=
11/01/2022 19:51->METAR KJFK 111951Z 31011KT 10SM FEW060 FEW250 M06/M20 A3051 RMK AO2 SLP332 T10611200=
11/01/2022 18:51->METAR KJFK 111851Z 31012KT 10SM FEW060 FEW250 M06/M20 A3051 RMK AO2 SLP331 T10611200=
11/01/2022 17:51->METAR KJFK 111751Z 32013KT 10SM FEW055 M07/M20 A3051 RMK AO2 SLP329 T10671200 11067 21089 58010=
11/01/2022 16:51->METAR KJFK 111651Z 33012KT 10SM FEW055 M07/M20 A3052 RMK AO2 SLP335 T10721200=
11/01/2022 15:51->METAR KJFK 111551Z 30013KT 10SM FEW050 M08/M20 A3054 RMK AO2 SLP339 T10781200=
11/01/2022 14:51->METAR KJFK 111451Z 31015G23KT 10SM FEW050 M08/M20 A3053 RMK AO2 PK WND 33028/1355 SLP339 T10781200 53031=
11/01/2022 13:51->METAR KJFK 111351Z 33019G28KT 10SM FEW048 M08/M20 A3051 RMK AO2 PK WND 31028/1349 SLP330 T10831200=
11/01/2022 12:51->METAR KJFK 111251Z 32019G26KT 10SM FEW045 FEW060 M09/M19 A3046 RMK AO2 PK WND 30029/1237 SLP314 T10891194=
11/01/2022 11:51->METAR KJFK 111151Z 32016G22KT 10SM FEW045 SCT060 M08/M17 A3044 RMK AO2 PK WND 31026/1137 SLP307 60000 T10831172 11039 21083 53038=
11/01/2022 10:51->METAR KJFK 111051Z 31017G25KT 10SM FEW060 M08/M17 A3040 RMK AO2 PK WND 30028/0955 SLP295 T10781172=
11/01/2022 09:51->METAR KJFK 110951Z 31022G28KT 10SM CLR M07/M18 A3036 RMK AO2 PK WND 30028/0922 SLP279 T10721183=
11/01/2022 08:51->METAR KJFK 110851Z 31020G26KT 10SM FEW060 M07/M18 A3033 RMK AO2 PK WND 33029/0815 SLP270 60000 T10721178 51041=
11/01/2022 07:51->METAR KJFK 110751Z 32021KT 10SM FEW055 M07/M17 A3029 RMK AO2 PK WND 33033/0720 SLP258 T10671172=
11/01/2022 06:51->METAR KJFK 110651Z 31018G27KT 10SM FEW021 SCT050 M06/M12 A3025 RMK AO2 PK WND 28030/0606 SNB15E34 SLP243 P0000 T10561122=
11/01/2022 05:51->METAR KJFK 110551Z 29016G26KT 10SM FEW055 M04/M14 A3021 RMK AO2 PK WND 31026/0546 SLP229 T10441139 11028 21044 53015=
11/01/2022 04:51->METAR KJFK 110451Z 28019G23KT 10SM FEW055 M04/M14 A3019 RMK AO2 SLP221 T10391144 400501039=
11/01/2022 03:51->METAR KJFK 110351Z 27014G21KT 10SM FEW055 M03/M13 A3017 RMK AO2 PK WND 29027/0330 SLP217 T10331133=
11/01/2022 02:51->METAR KJFK 110251Z 28016G20KT 10SM FEW048 M03/M12 A3017 RMK AO2 SLP214 T10331122 55002=
11/01/2022 01:51->METAR KJFK 110151Z 26014KT 10SM FEW048 M03/M12 A3016 RMK AO2 SLP212 T10281117=
11/01/2022 00:51->METAR KJFK 110051Z 26014KT 10SM FEW060 M03/M12 A3017 RMK AO2 SLP215 T10281122=
10/01/2022 23:51->METAR KJFK 102351Z 27013KT 10SM FEW060 M03/M13 A3017 RMK AO2 SLP216 T10281133 10000 21028 51014=
10/01/2022 22:51->METAR KJFK 102251Z 28016G25KT 10SM SCT060 M03/M14 A3016 RMK AO2 SLP212 T10281139=
10/01/2022 21:51->METAR KJFK 102151Z 27017KT 10SM FEW060 M03/M14 A3014 RMK AO2 SLP206 T10281144=
10/01/2022 20:51->METAR KJFK 102051Z 26015KT 10SM BKN060 M02/M14 A3013 RMK AO2 SLP202 VIRGA NW T10171139 53003=
10/01/2022 19:51->METAR KJFK 101951Z 27011G22KT 10SM BKN060 BKN250 M01/M14 A3013 RMK AO2 SLP201 VIRGA NW T10111139=
10/01/2022 18:51->METAR KJFK 101851Z 31016G27KT 10SM SCT055 SCT190 00/M14 A3012 RMK AO2 PK WND 27027/1848 SLP199 T00001144=
10/01/2022 17:51->METAR KJFK 101751Z 32014G17KT 10SM FEW055 BKN190 M01/M14 A3012 RMK AO2 SLP199 T10061139 10000 21022 58019=
10/01/2022 16:51->METAR KJFK 101651Z 31016G20KT 10SM SCT055 BKN230 00/M13 A3016 RMK AO2 SLP212 T00001128=
10/01/2022 15:51->METAR KJFK 101551Z 31013KT 10SM FEW055 SCT250 M01/M13 A3017 RMK AO2 PK WND 31029/1453 SLP217 T10061128=
10/01/2022 14:51->METAR KJFK 101451Z 31019G27KT 10SM FEW050 SCT250 M01/M13 A3018 RMK AO2 PK WND 31027/1446 SLP218 T10111128 51025=
10/01/2022 13:51->METAR KJFK 101351Z 33020G23KT 10SM FEW050 SCT250 M02/M12 A3017 RMK AO2 SLP215 T10171122=
10/01/2022 12:51->METAR KJFK 101251Z 33015KT 10SM FEW055 SCT250 M02/M12 A3013 RMK AO2 PK WND 32026/1157 SLP203 T10171117=
10/01/2022 11:51->METAR KJFK 101151Z 31018G28KT 10SM FEW055 SCT250 M01/M11 A3010 RMK AO2 PK WND 32031/1125 SLP192 70012 T10111111 10044 21011 51026=
10/01/2022 10:51->METAR KJFK 101051Z 31022G30KT 10SM FEW055 OVC260 00/M11 A3008 RMK AO2 PK WND 31030/1050 SLP186 T00001111=
10/01/2022 09:51->METAR KJFK 100951Z 30018G25KT 10SM FEW050 FEW120 OVC250 01/M08 A3005 RMK AO2 PK WND 32030/0915 SLP176 T00111083=
10/01/2022 08:51->METAR KJFK 100851Z 32016G23KT 10SM BKN044 OVC240 02/M04 A3002 RMK AO2 SLP166 T00221044 53015=
10/01/2022 07:51->METAR KJFK 100751Z 31014G23KT 10SM FEW025 OVC035 04/M02 A3000 RMK AO2 SLP158 T00391022=
10/01/2022 06:51->METAR KJFK 100651Z 29013KT 10SM SCT031 BKN050 OVC220 04/00 A2999 RMK AO2 SLP154 T00440000=
10/01/2022 05:51->METAR KJFK 100551Z 30013KT 10SM SCT024 OVC210 04/02 A2998 RMK AO2 SLP151 60007 T00440022 10050 20039 55000=
10/01/2022 04:51->METAR KJFK 100451Z 29012KT 10SM FEW014 OVC170 04/02 A2997 RMK AO2 SLP149 T00440022 400501017=
10/01/2022 03:51->METAR KJFK 100351Z 26011KT 10SM FEW011 SCT120 OVC170 04/03 A2998 RMK AO2 SLP150 T00390028=
10/01/2022 02:51->METAR KJFK 100251Z 25011KT 10SM BKN011 BKN075 OVC110 04/03 A2998 RMK AO2 RAE40 SLP151 P0002 60007 T00390028 58013=
10/01/2022 01:51->METAR KJFK 100151Z 25012KT 8SM -RA SCT009 OVC012 04/03 A2999 RMK AO2 SLP156 P0004 T00390028=
10/01/2022 00:51->METAR KJFK 100051Z 25008KT 7SM -RA SCT009 OVC011 04/03 A3001 RMK AO2 SLP161 P0001 T00390028=
09/01/2022 23:51->METAR KJFK 092351Z 25009KT 9SM -RA BKN012 OVC050 04/03 A3002 RMK AO2 RAB2252 SLP164 P0003 60005 T00390028 10050 20039 56010=
09/01/2022 22:51->METAR KJFK 092251Z 26009KT 10SM OVC014 04/02 A3003 RMK AO2 RAE47 SLP167 P0001 T00390022=
09/01/2022 21:51->METAR KJFK 092151Z 24009KT 10SM -RA OVC018 04/02 A3003 RMK AO2 SLP170 P0000 T00390022=
09/01/2022 20:51->METAR KJFK 092051Z 25011KT 10SM -RA BKN021 OVC055 04/02 A3005 RMK AO2 RAB01 SLP174 P0001 60001 T00440017 56033=
09/01/2022 19:51->METAR KJFK 091951Z 24014KT 10SM BKN025 OVC055 05/01 A3006 RMK AO2 RAB00E39 SLP178 P0000 T00500011=
09/01/2022 18:51->METAR KJFK 091851Z 24012KT 10SM BKN025 OVC055 05/01 A3010 RMK AO2 SLP194 T00500006=
09/01/2022 17:51->METAR KJFK 091751Z 23016KT 10SM BKN026 BKN055 OVC080 04/M01 A3014 RMK AO2 RAB1653E33 SLP206 4/002 933002 P0000 60000 T00441006 10044 20017 56056=
09/01/2022 16:51->METAR KJFK 091651Z 22018KT 10SM FEW030 SCT055 OVC085 04/M01 A3017 RMK AO2 RAB1556E34 PRESFR SLP217 P0000 T00391011=
09/01/2022 15:51->METAR KJFK 091551Z 21012KT 10SM FEW030 BKN055 OVC090 03/M02 A3026 RMK AO2 SLP248 T00281022=
09/01/2022 14:51->METAR KJFK 091451Z 23016KT 10SM FEW040 BKN090 BKN250 03/M03 A3031 RMK AO2 SLP263 T00281028 56016=
09/01/2022 13:51->METAR KJFK 091351Z 21016G22KT 10SM FEW040 BKN100 BKN250 02/M03 A3032 RMK AO2 SLP266 T00221033=
09/01/2022 12:51->METAR KJFK 091251Z 20016KT 10SM FEW040 BKN100 BKN250 02/M02 A3033 RMK AO2 PK WND 21026/1218 SLP268 T00171022=
09/01/2022 11:51->METAR KJFK 091151Z 21016KT 10SM FEW040 SCT100 BKN250 02/M02 A3035 RMK AO2 SLP278 T00171022 10017 21017 56042=
09/01/2022 10:51->METAR KJFK 091051Z 22015KT 10SM BKN100 01/M05 A3040 RMK AO2 SLP294 T00111050=
09/01/2022 09:51->METAR KJFK 090951Z 22017KT 10SM SCT110 BKN250 01/M04 A3043 RMK AO2 SLP303 T00061044=
09/01/2022 08:51->METAR KJFK 090851Z 23013KT 10SM BKN100 BKN220 M01/M05 A3048 RMK AO2 SLP321 T10061050 58020=
09/01/2022 07:51->METAR KJFK 090751Z 22015KT 10SM FEW250 M01/M06 A3052 RMK AO2 SLP333 T10111061=
09/01/2022 06:51->METAR KJFK 090651Z 23013KT 10SM FEW250 M02/M08 A3054 RMK AO2 SLP341 T10171078=
09/01/2022 05:51->METAR KJFK 090551Z 22014KT 10SM FEW250 M01/M08 A3054 RMK AO2 SLP340 4/003 T10111083 11006 21039 56021=
09/01/2022 04:51->METAR KJFK 090451Z 23014KT 10SM FEW250 M01/M08 A3057 RMK AO2 SLP352 T10111078 410061061=
09/01/2022 03:51->METAR KJFK 090351Z 21011KT 10SM CLR M02/M10 A3055 RMK AO2 SLP346 T10171100=
09/01/2022 02:51->METAR KJFK 090251Z 22010KT 10SM CLR M02/M10 A3060 RMK AO2 SLP361 T10221100 58006=
09/01/2022 01:51->METAR KJFK 090151Z 21011KT 10SM CLR M02/M11 A3061 RMK AO2 SLP364 T10221106=
09/01/2022 00:51->METAR KJFK 090051Z 23008KT 10SM CLR M04/M11 A3062 RMK AO2 SLP369 T10391111=
08/01/2022 23:51->METAR KJFK 082351Z 22005KT 10SM FEW250 M02/M13 A3062 RMK AO2 SLP367 4/004 T10221128 11006 21056 52005=
08/01/2022 22:51->METAR KJFK 082251Z 17005KT 10SM FEW250 M05/M13 A3061 RMK AO2 SLP363 T10501133=
08/01/2022 21:51->METAR KJFK 082151Z 22005KT 10SM FEW250 M02/M14 A3061 RMK AO2 SLP366 T10221144=
08/01/2022 20:51->METAR KJFK 082051Z 31003KT 10SM FEW250 M01/M16 A3060 RMK AO2 SLP362 T10061156 53004=
08/01/2022 19:51->METAR KJFK 081951Z 30004KT 10SM FEW250 M01/M14 A3059 RMK AO2 SLP359 T10111144=
08/01/2022 18:51->METAR KJFK 081851Z 31007KT 10SM FEW250 M02/M14 A3060 RMK AO2 SLP360 T10171139=
08/01/2022 17:51->METAR KJFK 081751Z 34009KT 10SM FEW250 M03/M14 A3059 RMK AO2 SLP358 4/004 933003 T10281139 11022 21061 58006=
08/01/2022 16:51->METAR KJFK 081651Z 34012KT 10SM CLR M03/M14 A3060 RMK AO2 SLP362 T10331139=
08/01/2022 15:51->METAR KJFK 081551Z 32010KT 10SM FEW050 M04/M13 A3062 RMK AO2 SLP368 T10391128=
08/01/2022 14:51->METAR KJFK 081451Z 32013KT 10SM FEW040 M05/M14 A3061 RMK AO2 SLP365 T10501139 53046=
08/01/2022 13:51->METAR KJFK 081351Z 32014KT 10SM FEW040 M06/M13 A3057 RMK AO2 SLP350 T10561133=
08/01/2022 12:51->METAR KJFK 081251Z 32018G23KT 10SM FEW040 FEW250 M06/M14 A3051 RMK AO2 PK WND 30026/1235 SLP329 T10611139=
08/01/2022 11:51->METAR KJFK 081151Z 32016KT 10SM FEW040 M06/M14 A3047 RMK AO2 PK WND 33028/1129 SLP318 4/005 70001 T10611139 11039 21061 51036=
08/01/2022 10:51->METAR KJFK 081051Z 30020G27KT 10SM FEW050 M06/M13 A3044 RMK AO2 PK WND 31031/1034 SLP307 T10561133=
08/01/2022 09:51->METAR KJFK 080951Z 30014G24KT 10SM FEW048 M06/M13 A3041 RMK AO2 PK WND 31028/0932 SLP295 T10561133=
08/01/2022 08:51->METAR KJFK 080851Z 30016G23KT 10SM FEW049 M06/M13 A3037 RMK AO2 PRESRR SLP282 T10561133 51044=
08/01/2022 07:51->METAR KJFK 080751Z 30017KT 10SM FEW047 M05/M13 A3033 RMK AO2 PK WND 30030/0720 SLP269 T10501133=
08/01/2022 06:51->METAR KJFK 080651Z 30017G22KT 10SM FEW043 M04/M13 A3029 RMK AO2 PK WND 31028/0559 SLP256 T10441128=
08/01/2022 05:51->METAR KJFK 080551Z 31016G26KT 10SM BKN046 M04/M12 A3024 RMK AO2 PK WND 31031/0513 SLP239 4/006 60000 T10391122 11017 21039 51025=
08/01/2022 04:51->METAR KJFK 080451Z 31016KT 10SM SCT048 M03/M12 A3022 RMK AO2 PK WND 30032/0434 SLP233 T10331117 400171033=
08/01/2022 03:51->METAR KJFK 080351Z 29019G26KT 10SM FEW045 M03/M12 A3019 RMK AO2 PK WND 30030/0310 SLP224 T10331117=
08/01/2022 02:51->METAR KJFK 080251Z 30018G28KT 10SM FEW049 M03/M12 A3016 RMK AO2 PK WND 31032/0236 SLP214 T10281117 51033=
08/01/2022 01:51->METAR KJFK 080151Z 30017G32KT 10SM SCT050 M03/M11 A3014 RMK AO2 PK WND 29032/0114 SLP206 T10281111=
08/01/2022 00:51->METAR KJFK 080051Z 29012G24KT 10SM FEW055 M02/M11 A3011 RMK AO2 PK WND 29028/2353 SLP195 T10221106=
07/01/2022 23:51->METAR KJFK 072351Z 30017G28KT 10SM SCT044 SCT055 M02/M09 A3007 RMK AO2 PK WND 29030/2300 SLP181 4/006 T10171089 10011 21017 51049=
07/01/2022 22:51->METAR KJFK 072251Z 29018G28KT 10SM FEW036 SCT055 M01/M09 A3003 RMK AO2 PK WND 29033/2218 SLP168 VIRGA NW T10111094=
07/01/2022 21:51->METAR KJFK 072151Z 29016G28KT 10SM FEW036 SCT055 M01/M09 A2998 RMK AO2 PK WND 28031/2055 SLP150 VIRGA SW-NW T10061094=
07/01/2022 20:51->METAR KJFK 072051Z 29024G30KT 10SM FEW036 BKN050 01/M09 A2992 RMK AO2 PK WND 28030/2048 SLP132 VIRGA OHD-E T00061094 53036=
07/01/2022 19:51->METAR KJFK 071951Z 29018G31KT 10SM BKN050 BKN065 01/M08 A2987 RMK AO2 PK WND 29033/1918 SLP115 T00061078=
07/01/2022 18:51->METAR KJFK 071851Z 30018G25KT 10SM BKN045 01/M07 A2983 RMK AO2 PK WND 30028/1813 SLP100 T00061072=
07/01/2022 17:51->METAR KJFK 071751Z 31019G27KT 10SM BKN042 01/M07 A2982 RMK AO2 PK WND 31027/1744 SLP096 4/006 933003 60001 T00061072 10011 21017 58001=
07/01/2022 16:51->METAR KJFK 071651Z 29017G24KT 10SM SCT033 01/M06 A2982 RMK AO2 PK WND 30027/1618 SLP096 T00061061=
07/01/2022 15:51->METAR KJFK 071551Z 32019G26KT 10SM FEW022 BKN031 BKN250 M01/M06 A2983 RMK AO2 PK WND 32026/1542 SLP101 T10061056 $=
07/01/2022 14:51->METAR KJFK 071451Z 31017G23KT 10SM SCT014 SCT035 BKN075 BKN250 M01/M05 A2982 RMK AO2 SNE28 SLP098 P0000 60001 T10111050 51017 $=
07/01/2022 13:51->METAR KJFK 071351Z 32018KT 2SM -SN BR FEW011 BKN024 OVC042 M02/M03 A2980 RMK AO2 SFC VIS 2 1/2 SLP092 P0000 T10171033 $=
07/01/2022 12:51->METAR KJFK 071251Z 32015KT 2SM -SN BR FEW000 BKN011 OVC024 M02/M03 A2979 RMK AO2 SLP087 CIG 009V013 SN FEW000 P0001 T10171033 $=
07/01/2022 11:51->METAR KJFK 071151Z 33013KT 3/4SM R04R/4500VP6000FT -SN BR VV007 M02/M03 A2977 RMK AO2 SLP081 SNINCR 2/6 4/006 P0004 60030 70030 T10171028 10011 21017 53009 $=
07/01/2022 10:51->METAR KJFK 071051Z 34013KT 3/4SM R04R/6000VP6000FT -SN BR VV007 M02/M03 A2977 RMK AO2 SFC VIS 1 SLP081 SNINCR 1/4 P0007 T10171028 $=
07/01/2022 09:51->METAR KJFK 070951Z 34009KT 3/4SM R04R/3000VP6000FT -SN BR VV006 M01/M02 A2974 RMK AO2 SLP070 SNINCR 1/3 P0008 T10111022 $=
07/01/2022 08:51->METAR KJFK 070851Z 04010KT 1/2SM R04R/6000VP6000FT -SN BR VV007 M01/M02 A2974 RMK AO2 SFC VIS 3/4 SLP071 SNINCR 1/2 P0005 60011 T10111022 58028 $=
07/01/2022 07:51->METAR KJFK 070751Z 05008KT 1/2SM R04R/4000V5500FT -SN BR VV007 M01/M02 A2980 RMK AO2 SFC VIS 3/4 SLP091 SNINCR 1/1 P0006 T10111022 $=
07/01/2022 06:51->METAR KJFK 070651Z 02009G14KT 1SM R04R/5500VP6000FT -SN SCT000 BKN011 OVC027 00/M04 A2983 RMK AO2 SFC VIS 1 1/2 SNB29 SLP099 SN SCT000 P0000 T00001044 $=
07/01/2022 05:51->METAR KJFK 070551Z 02018KT 10SM OVC075 01/M07 A2980 RMK AO2 SLP089 T00111072 10022 20011 58054 $=
07/01/2022 04:51->METAR KJFK 070451Z 02011KT 10SM OVC085 02/M08 A2989 RMK AO2 PRESFR SLP120 T00171078 400500011 $=
07/01/2022 03:51->METAR KJFK 070351Z 35007KT 10SM BKN075 OVC130 01/M08 A2993 RMK AO2 SLP136 T00111083 $=
07/01/2022 02:51->METAR KJFK 070251Z 00000KT 10SM BKN075 BKN110 OVC150 02/M08 A2996 RMK AO2 SLP143 T00171078 55011 $=
07/01/2022 01:51->METAR KJFK 070151Z 08003KT 10SM BKN120 OVC150 02/M08 A2995 RMK AO2 SLP141 T00171083 $=
07/01/2022 00:51->METAR KJFK 070051Z 02006KT 10SM BKN150 OVC250 02/M08 A2997 RMK AO2 SLP149 T00171083 $=
06/01/2022 23:51->METAR KJFK 062351Z 26007KT 10SM FEW140 BKN180 OVC250 02/M09 A2999 RMK AO2 SLP154 T00221089 10044 20017 51023 $=
06/01/2022 22:51->METAR KJFK 062251Z 28008KT 10SM BKN250 02/M09 A2998 RMK AO2 SLP150 T00221089 $=
06/01/2022 21:51->METAR KJFK 062151Z 28006KT 10SM FEW150 BKN250 02/M09 A2995 RMK AO2 SLP142 T00221094=
06/01/2022 20:51->METAR KJFK 062051Z 26004KT 10SM BKN250 03/M09 A2992 RMK AO2 SLP131 T00281094 50001=
06/01/2022 19:51->METAR KJFK 061951Z 28011G17KT 10SM FEW160 BKN250 04/M09 A2993 RMK AO2 SLP133 T00441089=
06/01/2022 18:51->METAR KJFK 061851Z 27014KT 10SM BKN250 04/M08 A2993 RMK AO2 SLP134 T00391083=
06/01/2022 17:51->METAR KJFK 061751Z 27014KT 10SM SCT190 BKN250 04/M08 A2992 RMK AO2 SLP131 T00391083 10044 20028 58003=
06/01/2022 16:51->METAR KJFK 061651Z 26019KT 10SM BKN220 03/M09 A2993 RMK AO2 SLP133 T00331089=
06/01/2022 15:51->METAR KJFK 061551Z 27016KT 10SM BKN220 03/M08 A2994 RMK AO2 SLP138 T00331078=
06/01/2022 14:51->METAR KJFK 061451Z 28014KT 10SM BKN230 03/M07 A2993 RMK AO2 SLP134 T00281072 53029=
06/01/2022 13:51->METAR KJFK 061351Z 28013KT 10SM BKN210 03/M05 A2990 RMK AO2 SLP125 T00281050=
06/01/2022 12:51->METAR KJFK 061251Z 28017G25KT 10SM BKN220 03/M06 A2986 RMK AO2 SLP110 T00331056=
06/01/2022 11:51->METAR KJFK 061151Z 28014KT 10SM FEW040 SCT250 04/M04 A2984 RMK AO2 SLP105 70026 T00391039 10044 20011 53029=
06/01/2022 10:51->METAR KJFK 061051Z 26009KT 10SM SCT250 03/01 A2982 RMK AO2 SLP097 T00280006=
06/01/2022 09:51->METAR KJFK 060951Z 24008KT 10SM SCT200 SCT250 02/00 A2978 RMK AO2 SLP083 T00170000=
06/01/2022 08:51->METAR KJFK 060851Z 25008KT 10SM SCT200 BKN250 02/01 A2976 RMK AO2 SLP076 T00220006 51017=
06/01/2022 07:51->METAR KJFK 060751Z 26007KT 10SM BKN200 BKN250 03/01 A2974 RMK AO2 SLP069 T00330006=
06/01/2022 06:51->METAR KJFK 060651Z 24009KT 10SM BKN200 OVC240 04/02 A2973 RMK AO2 SLP066 T00390022=
06/01/2022 05:51->METAR KJFK 060551Z 26009KT 10SM BKN250 04/03 A2971 RMK AO2 SLP059 T00440028 10072 20044 56009=
06/01/2022 04:51->METAR KJFK 060451Z 25012KT 10SM BKN220 05/03 A2971 RMK AO2 SLP060 T00500028 400781011=
06/01/2022 03:51->METAR KJFK 060351Z 25010KT 10SM BKN200 06/03 A2971 RMK AO2 SLP061 T00560033=
06/01/2022 02:51->METAR KJFK 060251Z 25012KT 10SM FEW017 BKN180 BKN230 06/04 A2973 RMK AO2 SLP068 T00560039 58004=
06/01/2022 01:51->METAR KJFK 060151Z 25012KT 10SM FEW017 SCT190 BKN230 06/04 A2975 RMK AO2 SLP073 T00610044=
06/01/2022 00:51->METAR KJFK 060051Z 24009KT 10SM FEW017 SCT190 BKN230 06/04 A2976 RMK AO2 SLP077 T00610044=
05/01/2022 23:51->METAR KJFK 052351Z 21010KT 10SM FEW017 SCT160 BKN190 BKN250 07/05 A2974 RMK AO2 SLP072 60000 T00720050 10078 20050 58018=
05/01/2022 22:51->METAR KJFK 052251Z 20008KT 10SM SCT017 BKN160 BKN250 07/06 A2976 RMK AO2 SLP077 T00720061=
05/01/2022 21:51->METAR KJFK 052151Z 19007KT 10SM FEW006 BKN017 BKN070 BKN140 BKN250 07/07 A2979 RMK AO2 SLP087 T00720067=
05/01/2022 20:51->METAR KJFK 052051Z 20012KT 10SM BKN006 BKN012 BKN050 OVC140 08/07 A2980 RMK AO2 SLP090 BKN006 V SCT 60000 T00780067 56029=
05/01/2022 19:51->METAR KJFK 051951Z 19011KT 10SM OVC005 07/07 A2980 RMK AO2 SLP091 T00720067=
05/01/2022 18:51->METAR KJFK 051851Z 19011KT 8SM OVC007 06/06 A2983 RMK AO2 RAE1754 SLP100 P0000 T00610056=
05/01/2022 17:51->METAR KJFK 051751Z 21012KT 7SM -RA OVC009 05/04 A2989 RMK AO2 RAB1654 SLP119 P0003 60026 T00500039 10050 20011 58046=
05/01/2022 16:51->METAR KJFK 051651Z 22009KT 6SM BR BKN007 OVC012 04/04 A2993 RMK AO2 RAE41 SLP133 P0004 T00440039=
05/01/2022 15:51->METAR KJFK 051551Z 23012KT 4SM -RA BR OVC006 04/04 A2999 RMK AO2 SLP153 P0005 T00440039=
05/01/2022 14:51->METAR KJFK 051451Z 21007KT 5SM R04R/5000VP6000FT RA BR BKN007 BKN014 OVC036 04/03 A3002 RMK AO2 RAE1356B15 SLP166 VIS NE-SE 2 P0009 60014 T00390033 55020=
05/01/2022 13:51->METAR KJFK 051351Z 15005KT 9SM -RA BKN018 BKN050 OVC065 03/02 A3002 RMK AO2 SLP166 BKN018 V SCT P0003 T00280017=
05/01/2022 12:51->METAR KJFK 051251Z 20004KT 4SM -RA BR BKN009 OVC017 02/00 A3007 RMK AO2 SLP183 P0002 T00170000=
05/01/2022 11:51->METAR KJFK 051151Z 27004KT 5SM -RA BR FEW008 OVC013 01/M01 A3008 RMK AO2 SLP186 P0003 60003 70003 T00111011 10017 21011 56040=
05/01/2022 10:51->METAR KJFK 051051Z 28004KT 10SM -RA BKN019 OVC025 01/M03 A3012 RMK AO2 RAB51SNB27E37 SLP198 P0000 T00111033=
05/01/2022 09:51->METAR KJFK 050951Z 26006KT 10SM BKN021 OVC029 01/M02 A3015 RMK AO2 SLP210 T00111022=
05/01/2022 08:51->METAR KJFK 050851Z 24007KT 10SM SCT032 BKN065 OVC250 01/M03 A3020 RMK AO2 SLP226 T00111028 58029=
05/01/2022 07:51->METAR KJFK 050751Z 25008KT 10SM BKN250 00/M03 A3023 RMK AO2 SLP237 T00001033=
05/01/2022 06:51->METAR KJFK 050651Z 23008KT 10SM SCT250 M01/M05 A3026 RMK AO2 SLP246 T10111050=
05/01/2022 05:51->METAR KJFK 050551Z 21013KT 10SM SCT250 00/M06 A3028 RMK AO2 SLP255 T00001056 10006 21006 58023=
05/01/2022 04:51->METAR KJFK 050451Z 21011KT 10SM BKN250 00/M06 A3032 RMK AO2 SLP266 T00001061 400061072=
05/01/2022 03:51->METAR KJFK 050351Z 21008KT 10SM BKN250 M01/M07 A3033 RMK AO2 SLP271 T10061067=
05/01/2022 02:51->METAR KJFK 050251Z 23011KT 10SM SCT250 00/M07 A3035 RMK AO2 SLP277 T00001067 58009=
05/01/2022 01:51->METAR KJFK 050151Z 22011KT 10SM BKN250 00/M08 A3036 RMK AO2 SLP280 T00001078=
05/01/2022 00:51->METAR KJFK 050051Z 23011KT 10SM BKN250 00/M09 A3038 RMK AO2 SLP288 T00001089=
04/01/2022 23:51->METAR KJFK 042351Z 23008KT 10SM BKN250 00/M09 A3038 RMK AO2 SLP287 T00001094 10006 21022 50000=
04/01/2022 22:51->METAR KJFK 042251Z 22007KT 10SM BKN250 M01/M09 A3038 RMK AO2 SLP287 T10061089=
04/01/2022 21:51->METAR KJFK 042151Z 20005KT 10SM BKN250 M02/M09 A3038 RMK AO2 SLP288 T10171089=
04/01/2022 20:51->METAR KJFK 042051Z 20006KT 10SM BKN250 00/M11 A3038 RMK AO2 SLP286 T00001106 57002=
04/01/2022 19:51->METAR KJFK 041951Z 21009KT 10SM BKN250 00/M08 A3038 RMK AO2 SLP288 T00001083=
04/01/2022 18:51->METAR KJFK 041851Z 21009KT 10SM BKN250 00/M09 A3038 RMK AO2 SLP287 T00001094=
04/01/2022 17:51->METAR KJFK 041751Z 22006KT 10SM SCT250 M01/M11 A3038 RMK AO2 SLP288 T10061111 10000 21072 58027=
04/01/2022 16:51->METAR KJFK 041651Z 24007KT 10SM FEW250 M02/M12 A3042 RMK AO2 SLP300 T10171122=
04/01/2022 15:51->METAR KJFK 041551Z 00000KT 10SM FEW250 M02/M13 A3045 RMK AO2 SLP310 T10221128=
04/01/2022 14:51->METAR KJFK 041451Z 31005KT 10SM FEW040 FEW250 M04/M13 A3047 RMK AO2 SLP316 T10391133 51017=
04/01/2022 13:51->METAR KJFK 041351Z 34005KT 10SM FEW040 FEW250 M05/M13 A3046 RMK AO2 SLP313 T10501133=
04/01/2022 12:51->METAR KJFK 041251Z 34010KT 10SM FEW035 FEW250 M07/M14 A3044 RMK AO2 SLP308 T10671139=
04/01/2022 11:51->METAR KJFK 041151Z 34012KT 10SM FEW035 M07/M14 A3042 RMK AO2 SLP299 T10671139 11056 21072 51022=
04/01/2022 10:51->METAR KJFK 041051Z 32011KT 10SM CLR M07/M14 A3040 RMK AO2 SLP292 T10671144=
04/01/2022 09:51->METAR KJFK 040951Z 32011KT 10SM CLR M07/M14 A3038 RMK AO2 SLP287 T10671144=
04/01/2022 08:51->METAR KJFK 040851Z 31013KT 10SM CLR M06/M14 A3035 RMK AO2 SLP277 T10611139 51028=
04/01/2022 07:51->METAR KJFK 040751Z 32012KT 10SM CLR M06/M13 A3033 RMK AO2 SLP269 T10611128=
04/01/2022 06:51->METAR KJFK 040651Z 33013KT 10SM CLR M06/M12 A3031 RMK AO2 SLP262 T10561122=
04/01/2022 05:51->METAR KJFK 040551Z 34012KT 10SM CLR M06/M12 A3027 RMK AO2 SLP249 T10561117 11028 21056 53018=
04/01/2022 04:51->METAR KJFK 040451Z 35013KT 10SM CLR M06/M12 A3025 RMK AO2 SLP243 T10561117 400391056=
04/01/2022 03:51->METAR KJFK 040351Z 35015G24KT 10SM CLR M05/M12 A3023 RMK AO2 PK WND 35026/0256 SLP236 T10501117=
04/01/2022 02:51->METAR KJFK 040251Z 35015G26KT 10SM FEW250 M04/M13 A3022 RMK AO2 PK WND 35027/0200 SLP232 T10441133 51028=
04/01/2022 01:51->METAR KJFK 040151Z 35024G31KT 10SM FEW190 SCT250 M04/M17 A3019 RMK AO2 PK WND 36031/0147 SLP223 T10391167=
04/01/2022 00:51->METAR KJFK 040051Z 34021G26KT 10SM BKN180 BKN250 M03/M16 A3017 RMK AO2 PK WND 34028/0028 SLP217 T10331161=
03/01/2022 23:51->METAR KJFK 032351Z 34014G23KT 10SM BKN170 BKN250 M03/M13 A3013 RMK AO2 PK WND 35026/2301 SLP204 T10281133 11011 21028 53036=
03/01/2022 22:51->METAR KJFK 032251Z 34019KT 10SM FEW100 BKN150 BKN250 M03/M12 A3010 RMK AO2 PK WND 35030/2158 SLP192 T10281122=
03/01/2022 21:51->METAR KJFK 032151Z 35024G29KT 10SM FEW030 SCT100 BKN130 BKN250 M03/M12 A3005 RMK AO2 PK WND 36032/2112 SLP176 T10281117=
03/01/2022 20:51->METAR KJFK 032051Z 35020G26KT 10SM FEW030 BKN100 OVC140 M02/M10 A3003 RMK AO2 PK WND 36028/1956 SLP168 T10171100 53001=
03/01/2022 19:51->METAR KJFK 031951Z 36018G23KT 10SM FEW030 SCT085 OVC100 M02/M11 A3003 RMK AO2 PK WND 36027/1934 SLP167 VIRGA SE-S T10171106=
03/01/2022 18:51->METAR KJFK 031851Z 36017G23KT 10SM FEW055 BKN085 OVC130 M01/M11 A3000 RMK AO2 SLP159 VIRGA SE AND SW T10111106=
03/01/2022 17:51->METAR KJFK 031751Z 02013KT 10SM BKN065 OVC100 M02/M12 A3003 RMK AO2 SLP167 VIRGA SE-S T10171117 10000 21017 58036=
03/01/2022 16:51->METAR KJFK 031651Z 01012KT 10SM BKN060 OVC100 M02/M12 A3009 RMK AO2 SLP187 VIRGA SE-SW T10171117=
03/01/2022 15:51->METAR KJFK 031551Z 02013G19KT 10SM BKN080 OVC120 M01/M12 A3015 RMK AO2 SLP209 VIRGA SE-SW T10111117=
03/01/2022 14:51->METAR KJFK 031451Z 01017KT 10SM FEW085 OVC100 M01/M12 A3013 RMK AO2 PK WND 02027/1426 SLP203 T10111117 51016=
03/01/2022 13:51->METAR KJFK 031351Z 01014G23KT 10SM FEW085 BKN110 OVC140 M01/M12 A3013 RMK AO2 PK WND 36027/1310 PRESRR SLP203 T10061122=
03/01/2022 12:51->METAR KJFK 031251Z 36016G23KT 10SM FEW037 OVC110 M01/M10 A3010 RMK AO2 SLP192 T10061100=
03/01/2022 11:51->METAR KJFK 031151Z 36019G25KT 10SM FEW030 OVC110 00/M07 A3008 RMK AO2 SLP187 T00001072 10033 20000 50008=
03/01/2022 10:51->METAR KJFK 031051Z 02012KT 10SM FEW030 BKN100 OVC130 01/M08 A3011 RMK AO2 SLP197 T00061083=
03/01/2022 09:51->METAR KJFK 030951Z 02011KT 10SM FEW028 BKN090 OVC140 01/M07 A3011 RMK AO2 SLP196 T00111067=
03/01/2022 08:51->METAR KJFK 030851Z 36018G25KT 10SM FEW028 BKN100 OVC160 02/M06 A3006 RMK AO2 SLP178 T00171056 50008=
03/01/2022 07:51->METAR KJFK 030751Z 36015KT 10SM FEW029 BKN100 OVC170 03/M06 A3009 RMK AO2 SLP188 T00281056=
03/01/2022 06:51->METAR KJFK 030651Z 35009KT 10SM FEW027 OVC095 03/M04 A3009 RMK AO2 SLP189 T00331039=
03/01/2022 05:51->METAR KJFK 030551Z 01011KT 10SM FEW028 BKN090 03/M03 A3003 RMK AO2 SLP170 60000 T00331033 10089 20033 51028=
03/01/2022 04:51->METAR KJFK 030451Z 35011KT 10SM FEW030 BKN100 04/M02 A3002 RMK AO2 SLP166 T00391017 401500039=
03/01/2022 03:51->METAR KJFK 030351Z 34013KT 10SM OVC022 04/M01 A2999 RMK AO2 SLP155 T00391006=
03/01/2022 02:51->METAR KJFK 030251Z 33015KT 10SM SCT024 BKN090 OVC180 04/M02 A2995 RMK AO2 SLP142 60000 T00391017 51036=
03/01/2022 01:51->METAR KJFK 030151Z 34016KT 10SM FEW090 OVC250 04/M01 A2993 RMK AO2 SLP133 T00441011=
03/01/2022 00:51->METAR KJFK 030051Z 31018KT 10SM FEW025 SCT090 OVC250 07/00 A2990 RMK AO2 PK WND 32027/0038 RAE2352 SLP123 P0000 T00670000=
02/01/2022 23:51->METAR KJFK 022351Z 30017G24KT 10SM -RA FEW025 SCT045 OVC070 09/03 A2985 RMK AO2 PK WND 32026/2325 RAB07E20B43 SLP106 P0000 60000 T00890028 10150 20089 53057=
02/01/2022 22:51->METAR KJFK 022251Z 33014KT 10SM BKN032 BKN045 OVC070 10/07 A2979 RMK AO2 RAB21E33 SLP087 P0000 T01000067=
02/01/2022 21:51->METAR KJFK 022151Z 36011KT 10SM BKN038 BKN080 OVC250 10/08 A2973 RMK AO2 SLP068 T01000078=
02/01/2022 20:51->METAR KJFK 022051Z 02007KT 10SM SCT030 BKN039 BKN250 12/08 A2968 RMK AO2 SLP050 T01170083 53021=
02/01/2022 19:51->METAR KJFK 021951Z 26010KT 10SM FEW020 BKN032 OVC250 14/11 A2965 RMK AO2 SLP039 T01440111=
02/01/2022 18:51->METAR KJFK 021851Z 25008KT 10SM SCT018 BKN035 BKN230 BKN270 14/12 A2962 RMK AO2 CIG 019 W SLP031 T01390117=
02/01/2022 17:51->METAR KJFK 021751Z 24009KT 10SM OVC011 12/12 A2962 RMK AO2 SLP028 T01220117 10122 20106 58003=
02/01/2022 16:51->METAR KJFK 021651Z 24009KT 6SM BR OVC009 12/12 A2962 RMK AO2 CIG 008V012 SLP028 T01170117=
02/01/2022 15:51->METAR KJFK 021551Z 23011KT 3SM BR BKN008 12/12 A2963 RMK AO2 SFC VIS 5 CIG 006V011 SLP034 T01170117=
02/01/2022 14:51->METAR KJFK 021451Z 23010KT 1/16SM R04R/1200V1800FT FG VV003 11/11 A2962 RMK AO2 SFC VIS 1/2 SLP031 T01110111 53023=
02/01/2022 13:51->METAR KJFK 021351Z 24006KT 1/16SM R04R/1200FT FG BKN003 OVC008 11/11 A2959 RMK AO2 SFC VIS 1/4 SLP019 T01110111=
02/01/2022 12:51->METAR KJFK 021251Z 26005KT 1/16SM R04R/1000V2000FT FG VV002 11/11 A2959 RMK AO2 SFC VIS 1/2 PRESRR SLP019 T01060106=
02/01/2022 11:51->METAR KJFK 021151Z 00000KT 1/2SM R04R/3500V5000FT BR VV003 11/11 A2956 RMK AO2 SFC VIS 3/4 RAB1053E26 SLP008 P0000 60003 70123 T01060106 10117 20100 58003=
02/01/2022 10:51->METAR KJFK 021051Z 31005KT 1/2SM R04R/3000VP6000FT BR OVC002 11/11 A2960 RMK AO2 SFC VIS 3 RAB07E42 SLP022 P0001 T01110111 $=
02/01/2022 09:51->METAR KJFK 020951Z 16007KT 1SM R04R/2000VP6000FT BR OVC004 11/11 A2954 RMK AO2 SFC VIS 4 SLP003 T01110106 $=
02/01/2022 08:51->METAR KJFK 020851Z 33007KT 2SM OVC004 11/11 A2956 RMK AO2 SFC VIS 8 RAE05 SLP011 P0000 60002 T01060106 55002 $=
02/01/2022 07:51->METAR KJFK 020751Z 14008KT 10SM -RA OVC005 12/11 A2950 RMK AO2 SLP989 P0001 T01170111 $=
02/01/2022 06:51->METAR KJFK 020651Z VRB03KT 3SM -RA OVC004 12/11 A2955 RMK AO2 SFC VIS 10 SLP006 P0001 T01170111 $=
02/01/2022 05:51->METAR KJFK 020551Z 05005KT 3SM -RA OVC004 12/12 A2957 RMK AO2 SFC VIS 10 RAE04B35 SLP013 P0000 60100 T01170117 10117 20106 56013 $=
02/01/2022 04:51->METAR KJFK 020451Z 06006KT 3SM -RA SCT009 BKN050 OVC095 12/12 A2957 RMK AO2 SFC VIS 9 CIG 012 W SLP013 P0044 T01170117 401170089 $=
02/01/2022 03:51->METAR KJFK 020351Z 01008KT 1 1/2SM R04R/5000VP6000FT +RA BR SCT005 BKN013 OVC022 12/12 A2961 RMK AO2 SFC VIS 2 1/2 SLP026 P0041 T01170117 $=
02/01/2022 02:51->METAR KJFK 020251Z 06008KT 1 1/2SM -RA BKN004 BKN013 OVC025 11/11 A2961 RMK AO2 SFC VIS 8 SLP027 P0004 60015 T01110111 58038 $=
02/01/2022 01:51->METAR KJFK 020151Z 07006KT 1 1/2SM R04R/3000V3500FT -RA BR BKN004 BKN013 OVC025 11/11 A2967 RMK AO2 SFC VIS 3 SLP045 P0004 T01110111 $=
02/01/2022 00:51->METAR KJFK 020051Z 06003KT 1SM R04R/3000VP6000FT RA BR OVC003 11/11 A2970 RMK AO2 SFC VIS 2 1/2 SLP058 P0007 T01110106 $=
01/01/2022 23:51->METAR KJFK 012351Z 00000KT 1/4SM R04R/4000VP6000FT -RA BR OVC002 11/11 A2973 RMK AO2 SFC VIS 2 SLP065 P0003 60005 T01060106 10117 20106 50003 $=
01/01/2022 22:51->METAR KJFK 012251Z 18004KT 1/4SM R04R/2400V3500FT -RA FG VV003 11/11 A2973 RMK AO2 SFC VIS 1/2 DZE12RAB12 SLP067 P0000 T01110106 $=
01/01/2022 21:51->METAR KJFK 012151Z 20004KT 1/4SM R04R/1400V1600FT -DZ BR VV003 11/11 A2973 RMK AO2 SFC VIS 3/4 SLP066 P0000 T01060106 $=
01/01/2022 20:51->METAR KJFK 012051Z 16005KT 3/4SM R04R/P6000FT -DZ BR BKN003 OVC040 11/11 A2972 RMK AO2 SFC VIS 2 RAE39DZB39 SLP062 P0000 60002 T01110111 58016 $=
01/01/2022 19:51->METAR KJFK 011951Z 16004KT 3/4SM R04R/P6000FT -RA BR BKN004 OVC050 12/11 A2974 RMK AO2 SFC VIS 3 SLP069 P0001 T01170111 $=
01/01/2022 18:51->METAR KJFK 011851Z 00000KT 3/4SM R04R/P6000FT -RA BR OVC004 11/11 A2975 RMK AO2 SFC VIS 4 SLP075 P0001 T01110106 $=
01/01/2022 17:51->METAR KJFK 011751Z 20005KT 1/4SM R04R/P6000FT -RA BR OVC002 11/11 A2976 RMK AO2 SFC VIS 3 SLP079 P0002 60015 T01060106 10106 20100 56032 $=
01/01/2022 16:51->METAR KJFK 011651Z 18008KT 1/4SM R04R/P6000FT -RA BR BKN003 OVC075 11/11 A2979 RMK AO2 SFC VIS 4 SLP086 P0002 T01060106 $=
01/01/2022 15:51->METAR KJFK 011551Z 19009KT 1/2SM R04R/P6000FT -RA BR BKN003 OVC080 10/10 A2983 RMK AO2 SFC VIS 5 SLP100 P0002 T01000100 $=
01/01/2022 14:51->METAR KJFK 011451Z 20011KT 1/2SM R04R/P6000FT -RA BR BKN002 OVC080 10/10 A2986 RMK AO2 SFC VIS 5 SLP111 P0002 60009 T01000100 53004 $=
01/01/2022 13:51->METAR KJFK 011351Z 18009KT 1/4SM R04R/P6000FT -RA BR OVC003 11/11 A2984 RMK AO2 SFC VIS 1 SLP103 P0002 T01060106 $=
01/01/2022 12:51->METAR KJFK 011251Z 00000KT 1/2SM R04R/P6000FT -RA BR BKN004 OVC012 11/11 A2985 RMK AO2 SFC VIS 2 RAB1156 SLP107 P0005 T01060106 $=
01/01/2022 11:51->METAR KJFK 011151Z 17007KT 1/2SM R04R/P6000FT BR BKN003 OVC012 10/10 A2985 RMK AO2 SFC VIS 3 RAE00B36E46 SLP107 P0001 60002 70002 T01000100 10100 20089 55012 $=
01/01/2022 10:51->METAR KJFK 011051Z 18006KT 1/4SM R04R/P6000FT -RA BR OVC003 10/10 A2984 RMK AO2 SFC VIS 3 RAB43 SLP105 P0000 T01000100 $=
01/01/2022 09:51->METAR KJFK 010951Z 15006KT 1/4SM R04R/2200V2600FT FG VV002 10/09 A2986 RMK AO2 SFC VIS 1/2 RAB02E23 SLP110 P0001 T01000094 $=
01/01/2022 08:51->METAR KJFK 010851Z 15005KT 3/4SM R04R/2800V3500FT BR VV003 09/09 A2988 RMK AO2 TWR VIS 1 1/2 SLP119 T00940094 58011 $=
01/01/2022 07:51->METAR KJFK 010751Z 13005KT 10SM BKN010 OVC014 09/09 A2991 RMK AO2 SLP129 T00940089=
01/01/2022 06:51->METAR KJFK 010651Z 16004KT 1SM R04R/P6000FT BR BKN002 BKN019 OVC028 09/09 A2992 RMK AO2 SFC VIS 6 SLP132 T00940094=
01/01/2022 05:51->METAR KJFK 010551Z 18007KT 8SM FEW003 OVC017 09/09 A2992 RMK AO2 PRESFR SLP130 60000 T00940089 10094 20089 58010=
01/01/2022 04:51->METAR KJFK 010451Z 17007KT 9SM OVC017 09/09 A2993 RMK AO2 SLP133 T00940089 401110078=
01/01/2022 03:51->METAR KJFK 010351Z 19005KT 1SM R04R/P6000FT BR OVC004 09/09 A2994 RMK AO2 SFC VIS 5 DZE34 SLP138 P0000 T00890089=
01/01/2022 02:51->METAR KJFK 010251Z 22005KT 1SM R04R/P6000FT -DZ BR SCT003 BKN007 OVC013 09/09 A2995 RMK AO2 SFC VIS 3 SLP141 P0000 60000 T00940089 58008=
01/01/2022 01:51->METAR KJFK 010151Z 20006KT 1SM R04R/P6000FT -DZ BR BKN003 OVC015 09/09 A2995 RMK AO2 SFC VIS 5 DZB47 SLP142 P0000 T00890089=
01/01/2022 00:51->METAR KJFK 010051Z 20006KT 1SM R04R/P6000FT BR BKN004 OVC012 09/08 A2997 RMK AO2 SFC VIS 6 SLP150 T00940083=
