26/08/2023 05:51->METAR KJFK 260551Z 19003KT 8SM FEW060 BKN075 BKN150 22/22 A2982 RMK AO2 SLP099 T02220222 10228 20217 58006 $=
26/08/2023 04:51->METAR KJFK 260451Z 21003KT 10SM SCT050 BKN150 22/22 A2984 RMK AO2 SLP103 T02220217 402500211 $=
26/08/2023 03:51->METAR KJFK 260351Z 23004KT 10SM FEW075 SCT200 22/22 A2984 RMK AO2 SLP104 T02220217 $=
26/08/2023 02:51->METAR KJFK 260251Z 19003KT 10SM FEW080 SCT200 22/22 A2984 RMK AO2 SLP105 T02170217 53003 $=
26/08/2023 01:51->METAR KJFK 260151Z 18003KT 10SM FEW065 22/22 A2984 RMK AO2 SLP103 T02220217 $=
26/08/2023 00:51->METAR KJFK 260051Z 18007KT 10SM SCT060 22/22 A2984 RMK AO2 SLP103 T02220217 $=
25/08/2023 23:51->METAR KJFK 252351Z 19011KT 10SM FEW020 FEW033 SCT060 23/22 A2983 RMK AO2 SLP102 T02280217 10250 20228 57005 $=
25/08/2023 22:51->METAR KJFK 252251Z 19013KT 10SM FEW020 FEW033 BKN060 23/22 A2983 RMK AO2 SLP102 T02330217 $=
25/08/2023 21:51->METAR KJFK 252151Z 20015KT 10SM FEW016 FEW033 BKN060 24/22 A2985 RMK AO2 SLP106 T02390222 $=
25/08/2023 20:51->METAR KJFK 252051Z 19015KT 10SM FEW029 SCT037 BKN060 24/22 A2985 RMK AO2 SLP107 T02390222 56003 $=
25/08/2023 19:51->METAR KJFK 251951Z 19016KT 10SM FEW009 BKN027 OVC060 24/22 A2985 RMK AO2 SLP107 T02390222 $=
25/08/2023 18:51->METAR KJFK 251851Z 19014KT 10SM SCT009 BKN027 OVC035 24/22 A2986 RMK AO2 SLP110 T02390222 $=
25/08/2023 17:51->METAR KJFK 251751Z 18015KT 10SM SCT009 BKN018 BKN055 BKN140 24/22 A2987 RMK AO2 SLP115 60018 T02440222 10250 20211 56012 $=
25/08/2023 16:51->METAR KJFK 251651Z 18013KT 10SM FEW009 SCT049 BKN065 BKN140 23/23 A2987 RMK AO2 RAE18 SLP116 P0000 T02330228=
25/08/2023 15:51->METAR KJFK 251551Z 20011KT 7SM -RA SCT008 BKN028 BKN055 OVC140 22/22 A2990 RMK AO2 RAB04 SLP123 P0003 T02220222=
25/08/2023 14:51->METAR KJFK 251451Z 20017KT 10SM FEW007 SCT019 BKN110 OVC140 22/22 A2990 RMK AO2 RAE1357B16E48 SLP126 P0000 60015 T02220217 55002=
25/08/2023 13:51->METAR KJFK 251351Z 18014KT 10SM -RA FEW008 SCT013 BKN026 OVC140 22/22 A2990 RMK AO2 SLP123 P0001 T02220217=
25/08/2023 12:51->METAR KJFK 251251Z 19015KT 8SM -RA SCT026 BKN050 BKN095 OVC140 22/22 A2990 RMK AO2 LTG DSNT SW SLP126 P0014 T02170217=
25/08/2023 11:51->METAR KJFK 251151Z 18012KT 2SM R04R/4000VP6000FT +RA BR FEW007 BKN019CB OVC041 21/21 A2991 RMK AO2 SFC VIS 3 LTG DSNT S TSB1058E33 SLP128 OCNL LTGIC SE-S CB SE-S MOV E P0023 60023 70025 T02110211 10228 20211 56008=
25/08/2023 10:51->METAR KJFK 251051Z 20014KT 8SM -RA BKN026 BKN047 OVC100 22/21 A2993 RMK AO2 LTG DSNT SW AND W RAB31 SLP133 OCNL LTGIC DSNT SW-W CB DSNT SW-W MOV E P0000 T02220211=
25/08/2023 09:51->METAR KJFK 250951Z 18013KT 10SM SCT018 OVC044 23/21 A2992 RMK AO2 SLP130 T02280206=
25/08/2023 08:51->METAR KJFK 250851Z 18011KT 10SM FEW018 OVC044 22/20 A2993 RMK AO2 RAE0754B14E23 SLP136 P0000 60000 T02170200 58015=
25/08/2023 07:51->METAR KJFK 250751Z 18010KT 10SM -RA FEW020 OVC043 22/20 A2995 RMK AO2 RAB32 SLP142 P0000 T02170200=
25/08/2023 06:51->METAR KJFK 250651Z 19013KT 10SM OVC045 22/19 A2997 RMK AO2 SLP147 T02220189=
25/08/2023 05:51->METAR KJFK 250551Z 18014KT 10SM FEW024 SCT032 OVC045 22/20 A2998 RMK AO2 SLP151 60000 T02170200 10217 20211 55005=
25/08/2023 04:51->METAR KJFK 250451Z 17018KT 10SM SCT025 OVC055 22/20 A2997 RMK AO2 SLP149 T02170200 402280200=
25/08/2023 03:51->METAR KJFK 250351Z 16014KT 10SM BKN028 BKN035 OVC055 22/19 A2999 RMK AO2 SLP154 T02170194=
25/08/2023 02:51->METAR KJFK 250251Z 16014KT 10SM FEW022 OVC055 21/19 A2999 RMK AO2 SLP156 60000 T02110194 58016=
25/08/2023 01:51->METAR KJFK 250151Z 17010KT 10SM FEW015 OVC055 22/18 A3003 RMK AO2 RAE0053 SLP169 P0000 T02170178=
25/08/2023 00:51->METAR KJFK 250051Z 18011KT 10SM -RA FEW017 OVC042 21/18 A3005 RMK AO2 RAB42 SLP176 P0000 T02110183=
24/08/2023 23:51->METAR KJFK 242351Z 16011KT 10SM FEW017 SCT038 OVC055 22/17 A3004 RMK AO2 RAB32E42 SLP172 P0000 60002 T02170172 10222 20200 55001=
24/08/2023 22:51->METAR KJFK 242251Z 15013KT 10SM FEW017 SCT039 OVC060 22/17 A3004 RMK AO2 SLP171 T02170172=
24/08/2023 21:51->METAR KJFK 242151Z 15011KT 10SM FEW016 BKN039 OVC060 22/17 A3004 RMK AO2 SLP171 T02170172=
24/08/2023 20:51->METAR KJFK 242051Z 16013KT 10SM SCT016 BKN036 OVC065 22/17 A3004 RMK AO2 SLP173 60002 T02170172 57011=
24/08/2023 19:51->METAR KJFK 241951Z 15014KT 10SM SCT017 SCT028CB OVC050 21/18 A3005 RMK AO2 RAE48 SLP176 CB W-NW MOV N VCSH W-NW P0002 T02110183=
24/08/2023 18:51->METAR KJFK 241851Z 17004KT 4SM R04R/5000VP6000FT -RA BR FEW017 BKN036 OVC046 20/19 A3007 RMK AO2 SLP182 P0000 T02000189=
24/08/2023 17:51->METAR KJFK 241751Z 16011KT 10SM -RA FEW021 BKN050 OVC075 21/17 A3008 RMK AO2 RAB51 SLP184 VCSH SE-S P0000 60000 T02060167 10228 20206 56006=
24/08/2023 16:51->METAR KJFK 241651Z 17010KT 10SM SCT021 BKN044 OVC070 22/18 A3008 RMK AO2 RAB1554E12 SLP185 VCSH S-W P0000 T02170183=
24/08/2023 15:51->METAR KJFK 241551Z 15013G19KT 10SM SCT023 BKN032 OVC070 22/18 A3008 RMK AO2 SLP186 T02220178=
24/08/2023 14:51->METAR KJFK 241451Z 16013KT 10SM BKN030 BKN041 OVC080 22/18 A3009 RMK AO2 SLP190 T02220178 53009=
24/08/2023 13:51->METAR KJFK 241351Z 16013KT 10SM SCT029 OVC080 22/18 A3008 RMK AO2 SLP186 T02170178=
24/08/2023 12:51->METAR KJFK 241251Z 15010KT 10SM FEW028 BKN085 OVC140 22/17 A3008 RMK AO2 SLP184 T02170172=
24/08/2023 11:51->METAR KJFK 241151Z 16009KT 10SM FEW025 BKN090 BKN140 22/18 A3007 RMK AO2 SLP182 T02170178 10217 20206 53001=
24/08/2023 10:51->METAR KJFK 241051Z 15009KT 10SM FEW026 BKN095 OVC140 21/18 A3006 RMK AO2 SLP180 T02110178=
24/08/2023 09:51->METAR KJFK 240951Z 13006KT 10SM FEW034 OVC100 21/17 A3006 RMK AO2 SLP179 T02110172=
24/08/2023 08:51->METAR KJFK 240851Z 14006KT 10SM FEW032 OVC110 21/17 A3006 RMK AO2 SLP180 T02110167 50001=
24/08/2023 07:51->METAR KJFK 240751Z 16005KT 10SM OVC110 21/17 A3007 RMK AO2 SLP182 T02060172=
24/08/2023 06:51->METAR KJFK 240651Z 15007KT 10SM OVC110 21/17 A3007 RMK AO2 SLP181 T02060167=
24/08/2023 05:51->METAR KJFK 240551Z 14006KT 10SM BKN120 21/16 A3006 RMK AO2 SLP180 T02060161 10211 20206 58009=
24/08/2023 04:51->METAR KJFK 240451Z 15005KT 10SM BKN120 OVC150 21/15 A3009 RMK AO2 SLP188 T02060150 402500172=
24/08/2023 03:51->METAR KJFK 240351Z 16006KT 10SM OVC130 21/15 A3009 RMK AO2 SLP189 T02060150=
24/08/2023 02:51->METAR KJFK 240251Z 15008KT 10SM BKN140 BKN250 21/15 A3009 RMK AO2 SLP189 T02060150 50006=
24/08/2023 01:51->METAR KJFK 240151Z 16005KT 10SM OVC140 21/15 A3010 RMK AO2 SLP194 T02060150=
24/08/2023 00:51->METAR KJFK 240051Z 13006KT 10SM OVC140 21/16 A3009 RMK AO2 SLP189 T02060156=
23/08/2023 23:51->METAR KJFK 232351Z 13011KT 10SM BKN150 BKN250 21/16 A3007 RMK AO2 SLP183 T02060156 10244 20206 56010=
23/08/2023 22:51->METAR KJFK 232251Z 13010KT 10SM FEW055 BKN140 BKN250 21/15 A3007 RMK AO2 SLP183 T02110150=
23/08/2023 21:51->METAR KJFK 232151Z 15008KT 10SM FEW055 SCT150 SCT250 21/15 A3009 RMK AO2 SLP190 T02110150=
23/08/2023 20:51->METAR KJFK 232051Z 16008KT 10SM FEW055 SCT160 SCT250 22/16 A3010 RMK AO2 SLP193 T02220156 58008=
23/08/2023 19:51->METAR KJFK 231951Z 18009KT 10SM FEW055 SCT160 SCT250 23/16 A3011 RMK AO2 SLP197 T02330156=
23/08/2023 18:51->METAR KJFK 231851Z 19008KT 10SM FEW055 FEW170 SCT250 24/16 A3012 RMK AO2 SLP198 T02390156=
23/08/2023 17:51->METAR KJFK 231751Z 18009KT 10SM FEW060 FEW170 SCT250 24/14 A3013 RMK AO2 SLP201 T02390144 10250 20189 55013=
23/08/2023 16:51->METAR KJFK 231651Z 18010KT 10SM FEW060 SCT170 SCT250 24/14 A3012 RMK AO2 SLP199 T02390139=
23/08/2023 15:51->METAR KJFK 231551Z 05005KT 10SM FEW060 SCT170 SCT250 24/12 A3014 RMK AO2 SLP206 T02390122=
23/08/2023 14:51->METAR KJFK 231451Z 00000KT 10SM FEW060 BKN170 BKN250 23/13 A3016 RMK AO2 SLP214 T02330128 50001=
23/08/2023 13:51->METAR KJFK 231351Z 05008KT 10SM BKN170 BKN250 21/12 A3017 RMK AO2 SLP214 T02110122=
23/08/2023 12:51->METAR KJFK 231251Z 03009KT 10SM BKN170 BKN250 20/12 A3016 RMK AO2 SLP214 T02000117=
23/08/2023 11:51->METAR KJFK 231151Z 03010KT 10SM FEW060 BKN180 BKN250 19/11 A3016 RMK AO2 SLP213 T01940106 10200 20172 51011=
23/08/2023 10:51->METAR KJFK 231051Z 01007KT 10SM FEW060 BKN180 BKN250 18/11 A3016 RMK AO2 SLP212 T01780106=
23/08/2023 09:51->METAR KJFK 230951Z 03008KT 10SM FEW060 SCT250 17/11 A3014 RMK AO2 SLP206 T01720106=
23/08/2023 08:51->METAR KJFK 230851Z 03009KT 10SM FEW065 SCT250 18/11 A3013 RMK AO2 SLP202 T01780111 53007=
23/08/2023 07:51->METAR KJFK 230751Z 02009KT 10SM SCT070 SCT250 19/11 A3012 RMK AO2 SLP199 T01890111=
23/08/2023 06:51->METAR KJFK 230651Z 02011KT 10SM SCT065 BKN250 19/12 A3012 RMK AO2 SLP199 T01940117=
23/08/2023 05:51->METAR KJFK 230551Z 04007KT 10SM SCT060 SCT250 19/13 A3011 RMK AO2 SLP196 T01940133 10233 20183 52001=
23/08/2023 04:51->METAR KJFK 230451Z 06004KT 10SM FEW065 SCT250 19/13 A3011 RMK AO2 SLP195 T01890128 402610189=
23/08/2023 03:51->METAR KJFK 230351Z 36008KT 10SM FEW070 SCT250 21/12 A3011 RMK AO2 SLP196 T02110122=
23/08/2023 02:51->METAR KJFK 230251Z 36007KT 10SM FEW065 BKN250 22/13 A3011 RMK AO2 SLP195 T02170128 51009=
23/08/2023 01:51->METAR KJFK 230151Z 35007KT 10SM FEW060 SCT250 22/13 A3010 RMK AO2 SLP194 T02220133=
23/08/2023 00:51->METAR KJFK 230051Z 02005KT 10SM SCT250 23/11 A3010 RMK AO2 SLP192 T02280111=
22/08/2023 23:51->METAR KJFK 222351Z 04005KT 10SM FEW060 BKN250 23/12 A3008 RMK AO2 SLP186 T02330117 10261 20228 51006=
22/08/2023 22:51->METAR KJFK 222251Z 36009KT 10SM FEW060 BKN250 24/13 A3008 RMK AO2 SLP186 T02440128=
22/08/2023 21:51->METAR KJFK 222151Z 01009KT 10SM FEW055 BKN250 26/13 A3007 RMK AO2 SLP182 T02560128=
22/08/2023 20:51->METAR KJFK 222051Z 02012G18KT 10SM FEW055 BKN250 26/13 A3006 RMK AO2 SLP180 T02560128 56007=
22/08/2023 19:51->METAR KJFK 221951Z 01008G16KT 10SM FEW055 BKN250 26/13 A3006 RMK AO2 SLP180 T02560128=
22/08/2023 18:51->METAR KJFK 221851Z 01009G17KT 10SM FEW050 BKN250 26/13 A3008 RMK AO2 SLP185 T02560128=
22/08/2023 17:51->METAR KJFK 221751Z 01013KT 10SM SCT050 BKN250 24/13 A3009 RMK AO2 SLP188 T02440128 10250 20194 58004=
22/08/2023 16:51->METAR KJFK 221651Z 02008G17KT 350V050 10SM FEW050 BKN250 24/13 A3009 RMK AO2 SLP189 T02390133=
22/08/2023 15:51->METAR KJFK 221551Z 02012KT 10SM FEW050 BKN250 23/13 A3010 RMK AO2 SLP193 T02330133=
22/08/2023 14:51->METAR KJFK 221451Z 03012G19KT 10SM FEW043 BKN250 22/12 A3010 RMK AO2 SLP192 T02170122 53007=
22/08/2023 13:51->METAR KJFK 221351Z 02014KT 10SM FEW170 BKN250 21/12 A3009 RMK AO2 SLP188 T02110117=
22/08/2023 12:51->METAR KJFK 221251Z 02014KT 10SM FEW120 SCT170 BKN250 20/11 A3008 RMK AO2 SLP186 T02000111=
22/08/2023 11:51->METAR KJFK 221151Z 01014KT 10SM SCT120 SCT170 BKN250 19/12 A3008 RMK AO2 SLP185 T01940117 10239 20194 53020=
22/08/2023 10:51->METAR KJFK 221051Z 01015KT 10SM SCT120 BKN250 21/12 A3006 RMK AO2 SLP178 T02060117=
22/08/2023 09:51->METAR KJFK 220951Z 02009KT 10SM SCT120 BKN150 BKN250 21/13 A3003 RMK AO2 SLP169 T02110128=
22/08/2023 08:51->METAR KJFK 220851Z 36012KT 10SM FEW070 BKN140 BKN250 22/15 A3002 RMK AO2 SLP165 T02170150 55001=
22/08/2023 07:51->METAR KJFK 220751Z 36013KT 10SM SCT065 BKN250 22/16 A3001 RMK AO2 SLP162 T02220161=
22/08/2023 06:51->METAR KJFK 220651Z 35013KT 10SM SCT033 BKN060 BKN250 23/17 A3001 RMK AO2 SLP161 T02280167=
22/08/2023 05:51->METAR KJFK 220551Z 01013G19KT 10SM FEW033 BKN075 BKN250 24/18 A3002 RMK AO2 SLP166 T02390178 10289 20239 52006=
22/08/2023 04:51->METAR KJFK 220451Z 02008KT 10SM BKN250 25/19 A3001 RMK AO2 SLP163 T02500194 403110144=
22/08/2023 03:51->METAR KJFK 220351Z 36007KT 10SM BKN250 26/19 A3001 RMK AO2 SLP162 T02610189=
22/08/2023 02:51->METAR KJFK 220251Z 33011KT 10SM BKN250 27/18 A3000 RMK AO2 SLP159 T02720183 50002=
22/08/2023 01:51->METAR KJFK 220151Z 35007KT 10SM BKN250 28/19 A3001 RMK AO2 SLP161 T02780189=
22/08/2023 00:51->METAR KJFK 220051Z 31008KT 10SM FEW055 BKN250 28/19 A3000 RMK AO2 SLP159 T02830189=
21/08/2023 23:51->METAR KJFK 212351Z 35008KT 10SM FEW055 BKN250 29/19 A3000 RMK AO2 SLP157 T02890189 10311 20289 53003=
21/08/2023 22:51->METAR KJFK 212251Z 32013KT 10SM FEW055 BKN250 29/18 A2999 RMK AO2 SLP156 T02940183=
21/08/2023 21:51->METAR KJFK 212151Z 34013G19KT 10SM FEW055 BKN250 31/19 A2999 RMK AO2 SLP154 T03060194=
21/08/2023 20:51->METAR KJFK 212051Z 32012KT 10SM SCT048 BKN250 31/20 A2999 RMK AO2 SLP154 T03060200 56010=
21/08/2023 19:51->METAR KJFK 211951Z 24005KT 10SM BKN055 BKN250 29/21 A2999 RMK AO2 SLP155 T02940206=
21/08/2023 18:51->METAR KJFK 211851Z 33007KT 10SM SCT055 BKN250 30/21 A3000 RMK AO2 SLP159 T03000206=
21/08/2023 17:51->METAR KJFK 211751Z 32011KT 10SM FEW055 BKN250 31/21 A3002 RMK AO2 SLP164 T03060206 10311 20233 58016=
21/08/2023 16:51->METAR KJFK 211651Z 29009G18KT 260V320 10SM FEW055 BKN250 31/20 A3004 RMK AO2 SLP171 T03110200=
21/08/2023 15:51->METAR KJFK 211551Z 24005KT 10SM FEW075 FEW100 BKN250 30/20 A3005 RMK AO2 SLP175 T03000200=
21/08/2023 14:51->METAR KJFK 211451Z 25007KT 10SM FEW075 SCT100 BKN250 28/20 A3006 RMK AO2 SLP180 T02780200 58002=
21/08/2023 13:51->METAR KJFK 211351Z 25006KT 10SM FEW095 BKN250 26/19 A3007 RMK AO2 SLP182 T02610194=
21/08/2023 12:51->METAR KJFK 211251Z 25006KT 10SM BKN090 BKN250 24/19 A3007 RMK AO2 SLP183 T02440194 $=
21/08/2023 11:51->METAR KJFK 211151Z 24006KT 10SM SCT120 BKN250 23/19 A3007 RMK AO2 SLP182 T02330194 10233 20211 50003 $=
21/08/2023 10:51->METAR KJFK 211051Z 25007KT 10SM FEW130 BKN250 22/19 A3007 RMK AO2 SLP183 T02170194 $=
21/08/2023 09:51->METAR KJFK 210951Z 25007KT 10SM SCT130 BKN250 22/20 A3006 RMK AO2 SLP179 T02170200 $=
21/08/2023 08:51->METAR KJFK 210851Z 24009KT 10SM BKN250 22/19 A3006 RMK AO2 SLP179 T02220194 55005=
21/08/2023 07:51->METAR KJFK 210751Z 24009KT 10SM BKN250 22/19 A3006 RMK AO2 SLP178 T02220194=
21/08/2023 06:51->METAR KJFK 210651Z 24008KT 10SM BKN250 22/19 A3006 RMK AO2 SLP179 T02170189=
21/08/2023 05:51->METAR KJFK 210551Z 24009KT 10SM SCT250 23/19 A3008 RMK AO2 SLP184 T02280189 10250 20228 56005=
21/08/2023 04:51->METAR KJFK 210451Z 25009KT 10SM BKN250 23/19 A3008 RMK AO2 SLP185 T02330189 402780172=
21/08/2023 03:51->METAR KJFK 210351Z 25008KT 10SM BKN250 23/20 A3009 RMK AO2 SLP187 T02330200=
21/08/2023 02:51->METAR KJFK 210251Z 26008KT 10SM FEW200 BKN250 24/18 A3009 RMK AO2 SLP190 T02440178 51008=
21/08/2023 01:51->METAR KJFK 210151Z 24008KT 10SM FEW200 BKN250 24/18 A3008 RMK AO2 SLP186 T02440178=
21/08/2023 00:51->METAR KJFK 210051Z 24006KT 10SM SCT200 BKN250 23/20 A3008 RMK AO2 SLP185 T02330200=
20/08/2023 23:51->METAR KJFK 202351Z 19006KT 10SM SCT200 BKN250 24/21 A3007 RMK AO2 SLP181 T02390206 10278 20239 56001=
20/08/2023 22:51->METAR KJFK 202251Z 21008KT 10SM SCT200 BKN250 26/18 A3007 RMK AO2 SLP182 T02560183=
20/08/2023 21:51->METAR KJFK 202151Z 19008KT 10SM SCT200 BKN250 26/19 A3007 RMK AO2 SLP181 T02560189=
20/08/2023 20:51->METAR KJFK 202051Z 19010KT 10SM SCT200 BKN250 27/19 A3007 RMK AO2 SLP182 T02670189 56010=
20/08/2023 19:51->METAR KJFK 201951Z 19011KT 10SM SCT200 SCT250 27/18 A3008 RMK AO2 SLP185 T02670183=
20/08/2023 18:51->METAR KJFK 201851Z 19011KT 10SM FEW200 FEW250 27/18 A3009 RMK AO2 WSHFT 1753 SLP188 T02670178=
20/08/2023 17:51->METAR KJFK 201751Z 24012KT 10SM FEW250 28/16 A3010 RMK AO2 SLP191 T02780156 10278 20206 56011=
20/08/2023 16:51->METAR KJFK 201651Z 24014KT 10SM FEW250 27/15 A3010 RMK AO2 SLP193 T02670150=
20/08/2023 15:51->METAR KJFK 201551Z 23010KT 10SM FEW250 27/14 A3012 RMK AO2 SLP200 T02670144=
20/08/2023 14:51->METAR KJFK 201451Z 23009KT 10SM FEW250 26/15 A3013 RMK AO2 SLP203 T02560150 50004=
20/08/2023 13:51->METAR KJFK 201351Z 25005KT 10SM FEW250 24/16 A3014 RMK AO2 SLP204 T02390156=
20/08/2023 12:51->METAR KJFK 201251Z 24005KT 10SM FEW190 FEW250 22/15 A3013 RMK AO2 SLP201 T02220150=
20/08/2023 11:51->METAR KJFK 201151Z 23004KT 10SM SCT190 SCT250 21/15 A3012 RMK AO2 SLP199 T02060150 10206 20172 51014=
20/08/2023 10:51->METAR KJFK 201051Z 27005KT 10SM FEW190 SCT250 19/15 A3011 RMK AO2 SLP196 T01890150=
20/08/2023 09:51->METAR KJFK 200951Z 27006KT 10SM SCT200 BKN250 18/13 A3010 RMK AO2 SLP191 T01830133=
20/08/2023 08:51->METAR KJFK 200851Z 29007KT 10SM BKN250 19/13 A3008 RMK AO2 SLP185 T01940133 52007=
20/08/2023 07:51->METAR KJFK 200751Z 26011KT 10SM BKN250 20/14 A3007 RMK AO2 SLP182 T02000139=
20/08/2023 06:51->METAR KJFK 200651Z 25007KT 10SM FEW250 20/16 A3007 RMK AO2 SLP181 T02000156=
20/08/2023 05:51->METAR KJFK 200551Z 25008KT 10SM FEW250 20/16 A3006 RMK AO2 SLP178 T02000156 10244 20194 50005=
20/08/2023 04:51->METAR KJFK 200451Z 24006KT 10SM FEW250 20/14 A3006 RMK AO2 SLP180 T02000139 402610172=
20/08/2023 03:51->METAR KJFK 200351Z 26007KT 10SM FEW250 22/13 A3005 RMK AO2 SLP176 T02170128=
20/08/2023 02:51->METAR KJFK 200251Z 25008KT 10SM CLR 22/14 A3004 RMK AO2 SLP173 T02170139 51018=
20/08/2023 01:51->METAR KJFK 200151Z 26009KT 10SM CLR 23/13 A3003 RMK AO2 SLP169 T02330128=
20/08/2023 00:51->METAR KJFK 200051Z 27010KT 10SM FEW250 23/13 A3002 RMK AO2 SLP166 T02330133=
19/08/2023 23:51->METAR KJFK 192351Z 27014KT 10SM FEW065 FEW250 24/13 A2999 RMK AO2 SLP155 T02440128 10261 20239 53010=
19/08/2023 22:51->METAR KJFK 192251Z 26013KT 10SM FEW065 FEW250 24/13 A2998 RMK AO2 SLP151 T02440133=
19/08/2023 21:51->METAR KJFK 192151Z 27013KT 10SM SCT065 BKN250 24/13 A2997 RMK AO2 SLP148 T02440128=
19/08/2023 20:51->METAR KJFK 192051Z 25011KT 10SM SCT065 BKN250 25/14 A2996 RMK AO2 SLP144 T02500139 56010=
19/08/2023 19:51->METAR KJFK 191951Z 26014KT 10SM SCT060 BKN250 26/13 A2997 RMK AO2 SLP147 T02560128=
19/08/2023 18:51->METAR KJFK 191851Z 25015G19KT 10SM SCT055 BKN250 24/12 A2998 RMK AO2 SLP150 T02390122=
19/08/2023 17:51->METAR KJFK 191751Z 31011G18KT 10SM SCT050 BKN250 24/13 A2999 RMK AO2 SLP155 T02440133 10244 20189 58007=
19/08/2023 16:51->METAR KJFK 191651Z 28011G15KT 10SM BKN049 BKN250 24/13 A3000 RMK AO2 SLP158 T02440133=
19/08/2023 15:51->METAR KJFK 191551Z 10SM BKN048 BKN250 23/12 A3001 RMK AO2 SLP161 T02280122=
19/08/2023 14:51->METAR KJFK 191451Z 28013KT 10SM SCT040 SCT150 SCT250 22/13 A3001 RMK AO2 SLP161 T02220128 51008=
19/08/2023 13:51->METAR KJFK 191351Z 28012G16KT 10SM SCT030 SCT150 SCT250 21/12 A3000 RMK AO2 SLP159 T02110122=
19/08/2023 12:51->METAR KJFK 191251Z 26013KT 10SM FEW030 FEW150 19/12 A3000 RMK AO2 SLP158 T01940117=
19/08/2023 11:51->METAR KJFK 191151Z 27013KT 10SM FEW150 19/12 A2999 RMK AO2 SLP153 T01890117 10200 20172 53019=
19/08/2023 10:51->METAR KJFK 191051Z 27011KT 10SM FEW150 18/12 A2997 RMK AO2 SLP147 T01780117=
19/08/2023 09:51->METAR KJFK 190951Z 26013KT 10SM FEW150 18/11 A2994 RMK AO2 SLP137 T01780111=
19/08/2023 08:51->METAR KJFK 190851Z 28011KT 10SM FEW250 18/11 A2993 RMK AO2 SLP135 T01780111 53004=
19/08/2023 07:51->METAR KJFK 190751Z 28008G19KT 10SM FEW250 19/11 A2992 RMK AO2 SLP132 T01890106=
19/08/2023 06:51->METAR KJFK 190651Z 31013KT 10SM FEW250 19/11 A2991 RMK AO2 SLP128 T01940106=
19/08/2023 05:51->METAR KJFK 190551Z 29013G21KT 10SM FEW250 20/10 A2992 RMK AO2 SLP130 T02000100 10250 20200 51011=
19/08/2023 04:51->METAR KJFK 190451Z 30012G23KT 10SM FEW250 21/10 A2991 RMK AO2 SLP128 T02110100 402830200=
19/08/2023 03:51->METAR KJFK 190351Z 27010KT 10SM FEW250 22/11 A2990 RMK AO2 SLP125 T02170111=
19/08/2023 02:51->METAR KJFK 190251Z 29011KT 10SM FEW085 23/11 A2988 RMK AO2 SLP119 T02280106 51028=
19/08/2023 01:51->METAR KJFK 190151Z 27013KT 10SM FEW075 BKN090 24/11 A2987 RMK AO2 SLP114 T02390106=
19/08/2023 00:51->METAR KJFK 190051Z 28017G23KT 10SM FEW060 24/11 A2983 RMK AO2 SLP102 T02440106 $=
18/08/2023 23:51->METAR KJFK 182351Z 28015G25KT 10SM FEW060 25/10 A2980 RMK AO2 PK WND 28028/2331 SLP091 T02500100 10283 20250 53022 $=
18/08/2023 22:51->METAR KJFK 182251Z 28018G25KT 10SM SCT060 26/11 A2977 RMK AO2 PK WND 26027/2224 SLP082 T02610106 $=
18/08/2023 21:51->METAR KJFK 182151Z 27019G26KT 10SM SCT060 SCT250 27/12 A2976 RMK AO2 PK WND 28029/2133 SLP076 T02670122 $=
18/08/2023 20:51->METAR KJFK 182051Z 26021G27KT 10SM SCT060 SCT250 27/14 A2974 RMK AO2 PK WND 28028/2033 SLP069 T02720139 51004 $=
18/08/2023 19:51->METAR KJFK 181951Z 26016G23KT 10SM SCT055 SCT250 28/16 A2973 RMK AO2 SLP068 T02780156 $=
18/08/2023 18:51->METAR KJFK 181851Z 29014G20KT 10SM SCT049 SCT250 27/16 A2973 RMK AO2 SLP068 T02670161 $=
18/08/2023 17:51->METAR KJFK 181751Z 28012G21KT 10SM SCT044 SCT250 26/17 A2973 RMK AO2 SLP065 T02610167 10267 20206 55001 $=
18/08/2023 16:51->METAR KJFK 181651Z 30014G20KT 10SM FEW044 SCT110 SCT250 27/16 A2972 RMK AO2 SLP062 FROPA T02670161 $=
18/08/2023 15:51->METAR KJFK 181551Z 26011KT 10SM FEW041 BKN110 BKN140 26/18 A2973 RMK AO2 WSHFT 1454 SLP066 T02560183 $=
18/08/2023 14:51->METAR KJFK 181451Z 23008KT 10SM FEW041 SCT090 BKN140 24/19 A2973 RMK AO2 SLP067 T02440194 53006 $=
18/08/2023 13:51->METAR KJFK 181351Z 32005KT 10SM FEW037 SCT065 BKN085 BKN140 23/19 A2973 RMK AO2 SLP065 T02280189 $=
18/08/2023 12:51->METAR KJFK 181251Z 04005KT 10SM FEW033 BKN100 BKN140 BKN250 22/20 A2971 RMK AO2 SLP060 T02170200 $=
18/08/2023 11:51->METAR KJFK 181151Z 36008KT 10SM FEW013 SCT027 BKN055 BKN140 21/19 A2971 RMK AO2 PK WND 31031/1115 WSHFT 1110 RAB21E47 SLP061 CB DSNT E-SE MOV NE TCU DSNT S VCSH E-SE AND NW P0000 60031 70031 T02060189 10239 20200 53014 $=
18/08/2023 10:51->METAR KJFK 181051Z 22006KT 10SM FEW008 BKN017 BKN032 BKN140 23/22 A2968 RMK AO2 RAE28 TSE15 SLP052 CB DSNT W-N MOV NE P0004 T02280217 $=
18/08/2023 09:51->METAR KJFK 180951Z 26006KT 10SM TSRA BKN006CB BKN028 OVC043 22/21 A2968 RMK AO2 WSHFT 0924 LTG DSNT NW-NE SLP052 OCNL LTGICCG OHD TS OHD MOV E P0020 T02170211 $=
18/08/2023 08:51->METAR KJFK 180851Z 17014KT 5SM TSRA BR BKN005 BKN009 OVC012 24/24 A2967 RMK AO2 LTG DSNT W RAB31 TSB39 PRESFR SLP047 OCNL LTGICCG OHD TS OHD MOV E P0007 60007 T02390239 58040=
18/08/2023 07:51->METAR KJFK 180751Z 15009KT 7SM BKN005 BKN008 BKN015 24/24 A2972 RMK AO2 SLP063 T02390239=
18/08/2023 06:51->METAR KJFK 180651Z 13007KT 8SM BKN006 BKN008 BKN010 24/23 A2975 RMK AO2 SLP074 T02390233=
18/08/2023 05:51->METAR KJFK 180551Z 13006KT 10SM BKN009 BKN015 BKN026 23/23 A2979 RMK AO2 SLP087 T02330233 10233 20217 57020=
18/08/2023 04:51->METAR KJFK 180451Z 12006KT 10SM BKN007 BKN015 BKN022 23/23 A2980 RMK AO2 SLP092 T02330233 402440217=
18/08/2023 03:51->METAR KJFK 180351Z 13006KT 8SM BKN007 BKN017 BKN020 23/23 A2983 RMK AO2 SLP102 T02280228=
18/08/2023 02:51->METAR KJFK 180251Z 12007KT 8SM BKN004 BKN011 BKN020 23/22 A2985 RMK AO2 SLP107 T02280222 58014=
18/08/2023 01:51->METAR KJFK 180151Z 11009KT 3/4SM R04R/P6000FT BKN004 OVC015 22/22 A2987 RMK AO2 SFC VIS 10 SLP113 T02220222=
18/08/2023 00:51->METAR KJFK 180051Z 11008KT 3/4SM R04R/P6000FT OVC003 22/22 A2988 RMK AO2 SFC VIS 7 SLP116 T02170217=
17/08/2023 23:51->METAR KJFK 172351Z 11012KT 10SM OVC006 22/22 A2989 RMK AO2 SLP121 T02220217 10239 20217 56006=
17/08/2023 22:51->METAR KJFK 172251Z 12010KT 10SM OVC007 22/21 A2989 RMK AO2 SLP122 T02220211=
17/08/2023 21:51->METAR KJFK 172151Z 10011KT 10SM BKN008 OVC016 23/22 A2990 RMK AO2 SLP123 T02280217=
17/08/2023 20:51->METAR KJFK 172051Z 11012KT 9SM OVC005 22/21 A2991 RMK AO2 SLP127 T02170211 56013=
17/08/2023 19:51->METAR KJFK 171951Z 12013KT 10SM BKN009 OVC016 23/21 A2992 RMK AO2 SLP130 T02280211=
17/08/2023 18:51->METAR KJFK 171851Z 11011KT 10SM BKN010 OVC021 23/21 A2994 RMK AO2 SLP137 T02330211=
17/08/2023 17:51->METAR KJFK 171751Z 11012KT 10SM BKN011 OVC021 24/22 A2995 RMK AO2 SLP140 T02390217 10244 20222 58014=
17/08/2023 16:51->METAR KJFK 171651Z 11009KT 10SM BKN011 BKN018 24/22 A2996 RMK AO2 SLP146 T02390217=
17/08/2023 15:51->METAR KJFK 171551Z 10013KT 10SM BKN010 BKN029TCU 24/22 A2997 RMK AO2 SLP149 CIG 008V012 TCU DSNT NW T02390217=
17/08/2023 14:51->METAR KJFK 171451Z 12009KT 10SM BKN010 BKN027 23/22 A2999 RMK AO2 SLP154 CIG 008V012 T02330217 55000=
17/08/2023 13:51->METAR KJFK 171351Z 11012KT 10SM BKN008 BKN014 23/22 A2999 RMK AO2 SLP154 T02330217=
17/08/2023 12:51->METAR KJFK 171251Z 09011KT 10SM BKN006 22/22 A2999 RMK AO2 SLP153 T02220217=
17/08/2023 11:51->METAR KJFK 171151Z 09007KT 10SM OVC008 23/22 A2999 RMK AO2 SLP154 60000 T02280217 10228 20217 51006=
17/08/2023 10:51->METAR KJFK 171051Z 07005KT 10SM OVC007 22/21 A2998 RMK AO2 SLP152 T02220211=
17/08/2023 09:51->METAR KJFK 170951Z 09006KT 10SM BKN007 OVC060 22/22 A2998 RMK AO2 RAB0854E04 SLP151 P0000 T02220217=
17/08/2023 08:51->METAR KJFK 170851Z 08008KT 10SM OVC008 22/21 A2997 RMK AO2 SLP147 T02220211 56005=
17/08/2023 07:51->METAR KJFK 170751Z 09006KT 10SM BKN009 OVC015 22/21 A2997 RMK AO2 SLP148 T02220211=
17/08/2023 06:51->METAR KJFK 170651Z 08005KT 10SM BKN009 OVC014 22/21 A2998 RMK AO2 SLP150 T02170206=
17/08/2023 05:51->METAR KJFK 170551Z 08005KT 10SM BKN014 OVC019 22/21 A2998 RMK AO2 SLP153 T02220206 10228 20222 50001=
17/08/2023 04:51->METAR KJFK 170451Z 09006KT 10SM OVC012 22/21 A2999 RMK AO2 SLP154 T02220206 402720206=
17/08/2023 03:51->METAR KJFK 170351Z 10004KT 10SM BKN011 BKN042 BKN090 22/21 A2998 RMK AO2 SLP153 T02220211=
17/08/2023 02:51->METAR KJFK 170251Z 10006KT 10SM BKN011 BKN055 BKN080 22/21 A2998 RMK AO2 SLP152 T02220211 50008=
17/08/2023 01:51->METAR KJFK 170151Z 12006KT 10SM BKN012 BKN060 BKN075 22/21 A2999 RMK AO2 SLP154 T02220206=
17/08/2023 00:51->METAR KJFK 170051Z 11009KT 10SM FEW015 FEW055 BKN075 BKN250 22/21 A2997 RMK AO2 SLP149 T02220206=
16/08/2023 23:51->METAR KJFK 162351Z 11009KT 10SM FEW015 FEW040 BKN080 BKN250 23/21 A2996 RMK AO2 SLP144 T02280206 10261 20228 53014=
16/08/2023 22:51->METAR KJFK 162251Z 13009KT 10SM FEW023 SCT040 SCT110 SCT250 23/21 A2993 RMK AO2 SLP136 T02330206=
16/08/2023 21:51->METAR KJFK 162151Z 15010KT 10SM FEW027 SCT040 SCT110 SCT250 24/21 A2993 RMK AO2 SLP135 T02440211=
16/08/2023 20:51->METAR KJFK 162051Z 12011KT 10SM FEW027 SCT040 SCT250 26/21 A2992 RMK AO2 SLP130 T02560211 58003=
16/08/2023 19:51->METAR KJFK 161951Z 13008KT 10SM FEW027 SCT040 SCT250 26/22 A2993 RMK AO2 SLP134 T02610217=
16/08/2023 18:51->METAR KJFK 161851Z 16011KT 10SM SCT027 SCT040 25/22 A2993 RMK AO2 SLP135 T02500217=
16/08/2023 17:51->METAR KJFK 161751Z 18006KT 10SM BKN027 26/22 A2993 RMK AO2 SLP133 BKN V SCT T02560222 10272 20211 58003=
16/08/2023 16:51->METAR KJFK 161651Z 35004KT 10SM BKN027 BKN250 26/21 A2993 RMK AO2 SLP134 T02610206=
16/08/2023 15:51->METAR KJFK 161551Z 00000KT 10SM BKN025 BKN041 BKN095 BKN250 27/21 A2994 RMK AO2 SLP138 T02670211=
16/08/2023 14:51->METAR KJFK 161451Z 36003KT 10SM BKN017 BKN095 BKN250 24/21 A2993 RMK AO2 SLP136 T02440206 51013=
16/08/2023 13:51->METAR KJFK 161351Z 01003KT 10SM BKN012 BKN100 BKN250 23/21 A2992 RMK AO2 SLP133 T02330206=
16/08/2023 12:51->METAR KJFK 161251Z 02006KT 10SM BKN007 BKN037 BKN085 22/21 A2991 RMK AO2 SLP128 BKN007 V SCT VCSH SE T02170206=
16/08/2023 11:51->METAR KJFK 161151Z 11006KT 10SM FEW020 SCT044 BKN060 BKN140 21/21 A2990 RMK AO2 RAE46 SLP123 VCSH NE-S P0013 60040 70048 T02110206 10217 20206 51009=
16/08/2023 10:51->METAR KJFK 161051Z 00000KT 8SM -RA FEW012 SCT033 BKN060 21/21 A2989 RMK AO2 RAB03 SLP122 P0001 T02110211=
16/08/2023 09:51->METAR KJFK 160951Z 07006KT 10SM BKN038 OVC065 21/21 A2987 RMK AO2 RAE43 SLP116 P0005 T02060206=
16/08/2023 08:51->METAR KJFK 160851Z 04006KT 3SM RA BR BKN007 BKN032 OVC038 21/21 A2987 RMK AO2 LTG DSNT NE RAB25 SLP114 P0021 60021 T02060206 53006=
16/08/2023 07:51->METAR KJFK 160751Z 10007KT 10SM OVC008 21/21 A2985 RMK AO2 SLP107 T02110206=
16/08/2023 06:51->METAR KJFK 160651Z 08004KT 10SM BKN008 OVC016 21/21 A2985 RMK AO2 SLP107 T02110211=
16/08/2023 05:51->METAR KJFK 160551Z 05006KT 10SM BKN009 OVC014 21/21 A2985 RMK AO2 SLP108 60008 T02110211 10239 20211 55001=
16/08/2023 04:51->METAR KJFK 160451Z 07007KT 10SM BKN007 OVC085 22/21 A2984 RMK AO2 SLP106 T02170211 402720217=
16/08/2023 03:51->METAR KJFK 160351Z 09007KT 10SM BKN007 OVC090 22/22 A2985 RMK AO2 RAE25 SLP107 P0001 T02170217=
16/08/2023 02:51->METAR KJFK 160251Z 10008KT 7SM -RA FEW006 BKN040 OVC095 22/21 A2985 RMK AO2 CIG 031 W SLP109 P0005 60007 T02170211 50017=
16/08/2023 01:51->METAR KJFK 160151Z 13009KT 10SM -RA FEW010 BKN016 BKN075 OVC150 22/21 A2986 RMK AO2 RAB24 SLP111 P0002 T02220211=
16/08/2023 00:51->METAR KJFK 160051Z 12008KT 10SM SCT010 BKN022 BKN080 BKN250 23/22 A2984 RMK AO2 LTG DSNT SE RAE2355 SLP105 P0000 T02280217=
15/08/2023 23:51->METAR KJFK 152351Z 07005KT 10SM -RA SCT021 BKN033 BKN120 BKN160 BKN250 24/21 A2981 RMK AO2 LTG DSNT S RAB43 SLP093 P0000 60000 T02390206 10267 20239 53006=
15/08/2023 22:51->METAR KJFK 152251Z 07008KT 10SM FEW026 FEW050 SCT160 BKN250 25/21 A2978 RMK AO2 LTG DSNT SW SLP084 T02500206=
15/08/2023 21:51->METAR KJFK 152151Z 35010KT 10SM FEW026 FEW050 SCT140 BKN250 26/21 A2979 RMK AO2 SLP087 T02560206=
15/08/2023 20:51->METAR KJFK 152051Z 35010KT 10SM FEW026 FEW050 SCT160 SCT250 27/21 A2979 RMK AO2 SLP086 T02670206 50000=
15/08/2023 19:51->METAR KJFK 151951Z 36009KT 10SM SCT024 SCT030 BKN180 BKN250 26/21 A2979 RMK AO2 SLP088 SCT030 V BKN T02560206=
15/08/2023 18:51->METAR KJFK 151851Z 34008KT 310V010 10SM FEW020 FEW044 SCT200 BKN250 27/21 A2979 RMK AO2 SLP087 T02670211=
15/08/2023 17:51->METAR KJFK 151751Z 36008KT 10SM FEW017 BKN023 BKN250 24/21 A2978 RMK AO2 SLP086 T02440211 10272 20222 51008=
15/08/2023 16:51->METAR KJFK 151651Z 35011KT 10SM FEW018 BKN032 BKN250 25/21 A2978 RMK AO2 SLP083 T02500211=
15/08/2023 15:51->METAR KJFK 151551Z 28008KT 10SM BKN022 BKN030 BKN180 BKN250 26/21 A2977 RMK AO2 SLP081 T02610211=
15/08/2023 14:51->METAR KJFK 151451Z 33012KT 10SM FEW013 BKN021 BKN250 25/21 A2976 RMK AO2 SLP077 T02500211 51006=
15/08/2023 13:51->METAR KJFK 151351Z 26009KT 10SM FEW010 BKN017 BKN250 24/22 A2976 RMK AO2 SLP077 T02440217=
15/08/2023 12:51->METAR KJFK 151251Z 28005KT 10SM BKN008 BKN023 BKN250 23/22 A2976 RMK AO2 SLP076 CIG 006V010 T02330222=
15/08/2023 11:51->METAR KJFK 151151Z 07004KT 9SM SCT007 BKN014 BKN140 BKN250 22/22 A2974 RMK AO2 RAE1054 SLP071 P0000 60025 70025 T02220222 10239 20217 53010=
15/08/2023 10:51->METAR KJFK 151051Z 07006KT 8SM -RA BKN008 OVC025 22/22 A2973 RMK AO2 SLP068 CIG 006V010 P0000 T02170217=
15/08/2023 09:51->METAR KJFK 150951Z 07008KT 6SM -RA BR OVC006 22/22 A2972 RMK AO2 RAB0857E08B35 SLP063 P0000 T02170217=
15/08/2023 08:51->METAR KJFK 150851Z 02009KT 9SM BKN006 OVC014 23/23 A2971 RMK AO2 SLP061 60025 T02280228 58025=
15/08/2023 07:51->METAR KJFK 150751Z 15003KT 10SM BKN012 OVC017 23/23 A2974 RMK AO2 SLP071 T02330233=
15/08/2023 06:51->METAR KJFK 150651Z 14005KT 10SM SCT015 BKN023 OVC048 24/24 A2976 RMK AO2 RAE11B15E47 TSB0554E10 CIG 015 W SLP078 P0025 T02390239=
15/08/2023 05:51->METAR KJFK 150551Z 14014KT 6SM R04R/3500VP6000FT VCTS -RA BR FEW007 BKN011 OVC022 24/23 A2978 RMK AO2 LTG DSNT SE RAE41B50 TSE39 SLP085 P0000 60000 T02390233 10250 20239 58037=
15/08/2023 04:51->METAR KJFK 150451Z 08006KT 9SM -RA FEW033 BKN070 OVC090 24/22 A2984 RMK AO2 RAB49 SLP103 P0000 T02440222 402830206=
15/08/2023 03:51->METAR KJFK 150351Z 15006KT 10SM FEW055 OVC070 24/23 A2987 RMK AO2 SLP113 T02440228=
15/08/2023 02:51->METAR KJFK 150251Z 16008KT 10SM BKN075 BKN110 OVC150 24/22 A2989 RMK AO2 SLP123 60000 T02440222 58003=
15/08/2023 01:51->METAR KJFK 150151Z 16008KT 10SM FEW075 BKN100 OVC160 24/22 A2990 RMK AO2 RAB35E46 SLP124 P0000 T02440217=
15/08/2023 00:51->METAR KJFK 150051Z 17009KT 10SM FEW055 SCT110 OVC170 25/21 A2991 RMK AO2 SLP128 T02500206=
14/08/2023 23:51->METAR KJFK 142351Z 18013KT 10SM FEW055 BKN140 BKN190 BKN250 25/20 A2990 RMK AO2 SLP126 T02500200 10283 20250 58006=
14/08/2023 22:51->METAR KJFK 142251Z 18011KT 10SM FEW055 BKN140 BKN180 BKN250 26/20 A2992 RMK AO2 SLP130 T02560200=
14/08/2023 21:51->METAR KJFK 142151Z 18011KT 10SM FEW055 BKN190 BKN250 26/19 A2991 RMK AO2 SLP129 T02610189=
14/08/2023 20:51->METAR KJFK 142051Z 17010KT 10SM FEW055 BKN180 BKN250 28/19 A2992 RMK AO2 SLP132 T02830189 58016=
14/08/2023 19:51->METAR KJFK 141951Z 18010KT 10SM FEW055 SCT150 BKN250 28/20 A2994 RMK AO2 SLP138 T02780200=
14/08/2023 18:51->METAR KJFK 141851Z 19011KT 10SM FEW055 FEW150 BKN250 28/20 A2995 RMK AO2 SLP143 T02830200=
14/08/2023 17:51->METAR KJFK 141751Z 20011KT 10SM FEW055 FEW170 BKN250 28/19 A2997 RMK AO2 SLP148 T02780189 10278 20228 58015=
14/08/2023 16:51->METAR KJFK 141651Z 20007KT 10SM FEW055 FEW110 SCT170 BKN250 27/19 A2998 RMK AO2 SLP153 T02670189=
14/08/2023 15:51->METAR KJFK 141551Z 14004KT 10SM FEW110 BKN170 OVC240 26/18 A3000 RMK AO2 SLP160 T02560178=
14/08/2023 14:51->METAR KJFK 141451Z 21005KT 10SM FEW110 SCT170 BKN240 26/18 A3001 RMK AO2 SLP163 T02560178 51013=
14/08/2023 13:51->METAR KJFK 141351Z 22004KT 10SM FEW050 SCT170 BKN240 25/19 A3000 RMK AO2 SLP159 T02500189=
14/08/2023 12:51->METAR KJFK 141251Z 00000KT 10SM SCT170 BKN240 23/20 A2999 RMK AO2 SLP156 T02330200=
14/08/2023 11:51->METAR KJFK 141151Z 22006KT 10SM SCT150 BKN240 23/20 A2998 RMK AO2 SLP150 T02280200 10239 20206 51008 $=
14/08/2023 10:51->METAR KJFK 141051Z 17004KT 10SM FEW095 SCT150 BKN220 22/19 A2997 RMK AO2 SLP149 T02220189 $=
14/08/2023 09:51->METAR KJFK 140951Z 00000KT 10SM SCT100 BKN150 BKN240 23/16 A2996 RMK AO2 SLP145 T02280161 $=
14/08/2023 08:51->METAR KJFK 140851Z 15003KT 10SM SCT150 SCT250 21/18 A2995 RMK AO2 SLP142 T02110183 58005 $=
14/08/2023 07:51->METAR KJFK 140751Z 00000KT 10SM FEW150 FEW250 23/18 A2996 RMK AO2 SLP144 T02280183 $=
14/08/2023 06:51->METAR KJFK 140651Z 26005KT 10SM FEW090 SCT150 SCT250 23/19 A2996 RMK AO2 SLP146 OCNL LTGIC DSNT S CB DSNT S T02280194 $=
14/08/2023 05:51->METAR KJFK 140551Z 25007KT 10SM SCT150 SCT250 23/21 A2996 RMK AO2 SLP146 T02330206 10289 20228 58002 $=
14/08/2023 04:51->METAR KJFK 140451Z 23007KT 10SM FEW150 FEW250 23/21 A2997 RMK AO2 SLP148 T02280206 403170200 $=
14/08/2023 03:51->METAR KJFK 140351Z 24008KT 10SM SCT250 24/20 A2997 RMK AO2 SLP149 T02440200 $=
14/08/2023 02:51->METAR KJFK 140251Z 28008KT 10SM FEW150 FEW250 27/18 A2997 RMK AO2 SLP149 T02670178 51021 $=
14/08/2023 01:51->METAR KJFK 140151Z 31009KT 10SM BKN065 BKN080 BKN250 27/17 A2996 RMK AO2 SLP145 T02720167 $=
14/08/2023 00:51->METAR KJFK 140051Z 29009KT 10SM FEW080 SCT250 28/17 A2993 RMK AO2 SLP136 T02830172 $=
13/08/2023 23:51->METAR KJFK 132351Z 31015KT 10SM FEW070 FEW250 28/17 A2991 RMK AO2 SLP127 T02830167 10317 20278 53012 $=
13/08/2023 22:51->METAR KJFK 132251Z 30010KT 10SM FEW065 SCT085 29/18 A2989 RMK AO2 SLP120 T02940178 $=
13/08/2023 21:51->METAR KJFK 132151Z 29014KT 10SM FEW055 SCT070 30/17 A2988 RMK AO2 SLP118 T03000172 $=
13/08/2023 20:51->METAR KJFK 132051Z 28013KT 10SM SCT060 SCT085 SCT250 31/18 A2987 RMK AO2 SLP116 T03060178 53006 $=
13/08/2023 19:51->METAR KJFK 131951Z 31012G19KT 10SM SCT060 SCT250 32/18 A2986 RMK AO2 SLP111 T03170178 $=
13/08/2023 18:51->METAR KJFK 131851Z 28013KT 10SM FEW050 BKN075 BKN250 31/19 A2986 RMK AO2 SLP113 T03060189 $=
13/08/2023 17:51->METAR KJFK 131751Z 25014KT 10SM SCT041 BKN050 BKN110 BKN250 28/22 A2986 RMK AO2 SLP110 T02830222 10294 20222 56002 $=
13/08/2023 16:51->METAR KJFK 131651Z 24012KT 10SM SCT040 SCT110 SCT250 29/23 A2986 RMK AO2 SLP110 T02890228 $=
13/08/2023 15:51->METAR KJFK 131551Z 23007KT 10SM FEW040 SCT110 SCT250 28/22 A2986 RMK AO2 SLP110 T02780222 $=
13/08/2023 14:51->METAR KJFK 131451Z 24006KT 10SM FEW035 FEW085 BKN110 BKN250 26/22 A2986 RMK AO2 SLP112 T02610222 51002 $=
13/08/2023 13:51->METAR KJFK 131351Z 23006KT 10SM FEW030 FEW085 BKN100 BKN250 26/22 A2986 RMK AO2 SLP112 T02560222 $=
13/08/2023 12:51->METAR KJFK 131251Z 00000KT 10SM FEW030 BKN075 BKN110 BKN250 23/22 A2987 RMK AO2 SLP114 T02330222 $=
13/08/2023 11:51->METAR KJFK 131151Z 09004KT 9SM FEW030 SCT085 BKN110 BKN250 22/22 A2986 RMK AO2 SLP110 60063 70078 T02220217 10233 20200 51013 $=
13/08/2023 10:51->METAR KJFK 131051Z 08004KT 8SM FEW040 SCT065 BKN100 BKN250 22/21 A2985 RMK AO2 LTG DSNT E SLP107 T02170211 $=
13/08/2023 09:51->METAR KJFK 130951Z 36005KT 10SM SCT065 BKN095 BKN120 BKN250 22/21 A2984 RMK AO2 SLP105 T02170211 $=
13/08/2023 08:51->METAR KJFK 130851Z 15006KT 10SM FEW080 SCT140 SCT250 21/20 A2982 RMK AO2 WSHFT 0803 RAE25 TSE25 SLP097 OCNL LTGIC DSNT N CB DSNT N P0000 60063 T02110200 58017 $=
13/08/2023 07:51->METAR KJFK 130751Z 05004KT 10SM -TSRA SCT050CB BKN150 BKN250 21/21 A2982 RMK AO2 SLP098 CONS LTGICCA E TS E MOV E P0063 T02060206 $=
13/08/2023 06:51->METAR KJFK 130651Z 28016KT 3/4SM R04R/2600VP6000FT TSRA BR SCT040 SCT070 BKN100 BKN250 21/20 A2989 RMK AO2 TSB51 SLP121 CONS LTGICCA OHD TS OHD MOV S P0000 T02060200 $=
13/08/2023 05:51->METAR KJFK 130551Z 11006KT 10SM -RA BKN060 BKN080 BKN100 BKN250 23/22 A2987 RMK AO2 RAB09 SLP114 P0000 60000 T02330222 10239 20228 50000 $=
13/08/2023 04:51->METAR KJFK 130451Z 08004KT 10SM BKN060 BKN070 BKN150 BKN250 23/23 A2987 RMK AO2 RAB09E21 SLP116 P0000 T02330228 402720189 $=
13/08/2023 03:51->METAR KJFK 130351Z 19008KT 10SM FEW047 BKN090 BKN150 BKN250 23/23 A2988 RMK AO2 SLP117 OCNL LTGIC DSNT NW CB DSNT NW T02280228 $=
13/08/2023 02:51->METAR KJFK 130251Z 19010KT 10SM FEW047 FEW100 FEW250 23/22 A2987 RMK AO2 SLP114 FRQ LTGIC DSNT SW CB DSNT SW T02280222 50003 $=
13/08/2023 01:51->METAR KJFK 130151Z 19010KT 10SM FEW047 SCT070 BKN250 23/23 A2987 RMK AO2 SLP115 OCNL LTGIC DSNT N CB DSNT N T02330228 $=
13/08/2023 00:51->METAR KJFK 130051Z 19015KT 10SM FEW047 SCT130 BKN250 23/22 A2986 RMK AO2 PK WND 18026/0001 SLP112 OCNL LTGIC DSNT N CB DSNT N T02330222 $=
12/08/2023 23:51->METAR KJFK 122351Z 19020G25KT 10SM SCT047 SCT070 SCT150 BKN250 24/23 A2986 RMK AO2 PK WND 19029/2310 SLP111 CB DSNT NW TCU DSNT N 60010 T02390228 10272 20228 55000 $=
12/08/2023 22:51->METAR KJFK 122251Z 19019KT 10SM FEW045 SCT060 BKN150 BKN250 24/23 A2986 RMK AO2 PK WND 20026/2238 SLP109 T02440228 $=
12/08/2023 21:51->METAR KJFK 122151Z 18017KT 10SM FEW035 FEW065 SCT100 BKN250 25/22 A2985 RMK AO2 PK WND 19026/2053 SLP108 CB DSNT NW T02500217 $=
12/08/2023 20:51->METAR KJFK 122051Z 18019G23KT 10SM FEW035 FEW065 FEW100 SCT250 26/21 A2986 RMK AO2 SLP111 60010 T02610211 58008 $=
12/08/2023 19:51->METAR KJFK 121951Z 17015KT 10SM SCT035 SCT075 SCT100 BKN140 BKN250 25/21 A2986 RMK AO2 PK WND 22029/1913 RAB16E37 TSB06E45 SLP110 CB DSNT E-SE AND CB DSNT NW-N P0010 T02500211 $=
12/08/2023 18:51->METAR KJFK 121851Z 19018G22KT 10SM SCT033 SCT075 SCT100 BKN150 BKN250 27/22 A2989 RMK AO2 SLP121 CB DSNT S TCU DSNT W-NW T02670217 $=
12/08/2023 17:51->METAR KJFK 121751Z 17009KT 10SM SCT065 SCT110 BKN250 26/23 A2988 RMK AO2 LTG DSNT S SLP119 CU DSNT SE-S 60005 T02610228 10267 20222 58011 $=
12/08/2023 16:51->METAR KJFK 121651Z 17007KT 10SM SCT055 BKN110 BKN250 26/22 A2990 RMK AO2 SLP124 T02610222 $=
12/08/2023 15:51->METAR KJFK 121551Z 17004KT 4SM BR FEW027 BKN070 BKN100 24/23 A2991 RMK AO2 RAB36RAEMM SLP129 P0005 T02390228 $=
12/08/2023 14:51->METAR KJFK 121451Z 17009KT 10SM FEW075 BKN130 BKN250 26/19 A2992 RMK AO2 SLP130 T02560194 55002=
12/08/2023 13:51->METAR KJFK 121351Z 13006KT 10SM FEW070 SCT095 BKN250 26/20 A2991 RMK AO2 SLP129 T02560200=
12/08/2023 12:51->METAR KJFK 121251Z 11006KT 10SM FEW180 SCT250 24/20 A2992 RMK AO2 SLP130 T02390200=
12/08/2023 11:51->METAR KJFK 121151Z 09006KT 10SM FEW075 SCT180 BKN250 22/19 A2992 RMK AO2 SLP132 7//// T02220189 10222 20189 53006=
12/08/2023 10:51->METAR KJFK 121051Z 10004KT 10SM FEW200 SCT250 21/17 A2992 RMK AO2 SLP130 T02060167=
12/08/2023 09:51->METAR KJFK 120951Z 08005KT 10SM SCT150 SCT250 19/16 A2991 RMK AO2 SLP128 T01940161=
12/08/2023 08:51->METAR KJFK 120851Z 07004KT 10SM FEW150 FEW250 19/17 A2990 RMK AO2 SLP126 T01940167 51004=
12/08/2023 07:51->METAR KJFK 120751Z 06004KT 10SM FEW250 20/17 A2990 RMK AO2 SLP126 T02000172=
12/08/2023 06:51->METAR KJFK 120651Z 00000KT 10SM SCT070 SCT250 21/18 A2990 RMK AO2 SLP126 T02060178=
12/08/2023 05:51->METAR KJFK 120551Z 06003KT 10SM FEW070 FEW250 22/17 A2989 RMK AO2 SLP122 T02170172 10272 20211 53006=
12/08/2023 04:51->METAR KJFK 120451Z 07003KT 10SM FEW070 FEW250 22/18 A2988 RMK AO2 SLP119 T02220178 403000194=
12/08/2023 03:51->METAR KJFK 120351Z 26005KT 10SM FEW070 FEW250 23/18 A2988 RMK AO2 SLP118 T02330178=
12/08/2023 02:51->METAR KJFK 120251Z 24007KT 10SM SCT070 SCT150 24/18 A2987 RMK AO2 SLP116 T02390178 51018=
12/08/2023 01:51->METAR KJFK 120151Z 26005KT 10SM FEW070 FEW250 24/16 A2986 RMK AO2 SLP112 T02440161=
12/08/2023 00:51->METAR KJFK 120051Z 24007KT 10SM SCT070 SCT250 26/16 A2984 RMK AO2 SLP105 T02560156=
11/08/2023 23:51->METAR KJFK 112351Z 26010KT 10SM SCT065 SCT250 27/15 A2982 RMK AO2 SLP098 6//// T02720150 10300 20267 53011=
11/08/2023 22:51->METAR KJFK 112251Z 26011KT 10SM SCT065 SCT250 28/15 A2980 RMK AO2 SLP092 T02830150=
11/08/2023 21:51->METAR KJFK 112151Z 26014KT 10SM FEW060 SCT075 SCT250 29/15 A2980 RMK AO2 SLP089 T02890150=
11/08/2023 20:51->METAR KJFK 112051Z 26015KT 10SM FEW060 FEW075 SCT250 29/15 A2979 RMK AO2 SLP087 6//// T02940150 56003=
11/08/2023 19:51->METAR KJFK 111951Z 26014KT 10SM FEW060 SCT075 BKN250 29/16 A2979 RMK AO2 SLP087 T02890161 PNO $=
11/08/2023 18:51->METAR KJFK 111851Z 25019G25KT 10SM SCT060 BKN250 29/16 A2979 RMK AO2 SLP088 T02890161 PNO $=
11/08/2023 17:51->METAR KJFK 111751Z 20014KT 10SM SCT049 SCT060 BKN250 27/19 A2980 RMK AO2 SLP090 6//// T02670194 10278 20217 56002 PNO $=
11/08/2023 16:51->METAR KJFK 111651Z 23012KT 10SM BKN042 BKN250 27/19 A2980 RMK AO2 SLP090 T02670194 $=
11/08/2023 15:51->METAR KJFK 111551Z 23008KT 10SM SCT048 SCT250 25/18 A2980 RMK AO2 SLP091 T02500183 $=
11/08/2023 14:51->METAR KJFK 111451Z 25008KT 10SM FEW050 SCT250 24/18 A2980 RMK AO2 SLP092 T02440178 53014 $=
11/08/2023 13:51->METAR KJFK 111351Z 24009KT 10SM FEW090 SCT250 23/18 A2979 RMK AO2 SLP086 T02330183 $=
11/08/2023 12:51->METAR KJFK 111251Z 27008KT 10SM SCT250 23/18 A2977 RMK AO2 SLP081 T02330178 $=
11/08/2023 11:51->METAR KJFK 111151Z 29007KT 10SM SCT250 22/18 A2976 RMK AO2 SLP078 70026 T02170183 10217 20194 53020 $=
11/08/2023 10:51->METAR KJFK 111051Z 27010KT 10SM FEW250 20/19 A2975 RMK AO2 SLP074 T02000189 $=
11/08/2023 09:51->METAR KJFK 110951Z 27009KT 10SM CLR 20/18 A2972 RMK AO2 SLP063 T02000183 $=
11/08/2023 08:51->METAR KJFK 110851Z 27008KT 10SM CLR 20/19 A2970 RMK AO2 SLP059 T02000189 53016 $=
11/08/2023 07:51->METAR KJFK 110751Z 27006KT 10SM CLR 21/18 A2968 RMK AO2 SLP050 T02060183 $=
11/08/2023 06:51->METAR KJFK 110651Z 29006KT 10SM CLR 21/19 A2967 RMK AO2 SLP046 T02110189 $=
11/08/2023 05:51->METAR KJFK 110551Z 30009KT 10SM FEW015 21/19 A2966 RMK AO2 SLP042 T02110194 10217 20211 53010 $=
11/08/2023 04:51->METAR KJFK 110451Z 28005KT 10SM CLR 21/21 A2964 RMK AO2 SLP037 T02110206 402560206 $=
11/08/2023 03:51->METAR KJFK 110351Z 28007KT 8SM CLR 21/21 A2963 RMK AO2 SLP033 T02110206 $=
11/08/2023 02:51->METAR KJFK 110251Z 28008KT 9SM FEW010 21/21 A2963 RMK AO2 SLP032 T02110206 50007 $=
11/08/2023 01:51->METAR KJFK 110151Z 26006KT 9SM FEW010 FEW080 SCT250 21/21 A2963 RMK AO2 SLP033 T02110206 $=
11/08/2023 00:51->METAR KJFK 110051Z 32005KT 10SM FEW010 FEW032 BKN075 BKN250 21/21 A2962 RMK AO2 SLP028 T02110206 $=
10/08/2023 23:51->METAR KJFK 102351Z 00000KT 10SM FEW011 SCT029 BKN041 21/21 A2961 RMK AO2 LTG DSNT S RAE34 SLP025 P0001 60025 T02110206 10233 20206 58004 $=
10/08/2023 22:51->METAR KJFK 102251Z 14003KT 5SM -RA BR SCT009 BKN026 OVC032 21/21 A2961 RMK AO2 SLP026 P0005 T02110206 $=
10/08/2023 21:51->METAR KJFK 102151Z 16006KT 5SM -RA BR FEW007 FEW028 OVC047 21/21 A2962 RMK AO2 SLP029 P0007 T02110211 $=
10/08/2023 20:51->METAR KJFK 102051Z 20011KT 4SM +RA BR SCT012 SCT030 OVC065 22/21 A2965 RMK AO2 LTG DSNT W SLP040 P0010 60012 T02170211 55016 $=
10/08/2023 19:51->METAR KJFK 101951Z 16008KT 5SM -RA BR FEW021 SCT095 OVC120 23/22 A2964 RMK AO2 PRESFR SLP037 P0002 T02280222 $=
10/08/2023 18:51->METAR KJFK 101851Z 20009KT 5SM RA BR FEW018 FEW050 OVC110 23/23 A2968 RMK AO2 SLP051 P0000 T02330228 $=
10/08/2023 17:51->METAR KJFK 101751Z 20007KT 7SM -RA BKN090 OVC110 23/22 A2970 RMK AO2 SLP056 P0001 60001 T02330222 10256 20222 56018 $=
10/08/2023 16:51->METAR KJFK 101651Z 17010KT 9SM -RA SCT080 BKN100 BKN150 OVC250 24/22 A2971 RMK AO2 RAB47 SLP061 P0000 T02440222 $=
10/08/2023 15:51->METAR KJFK 101551Z 15008KT 10SM BKN080 BKN100 BKN160 OVC250 25/21 A2973 RMK AO2 SLP066 T02500211 $=
10/08/2023 14:51->METAR KJFK 101451Z 18008KT 10SM BKN075 BKN150 OVC250 25/22 A2975 RMK AO2 SLP074 T02500217 53000 $=
10/08/2023 13:51->METAR KJFK 101351Z 19005KT 10SM SCT120 BKN190 BKN250 24/21 A2975 RMK AO2 SLP075 T02390206=
10/08/2023 12:51->METAR KJFK 101251Z 16003KT 10SM CLR 23/19 A2974 RMK AO2 SLP070 T02330194=
10/08/2023 11:51->METAR KJFK 101151Z 21005KT 10SM BKN150 BKN220 22/19 A2975 RMK AO2 SLP074 6//// 7//// T02220194 10228 20206 55002 PNO $=
10/08/2023 10:51->METAR KJFK 101051Z 23004KT 10SM SCT100 BKN150 BKN250 21/19 A2974 RMK AO2 SLP071 T02110194 PNO $=
10/08/2023 09:51->METAR KJFK 100951Z 22005KT 10SM FEW110 BKN250 21/18 A2976 RMK AO2 SLP076 T02110183 PNO $=
10/08/2023 08:51->METAR KJFK 100851Z 24005KT 10SM SCT120 BKN250 21/18 A2976 RMK AO2 SLP077 6//// T02110178 56008 PNO $=
10/08/2023 07:51->METAR KJFK 100751Z 24005KT 10SM SCT100 BKN250 21/18 A2976 RMK AO2 SLP078 T02110178 PNO $=
10/08/2023 06:51->METAR KJFK 100651Z 23005KT 10SM FEW110 SCT250 21/17 A2977 RMK AO2 SLP081 T02110172 PNO $=
10/08/2023 05:51->METAR KJFK 100551Z 26007KT 10SM FEW110 SCT250 22/16 A2978 RMK AO2 SLP085 6//// T02220161 10278 20222 58006 PNO $=
10/08/2023 04:51->METAR KJFK 100451Z 27008KT 10SM FEW110 FEW250 24/14 A2979 RMK AO2 SLP087 T02390139 403060206 PNO $=
10/08/2023 03:51->METAR KJFK 100351Z 28009KT 10SM FEW250 24/14 A2980 RMK AO2 SLP090 T02390144 PNO $=
10/08/2023 02:51->METAR KJFK 100251Z 28010KT 10SM FEW250 25/13 A2980 RMK AO2 SLP091 6//// T02500128 51017 PNO $=
10/08/2023 01:51->METAR KJFK 100151Z 25011KT 10SM FEW110 FEW250 25/16 A2979 RMK AO2 SLP086 T02500156 PNO $=
10/08/2023 00:51->METAR KJFK 100051Z 28011KT 10SM SCT110 SCT250 27/14 A2977 RMK AO2 SLP079 T02670144 PNO $=
09/08/2023 23:51->METAR KJFK 092351Z 28015KT 10SM FEW075 SCT110 SCT250 28/14 A2975 RMK AO2 SLP074 6//// T02780144 10306 20278 53004 PNO $=
09/08/2023 22:51->METAR KJFK 092251Z 27015KT 10SM FEW075 FEW100 BKN250 28/16 A2973 RMK AO2 SLP066 T02830156 PNO $=
09/08/2023 21:51->METAR KJFK 092151Z 28013G21KT 10SM FEW080 SCT250 30/14 A2973 RMK AO2 SLP066 T03000144 PNO $=
09/08/2023 20:51->METAR KJFK 092051Z 28015G21KT 10SM FEW075 FEW250 30/14 A2974 RMK AO2 SLP069 6//// T03000139 53002 PNO $=
09/08/2023 19:51->METAR KJFK 091951Z 28018KT 10SM FEW075 FEW250 31/14 A2974 RMK AO2 SLP070 T03060144 PNO $=
09/08/2023 18:51->METAR KJFK 091851Z 29012G23KT 10SM FEW070 SCT250 29/14 A2972 RMK AO2 SLP064 T02940139 PNO $=
09/08/2023 17:51->METAR KJFK 091751Z 32014KT 10SM FEW070 SCT100 SCT250 29/13 A2973 RMK AO2 WSHFT 1654 SLP067 6//// T02940133 10294 20222 58005 PNO $=
09/08/2023 16:51->METAR KJFK 091651Z 32013G20KT 10SM FEW065 SCT080 SCT250 29/14 A2974 RMK AO2 SLP069 T02940139 PNO $=
09/08/2023 15:51->METAR KJFK 091551Z 33016G26KT 10SM FEW080 FEW100 FEW250 28/14 A2974 RMK AO2 PK WND 33026/1545 SLP071 T02830144 PNO $=
09/08/2023 14:51->METAR KJFK 091451Z 32014G27KT 10SM FEW150 FEW250 27/15 A2974 RMK AO2 PK WND 29029/1433 SLP071 6//// T02720150 50004 PNO $=
09/08/2023 13:51->METAR KJFK 091351Z 32017G22KT 10SM FEW150 FEW250 25/16 A2975 RMK AO2 SLP075 T02500156 PNO $=
09/08/2023 12:51->METAR KJFK 091251Z 30016G21KT 10SM FEW150 FEW250 23/16 A2974 RMK AO2 SLP072 T02330156 PNO $=
09/08/2023 11:51->METAR KJFK 091151Z 29015G23KT 10SM FEW150 FEW250 22/15 A2973 RMK AO2 SLP068 6//// 7//// T02220150 10228 20206 53015 PNO $=
09/08/2023 10:51->METAR KJFK 091051Z 29011KT 10SM FEW150 FEW250 21/15 A2972 RMK AO2 SLP063 T02110150 PNO $=
09/08/2023 09:51->METAR KJFK 090951Z 29013KT 10SM FEW095 FEW250 21/15 A2970 RMK AO2 SLP058 T02110150 PNO $=
09/08/2023 08:51->METAR KJFK 090851Z 29011KT 10SM FEW080 FEW100 22/15 A2969 RMK AO2 SLP053 6//// T02170150 55001 PNO $=
09/08/2023 07:51->METAR KJFK 090751Z 28011G18KT 10SM FEW085 FEW110 22/15 A2969 RMK AO2 SLP052 T02170150 PNO $=
09/08/2023 06:51->METAR KJFK 090651Z 29015G21KT 10SM FEW100 BKN110 22/15 A2968 RMK AO2 SLP051 T02220150 PNO $=
09/08/2023 05:51->METAR KJFK 090551Z 29016G23KT 10SM BKN085 BKN120 23/15 A2969 RMK AO2 SLP054 6//// T02280150 10239 20228 58003 PNO $=
09/08/2023 04:51->METAR KJFK 090451Z 27018G23KT 10SM BKN080 BKN130 23/15 A2970 RMK AO2 SLP057 T02280150 402780217 PNO $=
09/08/2023 03:51->METAR KJFK 090351Z 29014G23KT 10SM FEW050 BKN075 OVC140 23/15 A2970 RMK AO2 SLP057 T02330150 PNO $=
09/08/2023 02:51->METAR KJFK 090251Z 27015G23KT 10SM FEW045 FEW065 BKN095 23/16 A2970 RMK AO2 PK WND 30026/0217 SLP057 6//// T02330156 53012 PNO $=
09/08/2023 01:51->METAR KJFK 090151Z 28015KT 10SM FEW040 FEW060 BKN090 23/16 A2968 RMK AO2 PK WND 29027/0112 SLP052 T02330156 PNO $=
09/08/2023 00:51->METAR KJFK 090051Z 30016G32KT 10SM FEW040 BKN090 BKN250 23/16 A2968 RMK AO2 PK WND 29032/0042 SLP049 T02330156 PNO $=
08/08/2023 23:51->METAR KJFK 082351Z 31018G30KT 10SM FEW044 SCT060 SCT250 24/16 A2967 RMK AO2 PK WND 30031/2340 SLP045 6//// T02390156 10278 20239 53011 PNO $=
08/08/2023 22:51->METAR KJFK 082251Z 29015G26KT 10SM FEW042 SCT055 BKN250 25/16 A2963 RMK AO2 PK WND 30032/2214 SLP035 T02500161 PNO $=
08/08/2023 21:51->METAR KJFK 082151Z 29018G25KT 10SM SCT043 BKN055 BKN250 26/16 A2963 RMK AO2 PK WND 27030/2054 SLP034 T02560161 PNO $=
08/08/2023 20:51->METAR KJFK 082051Z 28020G27KT 10SM SCT043 SCT060 BKN250 27/17 A2963 RMK AO2 PK WND 27029/1958 SLP035 6//// T02670167 53007 PNO $=
08/08/2023 19:51->METAR KJFK 081951Z 28021G29KT 10SM SCT043 BKN065 BKN250 26/17 A2962 RMK AO2 PK WND 27029/1948 SLP031 T02610172 PNO $=
08/08/2023 18:51->METAR KJFK 081851Z 26019G26KT 10SM SCT044 BKN060 27/17 A2962 RMK AO2 PK WND 27026/1843 SLP028 T02670172 PNO $=
08/08/2023 17:51->METAR KJFK 081751Z 26017KT 10SM SCT042 BKN070 27/18 A2961 RMK AO2 SLP028 6//// T02720178 10272 20222 56012 PNO $=
08/08/2023 16:51->METAR KJFK 081651Z 29017KT 10SM FEW027 BKN039 BKN060 25/18 A2962 RMK AO2 SLP028 T02500178 $=
08/08/2023 15:51->METAR KJFK 081551Z 26015KT 10SM FEW022 SCT041 BKN065 BKN160 26/19 A2963 RMK AO2 SLP033 SCT V BKN T02560194 $=
08/08/2023 14:51->METAR KJFK 081451Z 27011KT 10SM FEW009 BKN021 BKN047 BKN160 23/22 A2965 RMK AO2 RAE08 SLP039 P0000 6//// T02330217 58011 $=
08/08/2023 13:51->METAR KJFK 081351Z 25012KT 7SM -RA SCT008 BKN024 OVC070 23/22 A2966 RMK AO2 RAB48 SLP043 T02280217 PNO $=
08/08/2023 12:51->METAR KJFK 081251Z 24011KT 10SM FEW008 BKN015 OVC080 22/22 A2967 RMK AO2 SLP047 CIG 013V017 T02220217 $=
08/08/2023 11:51->METAR KJFK 081151Z 25010KT 10SM BKN015 BKN038 BKN085 23/22 A2968 RMK AO2 SLP050 VCSH SW 6//// 7//// T02280217 10228 20217 53004 $=
08/08/2023 10:51->METAR KJFK 081051Z 26007KT 10SM SCT016 BKN036 BKN080 BKN250 22/21 A2968 RMK AO2 SLP050 T02220211 PNO $=
08/08/2023 09:51->METAR KJFK 080951Z 25003KT 10SM FEW046 BKN060 BKN080 22/21 A2967 RMK AO2 RAB0854E44 SLP046 P0000 T02170211 $=
08/08/2023 08:51->METAR KJFK 080851Z 00000KT 10SM BKN039 BKN049 OVC065 22/21 A2967 RMK AO2 RAE11 SLP046 P0003 60003 T02170211 58017 $=
08/08/2023 07:51->METAR KJFK 080751Z 22005KT 3SM +RA BR SCT049 BKN075 BKN090 BKN150 22/21 A2969 RMK AO2 RAB45 SLP053 P0000 T02170211 $=
08/08/2023 06:51->METAR KJFK 080651Z 21007KT 10SM FEW033 FEW085 BKN140 22/21 A2970 RMK AO2 SLP057 T02220211 $=
08/08/2023 05:51->METAR KJFK 080551Z 19011KT 10SM SCT080 BKN100 BKN120 22/21 A2972 RMK AO2 SLP063 60008 T02220211 10244 20211 56012 $=
08/08/2023 04:51->METAR KJFK 080451Z 19011KT 10SM FEW022 BKN110 BKN120 22/21 A2973 RMK AO2 RAB07E30 SLP066 P0000 T02170206 402610200 $=
08/08/2023 03:51->METAR KJFK 080351Z 19014KT 10SM FEW028 SCT110 OVC150 22/21 A2974 RMK AO2 RAE04 SLP071 P0000 T02170206 $=
08/08/2023 02:51->METAR KJFK 080251Z 19012KT 10SM -RA FEW026 FEW110 OVC140 21/21 A2975 RMK AO2 RAE10B34 SLP075 P0000 60008 T02110206 58014 $=
08/08/2023 01:51->METAR KJFK 080151Z 22014KT 10SM -RA FEW015 FEW070 OVC120 22/21 A2979 RMK AO2 WSHFT 0113 SLP086 P0008 T02170211 $=
08/08/2023 00:51->METAR KJFK 080051Z 17018G25KT 10SM -RA BKN015 BKN055 OVC085 24/23 A2980 RMK AO2 PK WND 15026/0036 RAB42 SLP090 OCNL LTGIC DSNT SW CB DSNT SW P0000 T02390233 $=
07/08/2023 23:51->METAR KJFK 072351Z 17015KT 10SM FEW012 SCT024 BKN049 BKN250 24/23 A2980 RMK AO2 SLP089 60000 T02440228 10256 20239 55004 $=
07/08/2023 22:51->METAR KJFK 072251Z 16017G21KT 10SM SCT009 SCT047 BKN250 24/23 A2978 RMK AO2 SLP083 T02440233 $=
07/08/2023 21:51->METAR KJFK 072151Z 16016KT 10SM FEW009 BKN041 BKN250 25/23 A2980 RMK AO2 SLP090 T02500233 $=
07/08/2023 20:51->METAR KJFK 072051Z 16016KT 10SM FEW009 SCT024 BKN038 25/23 A2981 RMK AO2 SLP093 60000 T02500233 58022 $=
07/08/2023 19:51->METAR KJFK 071951Z 17017KT 10SM FEW009 OVC026 25/23 A2984 RMK AO2 SLP103 T02500228 $=
07/08/2023 18:51->METAR KJFK 071851Z 17014KT 10SM SCT030 OVC045 25/23 A2985 RMK AO2 RAB41E50 SLP108 P0000 T02500228 $=
07/08/2023 17:51->METAR KJFK 071751Z 18019G27KT 10SM BKN031 BKN044 26/21 A2987 RMK AO2 PK WND 18027/1746 SLP115 60000 T02560211 10261 20211 56018 $=
07/08/2023 16:51->METAR KJFK 071651Z 17015KT 10SM FEW023 SCT031 BKN100 BKN160 26/20 A2988 RMK AO2 SLP119 T02560200 $=
07/08/2023 15:51->METAR KJFK 071551Z 19013KT 10SM FEW021 BKN065 BKN080 BKN160 24/22 A2990 RMK AO2 SLP126 T02440217 $=
07/08/2023 14:51->METAR KJFK 071451Z 19017KT 10SM BKN016 OVC038 23/22 A2992 RMK AO2 RAB1357E34 SLP133 P0000 60000 T02280222 56007 $=
07/08/2023 13:51->METAR KJFK 071351Z 17016KT 10SM SCT017 BKN026 OVC046 23/22 A2993 RMK AO2 RAE1257 SLP135 P0000 T02280217 $=
07/08/2023 12:51->METAR KJFK 071251Z 17015KT 8SM -RA FEW008 BKN027 OVC060 22/21 A2993 RMK AO2 RAE1156B30 SLP134 P0000 T02220206 $=
07/08/2023 11:51->METAR KJFK 071151Z 17013KT 8SM -RA FEW006 OVC032 21/21 A2994 RMK AO2 SLP140 60009 70009 T02110206 10233 20200 52002 PNO $=
07/08/2023 10:51->METAR KJFK 071051Z 19011KT 2SM R04R/4000VP6000FT +RA BR FEW006 BKN024 OVC035 20/20 A2994 RMK AO2 SFC VIS 2 1/2 SLP137 P0004 T02000200 $=
07/08/2023 09:51->METAR KJFK 070951Z 23009KT 3SM +RA BR SCT011 BKN027 OVC049 21/21 A2994 RMK AO2 VIS 1 3/4 W SLP140 P0005 T02110206 $=
07/08/2023 08:51->METAR KJFK 070851Z 18008KT 10SM -RA FEW016 BKN023 OVC060 23/22 A2994 RMK AO2 SLP137 P0000 60000 T02280222 58009 $=
07/08/2023 07:51->METAR KJFK 070751Z 17008KT 10SM -RA FEW017 OVC055 23/22 A2995 RMK AO2 RAB35 SLP142 P0000 T02330222 $=
07/08/2023 06:51->METAR KJFK 070651Z 15008KT 10SM BKN065 OVC075 23/22 A2996 RMK AO2 SLP144 T02330217 $=
07/08/2023 05:51->METAR KJFK 070551Z 16006KT 10SM BKN060 OVC075 23/22 A2997 RMK AO2 SLP147 T02330217 10233 20228 58007 $=
07/08/2023 04:51->METAR KJFK 070451Z 18009KT 10SM BKN065 BKN250 23/22 A2999 RMK AO2 SLP154 T02330217 402720194 $=
07/08/2023 03:51->METAR KJFK 070351Z 17011KT 10SM SCT060 BKN250 23/21 A2999 RMK AO2 SLP153 T02330211 $=
07/08/2023 02:51->METAR KJFK 070251Z 16012KT 10SM FEW060 SCT200 SCT250 23/21 A2999 RMK AO2 SLP154 T02330211 50000 $=
07/08/2023 01:51->METAR KJFK 070151Z 16009KT 10SM FEW200 SCT250 23/20 A2999 RMK AO2 SLP157 T02280200 $=
07/08/2023 00:51->METAR KJFK 070051Z 16009KT 10SM FEW200 SCT250 23/20 A2999 RMK AO2 SLP154 T02280200 $=
06/08/2023 23:51->METAR KJFK 062351Z 17008KT 10SM FEW034 FEW200 SCT250 23/19 A2999 RMK AO2 SLP154 T02330194 10272 20233 55001 $=
06/08/2023 22:51->METAR KJFK 062251Z 17009KT 10SM FEW034 FEW200 SCT250 25/18 A2998 RMK AO2 SLP153 T02500183 $=
06/08/2023 21:51->METAR KJFK 062151Z 15009KT 10SM FEW038 FEW200 SCT250 26/17 A2998 RMK AO2 SLP152 T02610172 $=
06/08/2023 20:51->METAR KJFK 062051Z 17011KT 10SM FEW040 FEW200 SCT250 26/17 A2999 RMK AO2 SLP154 T02610172 58012 $=
06/08/2023 19:51->METAR KJFK 061951Z 18011KT 10SM FEW043 FEW200 SCT250 27/17 A3000 RMK AO2 SLP158 T02720167 $=
06/08/2023 18:51->METAR KJFK 061851Z 18011KT 10SM FEW046 FEW200 SCT250 27/16 A3001 RMK AO2 SLP163 T02670161 $=
06/08/2023 17:51->METAR KJFK 061751Z 17011KT 10SM FEW050 FEW200 SCT250 27/16 A3002 RMK AO2 SLP166 T02670161 10272 20233 58002 $=
06/08/2023 16:51->METAR KJFK 061651Z 19011KT 10SM FEW050 FEW200 SCT250 27/14 A3003 RMK AO2 SLP169 T02670144 $=
06/08/2023 15:51->METAR KJFK 061551Z 17009KT 10SM FEW050 SCT200 SCT250 27/13 A3004 RMK AO2 SLP171 T02720128 $=
06/08/2023 14:51->METAR KJFK 061451Z 20007KT 10SM FEW200 BKN250 26/14 A3003 RMK AO2 SLP168 T02610139 58002 $=
06/08/2023 13:51->METAR KJFK 061351Z 15005KT 10SM FEW200 BKN250 26/14 A3004 RMK AO2 SLP170 T02560144 $=
06/08/2023 12:51->METAR KJFK 061251Z 00000KT 10SM FEW200 BKN250 26/15 A3003 RMK AO2 SLP170 T02560150 $=
06/08/2023 11:51->METAR KJFK 061151Z 02006KT 10SM FEW200 SCT250 23/16 A3004 RMK AO2 SLP171 T02330156 10233 20194 51010 $=
06/08/2023 10:51->METAR KJFK 061051Z 01004KT 10SM FEW080 SCT200 SCT250 21/16 A3003 RMK AO2 SLP168 T02060156 $=
06/08/2023 09:51->METAR KJFK 060951Z 36006KT 10SM FEW250 20/15 A3002 RMK AO2 SLP165 T02000150 $=
06/08/2023 08:51->METAR KJFK 060851Z 36006KT 10SM SCT250 21/15 A3001 RMK AO2 SLP161 T02060150 52004 $=
06/08/2023 07:51->METAR KJFK 060751Z 04004KT 10SM SCT250 21/15 A3001 RMK AO2 SLP160 T02110150 $=
06/08/2023 06:51->METAR KJFK 060651Z 02006KT 10SM SCT250 22/16 A3000 RMK AO2 SLP158 T02170156 $=
06/08/2023 05:51->METAR KJFK 060551Z 36006KT 10SM BKN250 23/16 A3000 RMK AO2 SLP157 T02280156 10267 20228 53005 $=
06/08/2023 04:51->METAR KJFK 060451Z 01005KT 10SM BKN250 23/15 A2999 RMK AO2 SLP154 T02330150 402890206 $=
06/08/2023 03:51->METAR KJFK 060351Z 01006KT 10SM BKN250 24/15 A2999 RMK AO2 SLP154 T02390150 $=
06/08/2023 02:51->METAR KJFK 060251Z 36009KT 10SM BKN250 24/14 A2998 RMK AO2 SLP152 T02440144 51004 $=
06/08/2023 01:51->METAR KJFK 060151Z 36006KT 10SM BKN250 25/14 A2998 RMK AO2 SLP152 T02500144 $=
06/08/2023 00:51->METAR KJFK 060051Z 36007KT 10SM BKN240 26/14 A2997 RMK AO2 SLP149 T02610144 $=
05/08/2023 23:51->METAR KJFK 052351Z 36008KT 10SM FEW055 BKN240 27/14 A2997 RMK AO2 SLP148 T02670139 10289 20267 53005 $=
05/08/2023 22:51->METAR KJFK 052251Z 36010KT 10SM FEW055 OVC250 27/15 A2996 RMK AO2 SLP144 T02720150 $=
05/08/2023 21:51->METAR KJFK 052151Z 36008KT 10SM FEW055 OVC250 28/16 A2996 RMK AO2 SLP145 T02780161 $=
05/08/2023 20:51->METAR KJFK 052051Z 00000KT 10SM FEW040 SCT055 BKN250 28/17 A2995 RMK AO2 SLP142 T02830167 55004 $=
05/08/2023 19:51->METAR KJFK 051951Z 18010KT 10SM FEW038 BKN055 BKN075 BKN250 27/18 A2995 RMK AO2 SLP142 T02720183 $=
05/08/2023 18:51->METAR KJFK 051851Z 21010KT 10SM FEW035 SCT055 BKN250 28/19 A2996 RMK AO2 SLP146 T02780189 $=
05/08/2023 17:51->METAR KJFK 051751Z 21010KT 10SM FEW028 SCT044 BKN055 BKN250 27/19 A2996 RMK AO2 SLP146 T02720194 10278 20239 58003 $=
05/08/2023 16:51->METAR KJFK 051651Z 20011KT 10SM FEW030 SCT044 BKN250 27/20 A2997 RMK AO2 SLP147 T02670200 $=
05/08/2023 15:51->METAR KJFK 051551Z 22009KT 10SM FEW025 SCT038 BKN250 27/20 A2997 RMK AO2 SLP149 T02670200 $=
05/08/2023 14:51->METAR KJFK 051451Z 03007KT 10SM FEW038 SCT250 28/18 A2997 RMK AO2 SLP149 T02780183 51008 $=
05/08/2023 13:51->METAR KJFK 051351Z 35006KT 10SM FEW025 FEW250 25/19 A2997 RMK AO2 SLP147 T02500189 $=
05/08/2023 12:51->METAR KJFK 051251Z 02005KT 10SM FEW032 FEW250 25/19 A2996 RMK AO2 SLP144 T02500189 $=
05/08/2023 11:51->METAR KJFK 051151Z 36003KT 10SM FEW032 24/19 A2995 RMK AO2 SLP141 T02390194 10239 20206 51005 $=
05/08/2023 10:51->METAR KJFK 051051Z 36003KT 10SM FEW015 SCT032 BKN250 22/20 A2995 RMK AO2 SLP141 T02170200 $=
05/08/2023 09:51->METAR KJFK 050951Z 26004KT 10SM SCT015 BKN024 BKN250 21/20 A2995 RMK AO2 SLP142 T02060200 $=
05/08/2023 08:51->METAR KJFK 050851Z 22006KT 10SM FEW017 SCT020 BKN250 21/20 A2994 RMK AO2 SLP137 T02060200 56004 $=
05/08/2023 07:51->METAR KJFK 050751Z 25008KT 10SM BKN017 BKN250 22/20 A2994 RMK AO2 SLP140 T02170200 $=
05/08/2023 06:51->METAR KJFK 050651Z 24009KT 10SM BKN014 OVC019 22/20 A2994 RMK AO2 SLP137 T02170200 $=
05/08/2023 05:51->METAR KJFK 050551Z 24013KT 10SM OVC011 21/20 A2995 RMK AO2 SLP140 60000 T02110200 10217 20211 55004 $=
05/08/2023 04:51->METAR KJFK 050451Z 22010KT 10SM OVC012 22/20 A2994 RMK AO2 SLP138 T02170200 402440211 $=
05/08/2023 03:51->METAR KJFK 050351Z 24008KT 10SM OVC012 22/20 A2996 RMK AO2 SLP146 T02170200 $=
05/08/2023 02:51->METAR KJFK 050251Z 21010KT 10SM BKN015 BKN250 22/20 A2996 RMK AO2 LTG DSNT N SLP144 CB DSNT N 60000 T02170200 50003 $=
05/08/2023 01:51->METAR KJFK 050151Z 23011KT 10SM SCT014 BKN022 BKN040 BKN250 22/20 A2996 RMK AO2 SLP146 FRQ LTGIC DSNT NW CB DSNT NW T02170200 $=
05/08/2023 00:51->METAR KJFK 050051Z 21008KT 10SM BKN018 OVC036 22/20 A2996 RMK AO2 RAB16E37 SLP144 P0000 T02170200 $=
04/08/2023 23:51->METAR KJFK 042351Z 20014KT 10SM FEW019 BKN032 OVC045 22/20 A2995 RMK AO2 SLP141 T02170200 10239 20217 52005 $=
04/08/2023 22:51->METAR KJFK 042251Z 19015KT 10SM FEW013 BKN029 OVC040 22/20 A2994 RMK AO2 SLP137 T02170200 $=
04/08/2023 21:51->METAR KJFK 042151Z 19015KT 10SM SCT026 BKN036 OVC048 22/20 A2993 RMK AO2 SLP136 T02220200 $=
04/08/2023 20:51->METAR KJFK 042051Z 20017KT 10SM FEW013 SCT043 OVC060 23/19 A2994 RMK AO2 SLP138 T02330194 56010 $=
04/08/2023 19:51->METAR KJFK 041951Z 19013KT 10SM FEW027 SCT041 OVC055 23/20 A2995 RMK AO2 SLP141 T02280200 $=
04/08/2023 18:51->METAR KJFK 041851Z 19015KT 10SM BKN037 BKN046 OVC090 23/19 A2995 RMK AO2 SLP143 T02280194 $=
04/08/2023 17:51->METAR KJFK 041751Z 18013KT 10SM SCT029 BKN041 BKN090 23/19 A2997 RMK AO2 RAB13E23 SLP149 P0000 60000 T02280194 10244 20211 58002 $=
04/08/2023 16:51->METAR KJFK 041651Z 19011KT 10SM BKN039 OVC090 23/18 A2998 RMK AO2 SLP151 T02280183 $=
04/08/2023 15:51->METAR KJFK 041551Z 19012KT 10SM FEW035 BKN044 BKN095 OVC250 23/18 A2998 RMK AO2 SLP151 T02330183 $=
04/08/2023 14:51->METAR KJFK 041451Z 19011KT 10SM FEW035 BKN047 BKN250 24/19 A2998 RMK AO2 SLP151 T02390189 58002 $=
04/08/2023 13:51->METAR KJFK 041351Z 22009KT 10SM BKN042 BKN075 BKN250 22/18 A2998 RMK AO2 SLP152 T02220183 $=
04/08/2023 12:51->METAR KJFK 041251Z 22010KT 10SM SCT035 BKN075 BKN250 22/18 A2998 RMK AO2 SLP153 T02170183=
04/08/2023 11:51->METAR KJFK 041151Z 22011KT 10SM FEW027 BKN040 BKN080 BKN250 21/17 A2998 RMK AO2 SLP153 T02110172 10217 20211 55002 $=
04/08/2023 10:51->METAR KJFK 041051Z 22011KT 10SM FEW029 SCT036 BKN095 BKN250 21/17 A2998 RMK AO2 SLP153 T02110172 $=
04/08/2023 09:51->METAR KJFK 040951Z 22012KT 10SM BKN036 BKN095 BKN250 22/17 A2998 RMK AO2 SLP152 T02170172 $=
04/08/2023 08:51->METAR KJFK 040851Z 22011KT 10SM BKN037 BKN090 BKN250 22/17 A2999 RMK AO2 SLP155 T02170172 58004 $=
04/08/2023 07:51->METAR KJFK 040751Z 23014KT 10SM BKN042 BKN095 BKN250 22/17 A3000 RMK AO2 SLP157 T02170172 $=
04/08/2023 06:51->METAR KJFK 040651Z 22010KT 10SM BKN055 BKN100 BKN250 21/17 A3000 RMK AO2 SLP158 T02110172 $=
04/08/2023 05:51->METAR KJFK 040551Z 21011KT 10SM BKN036 BKN090 BKN250 22/16 A3000 RMK AO2 RAB14E26 SLP159 P0000 60000 T02170161 10222 20211 58012 $=
04/08/2023 04:51->METAR KJFK 040451Z 20012KT 10SM BKN037 BKN120 BKN250 22/17 A3002 RMK AO2 SLP165 T02220172 402560172 $=
04/08/2023 03:51->METAR KJFK 040351Z 19012KT 10SM BKN042 BKN110 BKN250 22/17 A3003 RMK AO2 SLP169 T02220172 $=
04/08/2023 02:51->METAR KJFK 040251Z 19011KT 10SM BKN039 BKN049 BKN120 BKN250 22/17 A3004 RMK AO2 SLP171 T02220172 58000 $=
04/08/2023 01:51->METAR KJFK 040151Z 19013KT 10SM SCT043 BKN055 BKN110 OVC250 22/17 A3005 RMK AO2 SLP176 T02220167 $=
04/08/2023 00:51->METAR KJFK 040051Z 19013KT 10SM BKN049 BKN065 BKN085 BKN250 22/16 A3005 RMK AO2 SLP175 T02220161 $=
03/08/2023 23:51->METAR KJFK 032351Z 19017KT 10SM SCT060 BKN085 BKN250 BKN300 22/16 A3004 RMK AO2 SLP171 FU BKN300 T02220156 10256 20222 56010 $=
03/08/2023 22:51->METAR KJFK 032251Z 18017KT 10SM SCT055 SCT100 BKN250 BKN300 23/15 A3004 RMK AO2 SLP173 FU BKN300 T02280150 $=
03/08/2023 21:51->METAR KJFK 032151Z 18016G24KT 10SM SCT055 BKN100 BKN250 BKN300 23/15 A3006 RMK AO2 SLP178 FU BKN300 T02280150 $=
03/08/2023 20:51->METAR KJFK 032051Z 18017G22KT 10SM SCT055 BKN070 BKN250 BKN300 23/15 A3007 RMK AO2 SLP182 FU BKN300 T02330150 58012 $=
03/08/2023 19:51->METAR KJFK 031951Z 17018KT 10SM FEW045 SCT065 BKN250 BKN300 24/14 A3008 RMK AO2 SLP186 FU BKN300 T02390144 $=
03/08/2023 18:51->METAR KJFK 031851Z 17018KT 10SM FEW045 SCT250 BKN300 25/15 A3009 RMK AO2 SLP190 FU BKN300 T02500150 $=
03/08/2023 17:51->METAR KJFK 031751Z 18018KT 10SM FEW045 FEW070 SCT250 BKN300 24/15 A3010 RMK AO2 SLP194 FU BKN300 T02440150 10250 20211 56013 $=
03/08/2023 16:51->METAR KJFK 031651Z 19015KT 10SM FEW045 FEW065 SCT250 OVC300 24/16 A3011 RMK AO2 SLP196 FU OVC300 T02440156 $=
03/08/2023 15:51->METAR KJFK 031551Z 19014KT 10SM FEW044 FEW100 SCT250 OVC300 24/16 A3013 RMK AO2 SLP201 FU OVC300 T02440156 $=
03/08/2023 14:51->METAR KJFK 031451Z 18011KT 10SM FEW038 FEW100 SCT220 BKN300 24/16 A3014 RMK AO2 SLP207 FU BKN300 T02440156 58008 $=
03/08/2023 13:51->METAR KJFK 031351Z 19011KT 10SM FEW100 SCT200 BKN250 23/15 A3016 RMK AO2 SLP212 T02330150 $=
03/08/2023 12:51->METAR KJFK 031251Z 19010KT 10SM FEW100 FEW200 BKN250 23/14 A3016 RMK AO2 SLP212 T02280139 $=
03/08/2023 11:51->METAR KJFK 031151Z 22008KT 10SM FEW085 SCT170 BKN250 21/14 A3017 RMK AO2 SLP215 T02110144 10211 20172 53005 $=
03/08/2023 10:51->METAR KJFK 031051Z 23007KT 10SM FEW085 BKN250 19/14 A3016 RMK AO2 SLP212 T01940144 $=
03/08/2023 09:51->METAR KJFK 030951Z 25007KT 10SM FEW085 SCT250 18/14 A3016 RMK AO2 SLP211 T01780139 $=
03/08/2023 08:51->METAR KJFK 030851Z 23007KT 10SM SCT250 17/14 A3015 RMK AO2 SLP210 T01720139 56010 $=
03/08/2023 07:51->METAR KJFK 030751Z 22006KT 10SM SCT250 18/13 A3016 RMK AO2 SLP211 T01830133 $=
03/08/2023 06:51->METAR KJFK 030651Z 22005KT 10SM SCT250 18/14 A3017 RMK AO2 SLP214 T01830139 $=
03/08/2023 05:51->METAR KJFK 030551Z 23007KT 10SM SCT250 19/13 A3018 RMK AO2 SLP220 T01890133 10217 20189 58005 $=
03/08/2023 04:51->METAR KJFK 030451Z 23008KT 10SM FEW250 19/14 A3020 RMK AO2 SLP225 T01940139 402560167 $=
03/08/2023 03:51->METAR KJFK 030351Z 22008KT 10SM FEW075 FEW250 21/14 A3020 RMK AO2 SLP227 T02060139 $=
03/08/2023 02:51->METAR KJFK 030251Z 20010KT 10SM SCT250 21/13 A3020 RMK AO2 SLP225 T02060133 53002 $=
03/08/2023 01:51->METAR KJFK 030151Z 20009KT 10SM FEW070 SCT250 21/13 A3020 RMK AO2 SLP225 T02060128 $=
03/08/2023 00:51->METAR KJFK 030051Z 18009KT 10SM FEW070 SCT250 21/13 A3018 RMK AO2 SLP221 T02110128 $=
02/08/2023 23:51->METAR KJFK 022351Z 19010KT 10SM FEW070 SCT250 21/13 A3019 RMK AO2 SLP222 T02110128 10250 20211 53001 $=
02/08/2023 22:51->METAR KJFK 022251Z 18009KT 10SM FEW070 SCT250 22/12 A3018 RMK AO2 SLP219 T02220122 $=
02/08/2023 21:51->METAR KJFK 022151Z 15009KT 10SM FEW070 SCT250 23/13 A3017 RMK AO2 SLP217 T02330133 $=
02/08/2023 20:51->METAR KJFK 022051Z 17007KT 10SM SCT070 SCT250 24/12 A3019 RMK AO2 SLP222 T02440122 58012 $=
02/08/2023 19:51->METAR KJFK 021951Z 18009KT 10SM SCT070 SCT250 24/13 A3020 RMK AO2 SLP225 T02390128 $=
02/08/2023 18:51->METAR KJFK 021851Z 20011KT 10SM SCT070 SCT250 25/13 A3021 RMK AO2 SLP230 T02500128 $=
02/08/2023 17:51->METAR KJFK 021751Z 18008KT 10SM SCT065 SCT140 BKN250 23/13 A3022 RMK AO2 SLP233 T02330128 10256 20206 58001 $=
02/08/2023 16:51->METAR KJFK 021651Z VRB06KT 10SM SCT060 SCT250 25/09 A3022 RMK AO2 SLP232 T02500089 $=
02/08/2023 15:51->METAR KJFK 021551Z 02009G14KT 10SM FEW055 SCT250 24/09 A3023 RMK AO2 SLP236 T02440089 $=
02/08/2023 14:51->METAR KJFK 021451Z 03007KT 10SM FEW050 SCT250 24/09 A3022 RMK AO2 SLP234 T02440094 58005 $=
02/08/2023 13:51->METAR KJFK 021351Z 01008KT 10SM FEW047 SCT250 24/09 A3023 RMK AO2 SLP237 T02390094 $=
02/08/2023 12:51->METAR KJFK 021251Z 03006KT 10SM FEW040 FEW250 22/11 A3024 RMK AO2 SLP239 T02220111 $=
02/08/2023 11:51->METAR KJFK 021151Z 03006KT 10SM FEW035 FEW250 21/12 A3024 RMK AO2 SLP239 T02060122 10206 20167 53017 $=
02/08/2023 10:51->METAR KJFK 021051Z 02004KT 10SM FEW033 FEW250 18/12 A3022 RMK AO2 SLP233 T01780122 $=
02/08/2023 09:51->METAR KJFK 020951Z 01004KT 10SM FEW250 17/12 A3020 RMK AO2 SLP228 T01670117 $=
02/08/2023 08:51->METAR KJFK 020851Z 01005KT 10SM FEW250 17/12 A3019 RMK AO2 SLP222 T01670122 53002 $=
02/08/2023 07:51->METAR KJFK 020751Z 01006KT 10SM FEW250 18/12 A3018 RMK AO2 SLP220 T01780117 $=
02/08/2023 06:51->METAR KJFK 020651Z 01005KT 10SM FEW250 18/12 A3018 RMK AO2 SLP219 T01830117 $=
02/08/2023 05:51->METAR KJFK 020551Z 01004KT 10SM FEW250 19/11 A3018 RMK AO2 SLP220 T01890106 10228 20189 58000 $=
02/08/2023 04:51->METAR KJFK 020451Z 02006KT 10SM FEW110 FEW250 19/11 A3018 RMK AO2 SLP221 T01940106 402720189 $=
02/08/2023 03:51->METAR KJFK 020351Z 02004KT 10SM SCT080 SCT250 21/11 A3019 RMK AO2 SLP222 T02060111 $=
02/08/2023 02:51->METAR KJFK 020251Z 07004KT 10SM SCT085 SCT250 21/12 A3018 RMK AO2 SLP220 T02110117 51017 $=
02/08/2023 01:51->METAR KJFK 020151Z 22004KT 10SM SCT080 SCT250 22/14 A3018 RMK AO2 SLP218 T02170144 $=
02/08/2023 00:51->METAR KJFK 020051Z 24005KT 10SM BKN070 BKN090 BKN250 22/14 A3016 RMK AO2 SLP212 T02170139 $=
01/08/2023 23:51->METAR KJFK 012351Z 17004KT 10SM SCT065 BKN085 BKN250 23/13 A3013 RMK AO2 SLP203 T02280133 10272 20222 53006 $=
01/08/2023 22:51->METAR KJFK 012251Z 14006KT 10SM SCT070 BKN090 BKN250 23/13 A3011 RMK AO2 SLP195 T02280133 $=
01/08/2023 21:51->METAR KJFK 012151Z 19008KT 10SM SCT075 BKN100 BKN250 24/14 A3010 RMK AO2 SLP193 T02390139 $=
01/08/2023 20:51->METAR KJFK 012051Z 19010KT 10SM FEW070 BKN095 BKN250 23/13 A3012 RMK AO2 SLP198 T02330133 55001 $=
01/08/2023 19:51->METAR KJFK 011951Z 21011KT 10SM FEW065 BKN080 BKN250 25/13 A3011 RMK SLP196 T02500128=
01/08/2023 18:51->METAR KJFK 011851Z 01007KT 330V040 10SM SCT065 SCT080 BKN250 25/09 A3012 RMK SLP199 T02500089=
01/08/2023 17:51->METAR KJFK 011751Z 30005KT 10SM SCT065 SCT250 27/09 A3012 RMK SLP199 T02670094 10267 20211 58006=
01/08/2023 16:51->METAR KJFK 011651Z 34010KT 10SM SCT065 SCT250 26/09 A3013 RMK SLP201 T02610094=
01/08/2023 15:51->METAR KJFK 011551Z 03010KT 10SM FEW065 SCT250 26/09 A3014 RMK SLP205 T02560094=
01/08/2023 14:51->METAR KJFK 011451Z 03010G18KT 10SM FEW065 FEW250 24/09 A3014 RMK SLP205 T02440094 51007=
01/08/2023 13:51->METAR KJFK 011351Z 02011KT 10SM FEW110 FEW250 24/12 A3013 RMK SLP202 T02390117=
01/08/2023 12:51->METAR KJFK 011251Z 04011KT 10SM FEW110 FEW250 23/13 A3013 RMK SLP202 T02280128=
01/08/2023 11:51->METAR KJFK 011151Z 36012KT 10SM SCT110 SCT250 21/13 A3012 RMK SLP198 T02110133 10222 20194 53017=
01/08/2023 10:51->METAR KJFK 011051Z 36012KT 10SM FEW075 BKN110 BKN250 19/13 A3010 RMK SLP192 T01940133=
01/08/2023 09:51->METAR KJFK 010951Z 36010KT 10SM BKN090 BKN120 BKN250 20/13 A3008 RMK SLP186 T02000133=
01/08/2023 08:51->METAR KJFK 010851Z 36007KT 10SM BKN090 BKN250 21/14 A3007 RMK SLP181 T02060144 53005=
01/08/2023 07:51->METAR KJFK 010751Z 34007KT 10SM FEW080 FEW120 BKN250 20/14 A3005 RMK SLP176 T02000139=
01/08/2023 06:51->METAR KJFK 010651Z 01008KT 10SM BKN090 BKN110 BKN250 21/14 A3005 RMK SLP175 T02060139=
01/08/2023 05:51->METAR KJFK 010551Z 35008KT 10SM BKN110 BKN250 22/13 A3005 RMK SLP176 T02220128 10228 20211 51004=
01/08/2023 04:51->METAR KJFK 010451Z 36008KT 10SM FEW110 SCT250 22/12 A3005 RMK SLP175 T02170122 402830178=
01/08/2023 03:51->METAR KJFK 010351Z 02005KT 10SM FEW080 FEW120 FEW250 22/14 A3005 RMK SLP174 T02170139=
01/08/2023 02:51->METAR KJFK 010251Z 08003KT 10SM FEW090 FEW110 FEW250 22/18 A3004 RMK SLP172 T02170183 51020=
01/08/2023 01:51->METAR KJFK 010151Z 06005KT 10SM FEW070 FEW110 FEW250 22/18 A3003 RMK SLP167 T02220183=
01/08/2023 00:51->METAR KJFK 010051Z 20012KT 10SM FEW070 FEW110 SCT250 23/18 A3000 RMK SLP159 T02280183=
31/07/2023 23:51->METAR KJFK 312351Z 20011KT 10SM FEW075 FEW110 SCT250 23/18 A2998 RMK SLP152 T02330178 10272 20233 51008=
31/07/2023 22:51->METAR KJFK 312251Z 20015KT 10SM FEW075 SCT110 SCT250 23/17 A2997 RMK SLP150 T02330167=
31/07/2023 21:51->METAR KJFK 312151Z 21017KT 10SM SCT075 BKN110 24/14 A2997 RMK SLP147 T02440144=
31/07/2023 20:51->METAR KJFK 312051Z 21016KT 10SM SCT075 SCT090 26/15 A2996 RMK SLP144 T02610150 55002=
31/07/2023 19:51->METAR KJFK 311951Z 20015KT 10SM SCT075 SCT090 26/14 A2995 RMK SLP141 T02610139=
31/07/2023 18:51->METAR KJFK 311851Z 19015KT 10SM SCT075 SCT090 27/15 A2995 RMK SLP142 T02670150=
31/07/2023 17:51->METAR KJFK 311751Z 20013KT 10SM SCT075 26/13 A2996 RMK WSHFT 1643 SLP146 T02560122 10283 20228 58008=
31/07/2023 16:51->METAR KJFK 311651Z 20013 KT 10SM SCT070 SCT095 27/12 A2997 RMK SLP150 T02670122=
31/07/2023 15:51->METAR KJFK 311551Z 32010KT 10SM FEW075 FEW220 28/10 A2998 RMK SLP153 T02780100=
31/07/2023 14:51->METAR KJFK 311451Z 35008KT 10SM FEW075 27/09 A2999 RMK SLP155 T02670094 51003=
31/07/2023 13:51->METAR KJFK 311351Z 32009G15KT 10SM FEW075 SCT220 26/09 A2999 RMK SLP155 T02610094=
31/07/2023 12:51->METAR KJFK 311251Z 32007KT 10SM SCT075 SCT220 24/11 A2999 RMK SLP157 T02390111=
31/07/2023 11:51->METAR KJFK 311151Z 34008KT 10SM FEW070 SCT220 23/12 A2998 RMK SLP152 T02280122 10228 20178 53013=
31/07/2023 10:51->METAR KJFK 311051Z 34006KT 10SM FEW070 FEW220 20/13 A2996 RMK SLP145 T02000128=
31/07/2023 09:51->METAR KJFK 310951Z 33005KT 10SM SCT220 19/12 A2994 RMK SLP139 T01890122=
31/07/2023 08:51->METAR KJFK 310851Z 00000KT 10SM SCT250 19/13 A2994 RMK SLP139 T01940128 55002=
31/07/2023 07:51->METAR KJFK 310751Z 00000KT 10SM FEW080 SCT220 21/13 A2994 RMK SLP138 T02060128=
31/07/2023 06:51->METAR KJFK 310651Z 00000KT 10SM FEW075 SCT250 18/13 A2994 RMK SLP138 T018330133=
31/07/2023 05:51->METAR KJFK 310551Z 33004KT 10SM FEW250 21/11 A2995 RMK SLP140 T02060111 10244 20194 58003=
31/07/2023 04:51->METAR KJFK 310451Z 36005KT 10SM FEW250 21/11 A2996 RMK SLP144 T02060111 402720189=
31/07/2023 03:51->METAR KJFK 310351Z 01004KT 10SM FEW250 22/11 A2995 RMK SLP142 T02170111=
31/07/2023 02:51->METAR KJFK 310251Z 35005KT 10SM FEW075 FEW250 23/10 A2995 RMK SLP143 T02280100 5007=
31/07/2023 01:51->METAR KJFK 310151Z 34006KT 10SM FEW070 FEW250 23/10 A2995 RMK SLP143 T02280100=
31/07/2023 00:51->METAR KJFK 310051Z 34007KT 10SM FEW070 SCT250 24/11 A2994 RMK SLP139 T02390106=
30/07/2023 23:51->METAR KJFK 302351Z 35011KT 10SM SCT070 SCT250 24/11 A2993 RMK SLP136 T02440106 10272 20244 53009=
30/07/2023 22:51->METAR KJFK 302251Z 33010KT 10SM BKN065 BKN250 26/11 A2992 RMK SLP132 T02560111=
30/07/2023 21:51->METAR KJFK 302151Z 34014G18KT 10SM FEW060 BKN070 BKN250 26/11 A2991 RMK SLP128 T02560111=
30/07/2023 20:51->METAR KJFK 302051Z 34012KT 10SM FEW060 BKN070 BKN250 26/12 A2991 RMK SLP127 T02610122 56011=
30/07/2023 19:51->METAR KJFK 301951Z 33011G27KT 10SM FEW060 BKN070 BKN250 27/13 A2991 RMK PK WND 35027/1947 SLP129 T02720133=
30/07/2023 18:51->METAR KJFK 301851Z 31009G17KT 10SM BKN050 BKN250 24/13 A2993 RMK SLP134 T02440128=
30/07/2023 17:51->METAR KJFK 301751Z 31014G19KT 10SM BKN050 BKN200 BKN250 26/13 A2994 RMK SLP138 T02560133 10256 20194 56010=
30/07/2023 16:51->METAR KJFK 301651Z 35009KT 10SM SCT050 SCT250 24/13 A2994 RMK SLP139 T02440128=
30/07/2023 15:51->METAR KJFK 301551Z 35011G20KT 10SM SCT049 SCT250 23/12 A2996 RMK SLP145 T02330117=
30/07/2023 14:51->METAR KJFK 301451Z 35012G17KT 10SM SCT050 SCT250 23/12 A2997 RMK SLP148 T02280117 51010=
30/07/2023 13:51->METAR KJFK 301351Z 01011KT 10SM FEW030 FEW045 FEW250 22/12 A2996 RMK SLP145 T02220117=
30/07/2023 12:51->METAR KJFK 301251Z 36011KT 10SM FEW030 SCT045 SCT200 SCT250 21/12 A2995 RMK SLP142 T02110117=
30/07/2023 11:51->METAR KJFK 301151Z 36011G18KT 10SM FEW026 BKN041 BKN250 19/13 A2994 RMK SLP138 70064 T01940128 10211 20189 53029=
30/07/2023 10:51->METAR KJFK 301051Z 36012KT 10SM BKN024 BKN080 BKN250 19/16 A2991 RMK SLP127 T01940156=
30/07/2023 09:51->METAR KJFK 300951Z 35014KT 10SM FEW030 SCT075 SCT250 19/15 A2988 RMK SLP116 T01940150=
30/07/2023 08:51->METAR KJFK 300851Z 34016KT 10SM FEW015 FEW055 FEW080 SCT250 20/16 A2985 RMK SLP109 T02000156 51010=
30/07/2023 07:51->METAR KJFK 300751Z 34012KT 10SM FEW055 FEW080 SCT250 20/16 A2985 RMK SLP106 T02000156=
30/07/2023 06:51->METAR KJFK 300651Z 34015KT 10SM FEW055 BKN250 21/15 A2984 RMK SLP105 T02060150=
30/07/2023 05:51->METAR KJFK 300551Z 35018KT 10SM FEW055 SCT250 21/15 A2982 RMK SLP099 60064 T02110150 10294 20211 51022=
30/07/2023 04:51->METAR KJFK 300451Z 34013G21KT 10SM FEW044 SCT250 21/16 A2981 RMK PK WND 32026/0357 SLP094 T02110156 403220211=
30/07/2023 03:51->METAR KJFK 300351Z 33021G26KT 10SM FEW060 SCT250 23/18 A2979 RMK PK WND 33026/0331 SLP086 T02280178=
30/07/2023 02:51->METAR KJFK 300251Z 35011G21KT 10SM SCT041 BKN055 BKN250 24/18 A2976 RMK SLP077 60064 T02440183 51029=
30/07/2023 01:51->METAR KJFK 300151Z 35015KT 10SM FEW030 SCT050 BKN170 BKN250 26/21 A2975 RMK SLP072 T02610211=
30/07/2023 00:51->METAR KJFK 300051Z 28009KT 10SM FEW025 SCT045 BKN160 BKN250 27/23 A2970 RMK PK WND 27038/2358 RAB2353E21 TSB2355E49 SLP056 OCNL LTGIC DSNT E CB DSNT E P0064 T02670233=
29/07/2023 23:51->METAR KJFK 292351Z 25014KT 10SM BKN055CB BKN080 BKN140 BKN250 30/23 A2967 RMK PRESRR SLP048 CB OHD MOV E T03000233 10322 20294 55006=
29/07/2023 22:51->METAR KJFK 292251Z 24015KT 10SM SCT050 SCT140 BKN250 31/23 A2965 RMK SLP041 T03060228=
29/07/2023 21:51->METAR KJFK 292151Z 25017KT 10SM FEW045 FEW180 SCT250 32/23 A2965 RMK SLP041 T03220228=
29/07/2023 20:51->METAR KJFK 292051Z 24016KT 10SM FEW045 FEW180 SCT250 32/22 A2969 RMK SLP054 T03220222 56019=
29/07/2023 19:51->METAR KJFK 291951Z 23014KT 10SM FEW040 SCT150 BKN250 32/23 A2971 RMK SLP059 T03220228=
29/07/2023 18:51->METAR KJFK 291851Z 24015KT 10SM FEW038 SCT150 BKN250 31/22 A2973 RMK SLP066 T03110222=
29/07/2023 17:51->METAR KJFK 291751Z 24014KT 10SM FEW038 SCT150 BKN250 30/23 A2975 RMK SLP073 60000 T03000228 10306 20250 58025=
29/07/2023 16:51->METAR KJFK 291651Z 23019KT 10SM FEW050 SCT150 BKN250 30/23 A2978 RMK SLP083 T03000228=
29/07/2023 15:51->METAR KJFK 291551Z 23014KT 10SM FEW050 SCT080 BKN150 BKN250 28/23 A2980 RMK SLP092 T02830233=
29/07/2023 14:51->METAR KJFK 291451Z 24010KT 10SM FEW048 SCT080 BKN150 BKN250 26/23 A2982 RMK SLP098 60000 T02610228 58015=
29/07/2023 13:51->METAR KJFK 291351Z 24010KT 10SM FEW048 SCT080 BKN160 BKN250 26/22 A2984 RMK RAB33E42 SLP105 P0000 T02610222=
29/07/2023 12:51->METAR KJFK 291251Z 21011KT 10SM FEW038 SCT080 BKN150 BKN250 25/22 A2986 RMK SLP110 T02500222=
29/07/2023 11:51->METAR KJFK 291151Z 24006KT 10SM FEW065 SCT080 BKN130 BKN250 26/22 A2987 RMK SLP113 T02560217 10261 20233 50002=
29/07/2023 10:51->METAR KJFK 291051Z 24012KT 10SM FEW090 SCT130 BKN250 24/22 A2988 RMK SLP116 T02440222=
29/07/2023 09:51->METAR KJFK 290951Z 23007KT 10SM FEW090 BKN150 BKN250 24/22 A2986 RMK SLP112 T02390217=
29/07/2023 08:51->METAR KJFK 290851Z 22004KT 10SM BKN250 24/21 A2986 RMK SLP111 T02390211 58014=
29/07/2023 07:51->METAR KJFK 290751Z 21012KT 10SM BKN250 24/21 A2989 RMK SLP122 T02440211=
29/07/2023 06:51->METAR KJFK 290651Z 23007KT 10SM FEW110 BKN250 25/22 A2989 RMK SLP121 T02500217=
29/07/2023 05:51->METAR KJFK 290551Z 25013KT 10SM BKN200 26/21 A2990 RMK SLP125 T02610211 10283 20256 58015=
29/07/2023 04:51->METAR KJFK 290451Z 27010KT 10SM BKN200 28/22 A2992 RMK TSB0357E18 SLP132 T02780217 403280244=
29/07/2023 03:51->METAR KJFK 290351Z 19005KT 10SM FEW045 BKN200 27/24 A2994 RMK SLP138 T02720239=
29/07/2023 02:51->METAR KJFK 290251Z 00000KT 10SM FEW060 BKN200 26/24 A2995 RMK SLP140 T02610239 50004=
29/07/2023 01:51->METAR KJFK 290151Z 14003KT 10SM FEW060 BKN250 26/24 A2995 RMK SLP142 T02560239=
29/07/2023 00:51->METAR KJFK 290051Z 14003KT 10SM SCT250 26/24 A2994 RMK SLP138 T02560239=
28/07/2023 23:51->METAR KJFK 282351Z 17009KT 10SM FEW050 FEW250 26/24 A2993 RMK SLP136 T02610239 10328 20261 56005=
28/07/2023 22:51->METAR KJFK 282251Z 18012KT 10SM FEW050 28/24 A2994 RMK SLP137 T02780239=
28/07/2023 21:51->METAR KJFK 282151Z 18013KT 10SM FEW050 29/23 A2994 RMK SLP138 T02940233=
28/07/2023 20:51->METAR KJFK 282051Z 18014KT 10SM FEW048 FEW250 30/23 A2995 RMK SLP141 T03000233 58012=
28/07/2023 19:51->METAR KJFK 281951Z 19013KT 10SM FEW048 SCT250 30/23 A2997 RMK SLP147 T03000233=
28/07/2023 18:51->METAR KJFK 281851Z 20012KT 10SM SCT048 31/22 A2998 RMK SLP151 T03110222=
28/07/2023 17:51->METAR KJFK 281751Z 21013KT 10SM SCT048 32/22 A2998 RMK SLP153 T03220222 10322 20278 58009=
28/07/2023 16:51->METAR KJFK 281651Z 20010KT 10SM SCT046 31/23 A3000 RMK SLP158 T03060228=
28/07/2023 15:51->METAR KJFK 281551Z 22012KT 10SM FEW043 SCT050 31/22 A3001 RMK SLP163 T03060222=
28/07/2023 14:51->METAR KJFK 281451Z 31005KT 10SM SCT050 31/22 A3001 RMK SLP161 T03110217 58002=
28/07/2023 13:51->METAR KJFK 281351Z 32006KT 10SM FEW031 SCT048 29/22 A3001 RMK SLP162 T02890222=
28/07/2023 12:51->METAR KJFK 281251Z VRB03KT 10SM FEW030 SCT045 29/23 A3001 RMK SLP163 T02890228=
28/07/2023 11:51->METAR KJFK 281151Z 30006KT 10SM FEW049 SCT250 28/22 A3001 RMK SLP163 60001 70006 T02720217 10278 20244 51018=
28/07/2023 10:51->METAR KJFK 281051Z 32003KT 10SM SCT049 SCT085 SCT250 27/24 A3000 RMK SLP159 T02670239=
28/07/2023 09:51->METAR KJFK 280951Z 00000KT 10SM SCT085 SCT250 24/22 A2998 RMK SLP152 T02440222=
28/07/2023 08:51->METAR KJFK 280851Z 00000KT 10SM FEW075 SCT250 26/22 A2996 RMK SLP146 60001 T02440228 53002=
28/07/2023 07:51->METAR KJFK 280751Z 31004KT 10SM FEW080 FEW140 SCT250 26/22 A2995 RMK SLP141 T02560217=
28/07/2023 06:51->METAR KJFK 280651Z 00000KT 10SM FEW070 SCT085 BKN250 26/24 A2994 RMK AO2 RAE07 SLP139 P0001 T02560239 $=
28/07/2023 05:51->METAR KJFK 280551Z 25008KT 9SM -RA FEW041 BKN070 OVC085 25/24 A2995 RMK AO2 RAB33 TSB08E46 SLP143 P0003 60005 T02500239 10306 20250 53000 $=
28/07/2023 04:51->METAR KJFK 280451Z 00000KT 10SM BKN060 BKN070 BKN250 26/24 A2995 RMK AO2 LTG DSNT SE AND W RAE07 SLP141 P0002 T02560244 403330228 $=
28/07/2023 03:51->METAR KJFK 280351Z 00000KT 6SM -RA BKN047 BKN095 BKN250 27/23 A2996 RMK AO2 RAB49 SLP144 P0000 T02720233 $=
28/07/2023 02:51->METAR KJFK 280251Z 03006KT 10SM FEW030 SCT055 BKN100 26/23 A2995 RMK AO2 LTG DSNT N-E TSE43 SLP143 FRQ LTGICCC DSNT NE CB DSNT NE T02610228 52011 $=
28/07/2023 01:51->METAR KJFK 280151Z 16007KT 10SM TS SCT055CB BKN075 BKN090 BKN250 29/24 A2992 RMK AO2 LTG DSNT W-N TSB47 SLP132 FRQ LTGIC W-NW TS W-NW MOV SE T02890239 $=
28/07/2023 00:51->METAR KJFK 280051Z 23010KT 10SM BKN055 BKN080 BKN250 30/24 A2992 RMK AO2 LTG DSNT N AND NE SLP132 TCU DSNT N-NE T03000239 $=
27/07/2023 23:51->METAR KJFK 272351Z 24014KT 10SM SCT050 SCT100 BKN250 30/24 A2990 RMK AO2 LTG DSNT N AND NW SLP125 CB DSNT NW TCU DSNT W-NW T03000239 10333 20294 53006 $=
27/07/2023 22:51->METAR KJFK 272251Z 24014KT 10SM FEW050 BKN250 32/23 A2989 RMK AO2 SLP120 T03170233 $=
27/07/2023 21:51->METAR KJFK 272151Z 25017KT 10SM FEW045 BKN250 33/23 A2988 RMK AO2 SLP118 CB DSNT NW T03330228 $=
27/07/2023 20:51->METAR KJFK 272051Z 23014KT 10SM FEW045 FEW170 BKN250 32/24 A2988 RMK AO2 SLP118 CB DSNT NW T03170239 56016 $=
27/07/2023 19:51->METAR KJFK 271951Z 19014KT 10SM SCT045 SCT170 BKN250 29/24 A2989 RMK AO2 SLP121 T02940239 $=
27/07/2023 18:51->METAR KJFK 271851Z 19012KT 10SM FEW028 FEW043 SCT170 SCT250 29/24 A2990 RMK AO2 SLP124 T02940244 $=
27/07/2023 17:51->METAR KJFK 271751Z 19014KT 10SM FEW043 SCT180 SCT250 29/24 A2993 RMK AO2 SLP134 T02940244 10300 20250 58012 $=
27/07/2023 16:51->METAR KJFK 271651Z 19013KT 10SM FEW040 FEW120 BKN180 BKN250 29/24 A2994 RMK AO2 SLP139 T02940244 $=
27/07/2023 15:51->METAR KJFK 271551Z 20013KT 10SM FEW038 SCT120 SCT160 BKN250 29/24 A2996 RMK AO2 SLP145 T02890244 $=
27/07/2023 14:51->METAR KJFK 271451Z 19017G21KT 10SM FEW110 FEW160 BKN250 28/24 A2996 RMK AO2 SLP146 T02830244 56013 $=
27/07/2023 13:51->METAR KJFK 271351Z 19013KT 10SM SCT110 BKN250 26/24 A2998 RMK AO2 SLP151 T02610239 $=
27/07/2023 12:51->METAR KJFK 271251Z 19011KT 10SM FEW010 SCT120 BKN250 26/24 A2998 RMK AO2 SLP153 T02610239 $=
27/07/2023 11:51->METAR KJFK 271151Z 19008KT 10SM SCT007 BKN250 25/24 A3000 RMK AO2 SLP159 T02500239 10250 20228 50002 $=
27/07/2023 10:51->METAR KJFK 271051Z 21011KT 9SM BKN008 BKN250 24/24 A3000 RMK AO2 SLP159 BKN008 V SCT T02390239 $=
27/07/2023 09:51->METAR KJFK 270951Z 20010KT 10SM FEW035 SCT140 BKN250 24/23 A3000 RMK AO2 SLP158 T02390233 $=
27/07/2023 08:51->METAR KJFK 270851Z 19008KT 10SM BKN250 23/22 A3000 RMK AO2 SLP157 T02330222 56016 $=
27/07/2023 07:51->METAR KJFK 270751Z 23008KT 10SM BKN250 23/22 A3001 RMK AO2 SLP162 T02280222 $=
27/07/2023 06:51->METAR KJFK 270651Z 21011KT 10SM BKN250 23/22 A3003 RMK AO2 SLP167 T02330222 $=
27/07/2023 05:51->METAR KJFK 270551Z 22009KT 10SM SCT250 23/22 A3004 RMK AO2 SLP173 T02330222 10250 20233 50000 $=
27/07/2023 04:51->METAR KJFK 270451Z 21011KT 10SM SCT250 23/22 A3006 RMK AO2 SLP177 T02330222 402890200 $=
27/07/2023 03:51->METAR KJFK 270351Z 20013KT 10SM SCT250 23/22 A3004 RMK AO2 SLP173 T02330222 $=
27/07/2023 02:51->METAR KJFK 270251Z 19016KT 10SM SCT250 24/22 A3004 RMK AO2 SLP172 T02390222 58007 $=
27/07/2023 01:51->METAR KJFK 270151Z 19013KT 10SM BKN250 24/22 A3006 RMK AO2 SLP179 T02440217 $=
27/07/2023 00:51->METAR KJFK 270051Z 18016KT 10SM FEW050 BKN250 25/19 A3007 RMK AO2 SLP181 T02500194 $=
26/07/2023 23:51->METAR KJFK 262351Z 19016KT 10SM FEW055 BKN250 25/21 A3006 RMK AO2 SLP180 T02500211 10289 20250 55002 $=
26/07/2023 22:51->METAR KJFK 262251Z 19015KT 10SM FEW055 SCT250 26/21 A3005 RMK AO2 SLP174 T02610206 $=
26/07/2023 21:51->METAR KJFK 262151Z 18014KT 10SM FEW055 SCT250 27/20 A3005 RMK AO2 SLP175 T02720200 $=
26/07/2023 20:51->METAR KJFK 262051Z 18016KT 10SM FEW055 SCT250 28/21 A3007 RMK AO2 SLP182 T02780211 58008 $=
26/07/2023 19:51->METAR KJFK 261951Z 19012KT 10SM FEW055 SCT250 28/20 A3008 RMK AO2 SLP185 T02830200 $=
26/07/2023 18:51->METAR KJFK 261851Z 20013KT 10SM FEW050 FEW250 28/21 A3009 RMK AO2 SLP188 T02780206 $=
26/07/2023 17:51->METAR KJFK 261751Z 19011KT 10SM FEW050 FEW250 29/19 A3009 RMK AO2 SLP190 T02890189 10289 20233 58010 $=
26/07/2023 16:51->METAR KJFK 261651Z 21011KT 10SM FEW050 FEW250 28/20 A3010 RMK AO2 SLP193 T02830200 $=
26/07/2023 15:51->METAR KJFK 261551Z 22006KT 10SM FEW047 FEW250 28/19 A3012 RMK AO2 SLP199 T02830194 $=
26/07/2023 14:51->METAR KJFK 261451Z 23006KT 10SM FEW250 27/19 A3012 RMK AO2 SLP200 T02720194 50003 $=
26/07/2023 13:51->METAR KJFK 261351Z 33004KT 10SM FEW250 27/19 A3012 RMK AO2 SLP201 T02670194 $=
26/07/2023 12:51->METAR KJFK 261251Z 26007KT 10SM SCT250 24/20 A3014 RMK AO2 SLP204 T02390200 $=
26/07/2023 11:51->METAR KJFK 261151Z 26004KT 10SM FEW250 23/19 A3012 RMK AO2 SLP198 70024 T02330194 10233 20200 53009 $=
26/07/2023 10:51->METAR KJFK 261051Z 28006KT 9SM FEW023 FEW160 SCT250 21/19 A3010 RMK AO2 SLP193 T02110189 $=
26/07/2023 09:51->METAR KJFK 260951Z 27004KT 10SM FEW020 SCT250 20/19 A3009 RMK AO2 SLP190 T02000189 $=
26/07/2023 08:51->METAR KJFK 260851Z 28005KT 10SM SCT250 21/19 A3009 RMK AO2 SLP189 T02060189 53003 $=
26/07/2023 07:51->METAR KJFK 260751Z 00000KT 10SM FEW013 SCT250 21/19 A3007 RMK AO2 SLP181 T02060189 $=
26/07/2023 06:51->METAR KJFK 260651Z 00000KT 7SM FEW025 BKN250 20/19 A3007 RMK AO2 SLP183 T02000194 $=
26/07/2023 05:51->METAR KJFK 260551Z 01005KT 8SM FEW015 FEW120 SCT250 21/20 A3008 RMK AO2 SLP186 T02060200 10217 20206 50002 $=
26/07/2023 04:51->METAR KJFK 260451Z 33004KT 10SM BKN013 BKN250 22/19 A3008 RMK AO2 SLP187 T02170194 402890206 $=
26/07/2023 03:51->METAR KJFK 260351Z 25006KT 10SM SCT015 SCT130 BKN250 21/19 A3008 RMK AO2 SLP184 T02110194 $=
26/07/2023 02:51->METAR KJFK 260251Z 00000KT 10SM FEW025 FEW120 BKN250 21/19 A3008 RMK AO2 SLP186 T02110194 51006 $=
26/07/2023 01:51->METAR KJFK 260151Z 24004KT 10SM FEW014 FEW100 BKN250 21/20 A3008 RMK AO2 SLP185 T02110200 $=
26/07/2023 00:51->METAR KJFK 260051Z 29005KT 10SM FEW014 FEW055 SCT100 BKN250 22/20 A3008 RMK AO2 SLP184 T02170200 $=
25/07/2023 23:51->METAR KJFK 252351Z 27006KT 10SM FEW025 FEW055 FEW150 BKN250 22/19 A3007 RMK AO2 RAB02E13 SLP181 P0000 60024 T02170189 10283 20206 56010 $=
25/07/2023 22:51->METAR KJFK 252251Z 00000KT 10SM FEW011 FEW025 SCT055 BKN150 BKN250 22/19 A3007 RMK AO2 RAE16 SLP182 P0001 T02170194 $=
25/07/2023 21:51->METAR KJFK 252151Z 00000KT 10SM -RA FEW013 SCT055 OVC120 21/20 A3008 RMK AO2 TSE22 SLP186 P0006 T02110200 $=
25/07/2023 20:51->METAR KJFK 252051Z 00000KT 5SM -TSRA BR FEW013 SCT040CB OVC060 21/20 A3010 RMK AO2 PK WND 23031/1953 WSHFT 1943 RAB01 SLP191 OCNL LTGICCG NE-SW TS NE-SW MOV NE P0017 60017 T02060200 50018 $=
25/07/2023 19:51->METAR KJFK 251951Z 23022G31KT 10SM TS SCT015 BKN050CB BKN100 BKN160 BKN250 25/22 A3007 RMK AO2 PK WND 24031/1951 TSB32 SLP182 FRQ LTGICCG SW-N TS SW-N MOV NE VCSH SW-N T02500217=
25/07/2023 18:51->METAR KJFK 251851Z 18016KT 10SM SCT050 BKN250 27/22 A3005 RMK AO2 SLP174 CB DSNT W-NW T02670217=
25/07/2023 17:51->METAR KJFK 251751Z 17014KT 10SM FEW050 FEW250 28/21 A3004 RMK AO2 SLP172 TCU DSNT NE T02780206 10289 20239 58019=
25/07/2023 16:51->METAR KJFK 251651Z 19011KT 10SM FEW048 FEW250 28/22 A3008 RMK AO2 SLP185 CB AND TCU DSNT NE T02780217=
25/07/2023 15:51->METAR KJFK 251551Z 19007KT 10SM FEW045 FEW250 28/21 A3010 RMK AO2 SLP192 TCU DSNT NE T02780211=
25/07/2023 14:51->METAR KJFK 251451Z 19008KT 10SM FEW042 FEW250 26/21 A3010 RMK AO2 SLP191 T02610206 51003=
25/07/2023 13:51->METAR KJFK 251351Z 21005KT 10SM FEW037 FEW120 SCT250 27/21 A3009 RMK AO2 SLP189 T02670206=
25/07/2023 12:51->METAR KJFK 251251Z VRB03KT 10SM SCT120 SCT250 26/20 A3009 RMK AO2 SLP190 T02560200=
25/07/2023 11:51->METAR KJFK 251151Z 22005KT 10SM FEW140 FEW250 24/21 A3009 RMK AO2 SLP188 T02390206 10239 20217 53006=
25/07/2023 10:51->METAR KJFK 251051Z 22005KT 10SM FEW140 FEW250 23/21 A3008 RMK AO2 SLP186 T02280206=
25/07/2023 09:51->METAR KJFK 250951Z 20005KT 10SM FEW250 22/20 A3007 RMK AO2 SLP181 T02170200=
25/07/2023 08:51->METAR KJFK 250851Z 22006KT 10SM SCT250 22/20 A3007 RMK AO2 SLP182 T02170200 58008=
25/07/2023 07:51->METAR KJFK 250751Z 23006KT 10SM FEW250 22/19 A3008 RMK AO2 SLP185 T02220194=
25/07/2023 06:51->METAR KJFK 250651Z 23008KT 10SM FEW250 23/19 A3009 RMK AO2 SLP188 T02330194=
25/07/2023 05:51->METAR KJFK 250551Z 23007KT 10SM SCT250 23/22 A3009 RMK AO2 SLP190 T02330217 10244 20233 55001=
25/07/2023 04:51->METAR KJFK 250451Z 21009KT 10SM FEW045 SCT250 24/21 A3009 RMK AO2 SLP189 T02390211 402830217=
25/07/2023 03:51->METAR KJFK 250351Z 20010KT 10SM FEW045 FEW140 FEW250 24/23 A3010 RMK AO2 SLP191 T02390228=
25/07/2023 02:51->METAR KJFK 250251Z 18010KT 10SM FEW050 FEW150 SCT250 24/23 A3010 RMK AO2 SLP191 T02390228 52005=
25/07/2023 01:51->METAR KJFK 250151Z 18012KT 10SM FEW040 FEW130 FEW250 24/22 A3009 RMK AO2 SLP188 T02440222=
25/07/2023 00:51->METAR KJFK 250051Z 16009KT 10SM FEW050 FEW100 FEW250 24/22 A3009 RMK AO2 SLP188 T02440217=
24/07/2023 23:51->METAR KJFK 242351Z 17010KT 10SM FEW025 FEW050 FEW100 SCT250 24/21 A3008 RMK AO2 SLP185 T02440211 10283 20244 58001=
24/07/2023 22:51->METAR KJFK 242251Z 15014KT 10SM FEW045 FEW100 FEW250 26/21 A3008 RMK AO2 SLP186 T02560206=
24/07/2023 21:51->METAR KJFK 242151Z 15014KT 10SM FEW045 FEW100 FEW250 27/20 A3008 RMK AO2 SLP187 T02670200=
24/07/2023 20:51->METAR KJFK 242051Z 17012KT 10SM FEW045 FEW100 FEW150 SCT250 27/20 A3008 RMK AO2 SLP187 T02720200 56015=
24/07/2023 19:51->METAR KJFK 241951Z 17013KT 10SM FEW025 FEW043 SCT150 SCT250 27/21 A3010 RMK AO2 SLP191 T02720211=
24/07/2023 18:51->METAR KJFK 241851Z 17012KT 10SM FEW025 FEW043 BKN150 BKN250 28/21 A3010 RMK AO2 SLP194 T02780206=
24/07/2023 17:51->METAR KJFK 241751Z 19013KT 10SM FEW043 BKN150 BKN250 28/21 A3013 RMK AO2 SLP201 T02780206 10278 20239 58001=
24/07/2023 16:51->METAR KJFK 241651Z 19008KT 10SM FEW043 SCT170 BKN250 27/21 A3013 RMK AO2 SLP203 T02670206=
24/07/2023 15:51->METAR KJFK 241551Z 19007KT 9SM FEW040 SCT170 BKN250 26/18 A3013 RMK AO2 SLP203 T02610183=
24/07/2023 14:51->METAR KJFK 241451Z 20006KT 10SM FEW130 BKN170 BKN250 26/19 A3013 RMK AO2 SLP203 T02560189 53007=
24/07/2023 13:51->METAR KJFK 241351Z 20004KT 10SM FEW140 BKN190 OVC250 24/18 A3012 RMK AO2 SLP199 T02440183=
24/07/2023 12:51->METAR KJFK 241251Z 18004KT 10SM FEW150 SCT210 OVC250 24/19 A3011 RMK AO2 SLP197 T02440194=
24/07/2023 11:51->METAR KJFK 241151Z 20006KT 10SM FEW150 FEW200 BKN250 24/19 A3011 RMK AO2 SLP195 T02390194 10239 20217 53007=
24/07/2023 10:51->METAR KJFK 241051Z 23005KT 10SM FEW200 BKN250 23/19 A3010 RMK AO2 SLP192 T02280189=
24/07/2023 09:51->METAR KJFK 240951Z 23007KT 10SM FEW200 SCT250 22/18 A3009 RMK AO2 SLP188 T02220178=
24/07/2023 08:51->METAR KJFK 240851Z 24006KT 10SM SCT250 22/18 A3009 RMK AO2 SLP188 T02170183 53006=
24/07/2023 07:51->METAR KJFK 240751Z 24006KT 10SM FEW250 22/18 A3007 RMK AO2 SLP184 T02170178=
24/07/2023 06:51->METAR KJFK 240651Z 22006KT 10SM FEW250 22/17 A3007 RMK AO2 SLP181 T02220167=
24/07/2023 05:51->METAR KJFK 240551Z 22009KT 10SM SCT250 23/16 A3007 RMK AO2 SLP182 T02330161 10250 20233 51005=
24/07/2023 04:51->METAR KJFK 240451Z 23009KT 10SM FEW070 SCT250 24/16 A3006 RMK AO2 SLP180 T02390161 403000200=
24/07/2023 03:51->METAR KJFK 240351Z 21010KT 10SM SCT075 24/18 A3006 RMK AO2 SLP179 T02440178=
24/07/2023 02:51->METAR KJFK 240251Z 20012KT 10SM SCT075 25/18 A3005 RMK AO2 SLP177 T02500178 51019=
24/07/2023 01:51->METAR KJFK 240151Z 19008KT 10SM SCT070 24/19 A3005 RMK AO2 SLP174 T02440194=
24/07/2023 00:51->METAR KJFK 240051Z 19010KT 10SM FEW070 SCT095 24/21 A3001 RMK AO2 SLP163 T02440211=
23/07/2023 23:51->METAR KJFK 232351Z 19013KT 10SM SCT070 SCT090 25/19 A3000 RMK AO2 SLP157 T02500194 10300 20250 53011=
23/07/2023 22:51->METAR KJFK 232251Z 19011KT 10SM SCT070 BKN090 26/18 A2998 RMK AO2 SLP152 T02560178=
23/07/2023 21:51->METAR KJFK 232151Z 20016KT 10SM SCT075 SCT095 27/19 A2997 RMK AO2 SLP150 T02670189=
23/07/2023 20:51->METAR KJFK 232051Z 18011KT 10SM SCT070 28/17 A2996 RMK AO2 SLP146 T02780172 55002=
23/07/2023 19:51->METAR KJFK 231951Z 18010KT 10SM FEW070 29/17 A2996 RMK AO2 SLP144 T02890172=
23/07/2023 18:51->METAR KJFK 231851Z 21010KT 10SM SCT070 29/17 A2996 RMK AO2 SLP147 T02940172=
23/07/2023 17:51->METAR KJFK 231751Z 21011KT 10SM SCT070 29/16 A2997 RMK AO2 SLP148 T02940161 10300 20244 58004=
23/07/2023 16:51->METAR KJFK 231651Z 22005KT 10SM SCT065 29/15 A2998 RMK AO2 SLP151 T02890150=
23/07/2023 15:51->METAR KJFK 231551Z VRB06KT 10SM FEW060 FEW180 29/15 A2998 RMK AO2 SLP151 T02940150=
23/07/2023 14:51->METAR KJFK 231451Z 36008KT 10SM FEW060 FEW200 FEW250 28/14 A2998 RMK AO2 SLP152 T02830139 51012=
23/07/2023 13:51->METAR KJFK 231351Z 01007KT 10SM FEW200 FEW250 27/14 A2998 RMK AO2 SLP152 T02720144=
23/07/2023 12:51->METAR KJFK 231251Z 02008KT 10SM FEW250 26/14 A2997 RMK AO2 SLP148 T02610144=
23/07/2023 11:51->METAR KJFK 231151Z 02008KT 10SM FEW250 24/15 A2995 RMK AO2 SLP141 T02440150 10244 20200 52016=
23/07/2023 10:51->METAR KJFK 231051Z 01005KT 10SM FEW250 22/17 A2993 RMK AO2 SLP136 T02170167=
23/07/2023 09:51->METAR KJFK 230951Z 36006KT 10SM CLR 20/17 A2991 RMK AO2 SLP129 T02000172=
23/07/2023 08:51->METAR KJFK 230851Z 36004KT 10SM FEW150 21/18 A2990 RMK AO2 SLP124 T02060178 53008=
23/07/2023 07:51->METAR KJFK 230751Z 01004KT 10SM CLR 21/17 A2988 RMK AO2 SLP117 T02060167=
23/07/2023 06:51->METAR KJFK 230651Z 05003KT 10SM CLR 21/16 A2987 RMK AO2 SLP116 T02110156=
23/07/2023 05:51->METAR KJFK 230551Z 02004KT 10SM FEW150 SCT250 22/16 A2988 RMK AO2 SLP116 T02170161 10272 20211 53010=
23/07/2023 04:51->METAR KJFK 230451Z 18003KT 10SM FEW150 SCT250 22/17 A2987 RMK AO2 SLP113 T02220167 403000211=
23/07/2023 03:51->METAR KJFK 230351Z 13003KT 10SM FEW150 SCT250 22/17 A2985 RMK AO2 SLP108 T02220167=
23/07/2023 02:51->METAR KJFK 230251Z 00000KT 10SM FEW150 SCT250 23/13 A2984 RMK AO2 SLP106 T02330133 51008=
23/07/2023 01:51->METAR KJFK 230151Z 00000KT 10SM SCT250 25/13 A2984 RMK AO2 SLP105 T02500133=
23/07/2023 00:51->METAR KJFK 230051Z 01005KT 10SM BKN250 26/13 A2983 RMK AO2 SLP100 T02610128=
22/07/2023 23:51->METAR KJFK 222351Z 04005KT 10SM BKN250 27/12 A2982 RMK AO2 SLP097 T02720122 10300 20272 53005=
22/07/2023 22:51->METAR KJFK 222251Z 33007KT 10SM BKN250 28/12 A2980 RMK AO2 SLP092 T02780117=
22/07/2023 21:51->METAR KJFK 222151Z 34010KT 10SM SCT075 BKN250 29/13 A2979 RMK AO2 SLP089 T02940128=
22/07/2023 20:51->METAR KJFK 222051Z 33012G16KT 10SM BKN065 BKN250 29/13 A2980 RMK AO2 SLP092 T02890133 53001=
22/07/2023 19:51->METAR KJFK 221951Z 35007KT 10SM BKN065 BKN250 28/14 A2980 RMK AO2 SLP090 T02780144=
22/07/2023 18:51->METAR KJFK 221851Z 10SM SCT060 BKN250 28/14 A2980 RMK AO2 SLP091 T02830144=
22/07/2023 17:51->METAR KJFK 221751Z VRB05KT 10SM SCT050 BKN250 27/16 A2980 RMK AO2 SLP091 T02670156 10278 20222 58004=
22/07/2023 16:51->METAR KJFK 221651Z 34008KT 10SM SCT047 BKN250 27/16 A2981 RMK AO2 SLP093 T02670156=
22/07/2023 15:51->METAR KJFK 221551Z 35009KT 10SM SCT045 SCT250 27/16 A2981 RMK AO2 SLP095 T02670161=
22/07/2023 14:51->METAR KJFK 221451Z 02011KT 10SM FEW044 SCT250 26/16 A2981 RMK AO2 SLP095 T02610161 51005=
22/07/2023 13:51->METAR KJFK 221351Z 01010KT 10SM FEW042 SCT250 25/16 A2981 RMK AO2 SLP094 T02500156=
22/07/2023 12:51->METAR KJFK 221251Z 33011KT 10SM FEW037 SCT250 24/16 A2980 RMK AO2 SLP092 T02390161=
22/07/2023 11:51->METAR KJFK 221151Z 34011KT 10SM BKN250 22/16 A2980 RMK AO2 SLP090 70001 T02220156 10233 20211 53014=
22/07/2023 10:51->METAR KJFK 221051Z 34012KT 10SM SCT250 22/16 A2978 RMK AO2 SLP084 T02170156=
22/07/2023 09:51->METAR KJFK 220951Z 34008KT 10SM FEW150 SCT250 21/16 A2977 RMK AO2 SLP080 T02110156=
22/07/2023 08:51->METAR KJFK 220851Z 34010KT 10SM FEW150 22/16 A2976 RMK AO2 SLP076 T02170161 55001=
22/07/2023 07:51->METAR KJFK 220751Z 34012KT 10SM FEW150 22/16 A2975 RMK AO2 SLP074 T02220156=
22/07/2023 06:51->METAR KJFK 220651Z 34009KT 10SM FEW150 23/16 A2975 RMK AO2 SLP075 T02280156=
22/07/2023 05:51->METAR KJFK 220551Z 33010KT 10SM FEW150 23/16 A2976 RMK AO2 SLP077 T02330161 10272 20233 53004=
22/07/2023 04:51->METAR KJFK 220451Z 33011KT 10SM FEW150 24/16 A2975 RMK AO2 SLP074 T02390161 402830228=
22/07/2023 03:51->METAR KJFK 220351Z 33013KT 10SM CLR 25/16 A2974 RMK AO2 SLP072 T02500156=
22/07/2023 02:51->METAR KJFK 220251Z 35010KT 10SM FEW040 26/18 A2975 RMK AO2 SLP073 T02610178 51010=
22/07/2023 01:51->METAR KJFK 220151Z 30009KT 10SM FEW050 FEW080 FEW250 26/18 A2974 RMK AO2 SLP070 T02610178=
22/07/2023 00:51->METAR KJFK 220051Z 27013KT 10SM FEW055 FEW080 FEW250 27/18 A2973 RMK AO2 SLP068 T02670178=
21/07/2023 23:51->METAR KJFK 212351Z 24013KT 10SM FEW055 FEW080 FEW250 27/20 A2972 RMK AO2 SLP063 T02670200 10283 20261 55002=
21/07/2023 22:51->METAR KJFK 212251Z 20011KT 10SM FEW055 FEW100 FEW250 27/22 A2971 RMK AO2 SLP061 T02670222=
21/07/2023 21:51->METAR KJFK 212151Z 20013KT 10SM SCT055 SCT100 SCT250 27/23 A2972 RMK AO2 SLP063 T02720228=
21/07/2023 20:51->METAR KJFK 212051Z 19012KT 10SM SCT045TCU SCT110 SCT250 28/22 A2972 RMK AO2 SLP064 TCU OHD T02780222 56010=
21/07/2023 19:51->METAR KJFK 211951Z 18013KT 10SM SCT045 SCT110 SCT250 28/22 A2973 RMK AO2 SLP067 T02830222=
21/07/2023 18:51->METAR KJFK 211851Z 19008KT 10SM FEW023 SCT042 SCT110 28/22 A2973 RMK AO2 LTG DSNT E SLP068 CB DSNT NE-E T02780222=
21/07/2023 17:51->METAR KJFK 211751Z 21009KT 10SM FEW023 SCT042 BKN110 27/23 A2975 RMK AO2 SLP074 CB DSNT E-SE MOV NE 60001 T02720228 10278 20233 58004=
21/07/2023 16:51->METAR KJFK 211651Z 21007KT 10SM FEW020 FEW037CB BKN100 BKN140 27/22 A2977 RMK AO2 SLP080 CB SE-S MOV NE T02670222=
21/07/2023 15:51->METAR KJFK 211551Z 23009KT 10SM FEW019 FEW035 BKN110 BKN170 26/22 A2978 RMK AO2 SLP083 T02610222=
21/07/2023 14:51->METAR KJFK 211451Z 19005KT 10SM FEW015 FEW035 SCT120 SCT170 26/23 A2976 RMK AO2 SLP078 60001 T02560228 56010=
21/07/2023 13:51->METAR KJFK 211351Z 24005KT 10SM FEW012 FEW032 BKN110 BKN230 24/22 A2977 RMK AO2 RAE21 SLP079 P0001 T02440222=
21/07/2023 12:51->METAR KJFK 211251Z 20010KT 10SM -RA FEW016 FEW027 BKN110 OVC200 24/22 A2979 RMK AO2 RAB45 SLP086 P0000 T02390217=
21/07/2023 11:51->METAR KJFK 211151Z 18012KT 10SM FEW012 SCT022 BKN100 OVC200 24/23 A2979 RMK AO2 RAE37 SLP089 SCT V BKN P0000 60003 70003 T02390228 10239 20228 56011 $=
21/07/2023 10:51->METAR KJFK 211051Z 16010KT 9SM -RA FEW012 SCT039 BKN070 OVC200 23/23 A2979 RMK AO2 LTG DSNT N-E TSB0958E42 SLP089 CB DSNT NE-SE MOV E P0003 T02330228 $=
21/07/2023 09:51->METAR KJFK 210951Z 20008KT 10SM +RA BKN037CB BKN080 OVC090 23/22 A2982 RMK AO2 VIS 2 1/2 W LTG DSNT W-N RAB49 SLP097 CB OHD-W-NW MOV E P0000 T02330222 $=
21/07/2023 08:51->METAR KJFK 210851Z 18005KT 10SM SCT017 BKN043 BKN250 23/22 A2983 RMK AO2 SLP100 T02330222 56010 $=
21/07/2023 07:51->METAR KJFK 210751Z 18006KT 10SM SCT018 SCT250 23/22 A2983 RMK AO2 SLP100 T02280222 $=
21/07/2023 06:51->METAR KJFK 210651Z 19007KT 10SM BKN016 BKN220 23/22 A2984 RMK AO2 SLP104 T02330222 $=
21/07/2023 05:51->METAR KJFK 210551Z 18006KT 10SM SCT027 SCT250 23/22 A2986 RMK AO2 SLP110 T02280217 10244 20228 56015 $=
21/07/2023 04:51->METAR KJFK 210451Z 16005KT 9SM SCT021 SCT250 23/22 A2987 RMK AO2 SLP114 T02280217 402890211=
21/07/2023 03:51->METAR KJFK 210351Z 18005KT 7SM FEW012 SCT250 23/22 A2989 RMK AO2 SLP120 T02280222=
21/07/2023 02:51->METAR KJFK 210251Z 20007KT 8SM FEW190 SCT250 23/22 A2990 RMK AO2 SLP125 T02330222 58006=
21/07/2023 01:51->METAR KJFK 210151Z 19006KT 9SM FEW250 23/22 A2991 RMK AO2 SLP127 T02330217=
21/07/2023 00:51->METAR KJFK 210051Z 18008KT 9SM FEW095 SCT250 24/22 A2992 RMK AO2 SLP130 T02390217=
20/07/2023 23:51->METAR KJFK 202351Z 19009KT 10SM FEW095 BKN100 24/21 A2992 RMK AO2 SLP131 T02440211 10283 20244 55013=
20/07/2023 22:51->METAR KJFK 202251Z 16006KT 10SM FEW095 BKN250 26/18 A2992 RMK AO2 SLP131 T02560178=
20/07/2023 21:51->METAR KJFK 202151Z 15006KT 10SM FEW095 BKN250 27/17 A2993 RMK AO2 SLP134 T02670172=
20/07/2023 20:51->METAR KJFK 202051Z 16007KT 10SM FEW055 SCT095 BKN250 27/17 A2996 RMK AO2 SLP144 T02670172 58006=
20/07/2023 19:51->METAR KJFK 201951Z 18008KT 10SM FEW055 SCT100 BKN250 28/17 A2997 RMK AO2 SLP149 T02780172=
20/07/2023 18:51->METAR KJFK 201851Z 17009KT 10SM FEW055 SCT100 SCT230 28/19 A2997 RMK AO2 SLP149 T02780194=
20/07/2023 17:51->METAR KJFK 201751Z 15011KT 10SM SCT055 SCT100 BKN250 28/18 A2998 RMK AO2 SLP151 T02830178 10289 20239 58008=
20/07/2023 16:51->METAR KJFK 201651Z 19011KT 10SM FEW055 FEW100 BKN250 28/19 A2999 RMK AO2 SLP154 T02780194=
20/07/2023 15:51->METAR KJFK 201551Z 17010KT 10SM FEW050 SCT095 SCT250 27/21 A3000 RMK AO2 SLP159 T02670206=
20/07/2023 14:51->METAR KJFK 201451Z 08007KT 10SM FEW050 SCT100 SCT250 28/17 A3000 RMK AO2 SLP158 T02780172 58005=
20/07/2023 13:51->METAR KJFK 201351Z 03005KT 10SM SCT100 SCT250 27/17 A3001 RMK AO2 SLP161 T02670172=
20/07/2023 12:51->METAR KJFK 201251Z 05007KT 10SM SCT085 SCT250 26/18 A3001 RMK AO2 SLP163 T02560178=
20/07/2023 11:51->METAR KJFK 201151Z 02007KT 6SM HZ FEW015 SCT250 24/21 A3001 RMK AO2 SLP163 70012 T02390206 10239 20211 53008 $=
20/07/2023 10:51->METAR KJFK 201051Z 36004KT 2 1/2SM BR FEW012 SCT250 22/22 A3000 RMK AO2 SLP158 T02220217 $=
20/07/2023 09:51->METAR KJFK 200951Z 36005KT 3SM BR FEW012 SCT250 21/21 A2999 RMK AO2 SLP157 T02110211 $=
20/07/2023 08:51->METAR KJFK 200851Z 01004KT 5SM BR FEW021 SCT250 21/21 A2999 RMK AO2 SLP155 T02110206 58006 $=
20/07/2023 07:51->METAR KJFK 200751Z 00000KT 5SM BR FEW020 SCT250 22/21 A3000 RMK AO2 SLP157 T02220211 $=
20/07/2023 06:51->METAR KJFK 200651Z 33005KT 5SM BR FEW022 SCT250 22/21 A3001 RMK AO2 SLP161 T02170211 $=
20/07/2023 05:51->METAR KJFK 200551Z 00000KT 7SM FEW025 SCT250 22/21 A3001 RMK AO2 SLP161 T02170211 10233 20217 56007 $=
20/07/2023 04:51->METAR KJFK 200451Z 23004KT 8SM BKN250 22/21 A3002 RMK AO2 SLP164 T02170211 402560211 $=
20/07/2023 03:51->METAR KJFK 200351Z 19003KT 8SM FEW020 FEW050 SCT250 22/21 A3002 RMK AO2 SLP164 T02220211 $=
20/07/2023 02:51->METAR KJFK 200251Z 22003KT 8SM FEW055 SCT100 SCT250 23/21 A3003 RMK AO2 SLP168 T02280211 50005 $=
20/07/2023 01:51->METAR KJFK 200151Z 00000KT 9SM FEW050 FEW090 SCT250 23/21 A3003 RMK AO2 SLP170 T02280211 $=
20/07/2023 00:51->METAR KJFK 200051Z 17006KT 9SM FEW050 SCT090 23/21 A3002 RMK AO2 SLP164 T02330211 $=
19/07/2023 23:51->METAR KJFK 192351Z 18006KT 10SM FEW030 SCT070 SCT250 23/21 A3001 RMK AO2 SLP163 60000 T02330211 10256 20222 53003=
19/07/2023 22:51->METAR KJFK 192251Z 18007KT 10SM FEW030 FEW050 SCT250 24/21 A3000 RMK AO2 SLP158 T02440211 $=
19/07/2023 21:51->METAR KJFK 192151Z 19007KT 10SM SCT030 SCT230 24/21 A3000 RMK AO2 SLP158 T02440211 $=
19/07/2023 20:51->METAR KJFK 192051Z 22005KT 10SM SCT020 SCT039 SCT090 26/21 A3000 RMK AO2 SLP160 60000 T02560206 56014 $=
19/07/2023 19:51->METAR KJFK 191951Z 21007KT 10SM FEW014 SCT039 SCT090 BKN130 25/21 A3002 RMK AO2 SLP164 T02500211 $=
19/07/2023 18:51->METAR KJFK 191851Z 16004KT 9SM SCT011 BKN035 BKN046 BKN130 23/21 A3003 RMK AO2 RAE1756 SLP168 P0000 T02330211 $=
19/07/2023 17:51->METAR KJFK 191751Z 15003KT 6SM -RA BR FEW006 BKN023 BKN041 OVC130 22/21 A3004 RMK AO2 SLP174 P0011 60012 T02220211 10250 20211 50003 $=
19/07/2023 16:51->METAR KJFK 191651Z 19007KT 4SM R04R/6000VP6000FT RA BR FEW014 SCT027 BKN055 OVC130 22/21 A3006 RMK AO2 RAB43 SLP179 VIS S-SW 2 1/2 P0001 T02170206 $=
19/07/2023 15:51->METAR KJFK 191551Z 13005KT 7SM BKN055CB BKN130 OVC190 24/19 A3005 RMK AO2 LTG DSNT SE AND S SLP175 CB S MOV E VCSH SE-SW T02440194 $=
19/07/2023 14:51->METAR KJFK 191451Z 06005KT 7SM FEW060 BKN130 BKN190 OVC250 25/19 A3004 RMK AO2 SLP171 60000 T02500194 50002 $=
19/07/2023 13:51->METAR KJFK 191351Z 19004KT 6SM HZ FEW060 SCT110 OVC220 24/20 A3004 RMK AO2 RAB1257E07 SLP172 P0000 T02390200 $=
19/07/2023 12:51->METAR KJFK 191251Z 16004KT 6SM HZ FEW065 OVC085 23/21 A3004 RMK AO2 SLP172 T02330206 $=
19/07/2023 11:51->METAR KJFK 191151Z 00000KT 6SM HZ FEW060 BKN100 OVC250 23/19 A3003 RMK AO2 SLP169 70139 T02330194 10244 20217 53014 $=
19/07/2023 10:51->METAR KJFK 191051Z 00000KT 6SM HZ FEW055 SCT090 SCT140 BKN250 23/20 A3001 RMK AO2 SLP162 T02280200 $=
19/07/2023 09:51->METAR KJFK 190951Z 29003KT 6SM BR SCT250 22/20 A2999 RMK AO2 SLP156 T02220200 $=
19/07/2023 08:51->METAR KJFK 190851Z 26008KT 7SM FEW250 22/20 A2999 RMK AO2 SLP155 T02220200 53007 $=
19/07/2023 07:51->METAR KJFK 190751Z 27006KT 8SM FEW250 22/19 A2998 RMK AO2 SLP151 T02220189 $=
19/07/2023 06:51->METAR KJFK 190651Z 27005KT 8SM FEW250 23/19 A2997 RMK AO2 SLP147 T02330189 $=
19/07/2023 05:51->METAR KJFK 190551Z 28008KT 8SM FEW250 24/19 A2997 RMK AO2 SLP147 T02440194 10244 20228 50002=
19/07/2023 04:51->METAR KJFK 190451Z 28008KT 9SM FEW250 24/21 A2997 RMK AO2 SLP150 T02440206 402830211=
19/07/2023 03:51->METAR KJFK 190351Z 25008KT 10SM FEW250 24/23 A2998 RMK AO2 SLP151 T02390228=
19/07/2023 02:51->METAR KJFK 190251Z 24007KT 10SM R04R/2400VP6000FT FEW045 SCT250 23/22 A2996 RMK AO2 SLP145 T02330222 53013=
19/07/2023 01:51->METAR KJFK 190151Z 22005KT 10SM R04R/0800VP6000FT FEW035 FEW250 23/22 A2995 RMK AO2 SLP141 T02330217=
19/07/2023 00:51->METAR KJFK 190051Z 00000KT 10SM FEW035 FEW250 24/22 A2993 RMK AO2 SLP134 TCU DSNT E-SE T02390217=
18/07/2023 23:51->METAR KJFK 182351Z 19006KT 9SM FEW035 FEW075 SCT100 SCT250 24/21 A2992 RMK AO2 SLP132 TCU DSNT S 60017 T02390211 10256 20217 55006=
18/07/2023 22:51->METAR KJFK 182251Z 17012KT 10SM FEW033 SCT095 SCT170 SCT250 25/22 A2992 RMK AO2 RAE2155 SLP131 P0000 T02500217=
18/07/2023 21:51->METAR KJFK 182151Z 16014KT 10SM -RA FEW017 SCT033 BKN120 BKN170 BKN250 26/24 A2991 RMK AO2 RAE17B36 SLP128 P0000 T02560239=
18/07/2023 20:51->METAR KJFK 182051Z 18012KT 10SM -RA SCT033CB SCT060 BKN100 BKN250 25/23 A2994 RMK AO2 VIS 2 1/2 W LTG DSNT S AND NW RAE03B29 SLP138 CB SW MOV NE CB DSNT NW P0000 60017 T02500228 55010=
18/07/2023 19:51->METAR KJFK 181951Z 15012KT 8SM -RA FEW021 SCT033 BKN100 OVC140 23/23 A2994 RMK AO2 LTG DSNT SW RAB04 SLP137 CB DSNT E-SE P0006 T02330228=
18/07/2023 18:51->METAR KJFK 181851Z 16007KT 9SM FEW016 SCT033 BKN090 BKN140 BKN250 23/22 A2996 RMK AO2 LTG DSNT ALQDS RAE50 TSE13 SLP145 CB DSNT E P0011 T02330222=
18/07/2023 17:51->METAR KJFK 181751Z 17007KT 2SM -TSRA BR SCT011 BKN022CB OVC050 21/21 A2997 RMK AO2 WSHFT 1659 LTG DSNT ALQDS RAB1658 SLP148 OCNL LTGICCG E TS E MOV E P0122 60122 T02110211 10283 20211 55005=
18/07/2023 16:51->METAR KJFK 181651Z 18011KT 7SM TS BKN009 BKN020CB BKN040 BKN250 27/24 A2997 RMK AO2 LTG DSNT SW-N TSB44 SLP147 OCNL LTGICCG W TS W MOV E T02670239=
18/07/2023 15:51->METAR KJFK 181551Z 17013KT 10SM SCT009 SCT038 BKN180 BKN250 28/24 A2998 RMK AO2 LTG DSNT W AND NW SLP150 T02780244=
18/07/2023 14:51->METAR KJFK 181451Z 19012KT 10SM SCT007 BKN040 BKN180 BKN250 27/24 A2998 RMK AO2 SLP153 T02670244 51006=
18/07/2023 13:51->METAR KJFK 181351Z 17009KT 10SM BKN008 BKN180 BKN250 26/24 A2998 RMK AO2 SLP151 T02610244=
18/07/2023 12:51->METAR KJFK 181251Z 18007KT 10SM SCT009 BKN180 BKN250 26/24 A2997 RMK AO2 SLP149 T02610239=
18/07/2023 11:51->METAR KJFK 181151Z 18005KT 10SM SCT180 BKN250 25/24 A2997 RMK AO2 SLP147 T02500239 10256 20233 51007=
18/07/2023 10:51->METAR KJFK 181051Z 18005KT 10SM SCT180 BKN250 24/23 A2996 RMK AO2 SLP145 T02440233=
18/07/2023 09:51->METAR KJFK 180951Z 19006KT 10SM SCT120 BKN250 23/23 A2995 RMK AO2 SLP142 T02330228=
18/07/2023 08:51->METAR KJFK 180851Z 22004KT 10SM SCT065 BKN250 23/23 A2994 RMK AO2 SLP140 T02330228 56008=
18/07/2023 07:51->METAR KJFK 180751Z 24005KT 10SM SCT110 BKN250 24/23 A2995 RMK AO2 SLP141 T02390228=
18/07/2023 06:51->METAR KJFK 180651Z 22005KT 10SM FEW047 BKN250 24/22 A2996 RMK AO2 SLP145 T02390222=
18/07/2023 05:51->METAR KJFK 180551Z 21005KT 10SM BKN250 24/21 A2997 RMK AO2 SLP148 T02390206 10256 20239 50001=
18/07/2023 04:51->METAR KJFK 180451Z 21010KT 10SM BKN250 25/21 A2998 RMK AO2 SLP153 T02500206 403110233=
18/07/2023 03:51->METAR KJFK 180351Z 20006KT 10SM BKN250 24/23 A2997 RMK AO2 SLP150 T02440228=
18/07/2023 02:51->METAR KJFK 180251Z 21007KT 10SM FEW065 BKN250 25/22 A2997 RMK AO2 SLP147 T02500222 51012=
18/07/2023 01:51->METAR KJFK 180151Z 19012KT 10SM FEW060 BKN250 25/22 A2996 RMK AO2 SLP145 T02500217=
18/07/2023 00:51->METAR KJFK 180051Z 19014KT 10SM BKN250 26/22 A2995 RMK AO2 SLP141 T02560222=
17/07/2023 23:51->METAR KJFK 172351Z 18012KT 10SM FEW009 BKN250 26/23 A2993 RMK AO2 SLP136 T02560233 10294 20256 52004=
17/07/2023 22:51->METAR KJFK 172251Z 18015KT 10SM FEW009 FEW050 BKN250 26/24 A2993 RMK AO2 SLP134 T02560239=
17/07/2023 21:51->METAR KJFK 172151Z 18013KT 10SM FEW050 BKN250 27/24 A2992 RMK AO2 SLP133 T02670239=
17/07/2023 20:51->METAR KJFK 172051Z 18009KT 10SM FEW060 BKN250 28/23 A2992 RMK AO2 SLP131 T02830233 58010=
17/07/2023 19:51->METAR KJFK 171951Z 17010KT 10SM FEW060 SCT250 29/23 A2994 RMK AO2 SLP137 T02890228=
17/07/2023 18:51->METAR KJFK 171851Z 17010KT 10SM FEW060 SCT250 29/23 A2995 RMK AO2 SLP140 T02890233=
17/07/2023 17:51->METAR KJFK 171751Z 20011KT 10SM FEW080 FEW250 29/23 A2995 RMK AO2 SLP142 T02890233 10311 20250 50005=
17/07/2023 16:51->METAR KJFK 171651Z 21011KT 10SM SCT015 29/23 A2996 RMK AO2 SLP143 T02940233=
17/07/2023 15:51->METAR KJFK 171551Z VRB04KT 10SM FEW080 SCT150 30/19 A2995 RMK AO2 SLP142 T03000194=
17/07/2023 14:51->METAR KJFK 171451Z 01006KT 10SM FEW040 FEW065 FEW200 29/20 A2994 RMK AO2 SLP137 T02940200 53006=
17/07/2023 13:51->METAR KJFK 171351Z 01004KT 10SM FEW055 28/23 A2993 RMK AO2 SLP135 T02780228=
17/07/2023 12:51->METAR KJFK 171251Z 34006KT 10SM FEW014 26/23 A2992 RMK AO2 SLP131 T02610228=
17/07/2023 11:51->METAR KJFK 171151Z 32004KT 10SM BKN013 BKN020 25/23 A2992 RMK AO2 SLP131 70011 T02500233 10250 20233 53019=
17/07/2023 10:51->METAR KJFK 171051Z 26004KT 8SM OVC009 24/23 A2990 RMK AO2 SLP124 T02390233=
17/07/2023 09:51->METAR KJFK 170951Z 27004KT 5SM BR BKN007 OVC010 23/23 A2988 RMK AO2 SLP117 T02330233=
17/07/2023 08:51->METAR KJFK 170851Z 24007KT 10SM BKN007 BKN250 23/23 A2986 RMK AO2 SLP112 T02330233 53007=
17/07/2023 07:51->METAR KJFK 170751Z 25008KT 10SM BKN009 BKN250 24/24 A2984 RMK AO2 SLP106 T02390239=
17/07/2023 06:51->METAR KJFK 170651Z 22006KT 10SM BKN008 BKN250 24/23 A2985 RMK AO2 SLP107 T02390233=
17/07/2023 05:51->METAR KJFK 170551Z 25004KT 10SM SCT008 BKN055 BKN250 24/23 A2984 RMK AO2 SLP105 T02390233 10244 20233 51006=
17/07/2023 04:51->METAR KJFK 170451Z 25005KT 10SM SCT009 BKN050 24/24 A2984 RMK AO2 SLP104 T02440239 402720233=
17/07/2023 03:51->METAR KJFK 170351Z 24003KT 10SM SCT025 SCT120 SCT250 24/23 A2983 RMK AO2 SLP101 T02390233=
17/07/2023 02:51->METAR KJFK 170251Z 21003KT 10SM FEW028 FEW080 FEW110 SCT250 24/24 A2982 RMK AO2 SLP099 T02390239 50012=
17/07/2023 01:51->METAR KJFK 170151Z 20004KT 10SM FEW022 FEW080 SCT110 24/24 A2983 RMK AO2 SLP100 T02390239=
17/07/2023 00:51->METAR KJFK 170051Z 20007KT 10SM FEW007 BKN028 OVC110 24/24 A2981 RMK AO2 SLP095 T02440239=
16/07/2023 23:51->METAR KJFK 162351Z 00000KT 10SM SCT005 BKN010 OVC140 24/24 A2979 RMK AO2 SLP088 60003 T02390239 10272 20239 58001=
16/07/2023 22:51->METAR KJFK 162251Z 15003KT 10SM FEW005 SCT017 BKN039 OVC180 24/24 A2979 RMK AO2 RAE42 SLP088 P0000 T02440239=
16/07/2023 21:51->METAR KJFK 162151Z 18006KT 10SM -RA BKN018 OVC110 24/24 A2979 RMK AO2 SLP089 P0003 T02440239=
16/07/2023 20:51->METAR KJFK 162051Z 20006KT 10SM -RA FEW037 BKN050 OVC120 25/24 A2979 RMK AO2 RAB02 SLP088 P0000 60000 T02500239 56005=
16/07/2023 19:51->METAR KJFK 161951Z 18005KT 10SM FEW014 BKN060 OVC250 26/24 A2979 RMK AO2 SLP088 T02560239=
16/07/2023 18:51->METAR KJFK 161851Z 25006KT 10SM FEW014 SCT075 BKN160 BKN250 27/24 A2981 RMK AO2 RAB1757E07 SLP093 P0000 T02720239=
16/07/2023 17:51->METAR KJFK 161751Z 20006KT 10SM FEW015 BKN037 BKN055 BKN140 BKN170 BKN250 26/24 A2981 RMK AO2 RAE49 SLP094 P0002 60008 T02610244 10261 20244 58010=
16/07/2023 16:51->METAR KJFK 161651Z 19009KT 3SM -RA BR FEW015 SCT021 OVC095 25/24 A2983 RMK AO2 SFC VIS 6 RAB37 SLP103 P0000 T02500239=
16/07/2023 15:51->METAR KJFK 161551Z 18010KT 3SM BR FEW010 SCT026 BKN055 BKN180 BKN250 26/24 A2984 RMK AO2 SFC VIS 6 CIG 023 W SLP104 T02610244=
16/07/2023 14:51->METAR KJFK 161451Z 19008KT 3SM BR FEW004 BKN012 BKN024 BKN200 BKN250 25/25 A2984 RMK AO2 SFC VIS 6 RAE12 SLP104 P0000 60006 T02500250 51003=
16/07/2023 13:51->METAR KJFK 161351Z 22010KT 2 1/2SM -RA BR BKN008 BKN012 OVC041 24/24 A2983 RMK AO2 SFC VIS 5 RAB1259 SLP102 P0006 T02440244=
16/07/2023 12:51->METAR KJFK 161251Z 21013KT 9SM BKN005 BKN012 OVC060 24/24 A2984 RMK AO2 RAB09E19 SLP103 P0000 T02440244=
16/07/2023 11:51->METAR KJFK 161151Z 19009KT 10SM FEW042 OVC070 24/23 A2983 RMK AO2 RAE12 CIG 035 W SLP101 P0005 60034 70034 T02440233 10256 20239 55001=
16/07/2023 10:51->METAR KJFK 161051Z 17016G23KT 1 3/4SM R04R/3500VP6000FT RA BR SCT007 BKN016 OVC024 24/23 A2982 RMK AO2 SFC VIS 2 SLP098 CB DSNT SE P0029 T02390233=
16/07/2023 09:51->METAR KJFK 160951Z 17015KT 10SM -RA BKN007 BKN013 OVC250 25/25 A2983 RMK AO2 LTG DSNT SW RAB44 SLP100 CB DSNT SW P0000 T02500250=
16/07/2023 08:51->METAR KJFK 160851Z 16013G20KT 10SM SCT006 OVC016 25/25 A2983 RMK AO2 CIG 006 W SLP102 T02500250 57020=
16/07/2023 07:51->METAR KJFK 160751Z 17016G21KT 10SM BKN006 BKN010 OVC250 25/25 A2985 RMK AO2 SLP109 T02500250=
16/07/2023 06:51->METAR KJFK 160651Z 17014G21KT 10SM BKN006 BKN015 OVC250 26/25 A2987 RMK AO2 SLP115 T02560250=
16/07/2023 05:51->METAR KJFK 160551Z 17011KT 10SM OVC006 26/25 A2989 RMK AO2 SLP122 T02560250 10256 20250 58008=
16/07/2023 04:51->METAR KJFK 160451Z 17009KT 10SM OVC009 26/24 A2991 RMK AO2 SLP127 T02560244 403000222=
16/07/2023 03:51->METAR KJFK 160351Z 16011KT 10SM OVC009 26/25 A2991 RMK AO2 SLP129 T02560250=
16/07/2023 02:51->METAR KJFK 160251Z 17012KT 10SM BKN007 BKN017 OVC250 26/25 A2991 RMK AO2 SLP130 T02560250 58002=
16/07/2023 01:51->METAR KJFK 160151Z 17012KT 10SM BKN007 OVC250 26/25 A2992 RMK AO2 SLP132 T02560250=
16/07/2023 00:51->METAR KJFK 160051Z 17010KT 10SM OVC006 26/25 A2992 RMK AO2 SLP131 T02560250=
15/07/2023 23:51->METAR KJFK 152351Z 18014KT 10SM BKN007 BKN250 26/25 A2992 RMK AO2 SLP131 T02560250 10294 20256 50001=
15/07/2023 22:51->METAR KJFK 152251Z 16013KT 10SM BKN008 BKN050 OVC250 26/24 A2992 RMK AO2 LTG DSNT SW AND W SLP132 CB DSNT SW-W T02560244=
15/07/2023 21:51->METAR KJFK 152151Z 17014KT 10SM BKN006 BKN050 BKN250 26/24 A2993 RMK AO2 LTG DSNT SW AND W SLP133 CB DSNT SW-W T02610244=
15/07/2023 20:51->METAR KJFK 152051Z 16011KT 10SM FEW035 SCT050 BKN250 27/24 A2992 RMK AO2 LTG DSNT SW AND W SLP131 CB DSNT SW-W T02720244 58010=
15/07/2023 19:51->METAR KJFK 151951Z 17013KT 10SM FEW050 BKN250 28/23 A2994 RMK AO2 SLP137 TCU DSNT N T02830228=
15/07/2023 18:51->METAR KJFK 151851Z 17014KT 10SM FEW050 BKN250 28/24 A2996 RMK AO2 SLP144 TCU DSNT N T02830239=
15/07/2023 17:51->METAR KJFK 151751Z 17010KT 10SM FEW024 SCT050 BKN250 29/24 A2995 RMK AO2 SLP141 T02940239 10300 20244 58008=
15/07/2023 16:51->METAR KJFK 151651Z 18007KT 10SM FEW016 SCT026 BKN250 29/24 A2996 RMK AO2 SLP146 T02940239=
15/07/2023 15:51->METAR KJFK 151551Z VRB06KT 10SM FEW016 SCT025 SCT250 29/24 A2996 RMK AO2 SLP146 T02890239=
15/07/2023 14:51->METAR KJFK 151451Z 18007KT 10SM FEW016 SCT025 BKN250 28/24 A2997 RMK AO2 SLP149 T02780239 51007=
15/07/2023 13:51->METAR KJFK 151351Z 24004KT 10SM BKN015 BKN250 27/23 A2997 RMK AO2 SLP148 T02670233=
15/07/2023 12:51->METAR KJFK 151251Z 20004KT 10SM SCT008 BKN016 26/24 A2996 RMK AO2 SLP146 T02560239=
15/07/2023 11:51->METAR KJFK 151151Z 00000KT 10SM FEW006 SCT014 BKN047 BKN250 24/23 A2995 RMK AO2 SLP143 T02440233 10244 20222 53015=
15/07/2023 10:51->METAR KJFK 151051Z 03003KT 10SM FEW047 SCT250 23/22 A2994 RMK AO2 SLP138 T02330222=
15/07/2023 09:51->METAR KJFK 150951Z 04003KT 10SM FEW010 SCT047 BKN250 23/22 A2992 RMK AO2 SLP131 T02280217=
15/07/2023 08:51->METAR KJFK 150851Z 00000KT 10SM FEW200 SCT250 22/21 A2991 RMK AO2 SLP128 T02220211 58008=
15/07/2023 07:51->METAR KJFK 150751Z 00000KT 10SM SCT250 22/21 A2992 RMK AO2 SLP131 T02220211=
15/07/2023 06:51->METAR KJFK 150651Z 23003KT 10SM FEW080 SCT250 22/21 A2993 RMK AO2 SLP134 T02220206=
15/07/2023 05:51->METAR KJFK 150551Z 00000KT 10SM BKN200 23/21 A2994 RMK AO2 SLP137 60000 T02280211 10261 20228 55002=
15/07/2023 04:51->METAR KJFK 150451Z 10004KT 10SM SCT200 23/20 A2993 RMK AO2 SLP135 T02330200 402890217=
15/07/2023 03:51->METAR KJFK 150351Z 34008KT 10SM VCTS SCT035 BKN045 BKN250 24/21 A2994 RMK AO2 WSHFT 0326 LTG DSNT ALQDS RAE0257 TSB04E24 SLP138 CB DSNT N AND NW P0000 T02440211=
15/07/2023 02:51->METAR KJFK 150251Z 00000KT 10SM VCTS -RA SCT030 BKN043 OVC100 26/22 A2993 RMK AO2 LTG DSNT W-N RAB45 TSE46 SLP133 CB DSNT W-N MOV NE P0000 60000 T02610222 53006=
15/07/2023 01:51->METAR KJFK 150151Z 24006KT 10SM BKN041 BKN250 24/23 A2991 RMK AO2 SLP129 OCNL LTGIC DSNT NW-N CB DSNT NW-N MOV NE T02440228=
15/07/2023 00:51->METAR KJFK 150051Z 19011KT 10SM FEW044 BKN140 BKN250 24/22 A2990 RMK AO2 SLP126 OCNL LTGIC DSNT NW CB DSNT NW-N MOV NE T02390222=
14/07/2023 23:51->METAR KJFK 142351Z 18014KT 10SM FEW042 BKN120 BKN250 24/23 A2991 RMK AO2 SLP127 OCNL LTGIC DSNT NW CB DSNT NW MOV NE T02440228 10289 20244 53002=
14/07/2023 22:51->METAR KJFK 142251Z 18014KT 10SM FEW041 BKN120 BKN250 25/23 A2990 RMK AO2 SLP125 T02500228=
14/07/2023 21:51->METAR KJFK 142151Z 14007KT 10SM FEW040 BKN120 BKN170 BKN250 26/23 A2990 RMK AO2 SLP124 CB DSNT W AND NW MOV NE T02610228=
14/07/2023 20:51->METAR KJFK 142051Z 13011KT 10SM FEW035 BKN160 27/23 A2990 RMK AO2 SLP125 CB DSNT NW MOV NE T02720228 55006=
14/07/2023 19:51->METAR KJFK 141951Z 14009KT 10SM FEW016 SCT035 SCT130 29/23 A2990 RMK AO2 SLP123 T02890233=
14/07/2023 18:51->METAR KJFK 141851Z 11012KT 10SM FEW015 FEW033 BKN130 29/23 A2990 RMK AO2 SLP125 TCU DSNT SW AND W T02890233=
14/07/2023 17:51->METAR KJFK 141751Z 09011G17KT 10SM BKN013 BKN030 OVC110 26/22 A2992 RMK AO2 SLP131 T02610217 10278 20228 51006=
14/07/2023 16:51->METAR KJFK 141651Z 11015KT 10SM BKN015 BKN041 BKN100 26/22 A2992 RMK AO2 SLP130 CIG 013V017 T02610222=
14/07/2023 15:51->METAR KJFK 141551Z 10013KT 10SM BKN015 BKN110 26/23 A2991 RMK AO2 SLP128 CIG 012V018 T02610228 $=
14/07/2023 14:51->METAR KJFK 141451Z 06009KT 10SM BKN017 BKN110 BKN250 26/22 A2990 RMK AO2 SLP126 T02610217 51012 $=
14/07/2023 13:51->METAR KJFK 141351Z 10007KT 10SM FEW014 BKN028 BKN060 BKN250 26/22 A2990 RMK AO2 LTG DSNT NE AND E SLP126 T02560217 $=
14/07/2023 12:51->METAR KJFK 141251Z 02009KT 10SM SCT012 BKN020 BKN095 BKN250 24/22 A2991 RMK AO2 LTG DSNT N AND NE TSE10 SLP127 T02390217 $=
14/07/2023 11:51->METAR KJFK 141151Z 10006KT 10SM TS FEW013 BKN025CB BKN085 BKN250 23/22 A2987 RMK AO2 TSB30 SLP114 OCNL LTGICCG W-NW TS W-NW MOV NE CB DSNT SW MOV NE TCU SE-S VCSH W-NW 60012 70012 T02280217 10244 20217 53002 $=
14/07/2023 10:51->METAR KJFK 141051Z 10010KT 10SM FEW037 BKN090 BKN120 OVC250 23/21 A2986 RMK AO2 RAE19 TSE16 SLP112 P0012 T02280211=
14/07/2023 09:51->METAR KJFK 140951Z 11006KT 10SM -TSRA SCT028CB BKN040 BKN110 24/18 A2986 RMK AO2 RAB44 TSB35 SLP111 OCNL LTGICCC S TS S MOV NE P0000 T02390183=
14/07/2023 08:51->METAR KJFK 140851Z 07010KT 10SM BKN024 BKN040 24/18 A2986 RMK AO2 LTG DSNT SE TSB33E48 SLP112 T02440178 51005 $=
14/07/2023 07:51->METAR KJFK 140751Z 04011KT 10SM BKN007 BKN075 BKN250 24/18 A2986 RMK AO2 LTG DSNT N SLP112 T02390183 $=
14/07/2023 06:51->METAR KJFK 140651Z 21003KT 10SM BKN007 BKN050 BKN250 24/24 A2985 RMK AO2 LTG DSNT N AND NE SLP108 T02390239 $=
14/07/2023 05:51->METAR KJFK 140551Z 20011KT 10SM FEW055 BKN250 24/24 A2985 RMK AO2 SLP106 FRQ LTGIC DSNT N-NE CB DSNT N-NE T02440239 10256 20244 53004 $=
14/07/2023 04:51->METAR KJFK 140451Z 18013KT 10SM SCT060 BKN250 24/24 A2983 RMK AO2 SLP100 FRQ LTGICCC DSNT N CB DSNT N T02440239 402940222 $=
14/07/2023 03:51->METAR KJFK 140351Z 19014KT 10SM SCT055 SCT250 24/24 A2984 RMK AO2 SLP103 FRQ LTGIC DSNT N CB DSNT N T02440239 $=
14/07/2023 02:51->METAR KJFK 140251Z 18015KT 10SM FEW055 SCT250 24/24 A2983 RMK AO2 SLP103 CB DSNT NW-N T02440239 51008 $=
14/07/2023 01:51->METAR KJFK 140151Z 19015KT 10SM FEW045 FEW250 25/24 A2983 RMK AO2 SLP101 OCNL LTGIC DSNT NW CB DSNT NW T02500239 $=
14/07/2023 00:51->METAR KJFK 140051Z 19018KT 10SM FEW045 SCT250 25/24 A2981 RMK AO2 PK WND 19026/2358 SLP096 T02500239 $=
13/07/2023 23:51->METAR KJFK 132351Z 18019G24KT 10SM FEW045 FEW250 26/24 A2981 RMK AO2 PK WND 19028/2322 SLP094 T02560239 10294 20256 55002 $=
13/07/2023 22:51->METAR KJFK 132251Z 19021G28KT 10SM FEW045 FEW100 FEW250 27/24 A2980 RMK AO2 PK WND 18030/2152 SLP090 TCU DSNT NW T02670239 $=
13/07/2023 21:51->METAR KJFK 132151Z 19022G28KT 10SM FEW045 FEW080 FEW250 28/24 A2980 RMK AO2 PK WND 19030/2135 SLP092 TCU DSNT NW T02780239 $=
13/07/2023 20:51->METAR KJFK 132051Z 18020G31KT 10SM FEW045 FEW080 FEW160 SCT250 28/24 A2982 RMK AO2 PK WND 17031/2047 SLP097 T02830244 56014=
13/07/2023 19:51->METAR KJFK 131951Z 18018G26KT 10SM FEW010 FEW043 SCT160 SCT200 BKN250 29/25 A2983 RMK AO2 PK WND 17029/1935 SLP102 T02890250=
13/07/2023 18:51->METAR KJFK 131851Z 17019G25KT 10SM FEW011 SCT043 SCT160 BKN190 BKN250 28/24 A2984 RMK AO2 LTG DSNT S AND SW SLP104 TCU DSNT W T02830244=
13/07/2023 17:51->METAR KJFK 131751Z 16014KT 10SM FEW043 FEW070 BKN160 BKN250 29/24 A2986 RMK AO2 SLP110 T02940244 10294 20250 58015=
13/07/2023 16:51->METAR KJFK 131651Z 17016G21KT 10SM FEW040 FEW070 BKN190 BKN250 28/24 A2987 RMK AO2 SLP116 T02780239=
13/07/2023 15:51->METAR KJFK 131551Z 17013KT 10SM FEW037 FEW070 BKN250 29/24 A2989 RMK AO2 SLP120 T02890239=
13/07/2023 14:51->METAR KJFK 131451Z 18012KT 10SM FEW033 FEW075 BKN250 28/23 A2990 RMK AO2 SLP125 T02830233 58005=
13/07/2023 13:51->METAR KJFK 131351Z 18008KT 10SM FEW075 BKN250 27/22 A2991 RMK AO2 SLP128 T02670217=
13/07/2023 12:51->METAR KJFK 131251Z 18008KT 10SM FEW075 BKN250 26/22 A2992 RMK AO2 SLP131 T02610217=
13/07/2023 11:51->METAR KJFK 131151Z 19007KT 10SM SCT070 BKN250 25/21 A2992 RMK AO2 SLP130 T02500211 10256 20222 50002=
13/07/2023 10:51->METAR KJFK 131051Z 21005KT 10SM FEW065 SCT250 24/22 A2992 RMK AO2 SLP131 T02440217 $=
13/07/2023 09:51->METAR KJFK 130951Z 20004KT 10SM FEW065 SCT180 SCT250 23/21 A2991 RMK AO2 SLP129 T02280206 $=
13/07/2023 08:51->METAR KJFK 130851Z 22005KT 10SM FEW065 SCT250 23/21 A2991 RMK AO2 SLP128 T02280206 53002 $=
13/07/2023 07:51->METAR KJFK 130751Z 21006KT 10SM SCT250 23/21 A2990 RMK AO2 SLP125 T02280206 $=
13/07/2023 06:51->METAR KJFK 130651Z 19005KT 10SM SCT250 23/20 A2989 RMK AO2 SLP121 T02330200 $=
13/07/2023 05:51->METAR KJFK 130551Z 23006KT 10SM SCT250 24/21 A2990 RMK AO2 SLP126 T02440206 10261 20244 58006 $=
13/07/2023 04:51->METAR KJFK 130451Z 23009KT 10SM FEW200 SCT250 25/20 A2991 RMK AO2 SLP128 T02500200 403220222 $=
13/07/2023 03:51->METAR KJFK 130351Z 20005KT 10SM FEW075 SCT200 BKN250 24/21 A2992 RMK AO2 SLP131 T02440211 $=
13/07/2023 02:51->METAR KJFK 130251Z 00000KT 10SM FEW065 BKN250 25/22 A2992 RMK AO2 SLP132 T02500222 50002 $=
13/07/2023 01:51->METAR KJFK 130151Z 17003KT 10SM FEW190 BKN250 26/22 A2992 RMK AO2 SLP133 T02560222 $=
13/07/2023 00:51->METAR KJFK 130051Z 19007KT 10SM FEW060 BKN190 BKN250 26/22 A2992 RMK AO2 SLP131 T02560222 $=
12/07/2023 23:51->METAR KJFK 122351Z 19009KT 10SM FEW060 BKN240 26/22 A2992 RMK AO2 SLP131 T02610222 10322 20261 53002 $=
12/07/2023 22:51->METAR KJFK 122251Z 18016KT 10SM FEW060 BKN220 27/21 A2991 RMK AO2 SLP129 T02720206 $=
12/07/2023 21:51->METAR KJFK 122151Z 18016KT 10SM FEW060 BKN230 28/20 A2991 RMK AO2 SLP127 T02830200 $=
12/07/2023 20:51->METAR KJFK 122051Z 19015KT 10SM FEW060 SCT250 29/19 A2991 RMK AO2 SLP128 T02940194 55000 $=
12/07/2023 19:51->METAR KJFK 121951Z 19015KT 10SM FEW060 SCT250 32/19 A2991 RMK AO2 SLP127 T03170194 $=
12/07/2023 18:51->METAR KJFK 121851Z 19012KT 10SM FEW060 BKN250 31/19 A2991 RMK AO2 SLP128 T03110194 $=
12/07/2023 17:51->METAR KJFK 121751Z 22013KT 10SM FEW060 SCT250 32/17 A2991 RMK AO2 SLP129 T03220172 10322 20261 58010 $=
12/07/2023 16:51->METAR KJFK 121651Z 21011KT 10SM FEW060 SCT250 32/18 A2993 RMK AO2 SLP136 T03170183 $=
12/07/2023 15:51->METAR KJFK 121551Z 22010KT 10SM FEW060 SCT250 31/18 A2994 RMK AO2 SLP139 T03110183 $=
12/07/2023 14:51->METAR KJFK 121451Z 22008KT 10SM FEW055 FEW250 31/18 A2994 RMK AO2 SLP139 T03060183 58001 $=
12/07/2023 13:51->METAR KJFK 121351Z 24009KT 10SM FEW250 29/19 A2994 RMK AO2 SLP139 T02940189 $=
12/07/2023 12:51->METAR KJFK 121251Z 25007KT 10SM FEW160 FEW250 28/18 A2995 RMK AO2 SLP142 T02780183 $=
12/07/2023 11:51->METAR KJFK 121151Z 26007KT 10SM FEW250 26/18 A2995 RMK AO2 SLP140 T02610183 10261 20222 53010 $=
12/07/2023 10:51->METAR KJFK 121051Z 24005KT 10SM FEW160 FEW250 24/19 A2993 RMK AO2 SLP135 T02390189 $=
12/07/2023 09:51->METAR KJFK 120951Z 21004KT 10SM FEW250 22/19 A2992 RMK AO2 SLP132 T02220189 $=
12/07/2023 08:51->METAR KJFK 120851Z 25005KT 10SM CLR 23/18 A2992 RMK AO2 SLP131 T02280178 53005 $=
12/07/2023 07:51->METAR KJFK 120751Z 25006KT 10SM CLR 23/19 A2991 RMK AO2 SLP127 T02330189 $=
12/07/2023 06:51->METAR KJFK 120651Z 24007KT 10SM FEW250 23/21 A2991 RMK AO2 SLP127 T02330206 $=
12/07/2023 05:51->METAR KJFK 120551Z 22005KT 10SM FEW250 23/21 A2990 RMK AO2 SLP126 T02330206 10267 20233 58002 $=
12/07/2023 04:51->METAR KJFK 120451Z 22006KT 10SM FEW250 24/20 A2991 RMK AO2 SLP129 T02440200 403000211 $=
12/07/2023 03:51->METAR KJFK 120351Z 21006KT 10SM FEW250 24/20 A2991 RMK AO2 SLP127 T02440200 $=
12/07/2023 02:51->METAR KJFK 120251Z 25006KT 10SM FEW250 26/19 A2991 RMK AO2 SLP128 T02560189 53009 $=
12/07/2023 01:51->METAR KJFK 120151Z 24006KT 10SM FEW250 26/19 A2990 RMK AO2 SLP125 T02610189 $=
12/07/2023 00:51->METAR KJFK 120051Z 22007KT 10SM FEW060 FEW250 26/21 A2989 RMK AO2 SLP121 T02560206 $=
11/07/2023 23:51->METAR KJFK 112351Z 20011KT 10SM FEW060 FEW250 26/19 A2988 RMK AO2 SLP119 T02610194 10300 20261 53004=
11/07/2023 22:51->METAR KJFK 112251Z 20013KT 10SM FEW060 27/18 A2988 RMK AO2 SLP116 T02720183=
11/07/2023 21:51->METAR KJFK 112151Z 21014KT 10SM FEW060 28/19 A2987 RMK AO2 SLP116 T02830189=
11/07/2023 20:51->METAR KJFK 112051Z 19014KT 10SM FEW055 28/18 A2987 RMK AO2 SLP115 T02830183 58004=
11/07/2023 19:51->METAR KJFK 111951Z 19012KT 10SM FEW055 FEW250 29/18 A2988 RMK AO2 SLP117 T02890183=
11/07/2023 18:51->METAR KJFK 111851Z 21012KT 10SM FEW055 FEW250 30/18 A2988 RMK AO2 SLP119 T03000178=
11/07/2023 17:51->METAR KJFK 111751Z 20011KT 10SM FEW055 FEW250 29/17 A2988 RMK AO2 SLP119 T02940172 10300 20244 58004=
11/07/2023 16:51->METAR KJFK 111651Z 21012KT 10SM FEW050 FEW250 29/18 A2989 RMK AO2 SLP120 T02940183=
11/07/2023 15:51->METAR KJFK 111551Z 22010KT 10SM FEW047 FEW250 29/17 A2989 RMK AO2 SLP121 T02940172=
11/07/2023 14:51->METAR KJFK 111451Z 23008KT 10SM FEW250 28/16 A2989 RMK AO2 SLP122 T02830161 58005=
11/07/2023 13:51->METAR KJFK 111351Z 31007KT 10SM FEW250 27/16 A2990 RMK AO2 SLP124 T02720156=
11/07/2023 12:51->METAR KJFK 111251Z 33010KT 10SM FEW250 26/14 A2991 RMK AO2 SLP128 T02560139=
11/07/2023 11:51->METAR KJFK 111151Z 27005KT 10SM SCT250 24/14 A2991 RMK AO2 SLP127 T02440139 10244 20211 53017 $=
11/07/2023 10:51->METAR KJFK 111051Z 27005KT 10SM SCT250 23/13 A2989 RMK AO2 SLP121 T02280133 $=
11/07/2023 09:51->METAR KJFK 110951Z 30009KT 10SM SCT250 22/13 A2987 RMK AO2 SLP115 T02170128 $=
11/07/2023 08:51->METAR KJFK 110851Z 30010KT 10SM FEW250 22/13 A2986 RMK AO2 SLP111 T02170128 53004 $=
11/07/2023 07:51->METAR KJFK 110751Z 31007KT 10SM FEW250 22/12 A2985 RMK AO2 SLP109 T02170122 $=
11/07/2023 06:51->METAR KJFK 110651Z 31013KT 10SM FEW250 23/14 A2985 RMK AO2 SLP108 T02280139 $=
11/07/2023 05:51->METAR KJFK 110551Z 28008KT 10SM FEW250 23/13 A2985 RMK AO2 SLP107 T02330133 10272 20228 58001 $=
11/07/2023 04:51->METAR KJFK 110451Z 31009KT 10SM FEW250 24/13 A2986 RMK AO2 SLP110 T02390133 403060217 $=
11/07/2023 03:51->METAR KJFK 110351Z 32008KT 10SM FEW200 FEW250 24/14 A2986 RMK AO2 SLP111 T02440139 $=
11/07/2023 02:51->METAR KJFK 110251Z 34009KT 10SM FEW065 FEW200 SCT250 25/13 A2985 RMK AO2 SLP108 T02500133 51016 $=
11/07/2023 01:51->METAR KJFK 110151Z 34009KT 10SM FEW055 FEW100 FEW250 26/16 A2984 RMK AO2 SLP103 T02610156 $=
11/07/2023 00:51->METAR KJFK 110051Z 36006KT 10SM FEW055 FEW100 SCT250 26/18 A2982 RMK AO2 SLP099 T02610183 $=
10/07/2023 23:51->METAR KJFK 102351Z 36013KT 10SM SCT055 SCT100 SCT250 27/18 A2980 RMK AO2 SLP092 T02720183 10306 20267 53015 $=
10/07/2023 22:51->METAR KJFK 102251Z 36013KT 10SM SCT055 SCT100 BKN250 28/19 A2978 RMK AO2 SLP084 T02830189 $=
10/07/2023 21:51->METAR KJFK 102151Z 29012KT 10SM SCT050 BKN250 31/19 A2977 RMK AO2 SLP079 T03060189 $=
10/07/2023 20:51->METAR KJFK 102051Z 33009KT 10SM SCT047 SCT210 BKN250 30/19 A2976 RMK AO2 SLP078 T03000189 50000 $=
10/07/2023 19:51->METAR KJFK 101951Z 35008KT 10SM SCT042 SCT210 BKN250 29/19 A2976 RMK AO2 SLP078 T02890189 $=
10/07/2023 18:51->METAR KJFK 101851Z 34011KT 10SM SCT037 SCT050 SCT200 BKN250 28/19 A2977 RMK AO2 SLP081 T02780189 $=
10/07/2023 17:51->METAR KJFK 101751Z 35010KT 10SM SCT036 BKN180 BKN250 27/19 A2976 RMK AO2 SLP077 T02720189 10283 20239 58001 $=
10/07/2023 16:51->METAR KJFK 101651Z 35014KT 10SM SCT028 SCT046 BKN180 BKN250 28/20 A2976 RMK AO2 SLP078 T02780200 $=
10/07/2023 15:51->METAR KJFK 101551Z 34011KT 10SM BKN027 BKN170 BKN250 28/21 A2977 RMK AO2 SLP080 T02780206 $=
10/07/2023 14:51->METAR KJFK 101451Z 34010KT 10SM SCT022 BKN028 BKN170 BKN250 26/20 A2976 RMK AO2 SLP079 T02560200 53006 $=
10/07/2023 13:51->METAR KJFK 101351Z 33008KT 10SM SCT018 BKN160 BKN230 25/21 A2975 RMK AO2 SLP075 T02500206 $=
10/07/2023 12:51->METAR KJFK 101251Z 35007KT 10SM SCT025 SCT160 BKN230 24/21 A2975 RMK AO2 SLP075 T02440211 $=
10/07/2023 11:51->METAR KJFK 101151Z 35007KT 10SM FEW010 FEW025 BKN160 BKN230 24/22 A2975 RMK AO2 SLP073 60000 70053 T02390217 10239 20217 51012 $=
10/07/2023 10:51->METAR KJFK 101051Z 33006KT 10SM FEW012 BKN024 BKN130 BKN220 23/22 A2974 RMK AO2 SLP071 T02280217 $=
10/07/2023 09:51->METAR KJFK 100951Z 29006KT 10SM SCT035 SCT130 BKN220 22/21 A2972 RMK AO2 SLP065 T02220211 $=
10/07/2023 08:51->METAR KJFK 100851Z 28005KT 10SM FEW013 SCT021 BKN150 22/21 A2971 RMK AO2 SLP061 60000 T02220211 56010 $=
10/07/2023 07:51->METAR KJFK 100751Z 27008KT 10SM SCT011 BKN017 BKN035 23/22 A2972 RMK AO2 RAE0654 SLP063 P0000 T02280217 $=
10/07/2023 06:51->METAR KJFK 100651Z 00000KT 10SM -RA SCT009 BKN029 BKN039 23/23 A2972 RMK AO2 RAE0558B43 SLP063 P0000 T02330228 $=
10/07/2023 05:51->METAR KJFK 100551Z 13007KT 10SM -RA FEW010 BKN034 OVC055 23/22 A2974 RMK AO2 VIS 2 1/2 W RAB48 SLP072 P0000 60016 T02330222 10244 20233 56005 $=
10/07/2023 04:51->METAR KJFK 100451Z 12010KT 10SM FEW010 BKN047 OVC055 24/23 A2974 RMK AO2 SLP072 T02390233 402720233 $=
10/07/2023 03:51->METAR KJFK 100351Z 11011KT 10SM SCT010 SCT016 BKN080 24/23 A2974 RMK AO2 RAE04 SLP069 P0000 T02390233 $=
10/07/2023 02:51->METAR KJFK 100251Z 11011KT 10SM -RA FEW014 BKN090 OVC110 24/23 A2976 RMK AO2 LTG DSNT SE SLP077 P0016 60016 T02390233 56012 $=
10/07/2023 01:51->METAR KJFK 100151Z 13012KT 10SM -RA FEW012 SCT021 OVC140 24/23 A2978 RMK AO2 RAE0057B31 SLP083 P0000 T02390233 $=
10/07/2023 00:51->METAR KJFK 100051Z 13009KT 10SM -RA FEW012 BKN026 BKN060 OVC150 24/23 A2977 RMK AO2 RAB37 SLP082 P0000 T02440233 $=
09/07/2023 23:51->METAR KJFK 092351Z 14012KT 10SM SCT015 BKN023 BKN060 OVC130 24/23 A2979 RMK AO2 RAE2253 SLP089 P0000 60037 T02440233 10272 20233 56006 $=
09/07/2023 22:51->METAR KJFK 092251Z 17003KT 6SM -RA BR SCT016 BKN029 OVC070 23/23 A2980 RMK AO2 SLP089 P0028 T02330233 $=
09/07/2023 21:51->METAR KJFK 092151Z 11009KT 8SM -RA SCT013 BKN026 BKN055 OVC250 25/24 A2979 RMK AO2 RAB42 SLP088 P0001 T02500239 $=
09/07/2023 20:51->METAR KJFK 092051Z 14011KT 10SM SCT013 BKN022 BKN055 OVC250 25/24 A2981 RMK AO2 RAB00E27 SLP095 CB DSNT NE P0008 60008 T02500239 56002 $=
09/07/2023 19:51->METAR KJFK 091951Z 17008KT 10SM BKN018 BKN026 OVC250 26/22 A2981 RMK AO2 SLP095 VCSH SE T02610222 $=
09/07/2023 18:51->METAR KJFK 091851Z 16013KT 10SM BKN015 BKN022 BKN250 27/23 A2981 RMK AO2 SLP094 T02670228 $=
09/07/2023 17:51->METAR KJFK 091751Z 15012KT 10SM SCT016 BKN022 BKN028 BKN250 27/23 A2982 RMK AO2 CIG 015 W SLP097 T02670228 10272 20244 56014 $=
09/07/2023 16:51->METAR KJFK 091651Z 16014KT 10SM BKN014 BKN022 BKN050 BKN160 26/23 A2982 RMK AO2 SLP099 T02610228 $=
09/07/2023 15:51->METAR KJFK 091551Z 16011KT 10SM BKN016 BKN038 BKN047 26/22 A2983 RMK AO2 LTG DSNT N AND NW SLP102 T02610222 $=
09/07/2023 14:51->METAR KJFK 091451Z 17008KT 10SM BKN018 BKN027 BKN041 OVC160 26/22 A2986 RMK AO2 SLP111 T02610222 58001 $=
09/07/2023 13:51->METAR KJFK 091351Z 18006KT 10SM SCT013 BKN020 OVC160 26/23 A2986 RMK AO2 SLP110 T02610233 $=
09/07/2023 12:51->METAR KJFK 091251Z 20006KT 10SM SCT011 BKN021 BKN200 BKN250 26/23 A2986 RMK AO2 SLP112 T02560228 $=
09/07/2023 11:51->METAR KJFK 091151Z 17007KT 10SM FEW008 BKN013 OVC019 24/23 A2986 RMK AO2 SLP112 T02440233 10244 20233 53004 $=
09/07/2023 10:51->METAR KJFK 091051Z 18003KT 10SM FEW007 SCT015 BKN200 BKN250 24/23 A2985 RMK AO2 SLP107 T02390233 $=
09/07/2023 09:51->METAR KJFK 090951Z 17004KT 10SM SCT007 BKN018 BKN065 OVC250 24/23 A2985 RMK AO2 SLP107 T02390233 $=
09/07/2023 08:51->METAR KJFK 090851Z 20006KT 10SM SCT010 BKN065 23/23 A2984 RMK AO2 SLP105 T02330233 55003 $=
09/07/2023 07:51->METAR KJFK 090751Z 20007KT 10SM BKN019 24/23 A2984 RMK AO2 SLP104 T02390233 $=
09/07/2023 06:51->METAR KJFK 090651Z 20008KT 10SM BKN019 24/23 A2985 RMK AO2 SLP107 T02390233 $=
09/07/2023 05:51->METAR KJFK 090551Z 18007KT 10SM FEW013 SCT020 24/23 A2985 RMK AO2 SLP108 T02390233 10250 20239 51002 $=
09/07/2023 04:51->METAR KJFK 090451Z 18005KT 10SM SCT016 SCT060 24/23 A2985 RMK AO2 SLP108 T02390233 402890228 $=
09/07/2023 03:51->METAR KJFK 090351Z 18006KT 10SM FEW016 SCT060 24/23 A2985 RMK AO2 SLP109 T02440233 $=
09/07/2023 02:51->METAR KJFK 090251Z 16007KT 10SM FEW012 SCT070 24/23 A2984 RMK AO2 SLP106 T02440228 51003 $=
09/07/2023 01:51->METAR KJFK 090151Z 16006KT 10SM SCT012 SCT070 BKN250 24/23 A2984 RMK AO2 SLP105 T02440228 $=
09/07/2023 00:51->METAR KJFK 090051Z 18008KT 10SM FEW013 FEW025 SCT070 BKN220 24/23 A2984 RMK AO2 SLP105 T02440228 $=
08/07/2023 23:51->METAR KJFK 082351Z 21009KT 10SM BKN014 BKN070 BKN200 BKN250 25/23 A2984 RMK AO2 SLP103 T02500228 10289 20250 56002 $=
08/07/2023 22:51->METAR KJFK 082251Z 18007KT 10SM BKN014 BKN070 OVC230 25/23 A2984 RMK AO2 SLP103 T02500228 $=
08/07/2023 21:51->METAR KJFK 082151Z 17008KT 10SM FEW014 FEW030 SCT060 OVC230 26/23 A2984 RMK AO2 SLP104 T02560228 $=
08/07/2023 20:51->METAR KJFK 082051Z 17007KT 10SM FEW025 SCT055 BKN220 26/22 A2984 RMK AO2 SLP105 T02560222 58003 $=
08/07/2023 19:51->METAR KJFK 081951Z 16011KT 10SM FEW018 FEW030 SCT055 BKN220 26/22 A2984 RMK AO2 LTG DSNT N SLP106 CB DSNT N T02610222 $=
08/07/2023 18:51->METAR KJFK 081851Z 17009KT 10SM FEW015 FEW030 SCT055 BKN250 27/22 A2985 RMK AO2 LTG DSNT SW-N SLP108 CB DSNT NW T02720222 $=
08/07/2023 17:51->METAR KJFK 081751Z 15009KT 10SM FEW015 SCT030 SCT250 28/23 A2985 RMK AO2 SLP108 T02830228 10289 20250 58006 $=
08/07/2023 16:51->METAR KJFK 081651Z 18010KT 10SM FEW023 SCT030 BKN250 28/23 A2987 RMK AO2 SLP113 T02830233 $=
08/07/2023 15:51->METAR KJFK 081551Z 15008KT 10SM FEW023 SCT042 BKN250 28/22 A2987 RMK AO2 SLP114 T02780222 $=
08/07/2023 14:51->METAR KJFK 081451Z 16009KT 10SM FEW019 SCT026 BKN055 28/23 A2987 RMK AO2 SLP114 T02780228 58001 $=
08/07/2023 13:51->METAR KJFK 081351Z 18005KT 10SM FEW010 SCT017 BKN250 27/23 A2987 RMK AO2 SLP114 T02670228 $=
08/07/2023 12:51->METAR KJFK 081251Z 00000KT 10SM FEW010 BKN017 BKN250 27/23 A2988 RMK AO2 SLP117 T02670228 $=
08/07/2023 11:51->METAR KJFK 081151Z 00000KT 10SM FEW010 BKN014 OVC250 25/23 A2987 RMK AO2 SLP116 T02500228 10250 20228 51007 $=
08/07/2023 10:51->METAR KJFK 081051Z 14003KT 10SM FEW010 BKN016 OVC030 24/23 A2987 RMK AO2 SLP115 T02440233 $=
08/07/2023 09:51->METAR KJFK 080951Z 08003KT 10SM BKN014 BKN250 24/23 A2986 RMK AO2 SLP111 T02390233 $=
08/07/2023 08:51->METAR KJFK 080851Z 00000KT 10SM BKN013 BKN017 24/23 A2985 RMK AO2 SLP109 T02390233 56003 $=
08/07/2023 07:51->METAR KJFK 080751Z 16003KT 10SM BKN010 BKN017 23/23 A2986 RMK AO2 SLP110 T02330228 $=
08/07/2023 06:51->METAR KJFK 080651Z 18004KT 10SM SCT008 SCT012 23/23 A2986 RMK AO2 SLP110 T02330228 $=
08/07/2023 05:51->METAR KJFK 080551Z 21005KT 10SM SCT010 23/23 A2986 RMK AO2 SLP112 T02330228 10250 20233 53004 $=
08/07/2023 04:51->METAR KJFK 080451Z 19003KT 10SM SCT011 23/23 A2986 RMK AO2 SLP110 T02330228 402890233 $=
08/07/2023 03:51->METAR KJFK 080351Z 18005KT 10SM FEW010 SCT014 24/23 A2985 RMK AO2 SLP108 T02390228 $=
08/07/2023 02:51->METAR KJFK 080251Z 14004KT 10SM FEW018 FEW210 24/23 A2985 RMK AO2 SLP108 T02390228 50000 $=
08/07/2023 01:51->METAR KJFK 080151Z 14007KT 10SM SCT018 BKN210 BKN250 24/23 A2986 RMK AO2 SLP110 T02440228 $=
08/07/2023 00:51->METAR KJFK 080051Z 15006KT 10SM SCT015 BKN230 24/22 A2986 RMK AO2 SLP111 T02440222 $=
07/07/2023 23:51->METAR KJFK 072351Z 15005KT 10SM SCT014 BKN230 25/22 A2985 RMK AO2 SLP108 T02500222 10289 20250 53002 $=
07/07/2023 22:51->METAR KJFK 072251Z 15008KT 10SM SCT013 BKN250 25/22 A2985 RMK AO2 SLP107 T02500222=
07/07/2023 21:51->METAR KJFK 072151Z 14009KT 10SM SCT013 BKN250 26/22 A2984 RMK AO2 SLP103 T02560222=
07/07/2023 20:51->METAR KJFK 072051Z 15009KT 10SM SCT017 BKN250 27/23 A2985 RMK AO2 SLP106 T02670228 58006 $=
07/07/2023 19:51->METAR KJFK 071951Z 15010KT 10SM SCT019 SCT032 BKN250 28/23 A2985 RMK AO2 SLP109 T02780228 $=
07/07/2023 18:51->METAR KJFK 071851Z 15011KT 10SM SCT017 SCT029 BKN250 27/22 A2986 RMK AO2 SLP112 T02720222 $=
07/07/2023 17:51->METAR KJFK 071751Z 16010KT 10SM SCT022 SCT040 SCT170 BKN250 28/23 A2986 RMK AO2 SLP113 T02830228 10283 20250 56009 $=
07/07/2023 16:51->METAR KJFK 071651Z 16010KT 10SM FEW021 FEW040 SCT250 28/22 A2986 RMK AO2 SLP113 T02830222 $=
07/07/2023 15:51->METAR KJFK 071551Z 16009KT 10SM FEW020 FEW037 SCT250 28/22 A2988 RMK AO2 SLP119 T02830222 $=
07/07/2023 14:51->METAR KJFK 071451Z 17008KT 10SM SCT025 SCT250 28/22 A2989 RMK AO2 SLP121 T02780222 56003 $=
07/07/2023 13:51->METAR KJFK 071351Z 13007KT 10SM SCT025 SCT250 27/22 A2989 RMK AO2 SLP122 T02670217 $=
07/07/2023 12:51->METAR KJFK 071251Z 00000KT 10SM FEW013 SCT021 SCT180 SCT250 26/22 A2990 RMK AO2 SLP123 T02610217 $=
07/07/2023 11:51->METAR KJFK 071151Z 25003KT 10SM BKN021 BKN250 25/21 A2990 RMK AO2 SLP124 T02500211 10256 20233 53007 $=
07/07/2023 10:51->METAR KJFK 071051Z 00000KT 10SM SCT018 SCT250 24/22 A2988 RMK AO2 SLP119 T02440222 $=
07/07/2023 09:51->METAR KJFK 070951Z 00000KT 10SM SCT018 BKN250 23/22 A2987 RMK AO2 SLP115 T02330217 $=
07/07/2023 08:51->METAR KJFK 070851Z 00000KT 10SM BKN019 BKN250 23/22 A2988 RMK AO2 SLP117 T02330222 55004 $=
07/07/2023 07:51->METAR KJFK 070751Z 20003KT 10SM BKN016 BKN250 24/23 A2987 RMK AO2 SLP116 T02390228 $=
07/07/2023 06:51->METAR KJFK 070651Z 20005KT 10SM BKN013 BKN019 OVC250 24/22 A2988 RMK AO2 SLP118 T02390222 $=
07/07/2023 05:51->METAR KJFK 070551Z 19004KT 10SM BKN013 BKN130 BKN250 23/23 A2989 RMK AO2 SLP120 T02330228 10244 20228 58007 $=
07/07/2023 04:51->METAR KJFK 070451Z 20005KT 10SM BKN007 BKN120 BKN250 23/23 A2990 RMK AO2 SLP124 T02330228 402890217 $=
07/07/2023 03:51->METAR KJFK 070351Z 17005KT 10SM FEW010 FEW150 SCT250 23/23 A2990 RMK AO2 SLP126 T02330228 $=
07/07/2023 02:51->METAR KJFK 070251Z 19005KT 10SM FEW009 FEW100 FEW250 23/23 A2991 RMK AO2 SLP128 T02330228 50003 $=
07/07/2023 01:51->METAR KJFK 070151Z 16007KT 10SM FEW008 FEW055 FEW250 24/22 A2991 RMK AO2 SLP128 T02390222=
07/07/2023 00:51->METAR KJFK 070051Z 16009KT 10SM BKN008 BKN140 BKN250 24/23 A2990 RMK AO2 SLP126 T02390228=
06/07/2023 23:51->METAR KJFK 062351Z 16008KT 10SM FEW008 FEW050 SCT250 24/23 A2990 RMK AO2 SLP125 T02440233 10283 20244 55002=
06/07/2023 22:51->METAR KJFK 062251Z 15010KT 10SM FEW008 FEW045 SCT250 26/23 A2990 RMK AO2 SLP123 T02560228=
06/07/2023 21:51->METAR KJFK 062151Z 16010KT 10SM FEW008 FEW045 FEW250 27/23 A2989 RMK AO2 SLP122 T02670228=
06/07/2023 20:51->METAR KJFK 062051Z 17009KT 10SM FEW045 FEW250 28/23 A2991 RMK AO2 SLP127 CB DSNT NW T02780228 56015 $=
06/07/2023 19:51->METAR KJFK 061951Z 17009KT 10SM FEW045 FEW250 28/22 A2991 RMK AO2 SLP130 CB DSNT NW T02830222 $=
06/07/2023 18:51->METAR KJFK 061851Z 18009KT 10SM FEW008 FEW045 FEW250 27/23 A2993 RMK AO2 SLP136 CB DSNT W AND DSNT NW T02720228 $=
06/07/2023 17:51->METAR KJFK 061751Z 19010KT 10SM FEW008 FEW045 FEW250 28/22 A2995 RMK AO2 SLP142 T02830222 10289 20250 56008 $=
06/07/2023 16:51->METAR KJFK 061651Z 18010KT 10SM FEW043 FEW250 29/22 A2996 RMK AO2 SLP144 T02890222 $=
06/07/2023 15:51->METAR KJFK 061551Z 19009KT 10SM FEW040 FEW250 28/22 A2997 RMK AO2 SLP148 T02780222 $=
06/07/2023 14:51->METAR KJFK 061451Z 18006KT 10SM FEW007 FEW035 FEW250 26/23 A2998 RMK AO2 SLP150 T02610228 50003 $=
06/07/2023 13:51->METAR KJFK 061351Z 18009KT 10SM VCFG FEW006 FEW035 FEW250 27/23 A2998 RMK AO2 SLP151 VCFG S T02670228 $=
06/07/2023 12:51->METAR KJFK 061251Z 19006KT 10SM FEW032 FEW250 26/23 A2997 RMK AO2 SLP149 T02560228 $=
06/07/2023 11:51->METAR KJFK 061151Z 13003KT 9SM FEW250 26/23 A2997 RMK AO2 SLP148 T02560228 10256 20217 53002 $=
06/07/2023 10:51->METAR KJFK 061051Z 00000KT 10SM FEW250 24/22 A2995 RMK AO2 SLP142 T02390222 $=
06/07/2023 09:51->METAR KJFK 060951Z 19003KT 10SM FEW250 22/22 A2996 RMK AO2 SLP143 T02220222 $=
06/07/2023 08:51->METAR KJFK 060851Z 19006KT 10SM FEW250 22/22 A2996 RMK AO2 SLP146 T02220217 58006 $=
06/07/2023 07:51->METAR KJFK 060751Z 17004KT 10SM FEW250 22/22 A2996 RMK AO2 SLP147 T02220217 $=
06/07/2023 06:51->METAR KJFK 060651Z 18003KT 10SM FEW250 22/22 A2998 RMK AO2 SLP151 T02220217 $=
06/07/2023 05:51->METAR KJFK 060551Z 20004KT 10SM FEW250 23/22 A2998 RMK AO2 SLP152 T02330222 10250 20228 57001 $=
06/07/2023 04:51->METAR KJFK 060451Z 19005KT 10SM FEW250 23/22 A2998 RMK AO2 SLP153 T02280222 403110211 $=
06/07/2023 03:51->METAR KJFK 060351Z 19004KT 10SM FEW250 23/22 A2998 RMK AO2 SLP151 T02330222 $=
06/07/2023 02:51->METAR KJFK 060251Z 20004KT 10SM FEW055 FEW250 23/22 A2998 RMK AO2 SLP152 T02330217 53008 $=
06/07/2023 01:51->METAR KJFK 060151Z 19007KT 10SM FEW250 24/22 A2998 RMK AO2 SLP151 T02390217 $=
06/07/2023 00:51->METAR KJFK 060051Z 21007KT 10SM FEW055 SCT250 24/21 A2996 RMK AO2 SLP144 T02440211 $=
05/07/2023 23:51->METAR KJFK 052351Z 20009KT 10SM FEW050 SCT250 25/21 A2996 RMK AO2 SLP144 T02500211 10311 20250 55003 $=
05/07/2023 22:51->METAR KJFK 052251Z 19010KT 10SM FEW050 SCT250 26/22 A2995 RMK AO2 SLP142 T02610217 $=
05/07/2023 21:51->METAR KJFK 052151Z 19012KT 10SM FEW050 SCT250 27/22 A2995 RMK AO2 SLP141 T02720217=
05/07/2023 20:51->METAR KJFK 052051Z 18012KT 10SM FEW050 FEW250 28/22 A2997 RMK AO2 SLP147 T02830217 56008=
05/07/2023 19:51->METAR KJFK 051951Z 18010KT 10SM FEW050 FEW250 29/22 A2997 RMK AO2 SLP148 T02940217=
05/07/2023 18:51->METAR KJFK 051851Z 20009KT 10SM FEW050 FEW250 30/20 A2998 RMK AO2 SLP151 CB DSNT SW T03000200=
05/07/2023 17:51->METAR KJFK 051751Z 20010KT 9SM FEW050 FEW250 29/21 A2999 RMK AO2 SLP155 CB DSNT SW T02940211 10300 20256 56003=
05/07/2023 16:51->METAR KJFK 051651Z 20010KT 9SM FEW050 FEW250 28/22 A2999 RMK AO2 SLP155 T02830217=
05/07/2023 15:51->METAR KJFK 051551Z 20007KT 9SM FEW047 FEW250 30/21 A2999 RMK AO2 SLP155 T03000211=
05/07/2023 14:51->METAR KJFK 051451Z 21007KT 7SM FEW250 28/22 A3000 RMK AO2 SLP157 T02780217 51003=
05/07/2023 13:51->METAR KJFK 051351Z 06004KT 9SM FEW250 29/19 A3000 RMK AO2 SLP157 T02890194=
05/07/2023 12:51->METAR KJFK 051251Z 05008KT 8SM FEW250 27/19 A3000 RMK AO2 SLP159 T02720194=
05/07/2023 11:51->METAR KJFK 051151Z 36004KT 5SM HZ FEW250 26/21 A2999 RMK AO2 SLP154 70014 T02560206 10256 20211 53010 $=
05/07/2023 10:51->METAR KJFK 051051Z 00000KT 5SM BR FEW250 23/21 A2997 RMK AO2 SLP149 T02330211 $=
05/07/2023 09:51->METAR KJFK 050951Z 00000KT 3SM BR FEW250 21/21 A2996 RMK AO2 SLP145 T02110206 $=
05/07/2023 08:51->METAR KJFK 050851Z 06003KT 4SM BR FEW011 FEW110 FEW250 21/21 A2996 RMK AO2 SLP144 T02110206 55002 $=
05/07/2023 07:51->METAR KJFK 050751Z 05003KT 2SM BR FEW017 FEW120 FEW250 22/21 A2995 RMK AO2 SLP143 T02170211 $=
05/07/2023 06:51->METAR KJFK 050651Z 05005KT 2SM BR FEW110 FEW250 22/22 A2996 RMK AO2 SLP146 T02220217 $=
05/07/2023 05:51->METAR KJFK 050551Z 22005KT 2SM BR FEW120 SCT250 23/22 A2996 RMK AO2 SLP146 T02280217 10250 20222 53002 $=
05/07/2023 04:51->METAR KJFK 050451Z 22004KT 5SM BR FU FEW120 SCT250 23/22 A2996 RMK AO2 VIS 2 1/2 W SLP144 T02280222 402780222 $=
05/07/2023 03:51->METAR KJFK 050351Z 00000KT 4SM BR FU SCT120 SCT250 23/22 A2994 RMK AO2 SLP140 T02280222 $=
05/07/2023 02:51->METAR KJFK 050251Z 00000KT 3SM BR FEW035 SCT120 SCT250 24/22 A2996 RMK AO2 SLP144 T02390222 53015 $=
05/07/2023 01:51->METAR KJFK 050151Z 00000KT 10SM FEW004 FEW032 FEW060 SCT250 24/22 A2994 RMK AO2 SLP137 FU FEW004 T02390222 $=
05/07/2023 00:51->METAR KJFK 050051Z 21005KT 10SM FEW032 FEW060 FEW080 SCT250 23/22 A2992 RMK AO2 SLP130 T02330222 $=
04/07/2023 23:51->METAR KJFK 042351Z 19004KT 10SM FEW032 SCT080 BKN250 25/23 A2991 RMK AO2 SLP128 TCU DSNT W T02500228 10261 20233 53005 $=
04/07/2023 22:51->METAR KJFK 042251Z 09004KT 10SM FEW020 FEW032 SCT080 BKN250 26/23 A2990 RMK AO2 SLP126 TCU DSNT W AND DSNT NW T02610228 $=
04/07/2023 21:51->METAR KJFK 042151Z 13003KT 10SM FEW020 SCT032 SCT080 SCT210 BKN250 26/23 A2989 RMK AO2 SLP120 CB DSNT SW TCU DSNT SW-DSNT NW T02560228 $=
04/07/2023 20:51->METAR KJFK 042051Z 20006KT 10SM FEW020 SCT032CB SCT090 BKN250 24/22 A2990 RMK AO2 SLP123 CBMAM OHD-SW MOV SE CB DSNT NW TCU DSNT NW-N T02390222 51004 $=
04/07/2023 19:51->METAR KJFK 041951Z 21005KT 10SM FEW011 SCT032CB SCT090 BKN200 BKN250 24/22 A2989 RMK AO2 TSE38 SLP122 CBMAM OHD MOV SE CB DSNT W-NW TCU DSNT W VCSH W T02440217 $=
04/07/2023 18:51->METAR KJFK 041851Z 22007KT 10SM TS FEW013 SCT035CB SCT100 BKN200 BKN250 25/22 A2989 RMK AO2 TSB46 SLP121 OCNL LTGCG NW TS NW MOV SE TCU DSNT N T02500217 $=
04/07/2023 17:51->METAR KJFK 041751Z 00000KT 10SM FEW013 SCT032 BKN095 BKN250 25/22 A2988 RMK AO2 RAE38 TSE20 SLP119 CB DSNT SW-NW MOV SE P0005 60014 T02500222 10278 20228 58006 $=
04/07/2023 16:51->METAR KJFK 041651Z 28008KT 5SM R04R/4000VP6000FT TSRA BR FEW008 SCT024CB BKN090 BKN220 24/23 A2992 RMK AO2 RAB12 SLP130 VIS SE-S 2 1/2 FRQ LTGICCG OHD AND SE-SW TS OHD AND SE-SW MOV E P0009 T02390233 $=
04/07/2023 15:51->METAR KJFK 041551Z 22004KT 10SM TS SCT024CB BKN095 BKN140 BKN250 28/22 A2991 RMK AO2 TSB35 SLP127 FRQ LTGICCG W-NW TS W-NW MOV E VCSH W-NW T02780222 $=
04/07/2023 14:51->METAR KJFK 041451Z 24006KT 10SM FEW028 SCT100 BKN160 BKN250 27/22 A2990 RMK AO2 LTG DSNT W AND NW SLP125 CB DSNT W-NW MOV E T02670222 58002 $=
04/07/2023 13:51->METAR KJFK 041351Z 21011KT 10SM FEW027 SCT095 SCT160 SCT250 25/22 A2992 RMK AO2 SLP133 T02500217 $=
04/07/2023 12:51->METAR KJFK 041251Z 19012KT 10SM FEW025 SCT050 BKN085 BKN160 24/21 A2992 RMK AO2 SLP130 T02390211 $=
04/07/2023 11:51->METAR KJFK 041151Z 21013KT 10SM BKN065 BKN110 BKN250 23/22 A2991 RMK AO2 SLP127 70018 T02280217 10239 20228 53015 $=
04/07/2023 10:51->METAR KJFK 041051Z 19008KT 10SM SCT050 BKN065 BKN110 BKN250 23/22 A2989 RMK AO2 SLP121 T02330217 $=
04/07/2023 09:51->METAR KJFK 040951Z 21005KT 10SM SCT060 BKN110 BKN250 23/22 A2988 RMK AO2 SLP117 T02280217 $=
04/07/2023 08:51->METAR KJFK 040851Z 21006KT 10SM SCT080 SCT120 BKN220 23/22 A2986 RMK AO2 SLP112 T02330217 50001 $=
04/07/2023 07:51->METAR KJFK 040751Z 20004KT 10SM FEW055 FEW090 BKN250 23/23 A2986 RMK AO2 SLP113 T02280228 $=
04/07/2023 06:51->METAR KJFK 040651Z 00000KT 10SM FEW045 SCT085 BKN220 23/23 A2986 RMK AO2 SLP111 T02330228 $=
04/07/2023 05:51->METAR KJFK 040551Z 09003KT 10SM FEW050 SCT065 BKN250 23/23 A2986 RMK AO2 LTG DSNT NE RAE01 TSE06 SLP111 P0000 60018 T02330228 10278 20233 50003 $=
04/07/2023 04:51->METAR KJFK 040451Z 05004KT 7SM -TSRA FEW030 BKN048CB OVC090 24/22 A2987 RMK AO2 LTG DSNT NW RAB25 TSE20B26 SLP116 OCNL LTGICCC NW-N TS NW-N MOV NE P0003 T02390222 403060228 $=
04/07/2023 03:51->METAR KJFK 040351Z 06008KT 10SM FEW031 BKN050 BKN080 BKN250 24/23 A2985 RMK AO2 RAB13E27 SLP108 P0015 T02390228=
04/07/2023 02:51->METAR KJFK 040251Z 35008KT 10SM BKN050 BKN065 BKN120 BKN250 27/22 A2985 RMK AO2 LTG DSNT NE SLP108 T02670217 53011=
04/07/2023 01:51->METAR KJFK 040151Z 21008KT 10SM FEW050 BKN120 BKN250 26/21 A2985 RMK AO2 SLP107 T02610211=
04/07/2023 00:51->METAR KJFK 040051Z 19008KT 10SM SCT045 SCT140 BKN250 24/21 A2982 RMK AO2 LTG DSNT N SLP097 CB DSNT NW VCSH NW T02440211=
03/07/2023 23:51->METAR KJFK 032351Z 18007KT 10SM SCT045 SCT140 SCT250 25/22 A2982 RMK AO2 SLP098 T02500217 10300 20250 53001=
03/07/2023 22:51->METAR KJFK 032251Z 17010KT 10SM FEW045 SCT140 SCT250 27/22 A2980 RMK AO2 SLP092 T02670222=
03/07/2023 21:51->METAR KJFK 032151Z 16010KT 10SM FEW045 FEW160 SCT250 28/23 A2980 RMK AO2 SLP092 CB DSNT N T02830228=
03/07/2023 20:51->METAR KJFK 032051Z 18013KT 10SM FEW045 SCT160 BKN250 28/23 A2982 RMK AO2 SLP096 CB DSNT NW T02830228 58009=
03/07/2023 19:51->METAR KJFK 031951Z 16012KT 10SM FEW043 FEW140 SCT200 BKN250 29/21 A2983 RMK AO2 SLP100 T02940211=
03/07/2023 18:51->METAR KJFK 031851Z 17012KT 10SM FEW043 SCT190 BKN250 29/22 A2984 RMK AO2 SLP104 T02940217=
03/07/2023 17:51->METAR KJFK 031751Z 20011KT 10SM FEW043 FEW140 BKN200 BKN250 30/22 A2984 RMK AO2 SLP106 T03000217 10306 20244 56006=
03/07/2023 16:51->METAR KJFK 031651Z 22009KT 10SM FEW040 SCT140 BKN210 BKN250 30/22 A2984 RMK AO2 SLP106 T03000217=
03/07/2023 15:51->METAR KJFK 031551Z 19009KT 10SM BKN140 BKN210 BKN250 28/22 A2986 RMK AO2 SLP110 T02780217=
03/07/2023 14:51->METAR KJFK 031451Z 22009KT 10SM FEW080 SCT140 BKN200 BKN250 27/22 A2986 RMK AO2 SLP112 T02720217 52007=
03/07/2023 13:51->METAR KJFK 031351Z 18008KT 10SM FEW065 SCT110 SCT250 27/22 A2985 RMK AO2 SLP108 T02720217=
03/07/2023 12:51->METAR KJFK 031251Z 19005KT 10SM FEW048 SCT070 BKN110 BKN250 25/22 A2985 RMK AO2 SLP108 T02500217=
03/07/2023 11:51->METAR KJFK 031151Z 31004KT 10SM FEW050 BKN110 BKN250 26/21 A2984 RMK AO2 SLP105 70042 T02610211 10261 20228 53009=
03/07/2023 10:51->METAR KJFK 031051Z 27005KT 10SM FEW075 SCT110 BKN250 24/22 A2982 RMK AO2 SLP097 T02440217=
03/07/2023 09:51->METAR KJFK 030951Z 30007KT 10SM SCT110 SCT250 24/21 A2981 RMK AO2 SLP096 T02390211 $=
03/07/2023 08:51->METAR KJFK 030851Z 27006KT 10SM FEW055 SCT250 23/22 A2982 RMK AO2 SLP096 T02330217 55001 $=
03/07/2023 07:51->METAR KJFK 030751Z 25008KT 10SM SCT030 BKN259 23/22 A2981 RMK AO2 SLP096 T02330217 $=
03/07/2023 06:51->METAR KJFK 030651Z 23007KT 10SM SCT080 BKN220 23/22 A2981 RMK AO2 SLP095 T02330217 $=
03/07/2023 05:51->METAR KJFK 030551Z 23006KT 10SM FEW035 SCT100 SCT250 23/22 A2982 RMK AO2 RAE0458 SLP097 P0000 60000 T02330222 10250 20228 53002 $=
03/07/2023 04:51->METAR KJFK 030451Z 29004KT 10SM -RA FEW027 SCT055 BKN110 24/22 A2981 RMK AO2 RAB48 SLP095 OCNL LTGIC DSNT N CB DSNT N MOV E P0000 T02440222 402890206 $=
03/07/2023 03:51->METAR KJFK 030351Z 18005KT 7SM SCT038 BKN070 BKN220 23/22 A2980 RMK AO2 LTG DSNT W AND NW SLP091 FRQ LTGICCC DSNT W CB DSNT W MOV E T02280222 $=
03/07/2023 02:51->METAR KJFK 030251Z 18007KT 8SM FEW070 BKN120 OVC220 23/22 A2981 RMK AO2 LTG DSNT N AND NW RAB24E48 SLP096 P0000 60000 T02280222 53001 $=
03/07/2023 01:51->METAR KJFK 030151Z 18009KT 8SM FEW030 SCT060 BKN160 OVC200 23/22 A2981 RMK AO2 SLP094 T02280222 $=
03/07/2023 00:51->METAR KJFK 030051Z 18012G18KT 8SM FEW030 SCT060 SCT100 BKN250 23/22 A2980 RMK AO2 SLP092 T02280222 $=
02/07/2023 23:51->METAR KJFK 022351Z 17010KT 7SM FEW045 SCT080 SCT120 BKN180 BKN250 24/22 A2981 RMK AO2 SLP095 60042 T02390222 10289 20233 58005 $=
02/07/2023 22:51->METAR KJFK 022251Z 16006KT 7SM FEW030 SCT055 BKN250 25/23 A2981 RMK AO2 TSE24 SLP094 T02500228 $=
02/07/2023 21:51->METAR KJFK 022151Z 18008KT 6SM TS BR FEW028 SCT055CB BKN085 BKN250 24/23 A2984 RMK AO2 RAB07E41 TSB02 SLP104 OCNL LTGIC N TS N MOV E P0042 T02440233 $=
02/07/2023 20:51->METAR KJFK 022051Z 18013KT 6SM HZ BKN055TCU BKN110 BKN200 BKN250 26/22 A2983 RMK AO2 SLP100 TCU SW VCSH SW T02560222 57013 $=
02/07/2023 19:51->METAR KJFK 021951Z 18011KT 6SM HZ FEW045 SCT110 BKN140 BKN200 BKN250 26/22 A2984 RMK AO2 SLP105 T02610222 $=
02/07/2023 18:51->METAR KJFK 021851Z 17011KT 6SM HZ FEW045 SCT110 BKN160 BKN250 26/22 A2985 RMK AO2 SLP108 T02560222 $=
02/07/2023 17:51->METAR KJFK 021751Z 17011KT 8SM FEW020 SCT050 BKN200 BKN250 29/23 A2987 RMK AO2 SLP113 T02890228 10289 20222 58008 $=
02/07/2023 16:51->METAR KJFK 021651Z 18007KT 8SM SCT020 SCT050 BKN150 BKN250 28/22 A2988 RMK AO2 SLP118 T02780222 $=
02/07/2023 15:51->METAR KJFK 021551Z 23008KT 8SM BKN022 BKN050 BKN250 27/22 A2989 RMK AO2 SLP120 T02720217 $=
02/07/2023 14:51->METAR KJFK 021451Z 21008KT 6SM HZ FEW015 BKN026 BKN050 BKN140 BKN250 24/21 A2989 RMK AO2 SLP121 T02390211 55004 $=
02/07/2023 13:51->METAR KJFK 021351Z 19014KT 8SM BKN022 BKN045 BKN060 BKN140 BKN250 24/21 A2989 RMK AO2 SLP121 T02440211 $=
02/07/2023 12:51->METAR KJFK 021251Z 18012KT 10SM FEW025 SCT043 BKN060 BKN140 BKN210 23/22 A2989 RMK AO2 SLP121 T02330217 $=
02/07/2023 11:51->METAR KJFK 021151Z 17010KT 10SM FEW010 FEW027 BKN034 BKN140 OVC210 22/21 A2990 RMK AO2 RAB15E24 SLP125 P0000 60005 70005 T02220211 10222 20206 58001 $=
02/07/2023 10:51->METAR KJFK 021051Z 16005KT 10SM FEW010 BKN031 OVC050 22/21 A2991 RMK AO2 SLP128 T02170206 $=
02/07/2023 09:51->METAR KJFK 020951Z 14007KT 10SM FEW010 OVC036 22/22 A2990 RMK AO2 RAB17E28 SLP126 P0000 T02170217 $=
02/07/2023 08:51->METAR KJFK 020851Z 11004KT 10SM BKN030 BKN035 OVC042 21/20 A2991 RMK AO2 RAB15E49 SLP126 P0000 60005 T02060200 56017 $=
02/07/2023 07:51->METAR KJFK 020751Z 14009KT 10SM SCT008 BKN014 OVC047 22/21 A2991 RMK AO2 RAB0656E45 SLP128 P0005 T02170211 $=
02/07/2023 06:51->METAR KJFK 020651Z 14006KT 10SM SCT008 BKN014 OVC055 22/21 A2993 RMK AO2 SLP136 T02170206 $=
02/07/2023 05:51->METAR KJFK 020551Z 15005KT 10SM FEW008 BKN047 OVC065 22/21 A2996 RMK AO2 SLP143 T02170206 10222 20217 58008 $=
02/07/2023 04:51->METAR KJFK 020451Z 16006KT 10SM SCT009 OVC055 22/21 A2997 RMK AO2 CIG 009 W SLP148 T02170206 402670183 $=
02/07/2023 03:51->METAR KJFK 020351Z 15008KT 10SM SCT011 BKN050 BKN060 OVC250 22/20 A2997 RMK AO2 SLP150 T02170200 $=
02/07/2023 02:51->METAR KJFK 020251Z 17007KT 10SM BKN046 BKN055 OVC250 22/19 A2998 RMK AO2 SLP152 T02170194 56006 $=
02/07/2023 01:51->METAR KJFK 020151Z 15008KT 10SM BKN049 OVC200 22/19 A2999 RMK AO2 SLP155 T02170194 $=
02/07/2023 00:51->METAR KJFK 020051Z 16008KT 10SM SCT100 BKN250 22/18 A2999 RMK AO2 SLP154 T02170183 $=
01/07/2023 23:51->METAR KJFK 012351Z 16009KT 10SM FEW070 FEW100 BKN250 22/19 A3000 RMK AO2 SLP157 T02220189 10261 20222 55008 $=
01/07/2023 22:51->METAR KJFK 012251Z 17009KT 9SM FEW100 BKN250 23/18 A2999 RMK AO2 SLP155 T02280183 $=
01/07/2023 21:51->METAR KJFK 012151Z 18009KT 9SM BKN250 24/18 A3000 RMK AO2 SLP160 T02440178 $=
01/07/2023 20:51->METAR KJFK 012051Z 15010KT 9SM FEW075 BKN250 25/18 A3002 RMK AO2 SLP166 T02500178 56015 $=
01/07/2023 19:51->METAR KJFK 011951Z 17011KT 8SM FEW075 BKN250 25/17 A3003 RMK AO2 SLP168 T02500172 $=
01/07/2023 18:51->METAR KJFK 011851Z 18012KT 10SM FEW075 BKN250 26/17 A3004 RMK AO2 SLP173 T02560172 $=
01/07/2023 17:51->METAR KJFK 011751Z 17012KT 10SM BKN250 26/18 A3007 RMK AO2 SLP181 T02610183 10267 20217 56007 $=
01/07/2023 16:51->METAR KJFK 011651Z 16012KT 10SM FEW030 BKN250 25/19 A3007 RMK AO2 SLP181 T02500189 $=
01/07/2023 15:51->METAR KJFK 011551Z 18008KT 10SM BKN250 26/18 A3008 RMK AO2 SLP186 T02560183 $=
01/07/2023 14:51->METAR KJFK 011451Z 17008KT 10SM SCT080 BKN250 24/18 A3009 RMK AO2 SLP188 T02440183 51006 $=
01/07/2023 13:51->METAR KJFK 011351Z 20007KT 10SM BKN070 BKN250 24/18 A3008 RMK AO2 SLP186 T02390178 $=
01/07/2023 12:51->METAR KJFK 011251Z 21006KT 10SM SCT250 23/18 A3009 RMK AO2 SLP188 T02330183 $=
01/07/2023 11:51->METAR KJFK 011151Z 16005KT 9SM SCT250 22/18 A3007 RMK AO2 SLP183 T02220178 10222 20183 51006 $=
01/07/2023 10:51->METAR KJFK 011051Z 18003KT 7SM SCT250 21/18 A3007 RMK AO2 SLP181 T02060183 $=
01/07/2023 09:51->METAR KJFK 010951Z 23004KT 6SM BR FEW250 19/17 A3006 RMK AO2 SLP180 T01890172 $=
01/07/2023 08:51->METAR KJFK 010851Z 22003KT 8SM FEW250 19/17 A3005 RMK AO2 SLP177 T01890172 55001 $=
01/07/2023 07:51->METAR KJFK 010751Z 21004KT 9SM FEW250 19/17 A3005 RMK AO2 SLP176 T01890167 $=
01/07/2023 06:51->METAR KJFK 010651Z 19004KT 9SM FEW250 19/16 A3005 RMK AO2 SLP176 T01940161 $=
01/07/2023 05:51->METAR KJFK 010551Z 21006KT 9SM FEW250 19/17 A3006 RMK AO2 SLP178 T01940172 10222 20194 56005 $=
01/07/2023 04:51->METAR KJFK 010451Z 18007KT 9SM FEW250 20/19 A3006 RMK AO2 SLP179 T02000189 402830194 $=
01/07/2023 03:51->METAR KJFK 010351Z 19006KT 9SM FEW250 21/19 A3007 RMK AO2 SLP181 T02060189 $=
01/07/2023 02:51->METAR KJFK 010251Z 21007KT 10SM FEW250 21/18 A3007 RMK AO2 SLP183 T02060178 53007 $=
01/07/2023 01:51->METAR KJFK 010151Z 19008KT 7SM FEW250 21/18 A3007 RMK AO2 SLP181 T02110178=
01/07/2023 00:51->METAR KJFK 010051Z 18010KT 7SM FEW250 22/18 A3005 RMK AO2 SLP176 T02170178=
30/06/2023 23:51->METAR KJFK 302351Z 16009KT 7SM BKN250 22/18 A3005 RMK AO2 SLP176 T02220178 10278 20222 55000=
30/06/2023 22:51->METAR KJFK 302251Z 18010KT 7SM BKN250 24/18 A3005 RMK AO2 SLP175 T02390183=
30/06/2023 21:51->METAR KJFK 302151Z 18010KT 7SM BKN250 25/19 A3005 RMK AO2 SLP174 T02500189=
30/06/2023 20:51->METAR KJFK 302051Z 17012KT 6SM HZ FU FEW180 BKN250 26/19 A3005 RMK AO2 SLP176 T02560189 55004=
30/06/2023 19:51->METAR KJFK 301951Z 19012KT 6SM HZ FU FEW055 BKN250 25/19 A3005 RMK AO2 SLP175 T02500189 $=
30/06/2023 18:51->METAR KJFK 301851Z 18010KT 5SM HZ FU FEW055 BKN250 26/19 A3006 RMK AO2 SLP178 T02560194 $=
30/06/2023 17:51->METAR KJFK 301751Z 21011KT 4SM HZ FU FEW055 BKN250 28/18 A3006 RMK AO2 SLP180 T02780183 10283 20217 58005 $=
30/06/2023 16:51->METAR KJFK 301651Z 21009KT 4SM HZ FU FEW055 BKN250 28/16 A3007 RMK AO2 SLP182 T02830161 $=
30/06/2023 15:51->METAR KJFK 301551Z 21008KT 3SM HZ FU FEW055 BKN250 27/16 A3008 RMK AO2 SLP184 T02720161=
30/06/2023 14:51->METAR KJFK 301451Z 21006KT 3SM HZ FU SCT055 BKN250 27/17 A3008 RMK AO2 SLP184 T02670172 51005=
30/06/2023 13:51->METAR KJFK 301351Z 21005KT 3SM HZ FU SCT250 24/19 A3007 RMK AO2 SLP182 T02440189=
30/06/2023 12:51->METAR KJFK 301251Z VRB04KT 3SM HZ FU SCT250 23/19 A3007 RMK AO2 SLP182 T02330189=
30/06/2023 11:51->METAR KJFK 301151Z 21005KT 3SM BR FU SCT250 22/19 A3006 RMK AO2 SLP179 T02170194 10217 20194 53006 $=
30/06/2023 10:51->METAR KJFK 301051Z 16004KT 4SM BR FU SCT075 SCT250 20/19 A3005 RMK AO2 SLP175 T02000189 $=
30/06/2023 09:51->METAR KJFK 300951Z 23006KT 4SM BR FU BKN075 BKN250 20/19 A3005 RMK AO2 SLP175 T02000189 $=
30/06/2023 08:51->METAR KJFK 300851Z 21004KT 5SM BR FU SCT075 19/19 A3004 RMK AO2 SLP173 T01940189 53003 $=
30/06/2023 07:51->METAR KJFK 300751Z 20006KT 6SM BR FU FEW007 19/19 A3004 RMK AO2 SLP171 T01940189 $=
30/06/2023 06:51->METAR KJFK 300651Z 13003KT 6SM BR FU FEW007 19/19 A3004 RMK AO2 SLP170 T01940194 $=
30/06/2023 05:51->METAR KJFK 300551Z 17004KT 6SM BR FU CLR 20/19 A3004 RMK AO2 SLP170 T02000194 10222 20200 56004 $=
30/06/2023 04:51->METAR KJFK 300451Z 17004KT 6SM BR FU CLR 20/19 A3004 RMK AO2 SLP172 T02000194 402780183 $=
30/06/2023 03:51->METAR KJFK 300351Z 14005KT 6SM BR CLR 21/19 A3004 RMK AO2 SLP172 T02060194 $=
30/06/2023 02:51->METAR KJFK 300251Z 14005KT 7SM FEW060 21/19 A3005 RMK AO2 SLP174 T02060189 50006 $=
30/06/2023 01:51->METAR KJFK 300151Z 17005KT 7SM FEW065 FEW250 21/19 A3005 RMK AO2 SLP175 T02110189=
30/06/2023 00:51->METAR KJFK 300051Z 15007KT 7SM FEW065 FEW250 21/19 A3003 RMK AO2 SLP170 T02110189=
29/06/2023 23:51->METAR KJFK 292351Z 18009KT 7SM SCT060 SCT250 22/18 A3003 RMK AO2 SLP168 T02220183 10278 20222 53011=
29/06/2023 22:51->METAR KJFK 292251Z 19011KT 7SM FEW055 SCT070 SCT250 23/19 A3001 RMK AO2 SLP162 T02280189=
29/06/2023 21:51->METAR KJFK 292151Z 19011KT 7SM SCT055 BKN070 BKN250 24/19 A3001 RMK AO2 SLP161 T02390189=
29/06/2023 20:51->METAR KJFK 292051Z 19012KT 8SM SCT060 BKN075 BKN250 25/19 A3000 RMK AO2 SLP158 T02500189 58002=
29/06/2023 19:51->METAR KJFK 291951Z 19013KT 9SM SCT055 BKN070 BKN250 26/18 A3000 RMK AO2 SLP159 T02610183=
29/06/2023 18:51->METAR KJFK 291851Z 21011KT 10SM BKN065 BKN080 BKN250 26/17 A3000 RMK AO2 SLP159 T02610167=
29/06/2023 17:51->METAR KJFK 291751Z 18005KT 10SM BKN049 BKN085 BKN250 27/16 A3000 RMK AO2 SLP159 T02670161 10272 20211 58008=
29/06/2023 16:51->METAR KJFK 291651Z 22007KT 190V260 10SM BKN047 BKN250 26/17 A3001 RMK AO2 SLP163 T02610167=
29/06/2023 15:51->METAR KJFK 291551Z 23009KT 10SM SCT046 BKN250 24/16 A3002 RMK AO2 SLP166 SCT V BKN T02440161=
29/06/2023 14:51->METAR KJFK 291451Z 34007KT 310V020 10SM SCT038 SCT060 BKN250 26/16 A3003 RMK AO2 SLP168 T02560156 50004=
29/06/2023 13:51->METAR KJFK 291351Z 35004KT 9SM SCT035 SCT060 BKN250 24/16 A3003 RMK AO2 SLP169 T02390156=
29/06/2023 12:51->METAR KJFK 291251Z 36005KT 10SM SCT035 BKN060 BKN250 22/15 A3003 RMK AO2 SLP168 T02220150=
29/06/2023 11:51->METAR KJFK 291151Z 34006KT 9SM SCT032 BKN065 BKN250 21/16 A3001 RMK AO2 SLP163 70017 T02110156 10211 20183 51020=
29/06/2023 10:51->METAR KJFK 291051Z 33007KT 9SM FEW035 SCT065 20/15 A3000 RMK AO2 SLP159 T02000150=
29/06/2023 09:51->METAR KJFK 290951Z 31007KT 10SM FEW065 19/15 A2998 RMK AO2 SLP152 T01890150=
29/06/2023 08:51->METAR KJFK 290851Z 31009KT 10SM FEW060 19/14 A2996 RMK AO2 SLP143 T01890144 53005=
29/06/2023 07:51->METAR KJFK 290751Z 30008KT 10SM FEW060 19/14 A2994 RMK AO2 SLP139 T01890144=
29/06/2023 06:51->METAR KJFK 290651Z 31009KT 10SM SCT055 20/14 A2994 RMK AO2 SLP139 T02000139=
29/06/2023 05:51->METAR KJFK 290551Z 31010KT 10SM SCT049 21/14 A2994 RMK AO2 SLP138 60000 T02060144 10244 20206 53008=
29/06/2023 04:51->METAR KJFK 290451Z 32010KT 10SM SCT044 BKN085 22/15 A2993 RMK AO2 SLP135 T02170150 402830194=
29/06/2023 03:51->METAR KJFK 290351Z 34010KT 10SM FEW045 OVC090 22/16 A2992 RMK AO2 SLP132 T02220161=
29/06/2023 02:51->METAR KJFK 290251Z 34007KT 10SM OVC045 23/17 A2992 RMK AO2 WSHFT 0210 RAB08E18 SLP130 P0000 60000 T02330172 51024=
29/06/2023 01:51->METAR KJFK 290151Z VRB03KT 10SM BKN045 OVC065 23/21 A2990 RMK AO2 SLP124 T02280206=
29/06/2023 00:51->METAR KJFK 290051Z 32005KT 10SM SCT055 BKN070 BKN250 24/19 A2987 RMK AO2 SLP115 T02390194=
28/06/2023 23:51->METAR KJFK 282351Z 29005KT 10SM BKN045 BKN065 BKN250 24/19 A2984 RMK AO2 WSHFT 2308 RAB2252E36 SLP105 P0006 60017 T02390194 10278 20228 53014=
28/06/2023 22:51->METAR KJFK 282251Z 23006KT 10SM BKN046TCU BKN065 BKN250 23/21 A2983 RMK AO2 RAE11 SLP099 TCU NW P0000 T02330206=
28/06/2023 21:51->METAR KJFK 282151Z 00000KT 10SM -RA BKN038 OVC060 23/19 A2981 RMK AO2 RAB07 SLP095 P0011 T02330194=
28/06/2023 20:51->METAR KJFK 282051Z 20005KT 10SM BKN041 BKN060 BKN100 BKN250 24/20 A2980 RMK AO2 RAB31E46 SLP092 VCSH NE AND W P0000 60000 T02440200 50001=
28/06/2023 19:51->METAR KJFK 281951Z 21011KT 10SM SCT040 SCT100 SCT250 26/19 A2980 RMK AO2 SLP092 TCU DSNT W VCSH NW T02560189=
28/06/2023 18:51->METAR KJFK 281851Z 19012KT 10SM SCT040 SCT065 SCT130 SCT250 27/19 A2980 RMK AO2 SLP092 T02670194=
28/06/2023 17:51->METAR KJFK 281751Z 20012KT 10SM SCT038 SCT095 SCT250 27/19 A2980 RMK AO2 SLP091 T02720194 10283 20217 55004=
28/06/2023 16:51->METAR KJFK 281651Z 20010KT 10SM SCT034 SCT250 27/19 A2980 RMK AO2 SLP091 T02720189=
28/06/2023 15:51->METAR KJFK 281551Z 20011KT 10SM FEW028 BKN250 27/19 A2981 RMK AO2 SLP095 T02670194=
28/06/2023 14:51->METAR KJFK 281451Z 22006KT 10SM FEW027 FEW150 BKN250 26/18 A2981 RMK AO2 SLP095 T02560183 51007=
28/06/2023 13:51->METAR KJFK 281351Z 22005KT 10SM FEW022 FEW150 BKN250 23/18 A2981 RMK AO2 SLP093 T02280183=
28/06/2023 12:51->METAR KJFK 281251Z 30006KT 9SM SCT018 BKN160 BKN250 22/18 A2981 RMK AO2 SLP092 T02220183=
28/06/2023 11:51->METAR KJFK 281151Z 32005KT 8SM FEW011 SCT170 BKN230 22/19 A2979 RMK AO2 SLP088 T02170189 10217 20194 53013 $=
28/06/2023 10:51->METAR KJFK 281051Z 36003KT 8SM FEW008 SCT150 OVC250 20/19 A2978 RMK AO2 SLP084 T02000189 $=
28/06/2023 09:51->METAR KJFK 280951Z 00000KT 10SM FEW170 BKN250 19/18 A2977 RMK AO2 SLP079 T01940183 $=
28/06/2023 08:51->METAR KJFK 280851Z 34004KT 10SM FEW130 BKN250 20/18 A2976 RMK AO2 SLP076 T02000183 55002 $=
28/06/2023 07:51->METAR KJFK 280751Z 34005KT 10SM FEW007 BKN130 BKN250 20/19 A2976 RMK AO2 SLP076 T02000194 $=
28/06/2023 06:51->METAR KJFK 280651Z 00000KT 10SM SCT006 BKN130 20/19 A2975 RMK AO2 SLP074 T02000194 $=
28/06/2023 05:51->METAR KJFK 280551Z 20006KT 10SM SCT006 BKN130 20/20 A2976 RMK AO2 SLP079 60000 T02000200 10211 20194 56001 $=
28/06/2023 04:51->METAR KJFK 280451Z 18004KT 9SM SCT005 BKN120 21/20 A2977 RMK AO2 SLP080 T02060200 402560189 $=
28/06/2023 03:51->METAR KJFK 280351Z 21003KT 10SM FEW005 FEW060 BKN180 19/19 A2976 RMK AO2 SLP077 T01940194 $=
28/06/2023 02:51->METAR KJFK 280251Z 18007KT 10SM FEW005 SCT065 OVC170 21/20 A2977 RMK AO2 RAE0156 SLP080 P0000 60000 T02060200 50003 $=
28/06/2023 01:51->METAR KJFK 280151Z 17007KT 10SM -RA FEW010 SCT075 BKN110 OVC140 21/20 A2977 RMK AO2 RAB23 SLP081 P0000 T02060200 $=
28/06/2023 00:51->METAR KJFK 280051Z 19008KT 10SM FEW013 FEW035 SCT070 BKN140 OVC250 21/19 A2977 RMK AO2 SLP082 T02110189 $=
27/06/2023 23:51->METAR KJFK 272351Z 17013KT 10SM FEW013 BKN070 BKN250 21/19 A2976 RMK AO2 LTG DSNT NW SLP077 T02110194 10256 20211 51019 $=
27/06/2023 22:51->METAR KJFK 272251Z 16008KT 10SM FEW013 FEW040 BKN085 BKN250 22/19 A2975 RMK AO2 LTG DSNT W AND NW SLP072 T02170194 $=
27/06/2023 21:51->METAR KJFK 272151Z 17012KT 10SM FEW019 FEW040 SCT090 BKN250 24/19 A2973 RMK AO2 SLP067 T02440194 $=
27/06/2023 20:51->METAR KJFK 272051Z 17010KT 10SM SCT019 SCT040 SCT110 BKN250 24/19 A2970 RMK AO2 SLP058 T02440194 50000 $=
27/06/2023 19:51->METAR KJFK 271951Z 19011KT 10SM SCT021 SCT040 BKN110 BKN250 24/19 A2971 RMK AO2 SLP059 T02440194 $=
27/06/2023 18:51->METAR KJFK 271851Z 20012KT 10SM SCT017 SCT040 BKN250 24/19 A2971 RMK AO2 SLP060 SCT017 V BKN T02440194 $=
27/06/2023 17:51->METAR KJFK 271751Z 18011KT 10SM SCT015 BKN250 24/20 A2970 RMK AO2 SLP058 60000 T02390200 10244 20211 58008 $=
27/06/2023 16:51->METAR KJFK 271651Z 19012KT 10SM FEW027 FEW120 BKN250 23/19 A2972 RMK AO2 SLP064 T02280194 $=
27/06/2023 15:51->METAR KJFK 271551Z 18018KT 10SM FEW012 BKN090 BKN250 22/19 A2973 RMK AO2 SLP067 T02170189 $=
27/06/2023 14:51->METAR KJFK 271451Z 19016KT 10SM SCT010 BKN013 BKN090 OVC250 21/19 A2973 RMK AO2 SLP067 60000 T02110189 51019 $=
27/06/2023 13:51->METAR KJFK 271351Z 14012KT 10SM BKN012 BKN018 BKN110 OVC250 22/19 A2972 RMK AO2 RAB18E44 SLP062 P0000 T02170194 $=
27/06/2023 12:51->METAR KJFK 271251Z 09004KT 10SM FEW013 BKN020 OVC250 22/19 A2970 RMK AO2 RAB1158E26 SLP056 P0000 T02170194 $=
27/06/2023 11:51->METAR KJFK 271151Z 00000KT 10SM SCT019 BKN130 OVC250 21/19 A2967 RMK AO2 SLP048 60000 70002 T02110194 10211 20189 50009 $=
27/06/2023 10:51->METAR KJFK 271051Z 12005KT 9SM FEW010 BKN130 BKN250 21/20 A2968 RMK AO2 SLP050 T02060200 $=
27/06/2023 09:51->METAR KJFK 270951Z 19003KT 10SM BKN130 BKN250 20/20 A2968 RMK AO2 SLP051 T02000200 $=
27/06/2023 08:51->METAR KJFK 270851Z 28007KT 10SM BKN250 20/19 A2965 RMK AO2 SLP038 60000 T02000189 58014 $=
27/06/2023 07:51->METAR KJFK 270751Z 15007KT 10SM FEW050 SCT100 BKN170 21/20 A2966 RMK AO2 SLP044 OCNL LTGICCC DSNT E-SE CB DSNT E-SE MOV NE T02060200 $=
27/06/2023 06:51->METAR KJFK 270651Z 22007KT 10SM FEW050 SCT100 19/18 A2968 RMK AO2 RAE0557 TSE10 SLP051 FRQ LTGIC DSNT SE-S CB DSNT SE-S MOV NE P0000 T01940183 $=
27/06/2023 05:51->METAR KJFK 270551Z 25006KT 10SM -TSRA SCT050CB BKN100 20/18 A2969 RMK AO2 PK WND 25026/0500 WSHFT 0456 RAB0455 TSB16 SLP052 FRQ LTGICCA SE-S TS SE-S MOV NE P0002 60002 T02000183 10228 20200 58006 $=
27/06/2023 04:51->METAR KJFK 270451Z 22016KT 1SM R04R/P6000FT BR OVC003 21/21 A2971 RMK AO2 SFC VIS 2 1/2 LTG DSNT S-W SLP061 T02110211 402720200 $=
27/06/2023 03:51->METAR KJFK 270351Z 18013KT 6SM BR OVC005 22/21 A2971 RMK AO2 SLP059 T02170211 $=
27/06/2023 02:51->METAR KJFK 270251Z 14011KT 7SM OVC007 22/21 A2971 RMK AO2 SLP059 T02170206 58012 $=
27/06/2023 01:51->METAR KJFK 270151Z 14005KT 10SM OVC010 22/21 A2974 RMK AO2 SLP072 T02220206 $=
27/06/2023 00:51->METAR KJFK 270051Z VRB05KT 10SM OVC011 23/21 A2973 RMK AO2 SLP068 T02280206 $=
26/06/2023 23:51->METAR KJFK 262351Z 20004KT 10SM BKN009 BKN016 OVC065 23/21 A2974 RMK AO2 SLP071 T02280206 10272 20222 51009 $=
26/06/2023 22:51->METAR KJFK 262251Z 18009KT 10SM BKN009 BKN040 OVC085 23/21 A2974 RMK AO2 LTG DSNT W-N SLP069 T02280206 $=
26/06/2023 21:51->METAR KJFK 262151Z 16012G19KT 10SM FEW009 FEW045 BKN120 BKN160 OVC250 23/21 A2972 RMK AO2 LTG DSNT W AND NW SLP064 T02280206 $=
26/06/2023 20:51->METAR KJFK 262051Z 15013KT 10SM FEW009 BKN160 BKN250 23/21 A2971 RMK AO2 LTG DSNT NW SLP062 T02330206 56015 $=
26/06/2023 19:51->METAR KJFK 261951Z 16012KT 10SM FEW010 FEW047 SCT140 BKN180 BKN250 24/21 A2974 RMK AO2 LTG DSNT W-N SLP069 T02440206 $=
26/06/2023 18:51->METAR KJFK 261851Z 14012KT 10SM FEW011 FEW047 SCT065 BKN250 25/21 A2974 RMK AO2 LTG DSNT N SLP069 T02500206 $=
26/06/2023 17:51->METAR KJFK 261751Z 14010KT 10SM FEW011 FEW047 BKN160 BKN250 26/22 A2976 RMK AO2 LTG DSNT N AND NW SLP077 VCSH NW T02610217 10261 20211 58016 $=
26/06/2023 16:51->METAR KJFK 261651Z 13009KT 10SM FEW011 FEW045 SCT110 BKN170 BKN250 25/21 A2978 RMK AO2 LTG DSNT SW AND W SLP083 T02500211 $=
26/06/2023 15:51->METAR KJFK 261551Z 14008KT 10SM FEW009 SCT047 BKN100 BKN250 24/21 A2979 RMK AO2 LTG DSNT N AND NW TSE00 SLP089 T02440211 $=
26/06/2023 14:51->METAR KJFK 261451Z 16009KT 10SM TS SCT009 SCT042CB BKN090 BKN250 23/21 A2981 RMK AO2 LTG DSNT W-N TSB29 SLP093 OCNL LTGICCG W-NW TS W-NW MOV NE VCSH W-NW T02330206 51003 $=
26/06/2023 13:51->METAR KJFK 261351Z 15009KT 10SM FEW009 SCT046 BKN075 BKN250 24/21 A2981 RMK AO2 LTG DSNT W AND NW SLP093 CB DSNT SW-W MOV NE T02390206 $=
26/06/2023 12:51->METAR KJFK 261251Z 12010KT 10SM SCT005 SCT046 SCT075 BKN140 BKN250 22/21 A2980 RMK AO2 SLP092 T02220211 $=
26/06/2023 11:51->METAR KJFK 261151Z 10008KT 8SM FEW008 SCT050 BKN085 BKN140 21/21 A2980 RMK AO2 SLP090 60001 70001 T02110211 10211 20200 53005 $=
26/06/2023 10:51->METAR KJFK 261051Z 09004KT 8SM FEW008 BKN041 BKN075 BKN140 21/21 A2979 RMK AO2 RAB00E30 SLP087 P0001 T02060206 $=
26/06/2023 09:51->METAR KJFK 260951Z 06003KT 7SM FEW007 SCT060 BKN140 BKN250 21/20 A2978 RMK AO2 SLP085 VCSH SW T02060200 $=
26/06/2023 08:51->METAR KJFK 260851Z 20004KT 8SM FEW006 FEW050 BKN140 20/20 A2978 RMK AO2 SLP085 60000 T02000200 56004 $=
26/06/2023 07:51->METAR KJFK 260751Z 16003KT 10SM FEW005 FEW047 BKN130 20/20 A2979 RMK AO2 SLP086 T02000200 $=
26/06/2023 06:51->METAR KJFK 260651Z 18006KT 9SM SCT005 SCT047 BKN130 20/20 A2979 RMK AO2 RAB41E50 SLP086 P0000 T02000200 $=
26/06/2023 05:51->METAR KJFK 260551Z 17003KT 10SM FEW004 SCT150 20/20 A2980 RMK AO2 SLP089 T02000200 10228 20200 58005 $=
26/06/2023 04:51->METAR KJFK 260451Z 12004KT 10SM SCT004 BKN150 21/20 A2980 RMK AO2 SLP091 T02060200 402830183 $=
26/06/2023 03:51->METAR KJFK 260351Z 15006KT 2 1/2SM OVC004 20/20 A2982 RMK AO2 SFC VIS 7 SLP098 T02000200 $=
26/06/2023 02:51->METAR KJFK 260251Z 14008KT 8SM OVC005 21/20 A2981 RMK AO2 SLP094 T02060200 55001 $=
26/06/2023 01:51->METAR KJFK 260151Z 15006KT 10SM FEW120 21/21 A2980 RMK AO2 SLP090 T02110206 $=
26/06/2023 00:51->METAR KJFK 260051Z 13007KT 10SM FEW080 FEW120 22/21 A2979 RMK AO2 SLP089 T02170206 $=
25/06/2023 23:51->METAR KJFK 252351Z 16007KT 10SM FEW080 SCT120 SCT250 23/21 A2981 RMK AO2 LTG DSNT W SLP096 CB DSNT W-NW T02280206 10267 20228 55000 $=
25/06/2023 22:51->METAR KJFK 252251Z 17006KT 10SM FEW070 SCT120 SCT250 24/21 A2981 RMK AO2 LTG DSNT W SLP095 CB DSNT W T02440206 $=
25/06/2023 21:51->METAR KJFK 252151Z 17007KT 10SM FEW070 SCT120 SCT250 25/21 A2980 RMK AO2 SLP091 T02500211 $=
25/06/2023 20:51->METAR KJFK 252051Z 17008KT 10SM FEW085 SCT130 BKN250 26/21 A2982 RMK AO2 SLP096 T02560211 58011 $=
25/06/2023 19:51->METAR KJFK 251951Z 14009KT 10SM FEW085 SCT150 BKN250 26/21 A2983 RMK AO2 SLP101 T02610211 $=
25/06/2023 18:51->METAR KJFK 251851Z 16007KT 10SM FEW085 BKN250 26/21 A2984 RMK AO2 LTG DSNT NW SLP105 CB DSNT W-NW T02560206 $=
25/06/2023 17:51->METAR KJFK 251751Z 16010KT 10SM SCT040 SCT090 BKN150 BKN250 26/21 A2985 RMK AO2 LTG DSNT W AND NW SLP107 CB DSNT SW-NW T02560206 10283 20217 53003 $=
25/06/2023 16:51->METAR KJFK 251651Z 16012KT 10SM SCT035 SCT090 BKN150 BKN250 26/21 A2983 RMK AO2 LTG DSNT N AND NE AND SW SLP102 CB DSNT NE AND DSNT SW-W T02610211 $=
25/06/2023 15:51->METAR KJFK 251551Z 16012KT 10SM SCT035CB SCT150 SCT250 26/21 A2984 RMK AO2 TSE37 SLP103 CB NW MOV NE CB DSNT S T02610206 $=
25/06/2023 14:51->METAR KJFK 251451Z 15006KT 10SM FEW030 FEW150 SCT250 28/21 A2984 RMK AO2 SLP103 T02780211 57003 $=
25/06/2023 13:51->METAR KJFK 251351Z VRB03KT 10SM FEW009 FEW180 SCT250 26/21 A2984 RMK AO2 SLP105 T02610211 $=
25/06/2023 12:51->METAR KJFK 251251Z 02004KT 2SM FEW005 FEW180 SCT250 24/21 A2984 RMK AO2 SFC VIS 8 SLP106 T02440206 $=
25/06/2023 11:51->METAR KJFK 251151Z 00000KT 2SM BR FEW005 FEW200 SCT250 22/21 A2985 RMK AO2 SFC VIS 5 SLP107 T02170211 10217 20183 53013 $=
25/06/2023 10:51->METAR KJFK 251051Z 00000KT 2SM BR SCT005 SCT200 BKN250 20/20 A2983 RMK AO2 SFC VIS 4 SLP102 T02000200 $=
25/06/2023 09:51->METAR KJFK 250951Z 00000KT 1/2SM R04R/P6000FT BKN004 19/19 A2982 RMK AO2 SFC VIS 5 SLP097 T01890189 $=
25/06/2023 08:51->METAR KJFK 250851Z 08003KT 5SM FEW003 FEW015 18/18 A2981 RMK AO2 SLP093 T01830183 56004 $=
25/06/2023 07:51->METAR KJFK 250751Z 12004KT 2SM BR FEW003 FEW015 18/18 A2981 RMK AO2 SLP093 T01830183 $=
25/06/2023 06:51->METAR KJFK 250651Z 00000KT 5SM BR SCT002 19/19 A2982 RMK AO2 VIS 1 W SLP097 T01890189 $=
25/06/2023 06:12->METAR KJFK COR 250612Z COR 16003KT 1/2SM R04R/3000VP6000FT FG OVC002 19/19 A2983 RMK AO2 VIS 1/4 W T01940194 $=
25/06/2023 05:51->METAR KJFK 250551Z 19003KT 1/2SM R04R/2200V3000FT FG VV002 19/19 A2983 RMK AO2 SLP101 T01890189 10217 20189 56000 $=
25/06/2023 04:51->METAR KJFK 250451Z 11003KT 1 3/4SM R04R/3500V5500FT BR BKN002 19/19 A2983 RMK AO2 SLP102 T01940194 402440189 $=
25/06/2023 03:51->METAR KJFK 250351Z 17006KT 1 1/4SM R04R/2400VP6000FT BR OVC002 19/19 A2983 RMK AO2 SLP099 T01940194 $=
25/06/2023 02:51->METAR KJFK 250251Z 17004KT 4SM BR BKN002 19/19 A2983 RMK AO2 SLP101 T01940194 50002 $=
25/06/2023 01:51->METAR KJFK 250151Z 18008KT 8SM SCT004 BKN090 BKN250 20/20 A2983 RMK AO2 SLP102 T02000200 $=
25/06/2023 00:51->METAR KJFK 250051Z 21005KT 9SM SCT035 SCT085 BKN250 21/20 A2983 RMK AO2 SLP101 T02060200 $=
24/06/2023 23:51->METAR KJFK 242351Z 19011KT 10SM FEW040 SCT065 BKN250 22/20 A2983 RMK AO2 SLP100 60000 T02170200 10244 20200 55002 $=
24/06/2023 22:51->METAR KJFK 242251Z 18011KT 10SM FEW008 FEW030 SCT060 BKN250 22/19 A2982 RMK AO2 SLP096 T02170194 $=
24/06/2023 21:51->METAR KJFK 242151Z 15007KT 10SM SCT006 SCT030 BKN060 BKN250 21/19 A2981 RMK AO2 SLP095 T02110194 $=
24/06/2023 20:51->METAR KJFK 242051Z 18009KT 10SM SCT005 BKN028 BKN250 21/19 A2983 RMK AO2 LTG DSNT SW SLP102 60000 T02060194 56001 $=
24/06/2023 19:51->METAR KJFK 241951Z 18009KT 7SM SCT005 BKN010 BKN024 23/20 A2983 RMK AO2 LTG DSNT S AND SW RAB28E46 SLP101 P0000 T02280200 $=
24/06/2023 18:51->METAR KJFK 241851Z 17008KT 10SM FEW006 SCT013 BKN070 BKN250 24/20 A2984 RMK AO2 SLP103 T02390200 $=
24/06/2023 17:51->METAR KJFK 241751Z 17010KT 10SM OVC006 22/20 A2985 RMK AO2 CIG 002 W SLP109 60000 T02220200 10228 20194 58007 $=
24/06/2023 16:51->METAR KJFK 241651Z 18009KT 10SM BKN006 OVC025 22/19 A2986 RMK AO2 SLP112 T02170194 $=
24/06/2023 15:51->METAR KJFK 241551Z 18009KT 10SM FEW003 FEW012 BKN023 23/21 A2987 RMK AO2 SLP116 T02280206 $=
24/06/2023 14:51->METAR KJFK 241451Z 19008KT 10SM FEW003 BKN012 BKN018 21/21 A2988 RMK AO2 SLP117 60000 T02110206 58004 $=
24/06/2023 13:51->METAR KJFK 241351Z 19007KT 10SM OVC004 21/20 A2988 RMK AO2 SLP119 T02060200 $=
24/06/2023 12:51->METAR KJFK 241251Z 17005KT 10SM OVC003 20/20 A2989 RMK AO2 RAE17 SLP120 P0000 T02000200 $=
24/06/2023 11:51->METAR KJFK 241151Z 20006KT 6SM -RA BR OVC003 19/19 A2989 RMK AO2 VIS 2 1/2 W RAE1059B45 SLP121 P0000 60003 7//// T01940194 10194 20189 53001 $=
24/06/2023 10:51->METAR KJFK 241051Z 00000KT 5SM -RA BR OVC004 19/19 A2989 RMK AO2 SLP120 P0000 T01940194 $=
24/06/2023 09:51->METAR KJFK 240951Z 17004KT 5SM -RA BR BKN004 OVC080 19/19 A2989 RMK AO2 SLP120 P0000 T01890189 $=
24/06/2023 08:51->METAR KJFK 240851Z 19007KT 1 1/4SM R04R/4500V6000FT -RA BR OVC003 19/19 A2988 RMK AO2 RAB21 SLP119 P0000 60003 T01890189 55011 $=
24/06/2023 07:51->METAR KJFK 240751Z 18009KT 1/2SM R04R/2600V3000FT FG VV002 19/19 A2988 RMK AO2 SLP119 T01890189 $=
24/06/2023 06:51->METAR KJFK 240651Z 17007KT 5SM BR OVC005 19/19 A2989 RMK AO2 RAB00E45 SLP122 P0003 T01940194 $=
24/06/2023 05:51->METAR KJFK 240551Z 14007KT 7SM OVC008 19/19 A2992 RMK AO2 SLP130 T01940189 10206 20189 58010 $=
24/06/2023 04:51->METAR KJFK 240451Z 13004KT 8SM BKN007 BKN080 19/19 A2994 RMK AO2 SLP137 T01940189 402110172 $=
24/06/2023 03:51->METAR KJFK 240351Z 14007KT 9SM FEW003 BKN046 BKN060 19/19 A2995 RMK AO2 SLP140 T01940194 $=
24/06/2023 02:51->METAR KJFK 240251Z 12006KT 10SM BKN006 BKN048 19/19 A2995 RMK AO2 SLP143 T01890189 56002 $=
24/06/2023 01:51->METAR KJFK 240151Z 12006KT 10SM SCT006 BKN044 BKN160 OVC250 19/18 A2996 RMK AO2 SLP144 T01940183 $=
24/06/2023 00:51->METAR KJFK 240051Z 11007KT 10SM SCT006 BKN160 OVC250 19/19 A2995 RMK AO2 SLP142 T01940189 $=
23/06/2023 23:51->METAR KJFK 232351Z 13007KT 10SM SCT008 SCT075 BKN140 BKN250 21/19 A2996 RMK AO2 SLP144 60000 T02060189 10211 20189 56011 $=
23/06/2023 22:51->METAR KJFK 232251Z 12007KT 10SM BKN008 BKN075 BKN250 21/19 A2997 RMK AO2 SLP148 T02110194=
23/06/2023 21:51->METAR KJFK 232151Z 12007KT 10SM OVC005 20/19 A2998 RMK AO2 SLP151 T02000194=
23/06/2023 20:51->METAR KJFK 232051Z 13007KT 2 1/2SM OVC006 21/19 A2999 RMK AO2 SFC VIS 9 SLP155 60000 T02060194 56013=
23/06/2023 19:51->METAR KJFK 231951Z 11009KT 2 1/2SM OVC004 19/18 A3000 RMK AO2 SFC VIS 8 SLP158 T01940183 $=
23/06/2023 18:51->METAR KJFK 231851Z 11011KT 8SM OVC005 19/18 A3001 RMK AO2 DZE46 SLP161 P0000 T01940183 $=
23/06/2023 17:51->METAR KJFK 231751Z 12012KT 6SM -DZ BR OVC007 19/18 A3003 RMK AO2 DZB50 SLP167 60003 T01940178 10206 20178 56017 $=
23/06/2023 16:51->METAR KJFK 231651Z 09008KT 10SM OVC007 19/18 A3003 RMK AO2 RAE1554 SLP169 P0000 T01890178 $=
23/06/2023 15:51->METAR KJFK 231551Z 07011KT 10SM -RA BKN007 OVC013 18/18 A3005 RMK AO2 RAE13B38 SLP176 P0000 T01830178=
23/06/2023 14:51->METAR KJFK 231451Z 10012KT 7SM -RA BKN010 OVC018 18/17 A3008 RMK AO2 RAB12 SLP184 CIG 008V012 P0003 60003 T01780167 56006 $=
23/06/2023 13:51->METAR KJFK 231351Z 11011KT 10SM OVC013 19/16 A3008 RMK AO2 SLP185 CIG 010V016 T01940161 $=
23/06/2023 12:51->METAR KJFK 231251Z 11008KT 10SM OVC008 19/17 A3009 RMK AO2 SLP188 T01890167 $=
23/06/2023 11:51->METAR KJFK 231151Z 13010KT 10SM OVC008 18/17 A3009 RMK AO2 SLP190 T01780167 10178 20172 53008 $=
23/06/2023 10:51->METAR KJFK 231051Z 12005KT 10SM OVC007 18/17 A3008 RMK AO2 SLP184 T01780167 $=
23/06/2023 09:51->METAR KJFK 230951Z 10004KT 10SM OVC007 17/16 A3007 RMK AO2 SLP182 T01720161 $=
23/06/2023 08:51->METAR KJFK 230851Z 12005KT 10SM OVC006 17/16 A3007 RMK AO2 SLP182 T01720161 58006 $=
23/06/2023 07:51->METAR KJFK 230751Z 10008KT 10SM OVC006 17/16 A3008 RMK AO2 SLP184 T01720161 $=
23/06/2023 06:51->METAR KJFK 230651Z 12007KT 10SM OVC006 17/16 A3008 RMK AO2 SLP187 T01720161 $=
23/06/2023 05:51->METAR KJFK 230551Z 10006KT 10SM SCT007 BKN029 OVC130 17/16 A3009 RMK AO2 SLP188 T01720161 10206 20172 58005 $=
23/06/2023 04:51->METAR KJFK 230451Z 13006KT 10SM FEW006 BKN028 OVC049 18/17 A3010 RMK AO2 SLP193 T01780167 402280144 $=
23/06/2023 03:51->METAR KJFK 230351Z 13006KT 10SM FEW008 OVC031 18/17 A3011 RMK AO2 SLP194 T01780167 $=
23/06/2023 02:51->METAR KJFK 230251Z 15006KT 10SM SCT033 BKN250 18/17 A3010 RMK AO2 SLP193 T01780167 53002 $=
23/06/2023 01:51->METAR KJFK 230151Z 07006KT 10SM FEW024 OVC034 21/16 A3010 RMK AO2 SLP192 T02060161 $=
23/06/2023 00:51->METAR KJFK 230051Z 09004KT 10SM FEW024 BKN036 BKN250 20/17 A3010 RMK AO2 SLP191 T02000167 $=
22/06/2023 23:51->METAR KJFK 222351Z 12006KT 10SM OVC028 21/17 A3009 RMK AO2 SLP190 T02060167 10228 20206 55006 $=
22/06/2023 22:51->METAR KJFK 222251Z 08010KT 10SM BKN029 BKN250 22/16 A3009 RMK AO2 SLP189 T02220156 $=
22/06/2023 21:51->METAR KJFK 222151Z 08012KT 10SM BKN029 BKN250 22/15 A3009 RMK AO2 SLP190 T02220150 $=
22/06/2023 20:51->METAR KJFK 222051Z 04010KT 10SM OVC029 22/14 A3011 RMK AO2 SLP196 T02170144 56014 $=
22/06/2023 19:51->METAR KJFK 221951Z 08009KT 10SM OVC029 22/14 A3012 RMK AO2 SLP200 T02220144 $=
22/06/2023 18:51->METAR KJFK 221851Z 05008KT 10SM OVC027 22/14 A3014 RMK AO2 SLP205 T02170144 $=
22/06/2023 17:51->METAR KJFK 221751Z 05010KT 10SM OVC024 21/14 A3015 RMK AO2 SLP211 60000 T02110139 10211 20156 58012 $=
22/06/2023 16:51->METAR KJFK 221651Z 03011KT 10SM OVC021 20/14 A3018 RMK AO2 SLP219 T02000139 $=
22/06/2023 15:51->METAR KJFK 221551Z 04013G21KT 10SM SCT012 OVC020 18/13 A3019 RMK AO2 SLP223 T01830133 $=
22/06/2023 14:51->METAR KJFK 221451Z 04016G23KT 10SM FEW014 BKN023 OVC037 19/13 A3019 RMK AO2 SLP222 60000 T01890133 50001 $=
22/06/2023 13:51->METAR KJFK 221351Z 04013KT 10SM BKN015 BKN027 OVC039 17/13 A3019 RMK AO2 DZE06 SLP223 CIG 013V017 P0000 T01720133 $=
22/06/2023 12:51->METAR KJFK 221251Z 05013KT 4SM -DZ BR FEW007 BKN013 OVC025 16/14 A3019 RMK AO2 RAB31E41DZB41 SLP224 P0000 T01560144 $=
22/06/2023 11:51->METAR KJFK 221151Z 04010KT 10SM FEW012 OVC029 16/13 A3019 RMK AO2 SLP221 60000 T01610128 10172 20144 51004 $=
22/06/2023 10:51->METAR KJFK 221051Z 04012KT 10SM FEW013 OVC028 15/13 A3018 RMK AO2 SLP220 T01500128 $=
22/06/2023 09:51->METAR KJFK 220951Z 05011KT 10SM BKN026 OVC034 14/12 A3018 RMK AO2 RAE0853B34E44 SLP221 P0000 T01440117 $=
22/06/2023 08:51->METAR KJFK 220851Z 07011KT 10SM -RA OVC027 16/11 A3018 RMK AO2 RAB23 SLP218 P0000 60000 T01560111 55006 $=
22/06/2023 07:51->METAR KJFK 220751Z 06012KT 10SM SCT034 OVC049 16/11 A3017 RMK AO2 CIG 042 W SLP216 T01610111 $=
22/06/2023 06:51->METAR KJFK 220651Z 06014G23KT 10SM OVC034 17/10 A3018 RMK AO2 RAB38E47 SLP220 P0000 T01670100 $=
22/06/2023 05:51->METAR KJFK 220551Z 07014KT 10SM BKN040 OVC050 17/11 A3019 RMK AO2 SLP224 T01720106 10183 20172 57016 $=
22/06/2023 04:51->METAR KJFK 220451Z 07010KT 10SM BKN055 OVC070 17/11 A3021 RMK AO2 SLP228 T01720111 402220156 $=
22/06/2023 03:51->METAR KJFK 220351Z 07012KT 10SM OVC070 17/11 A3023 RMK AO2 SLP236 T01720111=
22/06/2023 02:51->METAR KJFK 220251Z 08012KT 10SM FEW035 BKN065 BKN250 17/12 A3024 RMK AO2 SLP240 T01720117 53001=
22/06/2023 01:51->METAR KJFK 220151Z 08014KT 10SM FEW030 BKN080 BKN250 18/12 A3024 RMK AO2 SLP238 T01780117=
22/06/2023 00:51->METAR KJFK 220051Z 09010KT 10SM FEW030 BKN085 BKN250 18/11 A3023 RMK AO2 SLP236 T01830106=
21/06/2023 23:51->METAR KJFK 212351Z 09011KT 10SM FEW030 BKN080 BKN100 BKN250 18/12 A3024 RMK AO2 SLP239 T01830117 10222 20183 57005=
21/06/2023 22:51->METAR KJFK 212251Z 09017KT 10SM FEW035 BKN095 BKN170 BKN250 19/12 A3024 RMK AO2 SLP240 T01890122=
21/06/2023 21:51->METAR KJFK 212151Z 10015KT 10SM FEW035 SCT100 BKN170 BKN250 20/13 A3025 RMK AO2 SLP242 T02000128=
21/06/2023 20:51->METAR KJFK 212051Z 10014G20KT 10SM FEW017 FEW035 BKN170 BKN250 21/13 A3025 RMK AO2 SLP244 T02110128 58009=
21/06/2023 19:51->METAR KJFK 211951Z 08015G24KT 10SM FEW017 FEW035 BKN190 BKN250 22/12 A3027 RMK AO2 SLP249 T02170117=
21/06/2023 18:51->METAR KJFK 211851Z 10011G20KT 10SM FEW035 BKN170 BKN250 20/13 A3028 RMK AO2 SLP253 T02000128=
21/06/2023 17:51->METAR KJFK 211751Z 11015KT 10SM FEW035 SCT180 BKN250 19/12 A3028 RMK AO2 SLP253 T01940122 10211 20172 50000=
21/06/2023 16:51->METAR KJFK 211651Z 09017G25KT 10SM FEW035 SCT200 BKN250 20/11 A3028 RMK AO2 SLP255 T02000111=
21/06/2023 15:51->METAR KJFK 211551Z 11015KT 10SM FEW032 FEW210 BKN250 20/13 A3029 RMK AO2 SLP257 T02000128=
21/06/2023 14:51->METAR KJFK 211451Z 11013KT 10SM FEW029 FEW210 BKN250 21/12 A3028 RMK AO2 SLP252 T02060117 52002=
21/06/2023 13:51->METAR KJFK 211351Z 07014KT 10SM FEW026 BKN250 21/11 A3028 RMK AO2 SLP252 T02060111=
21/06/2023 12:51->METAR KJFK 211251Z 06013KT 10SM FEW019 BKN250 19/11 A3027 RMK AO2 SLP251 T01890111=
21/06/2023 11:51->METAR KJFK 211151Z 07014KT 10SM BKN018 BKN250 17/12 A3027 RMK AO2 SLP250 BKN018 V SCT T01670122 10167 20156 51012=
21/06/2023 10:51->METAR KJFK 211051Z 05012KT 10SM BKN016 BKN250 16/12 A3026 RMK AO2 SLP246 T01560122=
21/06/2023 09:51->METAR KJFK 210951Z 05009KT 10SM BKN015 OVC250 16/12 A3025 RMK AO2 SLP244 T01560122=
21/06/2023 08:51->METAR KJFK 210851Z 04013KT 10SM OVC015 16/13 A3024 RMK AO2 SLP239 T01560128 58002 $=
21/06/2023 07:51->METAR KJFK 210751Z 05009KT 10SM FEW016 FEW080 OVC250 16/12 A3024 RMK SLP238 T01560122=
21/06/2023 06:51->METAR KJFK 210651Z 06009KT 10SM FEW080 BKN250 16/12 A3024 RMK AO2 SLP240 T01560122 $=
21/06/2023 05:51->METAR KJFK 210551Z 05008KT 10SM FEW080 BKN250 16/12 A3024 RMK AO2 SLP240 T01610117 10194 20161 50003 $=
21/06/2023 04:51->METAR KJFK 210451Z 06005KT 10SM FEW080 BKN250 17/11 A3024 RMK AO2 SLP241 T01670106 402390167 $=
21/06/2023 03:51->METAR KJFK 210351Z 05008KT 10SM FEW080 BKN250 17/11 A3024 RMK AO2 SLP239 T01720106 $=
21/06/2023 02:51->METAR KJFK 210251Z 07011KT 10SM FEW080 OVC250 18/11 A3023 RMK AO2 SLP238 T01780106 51007 $=
21/06/2023 01:51->METAR KJFK 210151Z 08009KT 10SM FEW190 BKN250 18/13 A3023 RMK AO2 SLP237 T01830128 $=
21/06/2023 00:51->METAR KJFK 210051Z 08008KT 10SM FEW020 FEW190 BKN250 18/12 A3022 RMK SLP233 T01830122=
20/06/2023 23:51->METAR KJFK 202351Z 11008KT 10SM FEW020 FEW190 BKN250 19/12 A3021 RMK SLP230 T01940117 10239 20194 53006=
20/06/2023 22:51->METAR KJFK 202251Z 10012KT 10SM FEW035 BKN250 20/13 A3020 RMK SLP227 T02000133=
20/06/2023 21:51->METAR KJFK 202151Z 11011KT 10SM FEW035 BKN250 21/13 A3019 RMK SLP224 T02110128=
20/06/2023 20:51->METAR KJFK 202051Z 12013KT 10SM FEW035 BKN250 22/13 A3019 RMK SLP224 T02170128 58003=
20/06/2023 19:51->METAR KJFK 201951Z 13011KT 10SM FEW035 FEW190 BKN250 22/13 A3021 RMK SLP228 T02170128=
20/06/2023 18:51->METAR KJFK 201851Z 13011KT 10SM FEW035 BKN250 23/13 A3020 RMK SLP228 T02280133=
20/06/2023 17:51->METAR KJFK 201751Z 09011KT 10SM FEW035 BKN250 23/13 A3020 RMK SLP228 T02330133 10233 20178 58001=
20/06/2023 17:00->METAR KJFK 141651Z 18015G23KT 10SM TS BKN007 BKN042 OVC120 21/18 A2954 RMK AO2 LTG DSNT N AND NW TSB51 SLP004 VCSH SW-N T02060178 $=
20/06/2023 16:51->METAR KJFK 201651Z 12011KT 10SM FEW033 FEW140 BKN250 23/14 A3021 RMK SLP230 T02280139=
20/06/2023 15:51->METAR KJFK 201551Z 11011KT 10SM SCT024 BKN250 22/16 A3021 RMK SLP231 T02220156=
20/06/2023 14:51->METAR KJFK 201451Z 12011KT 10SM BKN019 BKN250 21/16 A3021 RMK SLP229 T02110161 50001=
20/06/2023 13:51->METAR KJFK 201351Z 08008KT 10SM BKN018 BKN250 21/16 A3021 RMK SLP229 T02060156=
20/06/2023 12:51->METAR KJFK 201251Z 07007KT 10SM OVC012 19/16 A3021 RMK SLP229 T01890161=
20/06/2023 11:51->METAR KJFK 201151Z 06007KT 10SM OVC011 18/16 A3020 RMK SLP228 CIG 009V013 T01780156 10178 20172 51016=
20/06/2023 10:51->METAR KJFK 201051Z 06008KT 10SM OVC008 17/16 A3019 RMK SLP223 T01720156=
20/06/2023 09:51->METAR KJFK 200951Z 04008KT 10SM OVC010 17/16 A3018 RMK SLP218 T01720156=
20/06/2023 08:51->METAR KJFK 200851Z 07006KT 10SM OVC010 17/16 A3016 RMK SLP212 T01720156 53003=
20/06/2023 07:51->METAR KJFK 200751Z 05007KT 10SM OVC011 18/16 A3014 RMK SLP207 T01780156=
20/06/2023 06:51->METAR KJFK 200651Z 09005KT 10SM BKN011 BKN100 OVC250 18/16 A3014 RMK SLP2207 T01780161=
20/06/2023 05:51->METAR KJFK 200551Z 08005KT 10SM BKN011 OVC100 18/16 A3015 RMK SLP209 T01780161 10194 20178 50001=
20/06/2023 04:51->METAR KJFK 200451Z 09006KT 10SM BKN009 BKN100 OVC250 18/16 A3015 RMK SLP210 T01780161 402500172=
20/06/2023 03:51->METAR KJFK 200351Z 08007KT 10SM BKN008 OVC250 18/17 A3016 RMK SLP212 T01780167=
20/06/2023 02:51->METAR KJFK 200251Z 10009KT 10SM SCT008 SCT100 BKN250 18/17 A3015 RMK SLP208 SCT008 V BKN T01780167 51020=
20/06/2023 01:51->METAR KJFK 200151Z 10009KT 10SM FEW009 FEW100 BKN250 18/17 A3013 RMK SLP283 T01780167=
20/06/2023 00:51->METAR KJFK 200051Z 11006KT 10SM FEW020 FEW100 BKN250 18/17 A3011 RMK SLP196 T01830167=
19/06/2023 23:51->METAR KJFK 192351Z 12009KT 10SM FEW100 BKN250 19/16 A3009 RMK SLP188 T01940161 10244 20194 53014=
19/06/2023 22:51->METAR KJFK 192251Z 10009KT 10SM FEW045 BKN250 21/16 A3007 RMK SLP183 T02060161=
19/06/2023 21:51->METAR KJFK 192151Z 13008KT 10SM FEW045 BKN250 21/16 A3005 RMK SLP176 T02110161=
19/06/2023 20:51->METAR KJFK 192051Z 12013KT 10SM FEW045 BKN250 23/16 A3005 RMK SLP174 T02280156 58005=
19/06/2023 19:51->METAR KJFK 191951Z 12012KT 10SM FEW045 SCT250 23/16 A3006 RMK SLP179 T02330156=
19/06/2023 18:51->METAR KJFK 191851Z 12014KT 10SM FEW045 SCT250 24/16 A3007 RMK SLP182 T02390161=
19/06/2023 17:51->METAR KJFK 191751Z 13011KT 10SM FEW045 SCT250 24/17 A3006 RMK SLP179 T02390167 10250 20200 58001=
19/06/2023 16:51->METAR KJFK 191651Z 14009KT 10SM FEW042 SCT080 SCT250 23/17 A3007 RMK SLP182 T02330167=
19/06/2023 15:51->METAR KJFK 191551Z 14009KT 10SM FEW035 SCT075 SCT250 24/17 A3007 RMK SLP184 T02390167=
19/06/2023 14:51->METAR KJFK 191451Z VRB04KT 10SM SCT075 SCT250 24/16 A3007 RMK SLP181 T02390156 51011=
19/06/2023 13:51->METAR KJFK 191351Z 00000KT 10SM SCT075 SCT250 23/15 A3006 RMK SLP178 T02280150=
19/06/2023 12:51->METAR KJFK 191251Z 03005KT 10SM FEW080 FEW250 22/14 A3005 RMK SLP175 T02170144=
19/06/2023 11:51->METAR KJFK 191151Z 04008KT 10SM FEW250 20/14 A3003 RMK SLP169 T02000139 10200 20172 51017=
19/06/2023 10:51->METAR KJFK 191051Z 03007KT 10SM FEW075 FEW110 SCT250 19/14 A3002 RMK SLP164 T01890139=
19/06/2023 09:51->METAR KJFK 190951Z 03006KT 10SM FEW075 FEW250 17/14 A3000 RMK SLP160 T01720139=
19/06/2023 08:51->METAR KJFK 190851Z 04007KT 10SM FEW080 FEW250 17/14 A2998 RMK SLP152 T01720139 51007=
19/06/2023 07:51->METAR KJFK 190751Z 04007KT 10SM FEW080 SCT250 18/14 A2998 RMK SLP150 T01830144=
19/06/2023 06:51->METAR KJFK 190651Z 02006KT 10SM FEW080 SCT250 18/14 A2997 RMK SLP147 T01830144=
19/06/2023 05:51->METAR KJFK 190551Z 36004KT 10SM FEW080 SCT250 19/16 A2996 RMK SLP145 T01890156 10206 20178 51010=
19/06/2023 04:51->METAR KJFK 190451Z 23003KT 10SM SCT250 19/16 A2995 RMK SLP142 T01890161 402780178=
19/06/2023 03:51->METAR KJFK 190351Z 23004KT 10SM FEW080 SCT250 19/16 A2994 RMK SLP139 T01890161=
19/06/2023 02:51->METAR KJFK 190251Z 21003KT 10SM SCT250 20/16 A2993 RMK SLP135 T02000156 53012=
19/06/2023 01:51->METAR KJFK 190151Z 20003KT 10SM FEW080 SCT200 BKN250 19/15 A2992 RMK SLP132 T01940150=
19/06/2023 00:51->METAR KJFK 190051Z 20005KT 10SM FEW065 SCT080 BKN250 20/16 A2990 RMK SLP126 T02000156=
18/06/2023 23:51->METAR KJFK 182351Z 20011KT 10SM FEW065 SCT085 BKN250 21/16 A2990 RMK SLP123 T02060156 10278 20206 53011=
18/06/2023 22:51->METAR KJFK 182251Z 20012KT 10SM BKN065 BKN085 BKN250 21/16 A2988 RMK SLP119 T02110161=
18/06/2023 21:51->METAR KJFK 182151Z 18011KT 10SM BKN060 BKN080 BKN250 23/15 A2986 RMK SLP111 T02280150=
18/06/2023 20:51->METAR KJFK 182051Z 32008G16KT 10SM BKN060 BKN080 BKN250 26/13 A2986 RMK SLP112 T02610128 53006=
18/06/2023 19:51->METAR KJFK 181951Z 27010G15KT 10SM SCT055 BKN070 BKN250 27/12 A2985 RMK SLP109 T02670122=
18/06/2023 18:51->METAR KJFK 181851Z 28010G14KT 220V310 10SM SCT055 BKN070 BKN250 27/13 A2984 RMK SLP105 T02670133=
18/06/2023 17:51->METAR KJFK 181751Z 29008KT 10SM BKN055 BKN070 BKN250 25/13 A2984 RMK SLP106 T02500128 10261 20206 53002 $=
18/06/2023 16:51->METAR KJFK 181651Z 30007KT 10SM BKN060 BKN250 25/13 A2984 RMK SLP104 T02500128=
18/06/2023 15:51->METAR KJFK 181551Z 33009G16KT 10SM FEW049 SCT250 26/13 A2983 RMK SLP102 T02560128=
18/06/2023 14:51->METAR KJFK 181451Z 31010KT 10SM SCT045 SCT250 24/13 A2984 RMK SLP104 T02440128 53006=
18/06/2023 13:51->METAR KJFK 181351Z 36011G18KT 10SM FEW040 FEW080 SCT250 23/12 A2983 RMK SLP100 T02280122=
18/06/2023 12:51->METAR KJFK 181251Z 34012KT 10SM FEW075 SCT250 22/12 A2983 RMK SLP101 T02170122=
18/06/2023 11:51->METAR KJFK 181151Z 32012KT 10SM FEW080 SCT250 21/12 A2982 RMK SLP098 T02060117 10206 20178 51011 $=
18/06/2023 10:51->METAR KJFK 181051Z 30011G19KT 10SM FEW080 SCT250 19/10 A2981 RMK SLP094 T01890100=
18/06/2023 09:51->METAR KJFK 180951Z 28009KT 10SM FEW200 SCT250 18/10 A2981 RMK SLP093 T01780100=
18/06/2023 08:51->METAR KJFK 180851Z 29012KT 10SM FEW200 SCT250 18/11 A2979 RMK SLP087 T01780106 53008=
18/06/2023 07:51->METAR KJFK 180751Z 29009KT 10SM FEW250 18/11 A2977 RMK SLP081 T01780106=
18/06/2023 06:51->METAR KJFK 180651Z 32009KT 10SM SCT250 19/11 A2976 RMK SLP078 T01890106=
18/06/2023 05:51->METAR KJFK 180551Z 31013KT 10SM SCT250 19/11 A2977 RMK SLP079 T01940106 10206 20189 58001=
18/06/2023 04:51->METAR KJFK 180451Z 31011KT 10SM BKN075 BKN250 19/11 A2976 RMK SLP079 T01940106 402720156=
18/06/2023 03:51->METAR KJFK 180351Z 30013KT 10SM BKN080 20/11 A2977 RMK SLP081 T02000106=
18/06/2023 02:51->METAR KJFK 180251Z 31011KT 8SM BKN070 BKN085 20/11 A2977 RMK SLP080 T02000111 51014=
18/06/2023 01:51->METAR KJFK 180151Z 32009KT 9SM BKN110 OVC150 20/11 A2976 RMK SLP079 T02000111=
18/06/2023 00:51->METAR KJFK 180051Z 34015G21KT 9SM FEW070 BKN160 OVC250 20/11 A2975 RMK SLP074 T02000106=
17/06/2023 23:51->METAR KJFK 172351Z 35012KT 9SM FEW050 SCT070 SCT120 BKN180 BKN250 20/11 A2973 RMK PK WND 36029/2253 SLP066 T02000111 10272 20200 51034=
17/06/2023 22:51->METAR KJFK 172251Z 34021G31KT 8SM SCT050CB SCT075 BKN110 BKN250 22/09 A2970 RMK PK WND 01031/2248 SLP058 CB NW-NE MOV SE T02170094=
17/06/2023 21:51->METAR KJFK 172151Z 36024G35KT 10SM SCT050 SCT070 BKN110 BKN250 22/09 A2966 RMK PK WND 36035/2146 WSHFT 2131 SLP045 CB DSNT E T02220089=
17/06/2023 20:51->METAR KJFK 172051Z 30020G29KT 10SM FEW050 SCT075 BKN110 BKN250 26/09 A2963 RMK PK WND 30029/2048 TSB16E45 SLP032 T02560094 57002=
17/06/2023 19:51->METAR KJFK 171951Z 31020G27KT 10SM FEW050 SCT080 BKN250 27/09 A2963 RMK PK WND 30031/1900 SLP033 CB DSNT NW T02670094=
17/06/2023 18:51->METAR KJFK 171851Z 31018G28KT 10SM FEW050 SCT075 BKN250 26/09 A2963 RMK PK WND 31030/1841 SLP034 T02610089=
17/06/2023 17:51->METAR KJFK 171751Z 33012KT 10SM SCT060 BKN080 BKN090 BKN250 25/11 A2964 RMK SLP038 60000 T02500111 10250 20189 56004=
17/06/2023 16:51->METAR KJFK 171651Z 34012KT 10SM SCT045 BKN060 BKN095 BKN250 24/13 A2967 RMK RAE08 SLP045 P0000 T02390128=
17/06/2023 15:51->METAR KJFK 171551Z 33012KT 10SM -RA BKN038 BKN050 BKN060 BKN250 21/13 A2967 RMK RAB45 SLP048 P000 T02110133=
17/06/2023 14:51->METAR KJFK 171451Z 35013KT 10SM SCT034 BKN085 BKN250 22/14 A2966 RMK SLP044 T02170139 56004=
17/06/2023 13:51->METAR KJFK 171351Z 34011KT 10SM SCT085 BKN110 BKN250 22/14 A2966 RMK SLP044 T02170139=
17/06/2023 12:51->METAR KJFK 171251Z 32013KT 10SM SCT075 BKN100 BKN250 19/14 A2967 RMK SLP046 T01940139=
17/06/2023 11:51->METAR KJFK 171151Z 31013KT 10SM FEW055 BKN200 BKN250 18/14 A2967 RMK SLP048 70020 T01830139 10183 20156 51006=
17/06/2023 10:51->METAR KJFK 171051Z 32010KT 10SM SCT045 BKN070 BKN250 18/14 A2967 RMK SLP047 T01780139=
17/06/2023 09:51->METAR KJFK 170951Z 32009KT 10SM OVC041 17/14 A2967 RMK SLP045 T01670139=
17/06/2023 08:51->METAR KJFK 170851Z 34007KT 10SM BKN250 17/14 A2965 RMK SLP041 T01670139 55003=
17/06/2023 07:51->METAR KJFK 170751Z 34008KT 10SM SCT100 BKN250 16/14 A2965 RMK SLP041 T01610139=
17/06/2023 06:51->METAR KJFK 170651Z 33006KT 10SM FEW029 BKN250 16/14 A2966 RMK SLP042 T01610144=
17/06/2023 05:51->METAR KJFK 170551Z 36003KT 10SM FEW080 OVC250 17/14 A2966 RMK AO2 SLP044 T01670144 10183 20167 56009=
17/06/2023 04:51->METAR KJFK 170451Z 04005KT 10SM OVC250 17/14 A2967 RMK AO2 SLP046 T01670144 402560161=
17/06/2023 03:51->METAR KJFK 170351Z 05006KT 10SM SCT250 17/14 A2968 RMK SLP050 T01720144=
17/06/2023 02:51->METAR KJFK 170251Z 03007KT 10SM OVC025 18/14 A2969 RMK SLP053 T01830144 55000=
17/06/2023 01:51->METAR KJFK 170151Z 07005KT 10SM OVC025 18/14 A2969 RMK SLP055 T01830139=
17/06/2023 00:51->METAR KJFK 170051Z 08004KT 10SM FEW013 BKN024 OVC047 18/14 A2968 RMK AO2 SLP049 T01830139=
16/06/2023 23:51->METAR KJFK 162351Z 09003KT 10SM FEW025 BKN046 OVC250 18/14 A2969 RMK AO2 SLP053 60020 T01830144 10206 20172 53004=
16/06/2023 22:51->METAR KJFK 162251Z 09005KT 10SM FEW030 BKN048 OVC250 18/14 A2968 RMK AO2 SLP051 T01830144=
16/06/2023 21:51->METAR KJFK 162151Z 10009KT 10SM FEW030 FEW060 OVC250 19/14 A2968 RMK AO2 SLP049 T01890144=
16/06/2023 20:51->METAR KJFK 162051Z 08006KT 10SM FEW030 FEW110 OVC210 18/16 A2968 RMK AO2 SLP049 60020 T01830156 56019=
16/06/2023 19:51->METAR KJFK 161951Z 09006KT 10SM FEW017 FEW030 SCT110 OVC160 17/16 A2968 RMK RAE39 TSE31 SLP051 P0004 T01720161=
16/06/2023 18:51->METAR KJFK 161851Z 09008KT 7SM TSRA SCT030CB BKN065 OVC085 18/16 A2971 RMK AO2 TSB01 SLP060 OCNL LTGICCG NE-S TS NE-S MOV NE P0016 T01780156=
16/06/2023 17:51->METAR KJFK 161751Z 25007KT 5SM -RA FEW038CB BKN070 OVC120 21/15 A2973 RMK RAB13E29B45 SLP067 CB SW-W MOV NE P0000 60000 T02060150 10256 20200 55007=
16/06/2023 16:51->METAR KJFK 161651Z 18007KT 10SM FEW045 BKN120 BKN250 24/12 A2971 RMK AO2 SLP059 T02440117=
16/06/2023 15:51->METAR KJFK 161551Z 19006KT 10SM FEW045 SCT140 BKN250 25/13 A2973 RMK AO2 SLP066 T02500128=
16/06/2023 14:51->METAR KJFK 161451Z 19005KT 10SM FEW043 FEW140 SCT250 24/13 A2975 RMK AO2 SLP074 T02390133 50000=
16/06/2023 13:51->METAR KJFK 161351Z 20005KT 10SM SCT250 23/14 A2975 RMK SLP075 T02280144=
16/06/2023 12:51->METAR KJFK 161251Z 22006KT 10SM SCT250 22/13 A2976 RMK AO2 SLP076 T02170133=
16/06/2023 11:51->METAR KJFK 161151Z 20004KT 10SM FEW085 SCT250 20/15 A2975 RMK AO2 SLP074 T02000150 10200 20161 51006=
16/06/2023 10:51->METAR KJFK 161051Z 23005KT 10SM FEW100 BKN250 18/14 A2974 RMK AO2 SLP070 T01780144=
16/06/2023 09:51->METAR KJFK 160951Z 23005KT 10SM FEW100 SCT250 17/15 A2975 RMK AO2 SLP073 T01720150=
16/06/2023 08:51->METAR KJFK 160851Z 25005KT 10SM BKN250 18/16 A2973 RMK AO2 SLP068 T01780161 55004=
16/06/2023 07:51->METAR KJFK 160751Z 23004KT 10SM BKN250 18/16 A2973 RMK SLP067 T01780161=
16/06/2023 06:51->METAR KJFK 160651Z 21004KT 10SM BKN250 18/15 A2973 RMK SLP068 T01780150=
16/06/2023 05:51->METAR KJFK 160551Z 23006KT 10SM BKN250 18/16 A2974 RMK AO2 SLP071 T01780156 10250 20178 51007=
16/06/2023 04:51->METAR KJFK 160451Z 25008KT 10SM BKN250 20/15 A2974 RMK AO2 SLP071 T02000150 402670161=
16/06/2023 03:51->METAR KJFK 160351Z 29005KT 10SM SCT250 22/12 A2974 RMK AO2 SLP070 T02220122=
16/06/2023 02:51->METAR KJFK 160251Z 28008KT 10SM BKN250 23/12 A2972 RMK AO2 SLP064 T02280122 51018=
16/06/2023 01:51->METAR KJFK 160151Z 28011KT 10SM FEW080 BKN250 23/13 A2972 RMK AO2 SLP063 T02330128=
16/06/2023 00:51->METAR KJFK 160051Z 30008KT 10SM FEW060 FEW080 BKN250 24/13 A2969 RMK AO2 SLP054 T02390128=
15/06/2023 23:51->METAR KJFK 152351Z 30012KT 10SM FEW060 FEW080 BKN250 25/12 A2967 RMK AO2 SLP047 T02500122 10267 20233 53008=
15/06/2023 22:51->METAR KJFK 152251Z 30014KT 10SM SCT060 SCT080 BKN250 26/12 A2965 RMK AO2 SLP039 T02560122=
15/06/2023 21:51->METAR KJFK 152151Z 26011KT 10SM SCT055 SCT075 BKN250 26/13 A2964 RMK AO2 SLP037 T02560128=
15/06/2023 20:51->METAR KJFK 152051Z 30008KT 10SM SCT055 SCT075 BKN250 26/13 A2964 RMK AO2 SLP038 T02560128 55003=
15/06/2023 19:51->METAR KJFK 151951Z 34012G28KT 10SM SCT055 SCT075 BKN250 26/13 A2964 RMK PK WND 31028/1945 SLP036 T02560128=
15/06/2023 18:51->METAR KJFK 151851Z 31010G18KT 10SM SCT050 SCT065 BKN250 25/13 A2965 RMK AO2 SLP039 T02500133=
15/06/2023 17:51->METAR KJFK 151751Z 27011KT 10SM BKN050 BKN250 23/12 A2965 RMK AO2 SLP041 T02280122 10233 20189 51004=
15/06/2023 16:51->METAR KJFK 151651Z 28011KT 10SM BKN050 BKN250 23/12 A2965 RMK AO2 SLP041 T02280122=
15/06/2023 15:51->METAR KJFK 151551Z 29010KT 10SM BKN045 BKN250 22/12 A2965 RMK SLP042 T02170122=
15/06/2023 14:51->METAR KJFK 151451Z 29013KT 10SM BKN040 BKN250 21/12 A2964 RMK AO2 SLP037 T02110122 53011=
15/06/2023 13:51->METAR KJFK 151351Z 31014G21KT 10SM FEW035 SCT250 21/12 A2962 RMK SLP028 T02110122=
15/06/2023 12:51->METAR KJFK 151251Z 30012KT 10SM FEW033 SCT250 20/12 A2961 RMK SLP028 T02000122=
15/06/2023 11:51->METAR KJFK 151151Z 28009KT 10SM FEW030 FEW100 SCT250 19/12 A2961 RMK SLP026 70024 T01890122 10189 20161 53014=
15/06/2023 10:51->METAR KJFK 151051Z 27012KT 10SM FEW030 FEW100 SCT250 17/12 A2959 RMK AO2 SLP019 T01720117 $=
15/06/2023 09:51->METAR KJFK 150951Z 27010KT 10SM FEW100 SCT250 16/12 A2958 RMK AO2 SLP015 T01610117 $=
15/06/2023 08:51->METAR KJFK 150851Z 29011KT 10SM FEW250 16/11 A2957 RMK AO2 SLP012 T01610111 51001 $=
15/06/2023 07:51->METAR KJFK 150751Z 28011KT 10SM FEW250 17/12 A2956 RMK AO2 SLP011 T01670117 $=
15/06/2023 06:51->METAR KJFK 150651Z 27013KT 10SM FEW250 17/12 A2957 RMK AO2 SLP013 T01720117 $=
15/06/2023 05:51->METAR KJFK 150551Z 27013KT 10SM FEW100 FEW250 17/12 A2956 RMK AO2 SLP011 T01720117 10206 20172 50000 $=
15/06/2023 04:51->METAR KJFK 150451Z 29014G21KT 10SM FEW095 FEW250 18/12 A2957 RMK AO2 SLP011 T01830117 402220161 $=
15/06/2023 03:51->METAR KJFK 150351Z 27015KT 10SM FEW055 FEW250 19/12 A2956 RMK AO2 SLP010 T01890117 $=
15/06/2023 02:51->METAR KJFK 150251Z 27013G21KT 10SM FEW050 FEW250 19/11 A2956 RMK AO2 SLP010 T01940111 51016 $=
15/06/2023 01:51->METAR KJFK 150151Z 26016KT 10SM FEW047 FEW090 19/11 A2955 RMK AO2 SLP006 T01940111 $=
15/06/2023 00:51->METAR KJFK 150051Z 27016KT 10SM FEW047 FEW090 FEW250 20/11 A2953 RMK AO2 SLP999 CB DSNT E T02000111 $=
14/06/2023 23:51->METAR KJFK 142351Z 27006KT 10SM SCT047 SCT060 SCT090 SCT250 20/14 A2951 RMK AO2 RAB04E14 SLP994 CB DSNT NE P0000 60002 T02000139 10211 20183 53001 $=
14/06/2023 22:51->METAR KJFK 142251Z 20010KT 10SM SCT050CB SCT070 BKN100 BKN250 19/15 A2950 RMK AO2 SLP989 CB W-NW MOV E VCSH W-NW T01940150 $=
14/06/2023 21:51->METAR KJFK 142151Z 19014KT 10SM FEW020 SCT050 BKN100 BKN160 BKN250 20/16 A2950 RMK AO2 SLP990 TCU DSNT NE T02000156 $=
14/06/2023 20:51->METAR KJFK 142051Z 17009KT 10SM SCT042 SCT085 BKN250 21/16 A2951 RMK AO2 RAE1957 SLP993 P0000 60002 T02060161 58007 $=
14/06/2023 19:51->METAR KJFK 141951Z 24008KT 10SM -RA FEW020 SCT042 BKN090 BKN250 19/15 A2952 RMK AO2 RAE1854B19 SLP997 CB DSNT NE P0002 T01890150 $=
14/06/2023 18:51->METAR KJFK 141851Z 28013G18KT 10SM -RA FEW009 SCT042 BKN095 OVC130 21/16 A2952 RMK AO2 WSHFT 1756 RAE11B26 SLP996 P0000 T02060161 $=
14/06/2023 17:51->METAR KJFK 141751Z 20016KT 8SM -RA SCT007 SCT028 BKN048 BKN180 19/18 A2953 RMK AO2 LTG DSNT N AND NE RAB15 TSE1652B01E50 SLP000 CB DSNT NE-E MOV NE P0022 60022 T01940183 10222 20183 56015 $=
14/06/2023 16:51->METAR KJFK 141651Z 18015G23KT 10SM TS BKN007 BKN042 OVC120 21/18 A2954 RMK AO2 LTG DSNT N AND NW TSB51 SLP004 VCSH SW-N T02060178 $=
14/06/2023 15:51->METAR KJFK 141551Z 18016KT 10SM FEW015 BKN120 BKN250 22/18 A2956 RMK AO2 SLP009 T02170178=
14/06/2023 14:51->METAR KJFK 141451Z 17012KT 10SM FEW012 BKN120 BKN250 22/18 A2957 RMK AO2 SLP014 T02170178 58015=
14/06/2023 13:51->METAR KJFK 141351Z 19012KT 10SM FEW012 FEW110 FEW140 BKN250 22/18 A2960 RMK AO2 SLP022 T02170178=
14/06/2023 12:51->METAR KJFK 141251Z 18009KT 10SM FEW012 FEW140 BKN250 21/17 A2961 RMK AO2 SLP028 T02060172=
14/06/2023 11:51->METAR KJFK 141151Z 18008KT 10SM FEW016 FEW080 FEW140 BKN250 19/17 A2962 RMK AO2 SLP029 T01890167 10200 20161 56008 $=
14/06/2023 10:51->METAR KJFK 141051Z 15007KT 10SM FEW045 FEW080 SCT250 18/17 A2962 RMK AO2 SLP031 T01830167 $=
14/06/2023 09:51->METAR KJFK 140951Z 16004KT 10SM FEW080 SCT250 17/14 A2963 RMK AO2 SLP033 T01670144 $=
14/06/2023 08:51->METAR KJFK 140851Z 20007KT 10SM SCT250 17/14 A2964 RMK AO2 SLP038 T01670144 58012 $=
14/06/2023 07:51->METAR KJFK 140751Z 21007KT 10SM FEW250 17/15 A2965 RMK AO2 SLP041 T01720150 $=
14/06/2023 06:51->METAR KJFK 140651Z 21008KT 10SM FEW250 17/15 A2967 RMK AO2 SLP046 T01720150=
14/06/2023 05:51->METAR KJFK 140551Z 22007KT 10SM FEW250 17/14 A2968 RMK AO2 SLP050 T01720144 10233 20172 56008=
14/06/2023 04:51->METAR KJFK 140451Z 21009KT 10SM FEW250 18/14 A2968 RMK AO2 SLP051 T01830139 402670178=
14/06/2023 03:51->METAR KJFK 140351Z 21007KT 10SM SCT250 19/12 A2969 RMK AO2 SLP054 T01890122=
14/06/2023 02:51->METAR KJFK 140251Z 24006KT 10SM SCT250 19/11 A2970 RMK AO2 SLP057 T01940111 50005=
14/06/2023 01:51->METAR KJFK 140151Z 27008KT 10SM FEW065 SCT250 22/10 A2970 RMK AO2 SLP058 T02220100=
14/06/2023 00:51->METAR KJFK 140051Z 27012KT 10SM FEW065 SCT250 23/10 A2969 RMK AO2 SLP054 T02280100=
13/06/2023 23:51->METAR KJFK 132351Z 26010KT 10SM SCT065 SCT250 23/11 A2969 RMK AO2 SLP052 T02330106 10267 20233 53009=
13/06/2023 22:51->METAR KJFK 132251Z 25012KT 10SM FEW055 FEW250 24/12 A2968 RMK AO2 SLP049 T02390122=
13/06/2023 21:51->METAR KJFK 132151Z 23017KT 10SM FEW055 FEW250 25/12 A2966 RMK AO2 SLP044 T02500117=
13/06/2023 20:51->METAR KJFK 132051Z 24016G20KT 10SM FEW055 SCT250 26/11 A2966 RMK AO2 SLP043 T02560106 56006=
13/06/2023 19:51->METAR KJFK 131951Z 23013G19KT 10SM FEW055 SCT230 26/11 A2966 RMK AO2 SLP045 T02560106=
13/06/2023 18:51->METAR KJFK 131851Z 26014G19KT 10SM SCT055 BKN230 27/12 A2966 RMK AO2 SLP044 T02670122=
13/06/2023 17:51->METAR KJFK 131751Z 29010G18KT 260V320 10SM SCT050 BKN250 26/12 A2968 RMK AO2 SLP049 T02610122 10261 20183 58007=
13/06/2023 16:51->METAR KJFK 131651Z 29012KT 270V330 10SM SCT042 BKN250 25/14 A2970 RMK AO2 SLP056 SCT V BKN T02500139=
13/06/2023 15:51->METAR KJFK 131551Z 27014KT 10SM SCT037 BKN250 24/14 A2971 RMK AO2 SLP059 T02390139=
13/06/2023 14:51->METAR KJFK 131451Z 29010G17KT 10SM SCT034 23/14 A2970 RMK AO2 SLP057 T02280139 51005=
13/06/2023 13:51->METAR KJFK 131351Z VRB06KT 10SM SCT028 BKN250 21/14 A2970 RMK AO2 SLP055 T02110139=
13/06/2023 12:51->METAR KJFK 131251Z 27008KT 10SM BKN023 BKN250 19/14 A2969 RMK AO2 SLP054 T01890139=
13/06/2023 11:51->METAR KJFK 131151Z 29011KT 10SM BKN021 18/14 A2968 RMK AO2 SLP051 70018 T01830139 10189 20178 51015=
13/06/2023 10:51->METAR KJFK 131051Z 31010KT 10SM BKN021 18/14 A2967 RMK AO2 SLP048 T01780139=
13/06/2023 09:51->METAR KJFK 130951Z 30011KT 10SM BKN018 18/14 A2967 RMK AO2 SLP046 T01780144=
13/06/2023 08:51->METAR KJFK 130851Z 28008KT 10SM OVC020 19/16 A2964 RMK AO2 SLP036 T01890161 51010=
13/06/2023 07:51->METAR KJFK 130751Z 28005KT 10SM OVC019 19/17 A2963 RMK AO2 SLP034 T01890172=
13/06/2023 06:51->METAR KJFK 130651Z 27010KT 10SM BKN016 19/17 A2962 RMK AO2 SLP031 T01890172=
13/06/2023 05:51->METAR KJFK 130551Z 26012KT 10SM BKN016 19/18 A2961 RMK AO2 SLP025 60013 T01890178 10200 20183 55004=
13/06/2023 04:51->METAR KJFK 130451Z 24013KT 10SM SCT022 SCT250 20/19 A2960 RMK AO2 SLP022 T02000189 402440183=
13/06/2023 03:51->METAR KJFK 130351Z 19012KT 9SM FEW005 OVC017 19/19 A2961 RMK AO2 SLP028 T01940194=
13/06/2023 02:51->METAR KJFK 130251Z 17012KT 8SM OVC005 19/19 A2962 RMK AO2 RAE41 SLP030 P0001 60013 T01890189 56007=
13/06/2023 01:51->METAR KJFK 130151Z 13012KT 7SM -RA BKN005 OVC024 19/19 A2962 RMK AO2 RAB0056 SLP031 P0002 T01890189=
13/06/2023 00:51->METAR KJFK 130051Z 13012KT 6SM BR BKN006 OVC014 18/18 A2963 RMK AO2 RAE43 SLP033 P0010 T01830183=
12/06/2023 23:51->METAR KJFK 122351Z 10009KT 3SM RA BR FEW004 BKN016 OVC029 19/18 A2964 RMK AO2 SFC VIS 5 RAB34 SLP037 P0005 60005 T01940183 10244 20194 58013=
12/06/2023 22:51->METAR KJFK 122251Z 10006KT 8SM BKN004 BKN022 BKN250 20/19 A2966 RMK AO2 SLP042 BKN004 V SCT T02000189=
12/06/2023 21:51->METAR KJFK 122151Z 12008KT 6SM BR OVC005 19/19 A2967 RMK AO2 SLP047 T01940189=
12/06/2023 20:51->METAR KJFK 122051Z 13011KT 8SM OVC007 21/19 A2968 RMK AO2 SLP050 T02060189 56021=
12/06/2023 19:51->METAR KJFK 121951Z 12014G22KT 10SM OVC008 21/19 A2969 RMK AO2 SLP054 T02110189=
12/06/2023 18:51->METAR KJFK 121851Z 12017G21KT 10SM BKN011 BKN180 BKN250 24/19 A2971 RMK AO2 SLP059 T02390194=
12/06/2023 17:51->METAR KJFK 121751Z 13015G20KT 9SM BKN010 BKN130 BKN250 23/19 A2974 RMK AO2 SLP072 CIG 008V012 T02280189 10244 20194 58020=
12/06/2023 16:51->METAR KJFK 121651Z 14015KT 10SM FEW029 BKN130 BKN250 24/19 A2976 RMK AO2 SLP078 T02440194=
12/06/2023 15:51->METAR KJFK 121551Z 15014G21KT 10SM FEW027 BKN150 BKN250 23/18 A2979 RMK AO2 SLP087 T02330183=
12/06/2023 14:51->METAR KJFK 121451Z 15017G20KT 9SM SCT026 BKN085 BKN190 BKN250 23/18 A2980 RMK AO2 SLP092 T02280183 58008=
12/06/2023 13:51->METAR KJFK 121351Z 17012KT 9SM FEW011 BKN030 BKN070 OVC150 21/18 A2982 RMK AO2 SLP098 T02110178=
12/06/2023 12:51->METAR KJFK 121251Z 16008KT 8SM FEW027 SCT070 OVC150 19/17 A2983 RMK AO2 SLP100 T01940172=
12/06/2023 11:51->METAR KJFK 121151Z 17006KT 8SM SCT070 OVC170 19/17 A2983 RMK AO2 SLP100 T01940172 10194 20183 51004=
12/06/2023 10:51->METAR KJFK 121051Z 16007KT 9SM BKN075 OVC180 19/17 A2982 RMK AO2 SLP098 T01890167 $=
12/06/2023 09:51->METAR KJFK 120951Z 18007KT 10SM BKN070 OVC180 19/17 A2983 RMK AO2 SLP100 T01890167 $=
12/06/2023 08:51->METAR KJFK 120851Z 17010KT 10SM BKN080 OVC170 19/17 A2982 RMK AO2 SLP096 T01890172 57006 $=
12/06/2023 07:51->METAR KJFK 120751Z 18011KT 10SM BKN080 OVC160 19/17 A2982 RMK AO2 SLP098 T01890172 $=
12/06/2023 06:51->METAR KJFK 120651Z 18009KT 10SM FEW080 OVC170 19/17 A2983 RMK AO2 SLP101 T01890172 $=
12/06/2023 05:51->METAR KJFK 120551Z 19009KT 10SM BKN150 BKN220 19/17 A2984 RMK AO2 SLP103 T01890167 10206 20189 58004 $=
12/06/2023 04:51->METAR KJFK 120451Z 18015KT 10SM BKN250 19/17 A2985 RMK AO2 SLP106 T01890167 402440167 $=
12/06/2023 03:51->METAR KJFK 120351Z 18015KT 10SM BKN250 19/17 A2985 RMK AO2 SLP107 T01890172 $=
12/06/2023 02:51->METAR KJFK 120251Z 18016KT 10SM BKN250 19/17 A2985 RMK AO2 SLP107 T01890172 51005 $=
12/06/2023 01:51->METAR KJFK 120151Z 18016G24KT 10SM FEW100 BKN250 19/17 A2984 RMK AO2 PK WND 18027/0104 SLP105 T01940167 $=
12/06/2023 00:51->METAR KJFK 120051Z 18018KT 9SM FEW080 SCT100 SCT200 BKN250 19/17 A2984 RMK AO2 SLP103 T01940167 $=
11/06/2023 23:51->METAR KJFK 112351Z 16013KT 10SM SCT100 SCT180 BKN250 21/15 A2983 RMK AO2 SLP102 T02060150 10239 20206 56004=
11/06/2023 22:51->METAR KJFK 112251Z 14013KT 10SM FEW085 SCT110 BKN250 21/16 A2984 RMK AO2 SLP104 T02110156=
11/06/2023 21:51->METAR KJFK 112151Z 13007KT 10SM SCT090 SCT130 BKN250 21/16 A2983 RMK AO2 SLP102 T02110156=
11/06/2023 20:51->METAR KJFK 112051Z 13008KT 10SM FEW080 SCT110 BKN250 23/17 A2984 RMK AO2 SLP106 T02330167 58010=
11/06/2023 19:51->METAR KJFK 111951Z 15007KT 10SM FEW065 BKN110 OVC250 22/16 A2986 RMK AO2 SLP111 VCSH W T02170161=
11/06/2023 18:51->METAR KJFK 111851Z 15009KT 10SM FEW095 SCT120 SCT200 BKN250 23/16 A2987 RMK AO2 SLP114 T02280161=
11/06/2023 17:51->METAR KJFK 111751Z 14006KT 10SM BKN100 BKN210 BKN250 23/16 A2987 RMK AO2 SLP116 T02280161 10244 20189 58008=
11/06/2023 16:51->METAR KJFK 111651Z 15008KT 10SM SCT090 BKN220 BKN250 24/16 A2989 RMK AO2 SLP120 T02390156=
11/06/2023 15:51->METAR KJFK 111551Z VRB04KT 10SM SCT100 SCT210 BKN250 23/15 A2990 RMK AO2 SLP123 T02330150=
11/06/2023 14:51->METAR KJFK 111451Z 19005KT 10SM SCT100 SCT210 BKN250 22/15 A2990 RMK AO2 SLP124 T02220150 50004=
11/06/2023 13:51->METAR KJFK 111351Z 19006KT 9SM FEW095 SCT200 BKN250 21/16 A2990 RMK AO2 SLP125 T02110156=
11/06/2023 12:51->METAR KJFK 111251Z 20007KT 10SM FEW100 SCT200 BKN250 21/15 A2990 RMK AO2 SLP124 T02060150=
11/06/2023 11:51->METAR KJFK 111151Z 21005KT 10SM FEW100 BKN230 19/14 A2989 RMK AO2 SLP120 70005 T01890144 10194 20167 51008=
11/06/2023 10:51->METAR KJFK 111051Z 21004KT 10SM FEW100 BKN250 18/15 A2988 RMK AO2 SLP117 T01830150=
11/06/2023 09:51->METAR KJFK 110951Z 21008KT 10SM BKN100 BKN250 17/15 A2987 RMK AO2 SLP116 T01720150=
11/06/2023 08:51->METAR KJFK 110851Z 18005KT 10SM SCT100 SCT250 17/16 A2986 RMK AO2 SLP112 T01720156 50000=
11/06/2023 07:51->METAR KJFK 110751Z 13005KT 10SM FEW090 17/16 A2987 RMK AO2 SLP113 T01720156=
11/06/2023 06:51->METAR KJFK 110651Z 03005KT 10SM BKN080 BKN110 18/16 A2987 RMK AO2 SLP114 T01830161=
11/06/2023 05:51->METAR KJFK 110551Z 17005KT 10SM FEW055 BKN080 BKN110 18/16 A2986 RMK AO2 RAB12E50 SLP112 P0002 60005 T01780161 10200 20178 50002=
11/06/2023 04:51->METAR KJFK 110451Z 18007KT 10SM BKN080 BKN120 18/16 A2987 RMK AO2 RAE18 SLP114 P0003 T01780161 402670133=
11/06/2023 03:51->METAR KJFK 110351Z 27011KT 8SM -RA BKN065 BKN085 19/15 A2989 RMK AO2 RAB49 SLP121 P0000 T01940150=
11/06/2023 02:51->METAR KJFK 110251Z 20008KT 10SM BKN120 BKN250 18/15 A2986 RMK AO2 SLP110 T01830150 53012=
11/06/2023 01:51->METAR KJFK 110151Z 18005KT 10SM SCT250 18/14 A2985 RMK AO2 SLP107 T01830144=
11/06/2023 00:51->METAR KJFK 110051Z 20006KT 10SM BKN250 19/14 A2983 RMK AO2 SLP102 T01890139=
10/06/2023 23:51->METAR KJFK 102351Z 21008KT 10SM SCT100 BKN250 19/14 A2982 RMK AO2 SLP099 T01940144 10267 20189 53014=
10/06/2023 22:51->METAR KJFK 102251Z 19008KT 10SM SCT100 BKN250 20/14 A2981 RMK AO2 SLP093 T02000144=
10/06/2023 21:51->METAR KJFK 102151Z 19013KT 10SM SCT075 BKN090 21/14 A2979 RMK AO2 SLP087 T02110139=
10/06/2023 20:51->METAR KJFK 102051Z 20014KT 10SM BKN085 BKN200 23/13 A2978 RMK AO2 SLP085 T02280133 53001=
10/06/2023 19:51->METAR KJFK 101951Z 31013KT 10SM SCT070 BKN090 BKN200 26/09 A2977 RMK AO2 SLP081 T02610094=
10/06/2023 18:51->METAR KJFK 101851Z 30017G22KT 10SM FEW060 FEW075 BKN200 26/09 A2978 RMK AO2 SLP085 T02560089=
10/06/2023 17:51->METAR KJFK 101751Z 32009KT 10SM SCT060 BKN250 25/09 A2978 RMK AO2 SLP083 T02500094 10250 20172 58006=
10/06/2023 16:51->METAR KJFK 101651Z 28009G15KT 10SM SCT060 SCT070 BKN100 BKN250 23/09 A2979 RMK AO2 SLP086 T02280094=
10/06/2023 15:51->METAR KJFK 101551Z 29008KT 10SM SCT050 SCT250 22/09 A2979 RMK AO2 SLP089 T02220094=
10/06/2023 14:51->METAR KJFK 101451Z 30011G14KT 10SM FEW046 FEW090 SCT250 21/09 A2980 RMK AO2 SLP089 T02060089 50002=
10/06/2023 13:51->METAR KJFK 101351Z 31010KT 10SM FEW036 FEW090 SCT250 19/10 A2980 RMK AO2 SLP090 T01940100=
10/06/2023 12:51->METAR KJFK 101251Z 34010KT 10SM FEW090 FEW250 19/11 A2980 RMK AO2 SLP091 T01890106=
10/06/2023 11:51->METAR KJFK 101151Z 33009KT 10SM FEW090 FEW250 17/11 A2979 RMK AO2 SLP087 70006 T01720106 10172 20133 51015=
10/06/2023 10:51->METAR KJFK 101051Z 31009KT 10SM FEW090 SCT250 16/11 A2978 RMK AO2 SLP084 T01560106=
10/06/2023 09:51->METAR KJFK 100951Z 31009KT 10SM SCT090 SCT250 14/10 A2976 RMK AO2 SLP079 T01390100=
10/06/2023 08:51->METAR KJFK 100851Z 30007KT 10SM BKN090 BKN250 14/10 A2975 RMK AO2 SLP072 T01390100 53003=
10/06/2023 07:51->METAR KJFK 100751Z 32005KT 10SM FEW250 14/10 A2974 RMK AO2 SLP069 T01390100=
10/06/2023 06:51->METAR KJFK 100651Z 34003KT 10SM FEW100 FEW250 14/10 A2973 RMK AO2 SLP068 T01440100=
10/06/2023 05:51->METAR KJFK 100551Z 34007KT 10SM SCT110 SCT250 15/11 A2974 RMK AO2 SLP069 60006 T01500106 10172 20150 58008=
10/06/2023 04:51->METAR KJFK 100451Z 36004KT 10SM BKN090 BKN250 16/12 A2975 RMK AO2 SLP073 T01560122 402220144=
10/06/2023 03:51->METAR KJFK 100351Z 01005KT 10SM FEW045 BKN085 OVC250 16/14 A2975 RMK AO2 SLP075 T01610144=
10/06/2023 02:51->METAR KJFK 100251Z 26005KT 10SM FEW045 SCT090 SCT250 16/14 A2976 RMK AO2 SLP077 60006 T01610144 51009=
10/06/2023 01:51->METAR KJFK 100151Z 17009KT 10SM FEW045 FEW065 BKN090 BKN250 16/15 A2976 RMK AO2 LTG DSNT SE RAE0052B29E39 SLP076 OCNL LTGIC DSNT SE CB DSNT SE P0000 T01610150=
10/06/2023 00:51->METAR KJFK 100051Z 16005KT 10SM -RA SCT047 BKN090 OVC250 16/12 A2975 RMK AO2 RAB08 SLP072 P0006 T01560122=
09/06/2023 23:51->METAR KJFK 092351Z 19007KT 10SM FEW040 SCT070 BKN090 BKN250 17/13 A2973 RMK AO2 SLP068 VCSH W T01720128 10222 20172 53009=
09/06/2023 22:51->METAR KJFK 092251Z 16006KT 10SM FEW040 FEW070 BKN090 BKN230 18/13 A2972 RMK AO2 SLP065 VCSH SE AND W T01830128=
09/06/2023 21:51->METAR KJFK 092151Z 14005KT 10SM SCT065 BKN095 BKN140 BKN250 18/13 A2971 RMK AO2 SLP062 VCSH NE AND SW-NW T01830128=
09/06/2023 20:51->METAR KJFK 092051Z 18014KT 10SM SCT060 BKN100 BKN250 19/13 A2971 RMK AO2 SLP059 VCSH NW T01890128 55010=
09/06/2023 19:51->METAR KJFK 091951Z 18010KT 10SM SCT060 BKN095 BKN250 21/11 A2970 RMK AO2 SLP058 VCSH NW T02110106=
09/06/2023 18:51->METAR KJFK 091851Z 20008KT 10SM SCT050 BKN100 BKN250 21/10 A2972 RMK AO2 SLP063 T02110100=
09/06/2023 17:51->METAR KJFK 091751Z 21011KT 10SM SCT050 BKN095 BKN250 20/10 A2974 RMK AO2 SLP069 T02000100 10217 20167 58009=
09/06/2023 16:51->METAR KJFK 091651Z 23009G14KT 10SM SCT047 BKN070 BKN250 20/10 A2975 RMK AO2 SLP074 T02000100=
09/06/2023 15:51->METAR KJFK 091551Z 03004KT 10SM SCT044 BKN250 19/08 A2976 RMK AO2 SLP076 T01940083=
09/06/2023 14:51->METAR KJFK 091451Z 01004KT 10SM SCT042 SCT140 BKN250 19/09 A2976 RMK AO2 SLP078 T01940089 50001=
09/06/2023 13:51->METAR KJFK 091351Z VRB04KT 10SM SCT037 SCT140 BKN250 19/09 A2977 RMK AO2 SLP079 T01890089=
09/06/2023 12:51->METAR KJFK 091251Z 36006KT 10SM FEW034 SCT140 BKN250 18/09 A2977 RMK AO2 SLP080 T01780094=
09/06/2023 11:51->METAR KJFK 091151Z 02004KT 10SM FEW065 SCT150 BKN250 17/09 A2976 RMK AO2 SLP078 T01670094 10172 20144 51012=
09/06/2023 10:51->METAR KJFK 091051Z 34007KT 10SM FEW065 BKN150 BKN250 16/09 A2975 RMK AO2 SLP075 T01560094=
09/06/2023 09:51->METAR KJFK 090951Z 32007KT 10SM FEW080 BKN150 15/09 A2975 RMK AO2 SLP072 T01500089=
09/06/2023 08:51->METAR KJFK 090851Z 34006KT 10SM SCT070 OVC150 15/09 A2972 RMK AO2 SLP065 T01500089 55003=
09/06/2023 07:51->METAR KJFK 090751Z 32007KT 10SM SCT070 OVC150 16/08 A2972 RMK AO2 SLP065 T01560083=
09/06/2023 06:51->METAR KJFK 090651Z 33007KT 10SM SCT080 OVC140 16/08 A2973 RMK AO2 SLP066 T01610083=
09/06/2023 05:51->METAR KJFK 090551Z 34005KT 10SM FEW080 OVC140 16/08 A2973 RMK AO2 SLP068 T01610083 10178 20139 58005=
09/06/2023 04:51->METAR KJFK 090451Z 34005KT 6SM FU HZ FEW060 OVC140 16/09 A2974 RMK AO2 SLP070 T01610094 402170106=
09/06/2023 03:51->METAR KJFK 090351Z 00000KT 5SM FU HZ FEW055 BKN140 14/12 A2975 RMK AO2 SLP074 T01440117=
09/06/2023 02:51->METAR KJFK 090251Z 11003KT 5SM FU HZ FEW043 BKN160 16/10 A2975 RMK AO2 SLP073 T01610100 51009=
09/06/2023 01:51->METAR KJFK 090151Z 17004KT 6SM FU HZ FEW041 BKN110 17/11 A2975 RMK AO2 SLP073 T01670106=
09/06/2023 00:51->METAR KJFK 090051Z 00000KT 6SM FU HZ SCT043 BKN100 BKN210 17/10 A2973 RMK AO2 SLP066 T01720100=
08/06/2023 23:51->METAR KJFK 082351Z 16003KT 5SM FU HZ FEW000 FEW055 SCT070 BKN100 BKN180 18/11 A2972 RMK AO2 SLP064 FU HZ FEW000 T01780111 10217 20178 53003=
08/06/2023 22:51->METAR KJFK 082251Z 20005KT 5SM FU HZ FEW000 SCT075 BKN100 BKN210 18/11 A2971 RMK AO2 SLP060 FU HZ FEW000 T01830111=
08/06/2023 21:51->METAR KJFK 082151Z 18009KT 5SM FU HZ FEW000 FEW055 BKN075 BKN100 BKN250 18/12 A2971 RMK AO2 SLP060 FU HZ FEW000 T01830122=
08/06/2023 20:51->METAR KJFK 082051Z 22009KT 5SM FU HZ FEW000 FEW038 BKN070 BKN100 18/12 A2971 RMK AO2 SLP061 FU HZ FEW000 T01830117 53009=
08/06/2023 19:51->METAR KJFK 081951Z 19011KT 5SM FU HZ FEW000 SCT060 BKN090 20/09 A2969 RMK AO2 SLP055 FU HZ FEW000 T02000094=
08/06/2023 18:51->METAR KJFK 081851Z 20009KT 5SM FU HZ FEW000 SCT060 SCT085 21/08 A2969 RMK AO2 SLP055 FU HZ FEW000 T02060083=
08/06/2023 17:51->METAR KJFK 081751Z 21008KT 5SM FU HZ FEW000 SCT060 21/08 A2968 RMK AO2 SLP051 FU HZ FEW000 T02110083 10217 20161 58011=
08/06/2023 16:51->METAR KJFK 081651Z 20011KT 4SM FU HZ SCT000 SCT039 SCT250 21/08 A2970 RMK AO2 SLP057 FU HZ SCT000 T02060083=
08/06/2023 15:51->METAR KJFK 081551Z 20010KT 4SM FU HZ SCT000 SCT036 20/08 A2971 RMK AO2 SLP062 FU HZ SCT000 T02000083=
08/06/2023 14:51->METAR KJFK 081451Z 28006KT 4SM FU HZ SCT000 SCT036 21/07 A2972 RMK AO2 SLP062 FU HZ SCT000 T02060067 58003=
08/06/2023 13:51->METAR KJFK 081351Z 31005KT 3SM FU HZ SCT000 SCT029 19/08 A2973 RMK AO2 SLP066 FU HZ SCT000 T01940078=
08/06/2023 12:51->METAR KJFK 081251Z 35006KT 2 1/2SM FU HZ BKN000 BKN029 17/08 A2973 RMK AO2 SLP068 FU HZ BKN000 T01720083=
08/06/2023 11:51->METAR KJFK 081151Z 35004KT 2 1/2SM FU HZ BKN000 BKN031 16/08 A2973 RMK AO2 SLP066 FU HZ BKN000 T01610083 10161 20106 51018 $=
08/06/2023 10:51->METAR KJFK 081051Z 00000KT 3SM FU HZ SCT000 SCT031 12/09 A2972 RMK AO2 SLP063 FU HZ SCT000 T01220094 $=
08/06/2023 09:51->METAR KJFK 080951Z 00000KT 3SM FU HZ SCT000 SCT033 12/09 A2969 RMK AO2 SLP055 FU HZ SCT000 T01170089 $=
08/06/2023 08:51->METAR KJFK 080851Z 00000KT 1 1/2SM FU HZ BKN000 BKN033 12/08 A2967 RMK AO2 SFC VIS 4 SLP048 FU HZ BKN000 T01170078 57003 $=
08/06/2023 07:51->METAR KJFK 080751Z 34003KT 1 1/2SM FU HZ BKN000 BKN035 12/08 A2967 RMK AO2 SFC VIS 4 SLP048 FU HZ BKN000 T01220078=
08/06/2023 06:51->METAR KJFK 080651Z 36004KT 1 1/2SM FU HZ BKN000 BKN037 13/08 A2968 RMK AO2 SFC VIS 4 SLP050 FU HZ BKN000 T01280078=
08/06/2023 05:51->METAR KJFK 080551Z 00000KT 1 1/2SM FU HZ BKN000 OVC035 13/07 A2968 RMK AO2 SFC VIS 3 SLP051 FU HZ BKN000 T01280067 10189 20128 50001=
08/06/2023 04:51->METAR KJFK 080451Z 01005KT 1 1/2SM FU HZ BKN000 OVC046 15/06 A2969 RMK AO2 SFC VIS 2 1/2 SLP053 FU HZ BKN000 T01500061 402220133=
08/06/2023 03:51->METAR KJFK 080351Z 34007KT 1 1/2SM FU HZ BKN000 OVC043 17/03 A2969 RMK AO2 SFC VIS 2 1/2 SLP053 FU HZ BKN000 T01670028=
08/06/2023 02:51->METAR KJFK 080251Z 30007KT 1 1/2SM FU HZ BKN000 OVC043 18/03 A2968 RMK AO2 SFC VIS 3 SLP050 FU HZ BKN000 T01780033 53009=
08/06/2023 01:51->METAR KJFK 080151Z 31006KT 1 1/2SM FU HZ BKN000 OVC043 17/04 A2967 RMK AO2 SFC VIS 3 SLP046 FU HZ BKN000 T01720044=
08/06/2023 00:51->METAR KJFK 080051Z 31009KT 1 1/2SM FU HZ BKN000 OVC038 18/05 A2967 RMK AO2 SFC VIS 2 1/2 SLP045 FU HZ BKN000 T01830050=
07/06/2023 23:51->METAR KJFK 072351Z 27012KT 1 1/2SM FU HZ BKN000 OVC034 19/05 A2966 RMK AO2 SFC VIS 2 1/2 SLP042 FU HZ BKN000 T01890050 10211 20189 53010=
07/06/2023 22:51->METAR KJFK 072251Z 28009KT 1 1/2SM FU HZ BKN000 OVC028 19/06 A2964 RMK AO2 SFC VIS 3 SLP037 FU HZ BKN000 T01940056=
07/06/2023 21:51->METAR KJFK 072151Z 31012KT 1 1/2SM FU HZ BKN000 OVC028 20/04 A2963 RMK AO2 SFC VIS 3 SLP034 FU HZ BKN000 T02000044=
07/06/2023 20:51->METAR KJFK 072051Z 32012KT 1 1/2SM FU HZ BKN000 OVC028 19/04 A2963 RMK AO2 SFC VIS 2 1/2 SLP032 FU HZ BKN000 T01940044 53007=
07/06/2023 19:51->METAR KJFK 071951Z 31011KT 1 1/2SM FU HZ BKN000 OVC028 19/03 A2962 RMK AO2 SLP028 FU HZ BKN000 T01940028=
07/06/2023 18:51->METAR KJFK 071851Z 31014KT 1 1/2SM FU HZ BKN000 OVC030 19/03 A2961 RMK AO2 SLP027 FU HZ BKN000 T01890028=
07/06/2023 17:51->METAR KJFK 071751Z 31017G23KT 1 1/2SM FU HZ BKN000 OVC026 21/04 A2961 RMK AO2 SLP025 FU HZ BKN000 T02060044 10222 20161 56012=
07/06/2023 16:51->METAR KJFK 071651Z 31016G24KT 2SM FU HZ BKN026 OVC200 22/06 A2961 RMK AO2 SLP028 FU OVC200 T02170061=
07/06/2023 15:51->METAR KJFK 071551Z 27010G16KT 4SM FU HZ FEW038 OVC220 22/07 A2962 RMK AO2 SLP030 FU OVC220 T02220067=
07/06/2023 14:51->METAR KJFK 071451Z 33009KT 6SM FU HZ BKN220 21/07 A2964 RMK AO2 SLP037 FU BKN220 T02110072 54000=
07/06/2023 13:51->METAR KJFK 071351Z 32014KT 5SM FU HZ OVC300 19/08 A2964 RMK AO2 SLP037 FU OVC300 T01890078=
07/06/2023 12:51->METAR KJFK 071251Z 33014KT 5SM FU HZ OVC300 17/07 A2964 RMK AO2 SLP037 FU OVC300 T01720072=
07/06/2023 11:51->METAR KJFK 071151Z 32011KT 6SM FU HZ BKN300 16/07 A2964 RMK AO2 SLP037 FU BKN300 70003 T01610067 10167 20133 52003=
07/06/2023 10:51->METAR KJFK 071051Z 32009KT 6SM FU HZ BKN300 14/06 A2964 RMK AO2 SLP037 FU BKN300 T01440061=
07/06/2023 09:51->METAR KJFK 070951Z 32007KT 5SM FU HZ BKN300 13/06 A2963 RMK AO2 SLP034 FU BKN300 T01330061=
07/06/2023 08:51->METAR KJFK 070851Z 32011KT 6SM FU HZ FEW050 BKN300 14/06 A2963 RMK AO2 SLP034 FU BKN300 T01440056 52000=
07/06/2023 07:51->METAR KJFK 070751Z 30011KT 6SM FU HZ FEW050 BKN300 16/06 A2964 RMK AO2 SLP035 FU BKN300 T01560056=
07/06/2023 06:51->METAR KJFK 070651Z 31012KT 5SM FU HZ FEW048 OVC300 16/06 A2963 RMK AO2 SLP033 FU OVC300 T01610061=
07/06/2023 05:51->METAR KJFK 070551Z 32011KT 5SM FU HZ SCT048 OVC300 16/07 A2963 RMK AO2 SLP034 FU OVC300 T01610067 10200 20150 58006=
07/06/2023 04:51->METAR KJFK 070451Z 34010KT 4SM FU HZ BKN047 16/08 A2964 RMK AO2 SLP035 T01610078 402500150=
07/06/2023 03:51->METAR KJFK 070351Z 01007KT 4SM FU HZ OVC041 17/08 A2965 RMK AO2 SLP040 T01670083=
07/06/2023 02:51->METAR KJFK 070251Z 35011KT 5SM FU HZ OVC041 18/08 A2965 RMK AO2 SLP040 T01830083 51015=
07/06/2023 01:51->METAR KJFK 070151Z 34018G25KT 5SM FU HZ FEW035 OVC050 19/08 A2964 RMK AO2 SLP038 T01940083=
07/06/2023 00:51->METAR KJFK 070051Z 32012KT 6SM FU HZ OVC060 20/08 A2963 RMK AO2 SLP032 T02000078=
06/06/2023 23:51->METAR KJFK 062351Z 19006KT 7SM BKN044 OVC300 18/12 A2960 RMK AO2 RAB10E20 SLP025 FU OVC300 P0000 60003 T01830122 10250 20183 51010=
06/06/2023 22:51->METAR KJFK 062251Z 10003KT 7SM BKN039 BKN050 OVC300 18/13 A2960 RMK AO2 SLP022 FU OVC300 T01830133=
06/06/2023 21:51->METAR KJFK 062151Z 10005KT 7SM FEW039 SCT095 OVC300 19/13 A2959 RMK AO2 LTG DSNT S SLP021 RAB14E37 FU OVC300 P0002 T01890133=
06/06/2023 20:51->METAR KJFK 062051Z 09009KT 7SM SCT050 SCT090 BKN300 22/11 A2957 RMK AO2 LTG DSNT E SLP014 FU BKN300 60001 T02170111 56011=
06/06/2023 19:51->METAR KJFK 061951Z 15011KT 8SM SCT050 BKN100 BKN300 21/15 A2958 RMK AO2 LTG DSNT NE-SE RAB17E39 SLP017 FU BKN300 P0001 T02060150=
06/06/2023 18:51->METAR KJFK 061851Z 16011KT 8SM SCT060 BKN090 BKN120 BKN300 22/12 A2958 RMK AO2 LTG DSNT N SLP016 FU BKN300 CB DSNT NW T02220117=
06/06/2023 17:51->METAR KJFK 061751Z 19009KT 7SM SCT060 SCT085 BKN300 23/11 A2961 RMK AO2 SLP026 FU BKN300 60000 T02280106 10250 20172 58027=
06/06/2023 16:51->METAR KJFK 061651Z 24010KT 6SM FU HZ FEW055 OVC300 24/10 A2964 RMK AO2 SLP037 FU OVC300 T02440100=
06/06/2023 15:51->METAR KJFK 061551Z 25008KT 6SM FU HZ BKN300 23/09 A2967 RMK AO2 SLP046 FU BKN300 T02280089=
06/06/2023 14:51->METAR KJFK 061451Z 32008KT 7SM FEW110 BKN300 21/08 A2969 RMK AO2 RAB1352E05 SLP052 FU BKN300 P0000 60000 T02110078 58016=
06/06/2023 13:51->METAR KJFK 061351Z 31012KT 8SM FEW046 BKN110 OVC300 17/08 A2972 RMK AO2 RAB39E48 SLP063 FU OVC300 P0000 T01720078=
06/06/2023 12:51->METAR KJFK 061251Z 25011KT 7SM FEW050 SCT110 BKN300 19/08 A2972 RMK AO2 SLP064 FU BKN300 T01890078=
06/06/2023 11:51->METAR KJFK 061151Z 26007KT 6SM FU HZ FEW050 OVC300 18/07 A2973 RMK AO2 SLP068 FU OVC300 T01830067 10183 20156 58006=
06/06/2023 10:51->METAR KJFK 061051Z 31005KT 6SM FU HZ BKN300 17/05 A2974 RMK AO2 SLP071 FU BKN300 T01720050=
06/06/2023 09:51->METAR KJFK 060951Z 31007KT 6SM FU HZ BKN300 16/05 A2975 RMK AO2 SLP075 FU BKN300 T01610050=
06/06/2023 08:51->METAR KJFK 060851Z 31006KT 7SM BKN300 16/05 A2975 RMK AO2 SLP074 FU BKN300 T01560050 56005=
06/06/2023 07:51->METAR KJFK 060751Z 32007KT 7SM BKN300 17/05 A2975 RMK AO2 SLP074 FU BKN300 T01670050=
06/06/2023 06:51->METAR KJFK 060651Z 33010KT 7SM BKN300 17/06 A2975 RMK AO2 SLP075 FU BKN300 T01720056=
06/06/2023 05:51->METAR KJFK 060551Z 33010KT 8SM BKN300 18/05 A2977 RMK AO2 SLP080 FU BKN300 T01780050 10206 20178 56007=
06/06/2023 04:51->METAR KJFK 060451Z 33011KT 8SM FEW210 OVC300 19/05 A2977 RMK AO2 SLP081 FU OVC300 T01890050 402500100=
06/06/2023 03:51->METAR KJFK 060351Z 33011KT 9SM FEW090 SCT210 OVC300 19/06 A2978 RMK AO2 SLP084 FU OVC300 T01940056=
06/06/2023 02:51->METAR KJFK 060251Z 33011KT 10SM SCT090 OVC300 20/07 A2979 RMK AO2 SLP087 FU OVC300 T02000072 58003=
06/06/2023 01:51->METAR KJFK 060151Z 21005KT 10SM FEW080 SCT095 BKN190 BKN300 18/14 A2980 RMK AO2 SLP090 FU BKN300 T01780139=
06/06/2023 00:51->METAR KJFK 060051Z 21011KT 10SM BKN075 BKN100 BKN250 OVC300 18/12 A2980 RMK AO2 SLP090 FU OVC300 T01830122=
05/06/2023 23:51->METAR KJFK 052351Z 18006KT 10SM FEW075 BKN095 BKN250 BKN300 18/12 A2980 RMK AO2 SLP090 FU BKN300 T01830122 10250 20183 55001=
05/06/2023 22:51->METAR KJFK 052251Z 17007KT 10SM FEW075 BKN100 OVC250 19/13 A2980 RMK AO2 SLP090 T01890133=
05/06/2023 21:51->METAR KJFK 052151Z 03006KT 10SM SCT070 BKN100 BKN250 23/08 A2980 RMK AO2 SLP089 T02280078=
05/06/2023 20:51->METAR KJFK 052051Z 03011KT 10SM SCT065 BKN090 BKN250 23/08 A2980 RMK AO2 SLP091 T02330078 56009=
05/06/2023 19:51->METAR KJFK 051951Z 02015G19KT 10SM BKN065 BKN250 23/08 A2980 RMK AO2 SLP092 T02330078=
05/06/2023 18:51->METAR KJFK 051851Z 36017G22KT 10SM SCT065 BKN250 23/07 A2981 RMK AO2 PK WND 36030/1807 SLP095 T02280072=
05/06/2023 17:51->METAR KJFK 051751Z 02014G19KT 10SM SCT060 SCT250 24/08 A2983 RMK AO2 PK WND 32027/1656 SLP100 T02390078 10239 20161 57021=
05/06/2023 16:51->METAR KJFK 051651Z 01019G27KT 10SM SCT055 SCT095 SCT250 22/08 A2985 RMK AO2 PK WND 01027/1651 SLP108 T02220078=
05/06/2023 15:51->METAR KJFK 051551Z 33016G22KT 10SM SCT049 SCT095 SCT250 21/08 A2987 RMK AO2 SLP113 T02110078=
05/06/2023 14:51->METAR KJFK 051451Z 33014KT 10SM FEW044 SCT095 SCT250 21/08 A2989 RMK AO2 SLP122 T02060083 58014=
05/06/2023 13:51->METAR KJFK 051351Z 34013KT 10SM FEW041 FEW060 SCT095 SCT250 19/08 A2991 RMK AO2 SLP129 T01890083=
05/06/2023 12:51->METAR KJFK 051251Z 34007G15KT 10SM FEW041 SCT060 SCT250 18/08 A2993 RMK AO2 SLP135 T01780078=
05/06/2023 11:51->METAR KJFK 051151Z 32005KT 10SM FEW060 FEW250 16/08 A2993 RMK AO2 SLP136 T01610078 10161 20100 58003=
05/06/2023 10:51->METAR KJFK 051051Z 00000KT 10SM FEW060 FEW250 14/08 A2994 RMK AO2 SLP138 T01390083=
05/06/2023 09:51->METAR KJFK 050951Z 00000KT 10SM FEW060 10/07 A2994 RMK AO2 SLP140 T01000067=
05/06/2023 08:51->METAR KJFK 050851Z 04004KT 10SM CLR 11/07 A2994 RMK AO2 SLP139 T01060067 56008=
05/06/2023 07:51->METAR KJFK 050751Z 36005KT 10SM FEW060 12/07 A2994 RMK AO2 SLP140 T01170072=
05/06/2023 06:51->METAR KJFK 050651Z 02006KT 10SM FEW060 12/07 A2995 RMK AO2 SLP142 T01220072=
05/06/2023 05:51->METAR KJFK 050551Z 04006KT 10SM SCT055 13/08 A2997 RMK AO2 SLP147 T01280078 10161 20128 58012=
05/06/2023 04:51->METAR KJFK 050451Z 03004KT 10SM SCT048 13/07 A2998 RMK AO2 SLP151 T01330072 402110094=
05/06/2023 03:51->METAR KJFK 050351Z 04008KT 10SM BKN048 14/07 A3000 RMK AO2 SLP158 T01440072=
05/06/2023 02:51->METAR KJFK 050251Z 03007KT 10SM OVC060 15/07 A3000 RMK AO2 SLP159 T01500072 50007=
05/06/2023 01:51->METAR KJFK 050151Z 04008KT 10SM BKN065 OVC080 15/07 A3001 RMK AO2 SLP160 T01500072=
05/06/2023 00:51->METAR KJFK 050051Z 05009KT 10SM BKN070 BKN085 16/07 A2999 RMK AO2 SLP155 T01560072=
04/06/2023 23:51->METAR KJFK 042351Z 09007KT 10SM FEW045 BKN065 BKN075 16/07 A2998 RMK AO2 SLP152 T01610072 10211 20161 53008=
04/06/2023 22:51->METAR KJFK 042251Z 03008KT 10SM FEW045 BKN065 BKN075 17/07 A2997 RMK AO2 SLP149 T01720067=
04/06/2023 21:51->METAR KJFK 042151Z 05012KT 10SM FEW045 BKN065 BKN080 18/07 A2996 RMK AO2 SLP145 T01830067=
04/06/2023 20:51->METAR KJFK 042051Z 02015G20KT 10SM FEW045 BKN075 19/06 A2996 RMK AO2 SLP144 T01890056 55006=
04/06/2023 19:51->METAR KJFK 041951Z 01013G22KT 10SM FEW045 BKN065 20/06 A2995 RMK AO2 SLP141 T02000061=
04/06/2023 18:51->METAR KJFK 041851Z 03013KT 10SM FEW045 BKN070 19/06 A2997 RMK AO2 SLP147 T01890061=
04/06/2023 17:51->METAR KJFK 041751Z 35010G18KT 10SM FEW045 BKN065 18/06 A2998 RMK AO2 SLP151 T01830061 10194 20117 56017=
04/06/2023 16:51->METAR KJFK 041651Z 04013G19KT 10SM FEW030 FEW045 BKN060 18/07 A2999 RMK AO2 SLP154 T01780067=
04/06/2023 15:51->METAR KJFK 041551Z 35010G19KT 10SM FEW030 FEW045 BKN055 18/07 A3001 RMK AO2 SLP160 T01830067=
04/06/2023 14:51->METAR KJFK 041451Z 35010G16KT 10SM FEW030 FEW043 BKN060 18/06 A3003 RMK AO2 SLP167 T01780061 58013=
04/06/2023 13:51->METAR KJFK 041351Z 02006KT 10SM FEW030 SCT048 BKN065 16/06 A3005 RMK AO2 SLP174 T01560061=
04/06/2023 12:51->METAR KJFK 041251Z 02011KT 10SM FEW030 FEW049 BKN060 15/06 A3005 RMK AO2 SLP176 T01500056=
04/06/2023 11:51->METAR KJFK 041151Z 36009KT 10SM BKN047 BKN075 12/06 A3006 RMK AO2 SLP180 T01170061 10117 20094 53001=
04/06/2023 10:51->METAR KJFK 041051Z 01005KT 10SM FEW030 FEW080 11/07 A3006 RMK AO2 SLP177 T01060067=
04/06/2023 09:51->METAR KJFK 040951Z 01006KT 10SM FEW030 FEW075 FEW100 09/06 A3007 RMK AO2 SLP180 T00940061=
04/06/2023 08:51->METAR KJFK 040851Z 01009KT 10SM FEW040 FEW100 09/06 A3006 RMK AO2 SLP179 T00940061 58010=
04/06/2023 07:51->METAR KJFK 040751Z 02008KT 10SM FEW040 10/06 A3007 RMK AO2 SLP183 T01000056=
04/06/2023 06:51->METAR KJFK 040651Z 04009KT 10SM BKN027 BKN032 11/06 A3009 RMK AO2 SLP188 T01060061=
04/06/2023 05:51->METAR KJFK 040551Z 05009KT 10SM OVC029 12/07 A3009 RMK AO2 SLP189 T01170067 10156 20117 58006=
04/06/2023 04:51->METAR KJFK 040451Z 06011KT 10SM OVC028 12/07 A3010 RMK AO2 SLP193 T01220067 402110122=
04/06/2023 03:51->METAR KJFK 040351Z 07008KT 10SM BKN026 12/07 A3010 RMK AO2 SLP194 T01220072=
04/06/2023 02:51->METAR KJFK 040251Z 06012KT 10SM OVC027 13/07 A3011 RMK AO2 SLP196 T01280072 51012=
04/06/2023 01:51->METAR KJFK 040151Z 04010KT 10SM SCT025 BKN060 13/08 A3010 RMK AO2 SLP194 T01330083=
04/06/2023 00:51->METAR KJFK 040051Z 06013KT 10SM FEW029 BKN035 BKN050 14/09 A3008 RMK AO2 SLP187 T01440089=
03/06/2023 23:51->METAR KJFK 032351Z 08013KT 10SM SCT029 BKN039 OVC055 16/09 A3007 RMK AO2 SLP184 T01560094 10194 20156 53019=
03/06/2023 22:51->METAR KJFK 032251Z 07013KT 10SM BKN033 OVC055 17/10 A3005 RMK AO2 SLP175 T01670100=
03/06/2023 21:51->METAR KJFK 032151Z 05011KT 10SM FEW020 BKN033 OVC055 18/11 A3003 RMK AO2 WSHFT 2111 SLP169 T01780111=
03/06/2023 20:51->METAR KJFK 032051Z 09007KT 10SM FEW018 BKN031 OVC050 18/12 A3002 RMK AO2 SLP164 T01830117 53000=
03/06/2023 19:51->METAR KJFK 031951Z 05011KT 10SM BKN030 OVC060 19/12 A3001 RMK AO2 SLP160 T01890117=
03/06/2023 18:51->METAR KJFK 031851Z 08009KT 10SM BKN028 OVC060 19/12 A3002 RMK AO2 SLP165 T01890122=
03/06/2023 17:51->METAR KJFK 031751Z 04010KT 10SM BKN024 BKN060 19/12 A3002 RMK AO2 SLP164 T01890122 10211 20172 50010=
03/06/2023 16:51->METAR KJFK 031651Z 05012KT 10SM OVC021 17/12 A3002 RMK AO2 SLP165 T01720122=
03/06/2023 15:51->METAR KJFK 031551Z 05016KT 10SM BKN018 OVC060 18/13 A3000 RMK AO2 SLP160 T01830128=
03/06/2023 14:51->METAR KJFK 031451Z 05011KT 10SM OVC019 20/14 A2999 RMK AO2 SLP153 T02000139 51013=
03/06/2023 13:51->METAR KJFK 031351Z 05011KT 10SM OVC018 19/14 A2997 RMK AO2 SLP150 T01890144=
03/06/2023 12:51->METAR KJFK 031251Z 06015KT 10SM FEW019 SCT050 BKN130 20/16 A2996 RMK AO2 SLP145 T02000156=
03/06/2023 11:51->METAR KJFK 031151Z 06013G22KT 10SM SCT018 SCT050 BKN130 19/16 A2995 RMK AO2 SLP140 70002 T01890156 10200 20167 53021=
03/06/2023 10:51->METAR KJFK 031051Z 06008KT 10SM SCT012 BKN130 19/16 A2992 RMK AO2 SLP132 T01940161=
03/06/2023 09:51->METAR KJFK 030951Z 07008KT 10SM FEW060 BKN100 18/16 A2990 RMK AO2 SLP125 T01780156=
03/06/2023 08:51->METAR KJFK 030851Z 04003KT 10SM BKN020 BKN150 17/16 A2988 RMK AO2 SLP119 T01720156 55003=
03/06/2023 07:51->METAR KJFK 030751Z 00000KT 10SM FEW150 SCT200 18/16 A2987 RMK AO2 SLP115 T01780161=
03/06/2023 06:51->METAR KJFK 030651Z 00000KT 10SM FEW170 FEW200 17/16 A2988 RMK AO2 SLP118 T01670156=
03/06/2023 05:51->METAR KJFK 030551Z 10003KT 10SM FEW170 SCT200 18/16 A2989 RMK AO2 SLP122 60002 T01780161 10211 20178 55000=
03/06/2023 04:51->METAR KJFK 030451Z 07005KT 10SM SCT080 OVC100 19/16 A2990 RMK AO2 SLP125 T01890161 402610156=
03/06/2023 03:51->METAR KJFK 030351Z 15004KT 10SM BKN110 OVC200 19/16 A2988 RMK AO2 SLP117 T01890156=
03/06/2023 02:51->METAR KJFK 030251Z 06004KT 10SM FEW120 BKN200 19/14 A2989 RMK AO2 SLP122 60002 T01940139 53013=
03/06/2023 01:51->METAR KJFK 030151Z 00000KT 10SM FEW055 FEW150 BKN230 19/14 A2988 RMK AO2 SLP118 T01940139=
03/06/2023 00:51->METAR KJFK 030051Z 13004KT 10SM FEW055 FEW100 BKN170 BKN230 20/14 A2987 RMK AO2 RAE32 SLP114 P0002 T02000144=
02/06/2023 23:51->METAR KJFK 022351Z 19007KT 10SM -RA SCT050 SCT100 BKN120 BKN150 BKN190 BKN250 21/14 A2986 RMK AO2 LTG DSNT SW RAB32 TSE32 SLP110 CB DSNT SW P0000 60000 T02110144 10261 20211 50001=
02/06/2023 22:51->METAR KJFK 022251Z 22004KT 10SM TS SCT050CB SCT100 BKN250 23/08 A2988 RMK AO2 LTG DSNT NW TSB43 SLP118 OCNL LTGICCG NW TS NW MOV S VCSH NW T02280078=
02/06/2023 21:51->METAR KJFK 022151Z 15008KT 10SM FEW050 FEW090 SCT250 23/12 A2985 RMK AO2 LTG DSNT W-N SLP108 CB DSNT NW T02330117=
02/06/2023 20:51->METAR KJFK 022051Z 18009KT 10SM FEW050 FEW090 SCT250 24/11 A2985 RMK AO2 SLP109 CB DSNT NW T02390106 56018=
02/06/2023 19:51->METAR KJFK 021951Z 19010KT 10SM FEW050 SCT250 24/13 A2987 RMK AO2 SLP114 CB DSNT NW-N T02390133=
02/06/2023 18:51->METAR KJFK 021851Z 20008KT 10SM FEW050 FEW090 FEW250 25/14 A2989 RMK AO2 SLP120 T02500144=
02/06/2023 17:51->METAR KJFK 021751Z 17007KT 10SM FEW050 FEW095 FEW250 26/15 A2991 RMK AO2 SLP127 T02560150 10261 20194 58008=
02/06/2023 16:51->METAR KJFK 021651Z 18008KT 10SM FEW045 FEW095 24/16 A2992 RMK AO2 SLP132 T02440156=
02/06/2023 15:51->METAR KJFK 021551Z 19009KT 10SM FEW045 26/16 A2992 RMK AO2 SLP133 T02560161=
02/06/2023 14:51->METAR KJFK 021451Z 19006KT 10SM CLR 24/16 A2993 RMK AO2 SLP135 T02440161 58002=
02/06/2023 13:51->METAR KJFK 021351Z 17004KT 10SM CLR 23/16 A2993 RMK AO2 SLP136 T02330156=
02/06/2023 12:51->METAR KJFK 021251Z 17004KT 10SM CLR 21/16 A2994 RMK AO2 SLP138 T02110156=
02/06/2023 11:51->METAR KJFK 021151Z 19003KT 10SM FEW250 19/16 A2994 RMK AO2 SLP137 T01890161 10194 20156 56004=
02/06/2023 10:51->METAR KJFK 021051Z 22004KT 10SM FEW250 17/17 A2994 RMK AO2 SLP139 T01720167=
02/06/2023 09:51->METAR KJFK 020951Z 20006KT 10SM CLR 16/16 A2994 RMK AO2 SLP138 T01610156=
02/06/2023 08:51->METAR KJFK 020851Z 18004KT 10SM CLR 16/16 A2995 RMK AO2 SLP141 T01560156 56015=
02/06/2023 07:51->METAR KJFK 020751Z 23003KT 10SM CLR 16/16 A2996 RMK AO2 SLP144 T01610156=
02/06/2023 06:51->METAR KJFK 020651Z 21004KT 10SM CLR 16/15 A2998 RMK AO2 SLP150 T01610150=
02/06/2023 05:51->METAR KJFK 020551Z 22004KT 10SM CLR 16/15 A2999 RMK AO2 SLP156 T01560150 10194 20156 58016=
02/06/2023 04:51->METAR KJFK 020451Z 22003KT 10SM CLR 17/16 A3001 RMK AO2 SLP163 T01670156 402440139=
02/06/2023 03:51->METAR KJFK 020351Z 18003KT 10SM CLR 17/16 A3002 RMK AO2 SLP167 T01670156=
02/06/2023 02:51->METAR KJFK 020251Z 20005KT 10SM FEW250 17/16 A3004 RMK AO2 SLP172 T01670156 50005=
02/06/2023 01:51->METAR KJFK 020151Z 19004KT 10SM FEW250 17/16 A3004 RMK AO2 SLP172 T01670156=
02/06/2023 00:51->METAR KJFK 020051Z 14003KT 10SM FEW250 18/16 A3003 RMK AO2 SLP170 T01780161=
01/06/2023 23:51->METAR KJFK 012351Z 16007KT 10SM FEW250 19/15 A3002 RMK AO2 SLP167 T01940150 10244 20194 55007=
01/06/2023 22:51->METAR KJFK 012251Z 18006KT 10SM CLR 21/16 A3002 RMK AO2 SLP166 T02060161=
01/06/2023 21:51->METAR KJFK 012151Z 19005KT 10SM CLR 22/16 A3002 RMK AO2 SLP166 T02220156=
01/06/2023 20:51->METAR KJFK 012051Z 18009KT 10SM CLR 22/16 A3004 RMK AO2 SLP174 T02220156 56014=
01/06/2023 19:51->METAR KJFK 011951Z 18009KT 10SM CLR 23/15 A3006 RMK AO2 SLP178 T02330150=
01/06/2023 18:51->METAR KJFK 011851Z 19009KT 10SM CLR 23/15 A3007 RMK AO2 SLP183 T02330150=
01/06/2023 17:51->METAR KJFK 011751Z 22008KT 10SM CLR 24/14 A3008 RMK AO2 SLP187 T02390144 10244 20189 58013=
01/06/2023 16:51->METAR KJFK 011651Z 19007KT 10SM CLR 23/15 A3010 RMK AO2 SLP192 T02330150=
01/06/2023 15:51->METAR KJFK 011551Z 21008KT 10SM FEW300 23/14 A3012 RMK AO2 SLP197 FU FEW300 T02280144=
01/06/2023 14:51->METAR KJFK 011451Z 21008KT 10SM FEW250 22/15 A3012 RMK AO2 SLP200 T02220150 58005=
01/06/2023 13:51->METAR KJFK 011351Z 21005KT 10SM FEW250 22/14 A3013 RMK AO2 SLP202 T02170144=
01/06/2023 12:51->METAR KJFK 011251Z 00000KT 10SM FEW250 FEW300 21/14 A3014 RMK AO2 SLP205 FU FEW300 T02110144=
01/06/2023 11:51->METAR KJFK 011151Z 00000KT 10SM FEW300 19/14 A3014 RMK AO2 SLP204 FU FEW300 T01890139 10189 20139 53006=
01/06/2023 10:51->METAR KJFK 011051Z 04003KT 10SM FEW300 17/13 A3013 RMK AO2 SLP202 FU FEW300 T01670133=
01/06/2023 09:51->METAR KJFK 010951Z 00000KT 10SM FEW300 14/12 A3013 RMK AO2 SLP201 FU FEW300 T01440122=
01/06/2023 08:51->METAR KJFK 010851Z 01004KT 10SM FEW300 14/12 A3012 RMK AO2 SLP199 FU FEW300 T01440122 56010=
01/06/2023 07:51->METAR KJFK 010751Z 03003KT 10SM FEW300 14/12 A3012 RMK AO2 SLP199 FU FEW300 T01440122=
01/06/2023 06:51->METAR KJFK 010651Z 01004KT 10SM FEW300 15/12 A3014 RMK AO2 SLP206 FU FEW300 T01500122=
01/06/2023 05:51->METAR KJFK 010551Z 00000KT 10SM FEW300 15/12 A3015 RMK AO2 SLP209 FU FEW300 T01500122 10167 20144 58002=
01/06/2023 04:51->METAR KJFK 010451Z 03003KT 10SM FEW300 16/13 A3015 RMK AO2 SLP210 FU FEW300 T01560128 402110089=
01/06/2023 03:51->METAR KJFK 010351Z 00000KT 10SM FEW300 16/13 A3016 RMK AO2 SLP213 FU FEW300 T01560128=
01/06/2023 02:51->METAR KJFK 010251Z 00000KT 10SM FEW300 15/12 A3016 RMK AO2 SLP211 FU FEW300 T01500122 58001=
01/06/2023 01:51->METAR KJFK 010151Z 07003KT 10SM FEW250 FEW300 16/13 A3016 RMK AO2 SLP212 FU FEW300 T01560128=
01/06/2023 00:51->METAR KJFK 010051Z 13004KT 10SM FEW250 FEW300 16/13 A3016 RMK AO2 SLP213 FU FEW300 T01560128=
31/05/2023 23:51->METAR KJFK 312351Z 13005KT 10SM FEW250 FEW300 17/13 A3016 RMK AO2 SLP212 FU FEW300 T01670128 10211 20167 56004=
31/05/2023 22:51->METAR KJFK 312251Z 13008KT 10SM FEW250 SCT300 18/13 A3016 RMK AO2 SLP213 FU SCT300 T01830133=
31/05/2023 21:51->METAR KJFK 312151Z 15009KT 10SM FEW250 SCT300 19/14 A3017 RMK AO2 SLP214 FU SCT300 T01940139=
31/05/2023 20:51->METAR KJFK 312051Z 15010KT 10SM FEW250 SCT300 19/14 A3017 RMK AO2 SLP216 FU SCT300 T01890139 56013=
31/05/2023 19:51->METAR KJFK 311951Z 17005KT 10SM FEW250 SCT300 20/14 A3018 RMK AO2 SLP219 FU SCT300 T02000139=
31/05/2023 18:51->METAR KJFK 311851Z 18009KT 10SM FEW250 FEW300 21/14 A3020 RMK AO2 SLP226 FU FEW300 T02060139=
31/05/2023 17:51->METAR KJFK 311751Z 19007KT 10SM FEW250 FEW300 20/14 A3021 RMK AO2 SLP229 FU FEW300 T02000139 10206 20117 58005=
31/05/2023 16:51->METAR KJFK 311651Z 18008KT 10SM FEW250 SCT300 19/13 A3022 RMK AO2 SLP231 FU SCT300 T01940133=
31/05/2023 15:51->METAR KJFK 311551Z 18009KT 10SM FEW250 19/13 A3022 RMK AO2 SLP234 T01940128=
31/05/2023 14:51->METAR KJFK 311451Z 00000KT 9SM FEW250 19/10 A3023 RMK AO2 SLP235 T01890100 58004=
31/05/2023 13:51->METAR KJFK 311351Z 00000KT 10SM FEW018 FEW250 17/09 A3024 RMK AO2 SLP240 T01720089=
31/05/2023 12:51->METAR KJFK 311251Z 01003KT 10SM FEW012 SCT250 14/08 A3024 RMK AO2 SLP241 T01440083=
31/05/2023 11:51->METAR KJFK 311151Z 06003KT 8SM FEW006 SCT250 12/09 A3024 RMK AO2 SLP240 T01170089 10117 20089 50015=
31/05/2023 10:51->METAR KJFK 311051Z 00000KT 6SM BR BKN006 10/09 A3024 RMK AO2 SLP240 T01000094=
31/05/2023 09:51->METAR KJFK 310951Z 05005KT 2 1/2SM OVC006 10/09 A3022 RMK AO2 SFC VIS 7 SLP233 T01000094=
31/05/2023 08:51->METAR KJFK 310851Z 05004KT 10SM FEW009 FEW300 09/08 A3020 RMK AO2 SLP225 FU FEW300 T00890078 56005=
31/05/2023 07:51->METAR KJFK 310751Z 06004KT 10SM FEW009 FEW300 10/09 A3020 RMK AO2 SLP226 FU FEW300 T01000089=
31/05/2023 06:51->METAR KJFK 310651Z 04005KT 10SM FEW300 10/08 A3020 RMK AO2 SLP227 FU FEW300 T01000083=
31/05/2023 05:51->METAR KJFK 310551Z 06003KT 10SM FEW300 11/09 A3021 RMK AO2 SLP230 FU FEW300 T01060089 10150 20106 58004=
31/05/2023 04:51->METAR KJFK 310451Z 05004KT 10SM FEW300 11/09 A3022 RMK AO2 SLP231 FU FEW300 T01110089 401890100=
31/05/2023 03:51->METAR KJFK 310351Z 05004KT 10SM FEW300 11/09 A3022 RMK AO2 SLP234 FU FEW300 T01110094=
31/05/2023 02:51->METAR KJFK 310251Z 11007KT 10SM FEW300 12/10 A3022 RMK AO2 SLP234 FU FEW300 T01220100 53009=
31/05/2023 01:51->METAR KJFK 310151Z 10008KT 10SM FEW300 13/09 A3021 RMK AO2 SLP231 FU FEW300 T01280094=
31/05/2023 00:51->METAR KJFK 310051Z 11010KT 10SM FEW300 13/09 A3020 RMK AO2 SLP226 FU FEW300 T01330089=
30/05/2023 23:51->METAR KJFK 302351Z 11012KT 10SM FEW300 15/07 A3020 RMK AO2 SLP225 FU FEW300 T01500072 10189 20150 53003=
30/05/2023 22:51->METAR KJFK 302251Z 11010KT 10SM SCT300 16/09 A3019 RMK AO2 SLP223 FU SCT300 T01560089=
30/05/2023 21:51->METAR KJFK 302151Z 13011KT 10SM FEW250 SCT300 17/09 A3019 RMK AO2 SLP222 FU SCT300 T01670094=
30/05/2023 20:51->METAR KJFK 302051Z 12011KT 10SM FEW250 BKN300 18/10 A3019 RMK AO2 SLP222 FU BKN300 T01830100 56017=
30/05/2023 19:51->METAR KJFK 301951Z 12008KT 9SM FEW250 BKN300 18/09 A3020 RMK AO2 SLP227 FU BKN300 T01780089=
30/05/2023 18:51->METAR KJFK 301851Z 11011KT 9SM FEW250 BKN300 18/07 A3022 RMK AO2 SLP234 FU BKN300 T01830072=
30/05/2023 17:51->METAR KJFK 301751Z 14014KT 9SM FEW250 BKN300 18/07 A3024 RMK AO2 SLP239 FU BKN300 T01780067 10189 20144 55000=
30/05/2023 16:51->METAR KJFK 301651Z 13011KT 10SM FEW047 FEW250 BKN300 18/06 A3024 RMK AO2 SLP238 FU BKN300 T01830061=
30/05/2023 15:51->METAR KJFK 301551Z 14012KT 10SM FEW250 BKN300 18/08 A3024 RMK AO2 SLP239 FU BKN300 T01780078=
30/05/2023 14:51->METAR KJFK 301451Z 14008KT 10SM FEW045 FEW250 SCT300 18/08 A3024 RMK AO2 SLP239 FU SCT300 T01780083 51013=
30/05/2023 13:51->METAR KJFK 301351Z 09009KT 060V130 10SM FEW040 FEW250 SCT300 17/07 A3023 RMK AO2 SLP236 FU SCT300 T01670067=
30/05/2023 12:51->METAR KJFK 301251Z 05012KT 10SM FEW040 FEW250 SCT300 16/07 A3021 RMK AO2 SLP229 FU SCT300 T01610072=
30/05/2023 11:51->METAR KJFK 301151Z 06014KT 10SM FEW034 FEW250 14/07 A3020 RMK AO2 SLP226 T01440072 10144 20100 53002=
30/05/2023 10:51->METAR KJFK 301051Z 05007KT 10SM FEW027 FEW250 12/08 A3019 RMK AO2 SLP224 T01220078=
30/05/2023 09:51->METAR KJFK 300951Z 04008KT 10SM FEW250 11/07 A3019 RMK AO2 SLP222 T01060072=
30/05/2023 08:51->METAR KJFK 300851Z 04009KT 10SM CLR 11/07 A3019 RMK AO2 SLP224 T01060072 55000=
30/05/2023 07:51->METAR KJFK 300751Z 03007KT 10SM CLR 11/08 A3019 RMK AO2 SLP223 T01110078=
30/05/2023 06:51->METAR KJFK 300651Z 05007KT 10SM CLR 11/08 A3020 RMK AO2 SLP225 T01110078=
30/05/2023 05:51->METAR KJFK 300551Z 05007KT 10SM CLR 12/09 A3019 RMK AO2 SLP224 T01220089 10167 20122 53004=
30/05/2023 04:51->METAR KJFK 300451Z 06007KT 10SM CLR 13/09 A3019 RMK AO2 SLP221 T01330089 402390133=
30/05/2023 03:51->METAR KJFK 300351Z 09009KT 10SM FEW250 14/09 A3018 RMK AO2 SLP220 T01390094=
30/05/2023 02:51->METAR KJFK 300251Z 10009KT 10SM FEW250 14/09 A3018 RMK AO2 SLP220 T01440094 51025=
30/05/2023 01:51->METAR KJFK 300151Z 08014G21KT 10SM FEW250 15/09 A3017 RMK AO2 SLP214 T01500089=
30/05/2023 00:51->METAR KJFK 300051Z 09013KT 10SM SCT250 16/09 A3014 RMK AO2 PK WND 10029/0029 SLP204 T01560094=
29/05/2023 23:51->METAR KJFK 292351Z 11019G26KT 10SM SCT250 17/09 A3011 RMK AO2 PK WND 12028/2314 SLP194 T01670089 10228 20167 53016=
29/05/2023 22:51->METAR KJFK 292251Z 11017G24KT 10SM SCT250 18/08 A3008 RMK AO2 PK WND 11027/2159 SLP187 T01830083=
29/05/2023 21:51->METAR KJFK 292151Z 12016G25KT 10SM SCT250 19/08 A3007 RMK AO2 PK WND 11026/2053 SLP181 T01940083=
29/05/2023 20:51->METAR KJFK 292051Z 11021G26KT 10SM SCT250 21/07 A3006 RMK AO2 PK WND 10027/2004 SLP178 T02110072 50000=
29/05/2023 19:51->METAR KJFK 291951Z 11021G26KT 10SM SCT250 22/09 A3006 RMK AO2 PK WND 10026/1920 SLP179 T02170089=
29/05/2023 18:51->METAR KJFK 291851Z 10016G22KT 10SM SCT250 22/09 A3006 RMK AO2 PK WND 11027/1834 SLP178 T02220089=
29/05/2023 17:51->METAR KJFK 291751Z 11018KT 10SM FEW250 22/09 A3006 RMK AO2 PK WND 11027/1701 SLP179 T02220089 10239 20183 53006=
29/05/2023 16:51->METAR KJFK 291651Z 11018G24KT 10SM SCT250 23/09 A3005 RMK AO2 PK WND 11027/1600 SLP175 T02280094=
29/05/2023 15:51->METAR KJFK 291551Z 12021G25KT 10SM SCT250 23/08 A3004 RMK AO2 PK WND 10026/1457 SLP173 T02330078=
29/05/2023 14:51->METAR KJFK 291451Z 09014G22KT 10SM SCT250 23/12 A3004 RMK AO2 SLP172 T02280122 51017=
29/05/2023 13:51->METAR KJFK 291351Z 07012KT 10SM FEW200 SCT250 23/11 A3003 RMK AO2 SLP167 T02280111=
29/05/2023 12:51->METAR KJFK 291251Z 03010KT 10SM FEW160 FEW200 BKN250 22/12 A3001 RMK AO2 SLP161 T02170117=
29/05/2023 11:51->METAR KJFK 291151Z 27003KT 10SM FEW160 FEW200 BKN250 18/13 A2999 RMK AO2 SLP155 T01830133 10189 20139 53013=
29/05/2023 10:51->METAR KJFK 291051Z 26003KT 10SM FEW200 BKN250 18/13 A2998 RMK AO2 SLP151 T01780128=
29/05/2023 09:51->METAR KJFK 290951Z 26003KT 10SM SCT250 15/12 A2997 RMK AO2 SLP147 T01500117=
29/05/2023 08:51->METAR KJFK 290851Z 20005KT 10SM FEW250 14/12 A2995 RMK AO2 SLP143 T01440117 56008=
29/05/2023 07:51->METAR KJFK 290751Z 20008KT 10SM FEW250 14/12 A2996 RMK AO2 SLP143 T01440122=
29/05/2023 06:51->METAR KJFK 290651Z 23005KT 10SM FEW250 16/11 A2996 RMK AO2 SLP146 T01560111=
29/05/2023 05:51->METAR KJFK 290551Z 23004KT 10SM FEW250 15/12 A2998 RMK AO2 SLP151 T01500117 10167 20144 58016=
29/05/2023 04:51->METAR KJFK 290451Z 23006KT 10SM SCT250 14/11 A3000 RMK AO2 SLP159 T01440111 402170128=
29/05/2023 03:51->METAR KJFK 290351Z 23006KT 10SM SCT250 15/12 A3000 RMK AO2 SLP160 T01500117=
29/05/2023 02:51->METAR KJFK 290251Z 22007KT 10SM FEW180 SCT250 16/13 A3003 RMK AO2 SLP167 T01560128 50003=
29/05/2023 01:51->METAR KJFK 290151Z 20009KT 10SM FEW180 BKN250 16/12 A3003 RMK AO2 SLP168 T01610122=
29/05/2023 00:51->METAR KJFK 290051Z 19008KT 10SM FEW150 FEW200 BKN250 16/12 A3002 RMK AO2 SLP166 T01610122=
28/05/2023 23:51->METAR KJFK 282351Z 19008KT 10SM FEW150 FEW200 BKN250 17/12 A3002 RMK AO2 SLP164 T01670122 10217 20167 56014=
28/05/2023 22:51->METAR KJFK 282251Z 18009KT 10SM FEW150 FEW200 BKN250 17/12 A3003 RMK AO2 SLP168 T01720122=
28/05/2023 21:51->METAR KJFK 282151Z 17011KT 10SM FEW070 FEW150 SCT200 BKN250 19/11 A3004 RMK AO2 SLP171 T01940106=
28/05/2023 20:51->METAR KJFK 282051Z 17011KT 10SM FEW070 FEW150 SCT200 BKN250 21/09 A3006 RMK AO2 SLP179 T02060094 58023=
28/05/2023 19:51->METAR KJFK 281951Z 17012KT 10SM FEW070 FEW150 FEW200 BKN250 21/07 A3008 RMK AO2 SLP187 T02110067=
28/05/2023 18:51->METAR KJFK 281851Z 19009KT 10SM FEW070 FEW150 FEW200 BKN250 21/04 A3011 RMK AO2 SLP195 T02110039=
28/05/2023 17:51->METAR KJFK 281751Z 21008KT 10SM FEW200 BKN250 21/07 A3013 RMK AO2 SLP202 T02110067 10217 20178 58017=
28/05/2023 16:51->METAR KJFK 281651Z 19006KT 10SM FEW200 BKN250 21/07 A3015 RMK AO2 SLP209 T02110067=
28/05/2023 15:51->METAR KJFK 281551Z 19009KT 10SM FEW200 BKN250 20/10 A3017 RMK AO2 SLP216 T02000100=
28/05/2023 14:51->METAR KJFK 281451Z 19008KT 10SM FEW200 BKN250 19/08 A3018 RMK AO2 SLP219 T01940083 58011=
28/05/2023 13:51->METAR KJFK 281351Z 20005KT 10SM FEW200 BKN250 19/06 A3019 RMK AO2 SLP223 T01890061=
28/05/2023 12:51->METAR KJFK 281251Z 20007KT 10SM FEW200 BKN250 18/07 A3021 RMK AO2 SLP228 T01830067=
28/05/2023 11:51->METAR KJFK 281151Z 24004KT 10SM FEW200 BKN250 18/08 A3021 RMK AO2 SLP230 T01780083 10178 20128 57001=
28/05/2023 10:51->METAR KJFK 281051Z 23005KT 10SM FEW200 BKN250 16/08 A3022 RMK AO2 SLP231 T01560083=
28/05/2023 09:51->METAR KJFK 280951Z 22003KT 10SM SCT250 13/09 A3021 RMK AO2 SLP231 T01330089=
28/05/2023 08:51->METAR KJFK 280851Z 21004KT 10SM SCT250 14/09 A3022 RMK AO2 SLP231 T01390094 58008=
28/05/2023 07:51->METAR KJFK 280751Z 22004KT 10SM FEW250 13/08 A3022 RMK AO2 SLP234 T01330078=
28/05/2023 06:51->METAR KJFK 280651Z 23004KT 10SM SCT250 14/07 A3023 RMK AO2 SLP237 T01390067=
28/05/2023 05:51->METAR KJFK 280551Z 24005KT 10SM OVC250 14/06 A3024 RMK AO2 SLP239 T01440061 10161 20133 58014=
28/05/2023 04:51->METAR KJFK 280451Z 25006KT 10SM BKN250 14/06 A3026 RMK AO2 SLP245 T01390061 402280100=
28/05/2023 03:51->METAR KJFK 280351Z 23006KT 10SM BKN250 14/08 A3027 RMK AO2 SLP250 T01390083=
28/05/2023 02:51->METAR KJFK 280251Z 20007KT 10SM SCT250 14/09 A3028 RMK AO2 SLP253 T01440089 50002=
28/05/2023 01:51->METAR KJFK 280151Z 19007KT 10SM BKN250 15/07 A3029 RMK AO2 SLP255 T01500072=
28/05/2023 00:51->METAR KJFK 280051Z 18007KT 10SM BKN250 16/09 A3028 RMK AO2 SLP252 T01560089=
27/05/2023 23:51->METAR KJFK 272351Z 18009KT 10SM BKN250 16/12 A3027 RMK AO2 SLP251 T01610117 10228 20161 55002=
27/05/2023 22:51->METAR KJFK 272251Z 18010KT 10SM BKN250 18/10 A3027 RMK AO2 SLP249 T01780100=
27/05/2023 21:51->METAR KJFK 272151Z 17012KT 10SM BKN250 19/10 A3027 RMK AO2 SLP251 T01940100=
27/05/2023 20:51->METAR KJFK 272051Z 15011KT 10SM BKN250 21/06 A3028 RMK AO2 SLP253 T02110061 56007=
27/05/2023 19:51->METAR KJFK 271951Z 18010KT 10SM BKN250 21/08 A3029 RMK AO2 SLP255 T02110078=
27/05/2023 18:51->METAR KJFK 271851Z 19010KT 10SM BKN250 22/08 A3029 RMK AO2 SLP257 T02220078=
27/05/2023 17:51->METAR KJFK 271751Z 17009KT 10SM SCT250 22/06 A3030 RMK AO2 SLP260 T02220061 10228 20178 57010=
27/05/2023 16:51->METAR KJFK 271651Z 17007KT 10SM BKN250 22/07 A3031 RMK AO2 SLP263 T02220072=
27/05/2023 15:51->METAR KJFK 271551Z 18007KT 10SM BKN250 22/08 A3032 RMK AO2 SLP267 T02220078=
27/05/2023 14:51->METAR KJFK 271451Z VRB03KT 10SM SCT250 22/06 A3033 RMK AO2 SLP270 T02220056 57001=
27/05/2023 13:51->METAR KJFK 271351Z 07005KT 10SM BKN250 21/05 A3033 RMK AO2 SLP270 T02110050=
27/05/2023 12:51->METAR KJFK 271251Z 09005KT 10SM SCT250 20/06 A3034 RMK AO2 SLP272 T02000061=
27/05/2023 11:51->METAR KJFK 271151Z 02005KT 10SM SCT250 18/07 A3033 RMK AO2 SLP271 T01780067 10178 20100 51016=
27/05/2023 10:51->METAR KJFK 271051Z 00000KT 10SM FEW250 15/09 A3032 RMK AO2 SLP268 T01500094=
27/05/2023 09:51->METAR KJFK 270951Z 00000KT 10SM FEW250 12/07 A3031 RMK AO2 SLP263 T01220072=
27/05/2023 08:51->METAR KJFK 270851Z 21003KT 10SM FEW250 12/07 A3029 RMK AO2 SLP255 T01220067 56002=
27/05/2023 07:51->METAR KJFK 270751Z 31007KT 10SM FEW250 14/04 A3029 RMK AO2 SLP256 T01390044=
27/05/2023 06:51->METAR KJFK 270651Z 29007KT 10SM FEW250 14/04 A3029 RMK AO2 SLP257 T01390039=
27/05/2023 05:51->METAR KJFK 270551Z 27007KT 10SM FEW250 14/05 A3029 RMK AO2 SLP258 T01390050 10161 20133 51004=
27/05/2023 04:51->METAR KJFK 270451Z 25008KT 10SM FEW250 14/06 A3029 RMK AO2 SLP257 T01440061 402280106=
27/05/2023 03:51->METAR KJFK 270351Z 25008KT 10SM CLR 14/07 A3029 RMK AO2 SLP258 T01440067=
27/05/2023 02:51->METAR KJFK 270251Z 23007KT 10SM CLR 14/06 A3028 RMK AO2 SLP254 T01390061 51010=
27/05/2023 01:51->METAR KJFK 270151Z 20007KT 10SM FEW250 14/09 A3028 RMK AO2 SLP253 T01440089=
27/05/2023 00:51->METAR KJFK 270051Z 19008KT 10SM FEW250 16/09 A3026 RMK AO2 SLP248 T01560089=
26/05/2023 23:51->METAR KJFK 262351Z 19008KT 10SM SCT250 16/11 A3025 RMK AO2 SLP244 T01610106 10228 20161 51008=
26/05/2023 22:51->METAR KJFK 262251Z 18008KT 10SM FEW250 18/07 A3024 RMK AO2 SLP241 T01830072=
26/05/2023 21:51->METAR KJFK 262151Z 20009KT 10SM FEW075 SCT250 19/07 A3024 RMK AO2 SLP240 T01940072=
26/05/2023 20:51->METAR KJFK 262051Z 03011G16KT 340V050 10SM FEW075 FEW250 22/02 A3023 RMK AO2 SLP236 T02220022 58009=
26/05/2023 19:51->METAR KJFK 261951Z 02009G18KT 10SM FEW075 FEW250 22/01 A3025 RMK AO2 SLP242 T02170011=
26/05/2023 18:51->METAR KJFK 261851Z 03007G19KT 10SM FEW075 FEW250 22/02 A3025 RMK AO2 SLP243 T02170017=
26/05/2023 17:51->METAR KJFK 261751Z 03011G17KT 10SM FEW075 FEW250 22/02 A3026 RMK AO2 SLP246 T02170022 10217 20156 58012=
26/05/2023 16:51->METAR KJFK 261651Z 01011G16KT 10SM FEW075 FEW250 21/02 A3027 RMK AO2 SLP251 T02110017=
26/05/2023 15:51->METAR KJFK 261551Z 01009G18KT 10SM FEW075 FEW250 20/02 A3029 RMK AO2 SLP256 T02000017=
26/05/2023 14:51->METAR KJFK 261451Z 05007KT 10SM FEW070 FEW250 19/00 A3029 RMK AO2 SLP258 T01890000 50004=
26/05/2023 13:51->METAR KJFK 261351Z 36009KT 10SM FEW250 18/02 A3030 RMK AO2 SLP259 T01830017=
26/05/2023 12:51->METAR KJFK 261251Z 36006KT 10SM FEW250 17/04 A3029 RMK AO2 SLP258 T01720039=
26/05/2023 11:51->METAR KJFK 261151Z 03006KT 10SM FEW250 15/06 A3028 RMK AO2 SLP254 T01500056 10150 20106 53017=
26/05/2023 10:51->METAR KJFK 261051Z 36006KT 10SM FEW250 13/06 A3027 RMK AO2 SLP248 T01280061=
26/05/2023 09:51->METAR KJFK 260951Z 36006KT 10SM FEW250 11/06 A3025 RMK AO2 SLP243 T01060056=
26/05/2023 08:51->METAR KJFK 260851Z 01004KT 10SM FEW080 11/06 A3023 RMK AO2 SLP237 T01110056 53004=
26/05/2023 07:51->METAR KJFK 260751Z 01004KT 10SM FEW080 12/06 A3022 RMK AO2 SLP234 T01170056=
26/05/2023 06:51->METAR KJFK 260651Z 03003KT 10SM FEW080 13/05 A3022 RMK AO2 SLP232 T01330050=
26/05/2023 05:51->METAR KJFK 260551Z 36004KT 10SM FEW080 FEW250 12/04 A3022 RMK AO2 SLP233 T01220039 10178 20117 53010=
26/05/2023 04:51->METAR KJFK 260451Z 04005KT 10SM FEW070 SCT250 13/04 A3021 RMK AO2 SLP229 T01330039 402000094=
26/05/2023 03:51->METAR KJFK 260351Z 02007KT 10SM FEW070 SCT250 15/03 A3020 RMK AO2 SLP225 T01500033=
26/05/2023 02:51->METAR KJFK 260251Z 01008KT 10SM FEW080 SCT220 16/03 A3019 RMK AO2 SLP223 T01560033 53015=
26/05/2023 01:51->METAR KJFK 260151Z 01007KT 10SM FEW060 BKN250 16/03 A3018 RMK AO2 SLP219 T01610033=
26/05/2023 00:51->METAR KJFK 260051Z 02006KT 10SM FEW060 BKN250 17/03 A3016 RMK AO2 SLP212 T01670033=
25/05/2023 23:51->METAR KJFK 252351Z 03009KT 10SM FEW060 BKN250 18/03 A3015 RMK AO2 SLP208 T01780033 10200 20178 53011=
25/05/2023 22:51->METAR KJFK 252251Z 02012KT 10SM FEW060 SCT250 19/02 A3013 RMK AO2 SLP202 T01890017=
25/05/2023 21:51->METAR KJFK 252151Z 01007G18KT 10SM FEW060 SCT250 19/03 A3012 RMK AO2 SLP198 T01940028=
25/05/2023 20:51->METAR KJFK 252051Z 34013G18KT 10SM FEW060 FEW250 19/03 A3011 RMK AO2 SLP197 T01940028 58008=
25/05/2023 19:51->METAR KJFK 251951Z 02014G19KT 10SM FEW250 19/02 A3013 RMK AO2 SLP202 T01940022=
25/05/2023 18:51->METAR KJFK 251851Z 34010G19KT 10SM FEW250 18/03 A3014 RMK AO2 SLP204 T01830033=
25/05/2023 17:51->METAR KJFK 251751Z 02011G14KT 10SM FEW250 18/04 A3014 RMK AO2 SLP205 T01780039 10178 20117 56001=
25/05/2023 16:51->METAR KJFK 251651Z 34008G19KT 10SM FEW045 17/04 A3014 RMK AO2 PK WND 35028/1638 SLP206 T01720039=
25/05/2023 15:51->METAR KJFK 251551Z 02013G20KT 10SM FEW045 17/03 A3014 RMK AO2 SLP205 T01670028=
25/05/2023 14:51->METAR KJFK 251451Z 34014KT 10SM FEW040 16/04 A3014 RMK AO2 SLP206 T01560044 50001=
25/05/2023 13:51->METAR KJFK 251351Z 02017G21KT 10SM FEW250 14/03 A3015 RMK AO2 SLP208 T01440033=
25/05/2023 12:51->METAR KJFK 251251Z 02018G23KT 10SM CLR 13/03 A3014 RMK AO2 PK WND 01026/1237 SLP207 T01280033=
25/05/2023 11:51->METAR KJFK 251151Z 35018G23KT 10SM CLR 12/04 A3014 RMK AO2 SLP205 70001 T01170039 10128 20094 51019=
25/05/2023 10:51->METAR KJFK 251051Z 36017KT 10SM CLR 11/04 A3013 RMK AO2 SLP201 T01060044=
25/05/2023 09:51->METAR KJFK 250951Z 01015KT 10SM FEW040 FEW110 10/04 A3010 RMK AO2 SLP193 T01000039=
25/05/2023 08:51->METAR KJFK 250851Z 36018G24KT 10SM FEW110 FEW250 10/03 A3008 RMK AO2 PK WND 36027/0755 SLP187 T01000028 53012=
25/05/2023 07:51->METAR KJFK 250751Z 36017G24KT 10SM FEW110 SCT250 11/03 A3007 RMK AO2 PK WND 36026/0737 SLP182 T01060028=
25/05/2023 06:51->METAR KJFK 250651Z 35016KT 10SM FEW041 BKN110 BKN250 12/04 A3005 RMK AO2 PK WND 36027/0619 SLP176 T01220039=
25/05/2023 05:51->METAR KJFK 250551Z 01017G25KT 10SM FEW025 SCT095 BKN250 13/08 A3005 RMK AO2 SLP175 60001 T01330078 10178 20133 53004=
25/05/2023 04:51->METAR KJFK 250451Z 01018G23KT 10SM FEW027 OVC075 14/09 A3004 RMK AO2 RAE0356 SLP171 P0000 T01390089 402060094=
25/05/2023 03:51->METAR KJFK 250351Z 02013G19KT 10SM -RA FEW030 OVC070 13/10 A3003 RMK AO2 RAB15 SLP170 P0001 T01330100=
25/05/2023 02:51->METAR KJFK 250251Z 01015G23KT 10SM FEW036 OVC065 15/08 A3004 RMK AO2 SLP170 60000 T01500083 51020=
25/05/2023 01:51->METAR KJFK 250151Z 03014G29KT 10SM SCT047 BKN090 OVC110 15/10 A3002 RMK AO2 PK WND 03029/0146 RAE28 SLP165 P0000 T01500100=
25/05/2023 00:51->METAR KJFK 250051Z 01014G21KT 10SM -RA FEW030 SCT065 OVC080 16/12 A3000 RMK AO2 RAB27 SLP157 P0000 T01560122=
24/05/2023 23:51->METAR KJFK 242351Z 04005KT 10SM FEW030 OVC075 17/06 A2998 RMK AO2 SLP151 T01720056 10206 20161 53006=
24/05/2023 22:51->METAR KJFK 242251Z 19008KT 10SM SCT050 SCT250 BKN300 16/07 A2993 RMK AO2 SLP134 FU BKN300 T01610067=
24/05/2023 21:51->METAR KJFK 242151Z 18011KT 10SM FEW050 SCT250 BKN300 17/08 A2994 RMK AO2 SLP140 FU BKN300 T01670083=
24/05/2023 20:51->METAR KJFK 242051Z 16011KT 10SM FEW250 BKN300 17/08 A2996 RMK AO2 SLP144 FU BKN300 T01720078 56018=
24/05/2023 19:51->METAR KJFK 241951Z 15012KT 10SM FEW250 BKN300 19/06 A2998 RMK AO2 SLP150 FU BKN300 T01890061=
24/05/2023 18:51->METAR KJFK 241851Z 16009KT 10SM SCT250 BKN300 20/07 A2999 RMK AO2 SLP154 FU BKN300 T02000072=
24/05/2023 17:51->METAR KJFK 241751Z 19009KT 10SM FEW200 FEW250 20/00 A3001 RMK AO2 SLP162 T02000000 10200 20133 56022=
24/05/2023 16:51->METAR KJFK 241651Z 19009KT 10SM SCT250 19/04 A3003 RMK AO2 SLP169 T01940039=
24/05/2023 15:51->METAR KJFK 241551Z 20007KT 10SM FEW250 BKN300 19/06 A3005 RMK AO2 SLP176 FU BKN300 T01940056=
24/05/2023 14:51->METAR KJFK 241451Z 22005KT 10SM FEW200 FEW250 BKN300 18/06 A3007 RMK AO2 SLP184 FU BKN300 T01780056 56022=
24/05/2023 13:51->METAR KJFK 241351Z VRB03KT 10SM FEW250 BKN300 17/06 A3010 RMK AO2 SLP191 FU BKN300 T01670061=
24/05/2023 12:51->METAR KJFK 241251Z 00000KT 10SM SCT250 BKN300 15/06 A3012 RMK AO2 SLP198 FU BKN300 T01500056=
24/05/2023 11:51->METAR KJFK 241151Z 04003KT 10SM FEW250 BKN300 13/07 A3014 RMK AO2 SLP205 FU BKN300 T01330067 10133 20094 58006=
24/05/2023 10:51->METAR KJFK 241051Z 00000KT 10SM SCT250 SCT300 11/06 A3015 RMK AO2 SLP209 FU SCT300 T01110056=
24/05/2023 09:51->METAR KJFK 240951Z 06003KT 10SM FEW250 10/04 A3016 RMK AO2 SLP212 T01000044=
24/05/2023 08:51->METAR KJFK 240851Z 07004KT 10SM SCT250 09/05 A3016 RMK AO2 SLP211 T00940050 57012=
24/05/2023 07:51->METAR KJFK 240751Z 00000KT 10SM CLR 11/04 A3017 RMK AO2 SLP215 T01060044=
24/05/2023 06:51->METAR KJFK 240651Z 00000KT 10SM SCT250 11/04 A3018 RMK AO2 SLP219 T01060044=
24/05/2023 05:51->METAR KJFK 240551Z 06003KT 10SM SCT250 11/06 A3019 RMK AO2 SLP224 T01060061 10133 20106 56020=
24/05/2023 04:51->METAR KJFK 240451Z 03004KT 10SM SCT250 12/06 A3021 RMK AO2 SLP229 T01170061 401830117=
24/05/2023 03:51->METAR KJFK 240351Z 04003KT 10SM SCT250 12/07 A3023 RMK AO2 SLP235 T01170067=
24/05/2023 02:51->METAR KJFK 240251Z 09003KT 10SM SCT250 12/06 A3025 RMK AO2 SLP243 T01170061 58007=
24/05/2023 01:51->METAR KJFK 240151Z 11004KT 10SM SCT250 12/06 A3027 RMK AO2 SLP251 T01220056=
24/05/2023 00:51->METAR KJFK 240051Z 12004KT 10SM BKN250 13/06 A3027 RMK AO2 SLP249 T01280056=
23/05/2023 23:51->METAR KJFK 232351Z 12009KT 10SM BKN250 BKN300 13/05 A3027 RMK AO2 SLP250 FU BKN300 T01330050 10167 20133 56013=
23/05/2023 22:51->METAR KJFK 232251Z 12009KT 10SM BKN250 BKN300 15/04 A3028 RMK AO2 SLP252 FU BKN300 T01500039=
23/05/2023 21:51->METAR KJFK 232151Z 11009KT 10SM BKN250 BKN300 16/04 A3029 RMK AO2 SLP258 FU BKN300 T01560039=
23/05/2023 20:51->METAR KJFK 232051Z 13013KT 10SM BKN250 BKN300 16/08 A3031 RMK AO2 SLP263 FU BKN300 T01610078 58013=
23/05/2023 19:51->METAR KJFK 231951Z 12012G17KT 10SM FEW045 BKN250 BKN300 16/08 A3032 RMK AO2 SLP267 FU BKN300 T01610078=
23/05/2023 18:51->METAR KJFK 231851Z 14014KT 10SM FEW045 BKN250 16/09 A3034 RMK AO2 SLP274 T01610089=
23/05/2023 17:51->METAR KJFK 231751Z 15015KT 10SM FEW045 BKN250 17/09 A3035 RMK AO2 SLP275 T01670089 10183 20133 58001=
23/05/2023 16:51->METAR KJFK 231651Z 12012KT 10SM FEW045 BKN250 18/09 A3035 RMK AO2 SLP276 T01780089=
23/05/2023 15:51->METAR KJFK 231551Z 13014KT 10SM FEW040 SCT250 18/10 A3035 RMK AO2 SLP277 T01780100=
23/05/2023 14:51->METAR KJFK 231451Z 11008KT 10SM FEW075 BKN250 18/10 A3035 RMK AO2 SLP277 T01780100 58003=
23/05/2023 13:51->METAR KJFK 231351Z 09006KT 10SM FEW022 SCT075 BKN250 17/10 A3036 RMK AO2 SLP279 T01670100=
23/05/2023 12:51->METAR KJFK 231251Z 08005KT 10SM FEW018 SCT080 BKN250 16/10 A3036 RMK AO2 SLP280 T01560100=
23/05/2023 11:51->METAR KJFK 231151Z 07005KT 10SM FEW012 BKN085 BKN250 14/11 A3036 RMK AO2 SLP280 T01390106 10139 20117 51012=
23/05/2023 10:51->METAR KJFK 231051Z 06007KT 10SM FEW010 BKN080 BKN250 12/11 A3035 RMK AO2 SLP277 T01220106=
23/05/2023 09:51->METAR KJFK 230951Z 04005KT 10SM SCT010 BKN070 BKN100 OVC300 12/11 A3034 RMK AO2 SLP272 FU OVC300 T01170106=
23/05/2023 08:51->METAR KJFK 230851Z 04005KT 10SM FEW011 OVC100 12/11 A3032 RMK AO2 SLP268 T01220111 53005=
23/05/2023 07:51->METAR KJFK 230751Z 05005KT 10SM SCT090 BKN300 13/11 A3032 RMK AO2 SLP265 FU BKN300 T01280111=
23/05/2023 06:51->METAR KJFK 230651Z 04003KT 10SM FEW080 BKN300 12/11 A3031 RMK AO2 SLP263 FU BKN300 T01170106=
23/05/2023 05:51->METAR KJFK 230551Z 08004KT 10SM BKN300 12/11 A3031 RMK AO2 SLP263 FU BKN300 T01220106 10150 20122 51006=
23/05/2023 04:51->METAR KJFK 230451Z 09004KT 10SM BKN300 13/11 A3031 RMK AO2 SLP262 FU BKN300 T01280111 402330128=
23/05/2023 03:51->METAR KJFK 230351Z 09006KT 10SM BKN300 13/11 A3030 RMK AO2 SLP260 FU BKN300 T01280111=
23/05/2023 02:51->METAR KJFK 230251Z 11007KT 10SM FEW065 BKN300 13/11 A3029 RMK AO2 SLP257 FU BKN300 T01330111 51013=
23/05/2023 01:51->METAR KJFK 230151Z 12010KT 10SM FEW250 BKN300 14/11 A3029 RMK AO2 SLP256 FU BKN300 T01390106=
23/05/2023 00:51->METAR KJFK 230051Z 11009KT 10SM FEW250 BKN300 14/11 A3026 RMK AO2 SLP248 FU BKN300 T01390106=
22/05/2023 23:51->METAR KJFK 222351Z 12009KT 10SM FEW065 FEW250 BKN300 15/10 A3026 RMK AO2 SLP245 FU BKN300 T01500100 10211 20150 53018=
22/05/2023 22:51->METAR KJFK 222251Z 13011KT 10SM FEW065 BKN300 16/10 A3023 RMK AO2 SLP237 FU BKN300 T01610100=
22/05/2023 21:51->METAR KJFK 222151Z 12012G17KT 10SM FEW065 BKN300 17/11 A3022 RMK AO2 SLP231 FU BKN300 T01670111=
22/05/2023 20:51->METAR KJFK 222051Z 12012KT 10SM FEW065 FEW250 BKN300 18/11 A3020 RMK AO2 SLP227 FU BKN300 T01780111 51002=
22/05/2023 19:51->METAR KJFK 221951Z 14013KT 10SM FEW065 FEW250 BKN300 19/12 A3020 RMK AO2 SLP226 FU BKN300 T01890122=
22/05/2023 18:51->METAR KJFK 221851Z 13012KT 10SM FEW065 FEW250 BKN300 21/11 A3020 RMK AO2 SLP226 FU BKN300 T02060106=
22/05/2023 17:51->METAR KJFK 221751Z 15008KT 10SM SCT065 SCT250 BKN300 21/12 A3020 RMK AO2 SLP225 FU BKN300 T02110122 10233 20172 51008=
22/05/2023 16:51->METAR KJFK 221651Z 15009KT 10SM FEW050 BKN300 22/13 A3019 RMK AO2 SLP223 FU BKN300 T02220128=
22/05/2023 15:51->METAR KJFK 221551Z 11006KT 10SM FEW047 BKN300 22/12 A3018 RMK AO2 SLP220 FU BKN300 T02220117=
22/05/2023 14:51->METAR KJFK 221451Z 05008KT 10SM BKN300 21/12 A3017 RMK AO2 SLP217 FU BKN300 T02110117 51013=
22/05/2023 13:51->METAR KJFK 221351Z 03010KT 10SM BKN300 21/12 A3016 RMK AO2 SLP212 FU BKN300 T02060117=
22/05/2023 12:51->METAR KJFK 221251Z 02010KT 10SM FEW250 BKN300 19/11 A3015 RMK AO2 SLP210 FU BKN300 T01890111=
22/05/2023 11:51->METAR KJFK 221151Z 01007KT 10SM BKN300 17/11 A3013 RMK AO2 SLP204 FU BKN300 T01720111 10172 20144 53020 $=
22/05/2023 10:51->METAR KJFK 221051Z 01006KT 10SM BKN300 16/11 A3012 RMK AO2 SLP198 FU BKN300 T01560106 $=
22/05/2023 09:51->METAR KJFK 220951Z 35008KT 10SM SCT300 15/10 A3009 RMK AO2 SLP189 FU SCT300 T01500100 $=
22/05/2023 08:51->METAR KJFK 220851Z 36007KT 10SM FEW250 15/10 A3008 RMK AO2 SLP184 T01500100 53006 $=
22/05/2023 07:51->METAR KJFK 220751Z 01006KT 10SM FEW250 15/11 A3007 RMK AO2 SLP182 T01500106 $=
22/05/2023 06:51->METAR KJFK 220651Z 36007KT 10SM FEW250 16/11 A3006 RMK AO2 SLP179 T01560106 $=
22/05/2023 05:51->METAR KJFK 220551Z 35007KT 10SM FEW250 16/11 A3006 RMK AO2 SLP178 T01560106 10194 20156 50007 $=
22/05/2023 04:51->METAR KJFK 220451Z 35006KT 10SM SCT250 16/11 A3006 RMK AO2 SLP179 T01610106 402220133 $=
22/05/2023 03:51->METAR KJFK 220351Z 35005KT 10SM SCT250 18/11 A3005 RMK AO2 SLP175 T01780106 $=
22/05/2023 02:51->METAR KJFK 220251Z 32005KT 10SM SCT250 18/10 A3004 RMK AO2 SLP171 T01830100 51016 $=
22/05/2023 01:51->METAR KJFK 220151Z 34006KT 10SM SCT250 19/10 A3003 RMK AO2 SLP168 T01890100 $=
22/05/2023 00:51->METAR KJFK 220051Z 35008KT 10SM FEW055 SCT250 19/10 A3001 RMK AO2 SLP162 T01890100 $=
21/05/2023 23:51->METAR KJFK 212351Z 01006KT 10SM FEW055 SCT200 SCT250 19/10 A2999 RMK AO2 SLP155 T01940100 10222 20194 53015 $=
21/05/2023 22:51->METAR KJFK 212251Z 34013KT 10SM SCT055 BKN200 BKN250 21/10 A2997 RMK AO2 SLP149 T02110100 $=
21/05/2023 21:51->METAR KJFK 212151Z 33013G19KT 10SM BKN055 BKN200 BKN250 21/11 A2996 RMK AO2 SLP145 T02110106 $=
21/05/2023 20:51->METAR KJFK 212051Z 33012G21KT 10SM BKN055 BKN200 BKN250 21/10 A2994 RMK AO2 SLP140 T02110100 53002 $=
21/05/2023 19:51->METAR KJFK 211951Z 32009G19KT 10SM BKN049 BKN200 BKN250 22/10 A2994 RMK AO2 SLP137 T02170100 $=
21/05/2023 18:51->METAR KJFK 211851Z 31014G25KT 10SM BKN048 BKN200 BKN250 21/10 A2993 RMK AO2 SLP136 T02060100 $=
21/05/2023 17:51->METAR KJFK 211751Z 31011G20KT 10SM BKN046 BKN200 BKN250 21/10 A2994 RMK AO2 PK WND 30026/1708 SLP138 T02060100 10211 20139 53001 $=
21/05/2023 16:51->METAR KJFK 211651Z 33014G22KT 10SM SCT045 SCT200 BKN250 21/10 A2994 RMK AO2 SLP138 T02110100 $=
21/05/2023 15:51->METAR KJFK 211551Z 31014G22KT 10SM SCT040 SCT200 BKN250 19/09 A2993 RMK AO2 SLP136 T01940094 $=
21/05/2023 14:51->METAR KJFK 211451Z 32017G22KT 10SM FEW040 FEW100 SCT220 BKN250 18/09 A2994 RMK AO2 SLP137 T01830089 58007 $=
21/05/2023 13:51->METAR KJFK 211351Z 33016G21KT 10SM FEW040 FEW100 SCT200 BKN250 17/08 A2995 RMK AO2 SLP140 T01670083 $=
21/05/2023 12:51->METAR KJFK 211251Z 31012KT 10SM FEW100 SCT200 BKN250 16/08 A2995 RMK AO2 SLP143 T01560078 $=
21/05/2023 11:51->METAR KJFK 211151Z 31011KT 10SM FEW100 BKN200 BKN250 14/08 A2996 RMK AO2 SLP144 60000 70165 T01440078 10178 20133 53027 $=
21/05/2023 10:51->METAR KJFK 211051Z 31013G24KT 10SM FEW100 BKN200 BKN250 13/07 A2993 RMK AO2 SLP135 T01330072 $=
21/05/2023 09:51->METAR KJFK 210951Z 32017KT 10SM BKN200 13/07 A2990 RMK AO2 PK WND 33030/0857 SLP125 T01330072 $=
21/05/2023 08:51->METAR KJFK 210851Z 32017G25KT 10SM BKN039 OVC075 14/07 A2988 RMK AO2 SLP117 60000 T01440072 53006 $=
21/05/2023 07:51->METAR KJFK 210751Z 32014KT 10SM BKN029 OVC055 15/10 A2988 RMK AO2 RAB0653E12 SLP117 P0000 T01500100 $=
21/05/2023 06:51->METAR KJFK 210651Z 31014KT 10SM SCT025 OVC040 18/16 A2986 RMK AO2 SLP110 T01780161 $=
21/05/2023 05:51->METAR KJFK 210551Z 28008KT 10SM FEW013 SCT018 OVC026 17/17 A2986 RMK AO2 SLP111 60000 T01720172 10172 20156 56008 $=
21/05/2023 04:51->METAR KJFK 210451Z 22003KT 1/4SM R04R/1400V1800FT FG VV002 16/16 A2987 RMK AO2 SLP114 T01610161 401720139 $=
21/05/2023 03:51->METAR KJFK 210351Z 25006KT 1/4SM R04R/1600V1800FT FG VV002 16/16 A2987 RMK AO2 SFC VIS 1/2 DZE29 SLP113 P0000 T01610161 $=
21/05/2023 02:51->METAR KJFK 210251Z 22009KT 1/4SM R04R/2200V3500FT -DZ FG VV002 16/16 A2988 RMK AO2 SFC VIS 1/2 SLP119 P0000 60000 T01610161 55005 $=
21/05/2023 01:51->METAR KJFK 210151Z 18009KT 1/4SM R04R/2600V3500FT -DZ BR VV003 16/16 A2988 RMK AO2 SFC VIS 3/4 DZB45 SLP117 P0000 T01610161 $=
21/05/2023 00:51->METAR KJFK 210051Z 20009KT 1/4SM R04R/4500VP6000FT BR OVC003 16/16 A2988 RMK AO2 SFC VIS 1 SLP118 T01560156 $=
20/05/2023 23:51->METAR KJFK 202351Z 19013KT 1/4SM R04R/3500V5000FT BR OVC002 16/16 A2990 RMK AO2 SFC VIS 3/4 RAE2252 SLP124 P0000 60073 T01610161 10172 20161 55014 $=
20/05/2023 22:51->METAR KJFK 202251Z 18015KT 1 1/2SM -RA BR BKN004 OVC036 17/17 A2990 RMK AO2 SFC VIS 3 SLP124 P0009 T01670167 $=
20/05/2023 21:51->METAR KJFK 202151Z 18014KT 1SM R04R/P6000FT -RA BR OVC004 17/17 A2992 RMK AO2 SFC VIS 3 SLP132 P0010 T01670167 $=
20/05/2023 20:51->METAR KJFK 202051Z 18013KT 3SM R04R/4000VP6000FT +RA BR BKN005 OVC010 17/17 A2994 RMK AO2 SLP137 P0021 60054 T01670167 56024 $=
20/05/2023 19:51->METAR KJFK 201951Z 16014KT 1 1/2SM -RA BR OVC005 17/17 A2995 RMK AO2 SFC VIS 4 SLP142 P0016 T01670167 $=
20/05/2023 18:51->METAR KJFK 201851Z 19009KT 1SM R04R/3500VP6000FT -RA BR OVC004 17/17 A2998 RMK AO2 SFC VIS 2 1/2 SLP153 P0017 T01670167=
20/05/2023 17:51->METAR KJFK 201751Z 13006KT 2SM -RA BR OVC005 17/17 A3001 RMK AO2 SFC VIS 4 SLP161 P0014 60092 T01670167 10167 20156 58026=
20/05/2023 16:51->METAR KJFK 201651Z 11006KT 1 1/4SM R04R/4000VP6000FT +RA BR FEW005 BKN015 OVC024 16/16 A3004 RMK AO2 TWR VIS 1 1/2 SLP172 P0049 T01610161=
20/05/2023 15:51->METAR KJFK 201551Z 10007KT 1 1/2SM R04R/4000VP6000FT -RA BR OVC005 16/16 A3007 RMK AO2 SFC VIS 1 3/4 RAE1452B16 SLP182 P0002 T01610161=
20/05/2023 14:51->METAR KJFK 201451Z 10008KT 10SM -RA BKN007 OVC012 17/16 A3009 RMK AO2 SLP188 P0019 60027 T01670161 58013=
20/05/2023 13:51->METAR KJFK 201351Z 05007KT 2 1/2SM -RA BR OVC006 17/16 A3010 RMK AO2 SFC VIS 3 SLP193 P0007 T01670161=
20/05/2023 12:51->METAR KJFK 201251Z 07007KT 3SM RA BR OVC007 16/16 A3012 RMK AO2 RAB1156E17B28 SLP199 P0001 T01610156=
20/05/2023 11:51->METAR KJFK 201151Z 08008KT 7SM FEW016 BKN024 OVC033 16/14 A3013 RMK AO2 CIG 012 W SLP201 T01610139 10161 20139 57009=
20/05/2023 10:51->METAR KJFK 201051Z 08006KT 10SM FEW008 BKN019 OVC027 15/14 A3014 RMK AO2 SLP205 T01500139=
20/05/2023 09:51->METAR KJFK 200951Z 06006KT 10SM FEW018 BKN025 OVC029 14/14 A3014 RMK AO2 SLP207 T01440139=
20/05/2023 08:51->METAR KJFK 200851Z 06004KT 10SM FEW017 BKN024 OVC038 14/14 A3015 RMK AO2 SLP210 T01390139 58010=
20/05/2023 07:51->METAR KJFK 200751Z 12005KT 6SM BR OVC019 14/13 A3017 RMK AO2 CIG 014 W SLP215 T01390133=
20/05/2023 06:51->METAR KJFK 200651Z 14007KT 10SM BKN024 OVC030 14/13 A3018 RMK AO2 CIG 007 W SLP220 T01440133=
20/05/2023 05:51->METAR KJFK 200551Z 12004KT 10SM FEW020 BKN044 OVC250 14/12 A3020 RMK AO2 SLP228 T01440122 10144 20133 56022=
20/05/2023 04:51->METAR KJFK 200451Z 00000KT 10SM BKN050 OVC250 14/12 A3023 RMK AO2 SLP235 T01390117 401890106=
20/05/2023 03:51->METAR KJFK 200351Z 14008KT 10SM SCT060 BKN250 13/11 A3024 RMK AO2 SLP241 T01330111=
20/05/2023 02:51->METAR KJFK 200251Z 15010KT 10SM FEW100 SCT250 13/10 A3027 RMK AO2 SLP249 T01330100 58001=
20/05/2023 01:51->METAR KJFK 200151Z 15008KT 10SM FEW060 BKN250 13/10 A3028 RMK AO2 SLP252 T01330100=
20/05/2023 00:51->METAR KJFK 200051Z 16009KT 10SM SCT250 14/11 A3028 RMK AO2 SLP252 T01390111=
19/05/2023 23:51->METAR KJFK 192351Z 15009KT 10SM FEW055 SCT250 14/11 A3027 RMK AO2 SLP250 T01390106 10178 20139 58002=
19/05/2023 22:51->METAR KJFK 192251Z 16012KT 10SM FEW055 FEW180 SCT250 15/11 A3029 RMK AO2 SLP256 T01500106=
19/05/2023 21:51->METAR KJFK 192151Z 17017G23KT 10SM FEW027 FEW050 FEW180 SCT250 16/11 A3029 RMK AO2 PK WND 15026/2110 SLP255 T01560106=
19/05/2023 20:51->METAR KJFK 192051Z 15018G24KT 10SM FEW027 FEW050 SCT180 BKN230 17/10 A3028 RMK AO2 PK WND 16027/2005 SLP252 T01720100 58021=
19/05/2023 19:51->METAR KJFK 191951Z 16017G24KT 10SM FEW027 FEW050 SCT180 BKN250 17/10 A3030 RMK AO2 SLP260 T01720100=
19/05/2023 18:51->METAR KJFK 191851Z 17017G24KT 10SM FEW027 FEW050 BKN250 18/11 A3033 RMK AO2 SLP269 T01780111=
19/05/2023 17:51->METAR KJFK 191751Z 17016G22KT 10SM FEW050 BKN250 18/11 A3034 RMK AO2 SLP273 T01780106 10189 20139 58010=
19/05/2023 16:51->METAR KJFK 191651Z 17017G27KT 10SM FEW050 FEW095 BKN250 18/11 A3036 RMK AO2 PK WND 18027/1647 SLP279 T01830111=
19/05/2023 15:51->METAR KJFK 191551Z 18015G23KT 10SM SCT050 BKN250 17/11 A3036 RMK AO2 SLP281 T01720111=
19/05/2023 14:51->METAR KJFK 191451Z 19014KT 10SM FEW034 FEW050 BKN250 17/12 A3037 RMK AO2 SLP284 T01670117 50001=
19/05/2023 13:51->METAR KJFK 191351Z 17009KT 10SM FEW034 FEW045 BKN250 16/12 A3037 RMK AO2 SLP285 T01610117=
19/05/2023 12:51->METAR KJFK 191251Z 15008KT 10SM FEW028 FEW045 BKN250 15/11 A3037 RMK AO2 SLP284 T01500111=
19/05/2023 11:51->METAR KJFK 191151Z 16007KT 10SM FEW044 BKN250 14/10 A3037 RMK AO2 SLP282 T01390100 10139 20106 51008=
19/05/2023 10:51->METAR KJFK 191051Z 14006KT 10SM FEW044 BKN250 12/08 A3036 RMK AO2 SLP281 T01220083=
19/05/2023 09:51->METAR KJFK 190951Z 15006KT 10SM SCT040 BKN250 12/07 A3035 RMK AO2 SLP278 T01170072=
19/05/2023 08:51->METAR KJFK 190851Z 15006KT 10SM BKN250 11/07 A3034 RMK AO2 SLP274 T01110072 56006=
19/05/2023 07:51->METAR KJFK 190751Z 16006KT 10SM SCT250 11/07 A3035 RMK AO2 SLP276 T01060072=
19/05/2023 06:51->METAR KJFK 190651Z 17006KT 10SM FEW024 FEW250 11/07 A3035 RMK AO2 SLP276 T01060072=
19/05/2023 05:51->METAR KJFK 190551Z 17007KT 10SM FEW021 FEW250 11/07 A3036 RMK AO2 SLP280 T01110072 10117 20106 58005=
19/05/2023 04:51->METAR KJFK 190451Z 17006KT 10SM FEW030 FEW250 11/07 A3038 RMK AO2 SLP285 T01060072 401390056=
19/05/2023 03:51->METAR KJFK 190351Z 17007KT 10SM FEW250 11/07 A3037 RMK AO2 SLP285 T01110072=
19/05/2023 02:51->METAR KJFK 190251Z 17008KT 10SM FEW040 FEW250 11/07 A3038 RMK AO2 SLP285 T01110072 51013=
19/05/2023 01:51->METAR KJFK 190151Z 17007KT 10SM FEW250 11/07 A3037 RMK AO2 SLP284 T01110072=
19/05/2023 00:51->METAR KJFK 190051Z 15008KT 10SM FEW250 FEW300 11/07 A3035 RMK AO2 SLP276 FU FEW300 T01110067=
18/05/2023 23:51->METAR KJFK 182351Z 15008KT 10SM FEW250 FEW300 11/06 A3034 RMK AO2 SLP272 FU FEW300 T01110061 10139 20111 55000=
18/05/2023 22:51->METAR KJFK 182251Z 16012KT 10SM FEW250 FEW300 12/05 A3033 RMK AO2 SLP271 FU FEW300 T01170050=
18/05/2023 21:51->METAR KJFK 182151Z 18013KT 10SM FEW250 FEW300 13/04 A3034 RMK AO2 SLP272 FU FEW300 T01280044=
18/05/2023 20:51->METAR KJFK 182051Z 17011KT 10SM FEW300 13/04 A3034 RMK AO2 SLP272 FU FEW300 T01330044 58011=
18/05/2023 19:51->METAR KJFK 181951Z 17014KT 10SM FEW060 FEW300 13/03 A3035 RMK AO2 SLP275 FU FEW300 T01280033=
18/05/2023 18:51->METAR KJFK 181851Z 19012KT 10SM FEW060 FEW300 14/03 A3036 RMK AO2 SLP280 FU FEW300 T01390028=
18/05/2023 17:51->METAR KJFK 181751Z 17012G19KT 10SM FEW060 FEW300 13/01 A3037 RMK AO2 SLP283 FU FEW300 T01330011 10139 20094 51007=
18/05/2023 16:51->METAR KJFK 181651Z 18015KT 10SM FEW060 FEW300 13/M01 A3036 RMK AO2 SLP282 FU FEW300 T01331006=
18/05/2023 15:51->METAR KJFK 181551Z 15010KT 10SM FEW060 SCT300 13/M02 A3036 RMK AO2 SLP280 FU SCT300 T01281022=
18/05/2023 14:51->METAR KJFK 181451Z 17009KT 10SM FEW060 FEW300 13/M01 A3035 RMK AO2 SLP275 FU FEW300 T01281011 51017=
18/05/2023 13:51->METAR KJFK 181351Z VRB04KT 10SM FEW060 FEW300 12/M04 A3033 RMK AO2 SLP271 FU FEW300 T01221044=
18/05/2023 12:51->METAR KJFK 181251Z 06008KT 10SM FEW250 SCT300 11/M04 A3032 RMK AO2 SLP265 FU SCT300 T01111044=
18/05/2023 11:51->METAR KJFK 181151Z 08009KT 10SM SCT300 09/M03 A3030 RMK AO2 SLP258 FU SCT300 T00941033 10094 20056 53026=
18/05/2023 10:51->METAR KJFK 181051Z 07006KT 10SM SCT300 08/M02 A3027 RMK AO2 SLP249 FU SCT300 T00781022=
18/05/2023 09:51->METAR KJFK 180951Z 04006KT 10SM FEW300 06/M02 A3024 RMK AO2 SLP239 FU FEW300 T00611017=
18/05/2023 08:51->METAR KJFK 180851Z 04005KT 10SM FEW300 06/M02 A3022 RMK AO2 SLP232 FU FEW300 T00561022 52021=
18/05/2023 07:51->METAR KJFK 180751Z 04007KT 10SM FEW300 07/M03 A3020 RMK AO2 SLP225 FU FEW300 T00671033=
18/05/2023 06:51->METAR KJFK 180651Z 02009KT 10SM FEW300 08/M04 A3018 RMK AO2 SLP219 FU FEW300 T00781044=
18/05/2023 05:51->METAR KJFK 180551Z 02011KT 10SM FEW300 09/M06 A3016 RMK AO2 SLP211 FU FEW300 T00891061 10144 20089 51026=
18/05/2023 04:51->METAR KJFK 180451Z 02007KT 10SM FEW300 10/M06 A3014 RMK AO2 SLP204 FU FEW300 T01001061 402000100=
18/05/2023 03:51->METAR KJFK 180351Z 01008KT 10SM SCT300 11/M06 A3011 RMK AO2 SLP196 FU SCT300 T01061056=
18/05/2023 02:51->METAR KJFK 180251Z 01012KT 10SM SCT300 12/M07 A3008 RMK AO2 SLP185 FU SCT300 T01171067 51045=
18/05/2023 01:51->METAR KJFK 180151Z 01008KT 10SM FEW250 SCT300 13/M05 A3004 RMK AO2 SLP172 FU SCT300 T01281050=
18/05/2023 00:51->METAR KJFK 180051Z 35012KT 10SM SCT300 14/M06 A3000 RMK AO2 SLP158 FU SCT300 T01391061=
17/05/2023 23:51->METAR KJFK 172351Z 34012KT 10SM SCT300 14/M07 A2995 RMK AO2 SLP140 FU SCT300 T01441067 10189 20144 53029=
17/05/2023 22:51->METAR KJFK 172251Z 34017G23KT 10SM FEW250 SCT300 16/M06 A2991 RMK AO2 SLP129 FU SCT300 T01561061=
17/05/2023 21:51->METAR KJFK 172151Z 33016G21KT 10SM FEW250 17/M06 A2988 RMK AO2 PK WND 33027/2052 SLP119 T01721056=
17/05/2023 20:51->METAR KJFK 172051Z 34019G27KT 10SM FEW250 18/M06 A2986 RMK AO2 PK WND 30028/2004 SLP111 T01781056 53022=
17/05/2023 19:51->METAR KJFK 171951Z 32014G20KT 10SM FEW065 FEW250 19/M04 A2982 RMK AO2 PK WND 33026/1931 SLP098 T01891044=
17/05/2023 18:51->METAR KJFK 171851Z 35013G25KT 10SM FEW065 FEW250 18/M03 A2981 RMK AO2 SLP094 T01831033=
17/05/2023 17:51->METAR KJFK 171751Z 32013G18KT 10SM FEW060 FEW250 18/00 A2979 RMK AO2 SLP088 T01780000 10183 20122 50008=
17/05/2023 16:51->METAR KJFK 171651Z 35013G21KT 10SM FEW060 FEW250 17/M01 A2979 RMK AO2 SLP089 T01671011=
17/05/2023 15:51->METAR KJFK 171551Z 36016G24KT 10SM FEW055 FEW250 17/02 A2979 RMK AO2 SLP087 T01670022=
17/05/2023 14:51->METAR KJFK 171451Z 02018G24KT 10SM FEW050 FEW250 16/02 A2977 RMK AO2 SLP081 T01610022 51030=
17/05/2023 13:51->METAR KJFK 171351Z 35014G26KT 10SM SCT044 SCT250 14/03 A2974 RMK AO2 PK WND 36028/1320 SLP070 T01440028=
17/05/2023 12:51->METAR KJFK 171251Z 35019G26KT 10SM FEW035 FEW047 SCT250 13/04 A2971 RMK AO2 PK WND 36028/1203 SLP062 T01330039=
17/05/2023 11:51->METAR KJFK 171151Z 35018G29KT 10SM FEW045 SCT250 SCT300 13/04 A2968 RMK AO2 PK WND 36029/1143 SLP050 FU SCT300 T01330044 10200 20133 51039=
17/05/2023 10:51->METAR KJFK 171051Z 01019KT 10SM FEW042 FEW100 SCT250 SCT300 14/06 A2964 RMK AO2 SLP038 FU SCT300 T01390056=
17/05/2023 09:51->METAR KJFK 170951Z 35014KT 10SM FEW100 BKN250 16/05 A2961 RMK AO2 PK WND 33029/0922 SLP025 T01610050=
17/05/2023 08:51->METAR KJFK 170851Z 34014KT 10SM SCT100 OVC250 18/04 A2957 RMK AO2 SLP012 T01780044 53009=
17/05/2023 07:51->METAR KJFK 170751Z 33015KT 10SM FEW100 OVC250 19/04 A2955 RMK AO2 SLP007 T01890039=
17/05/2023 06:51->METAR KJFK 170651Z 31012KT 10SM OVC250 20/08 A2954 RMK AO2 SLP004 T02000078=
17/05/2023 05:51->METAR KJFK 170551Z 26010KT 10SM OVC240 19/13 A2954 RMK AO2 SLP002 T01940133 10228 20189 58001=
17/05/2023 04:51->METAR KJFK 170451Z 26011KT 10SM OVC240 20/14 A2954 RMK AO2 SLP004 T02000139 402560133=
17/05/2023 03:51->METAR KJFK 170351Z 24010KT 10SM FEW100 BKN250 19/14 A2954 RMK AO2 SLP002 T01890139=
17/05/2023 02:51->METAR KJFK 170251Z 25011KT 10SM BKN250 19/13 A2954 RMK AO2 SLP003 T01940128 50001=
17/05/2023 01:51->METAR KJFK 170151Z 24012KT 10SM FEW100 BKN240 20/12 A2955 RMK AO2 SLP007 T02000122=
17/05/2023 00:51->METAR KJFK 170051Z 24017KT 10SM FEW100 FEW210 BKN250 22/11 A2954 RMK AO2 SLP003 T02220106=
16/05/2023 23:51->METAR KJFK 162351Z 24012KT 10SM FEW100 SCT210 BKN250 23/09 A2954 RMK AO2 SLP002 T02280094 10256 20217 56015=
16/05/2023 22:51->METAR KJFK 162251Z 24017KT 10SM FEW100 BKN250 23/08 A2955 RMK AO2 SLP005 T02330083=
16/05/2023 21:51->METAR KJFK 162151Z 24016KT 10SM BKN250 24/09 A2956 RMK AO2 WSHFT 2048 SLP009 T02390089=
16/05/2023 20:51->METAR KJFK 162051Z 24012KT 10SM BKN250 24/08 A2958 RMK AO2 SLP017 T02440078 56037=
16/05/2023 19:51->METAR KJFK 161951Z 24014KT 10SM BKN250 25/08 A2961 RMK AO2 SLP027 T02500078=
16/05/2023 18:51->METAR KJFK 161851Z 17010KT 10SM BKN250 22/11 A2965 RMK AO2 SLP041 T02220111=
16/05/2023 17:51->METAR KJFK 161751Z 17011KT 10SM BKN250 22/09 A2969 RMK AO2 WSHFT 1708 SLP054 T02220094 10244 20161 56036=
16/05/2023 16:51->METAR KJFK 161651Z 23012KT 10SM BKN250 24/03 A2973 RMK AO2 SLP066 T02390028=
16/05/2023 15:51->METAR KJFK 161551Z 24013KT 10SM SCT250 23/06 A2976 RMK AO2 SLP078 T02280061=
16/05/2023 14:51->METAR KJFK 161451Z 24012KT 10SM FEW250 22/07 A2980 RMK AO2 SLP090 T02170072 58025=
16/05/2023 13:51->METAR KJFK 161351Z 26010KT 10SM FEW250 21/05 A2983 RMK AO2 SLP100 T02110050=
16/05/2023 12:51->METAR KJFK 161251Z 24011KT 10SM SCT250 18/10 A2985 RMK AO2 SLP109 T01830100=
16/05/2023 11:51->METAR KJFK 161151Z 24012KT 10SM SCT250 16/11 A2987 RMK AO2 SLP115 T01610106 10161 20133 56007=
16/05/2023 10:51->METAR KJFK 161051Z 25010KT 10SM FEW250 SCT300 14/09 A2988 RMK AO2 SLP117 FU SCT300 T01440094=
16/05/2023 09:51->METAR KJFK 160951Z 25010KT 10SM FEW250 SCT300 14/09 A2988 RMK AO2 SLP118 FU SCT300 T01390089=
16/05/2023 08:51->METAR KJFK 160851Z 25009KT 10SM FEW300 14/09 A2989 RMK AO2 SLP122 FU FEW300 T01440089 56017=
16/05/2023 07:51->METAR KJFK 160751Z 25011KT 10SM SCT300 14/09 A2991 RMK AO2 SLP128 FU SCT300 T01440094=
16/05/2023 06:51->METAR KJFK 160651Z 25010KT 10SM SCT300 16/09 A2992 RMK AO2 SLP131 FU SCT300 T01560089=
16/05/2023 05:51->METAR KJFK 160551Z 25009KT 10SM SCT300 16/08 A2994 RMK AO2 SLP139 FU SCT300 T01560083 10200 20156 58018=
16/05/2023 04:51->METAR KJFK 160451Z 24010KT 10SM SCT300 16/08 A2996 RMK AO2 SLP146 FU SCT300 T01610083 402220106=
16/05/2023 03:51->METAR KJFK 160351Z 26012KT 10SM SCT300 17/07 A2998 RMK AO2 SLP151 FU SCT300 T01720067=
16/05/2023 02:51->METAR KJFK 160251Z 25012KT 10SM FEW250 BKN300 17/07 A2999 RMK AO2 SLP157 FU BKN300 T01720072 58004=
16/05/2023 01:51->METAR KJFK 160151Z 24011KT 10SM SCT250 BKN300 18/07 A3001 RMK AO2 SLP161 FU BKN300 T01830067=
16/05/2023 00:51->METAR KJFK 160051Z 24012KT 10SM SCT250 BKN300 20/06 A3001 RMK AO2 SLP161 FU BKN300 T02000056=
15/05/2023 23:51->METAR KJFK 152351Z 24013KT 10SM BKN250 BKN300 19/07 A3001 RMK AO2 SLP161 FU BKN300 T01940067 10217 20183 56017=
15/05/2023 22:51->METAR KJFK 152251Z 24014G21KT 10SM BKN250 BKN300 21/07 A3001 RMK AO2 SLP162 FU BKN300 T02060067=
15/05/2023 21:51->METAR KJFK 152151Z 23013KT 10SM BKN250 BKN300 21/09 A3004 RMK AO2 SLP171 FU BKN300 T02060089=
15/05/2023 20:51->METAR KJFK 152051Z 19013KT 10SM BKN250 BKN300 19/09 A3006 RMK AO2 SLP178 FU BKN300 T01890094 56034=
15/05/2023 19:51->METAR KJFK 151951Z 19013KT 10SM BKN250 BKN300 18/08 A3009 RMK AO2 SLP189 FU BKN300 T01830083=
15/05/2023 18:51->METAR KJFK 151851Z 21015G22KT 10SM SCT250 BKN300 20/06 A3012 RMK AO2 SLP199 FU BKN300 T02000061=
15/05/2023 17:51->METAR KJFK 151751Z 23014G20KT 10SM FEW250 BKN300 22/04 A3016 RMK AO2 SLP211 FU BKN300 T02170039 10222 20156 58034=
15/05/2023 16:51->METAR KJFK 151651Z 25011KT 10SM FEW250 BKN300 20/03 A3019 RMK AO2 SLP223 FU BKN300 T02000033=
15/05/2023 15:51->METAR KJFK 151551Z 23013KT 10SM BKN300 19/04 A3023 RMK AO2 SLP237 FU BKN300 T01890039=
15/05/2023 14:51->METAR KJFK 151451Z 23010KT 10SM FEW250 BKN300 19/03 A3026 RMK AO2 SLP245 FU BKN300 T01890033 58013=
15/05/2023 13:51->METAR KJFK 151351Z 25007KT 10SM FEW250 19/01 A3028 RMK AO2 SLP252 T01890006=
15/05/2023 12:51->METAR KJFK 151251Z 32005KT 10SM FEW250 17/00 A3029 RMK AO2 SLP255 T01720000=
15/05/2023 11:51->METAR KJFK 151151Z 33008KT 10SM FEW250 16/01 A3029 RMK AO2 SLP258 T01560011 10156 20106 53004=
15/05/2023 10:51->METAR KJFK 151051Z 35005KT 10SM FEW250 13/02 A3029 RMK AO2 SLP256 T01330017=
15/05/2023 09:51->METAR KJFK 150951Z 36005KT 10SM FEW250 11/02 A3028 RMK AO2 SLP254 T01060017=
15/05/2023 08:51->METAR KJFK 150851Z 36007KT 10SM FEW250 12/01 A3028 RMK AO2 SLP254 T01170011 51009=
15/05/2023 07:51->METAR KJFK 150751Z 35009KT 10SM FEW250 13/01 A3028 RMK AO2 SLP253 T01280011=
15/05/2023 06:51->METAR KJFK 150651Z 36010KT 10SM SCT250 13/01 A3027 RMK AO2 SLP248 T01330011=
15/05/2023 05:51->METAR KJFK 150551Z 36010KT 10SM SCT250 14/01 A3026 RMK AO2 SLP245 T01440011 10156 20133 53006=
15/05/2023 04:51->METAR KJFK 150451Z 35008KT 10SM BKN250 15/01 A3025 RMK AO2 SLP244 T01500011 402060133=
15/05/2023 03:51->METAR KJFK 150351Z 35008KT 10SM SCT250 15/03 A3024 RMK AO2 SLP239 T01500033=
15/05/2023 02:51->METAR KJFK 150251Z 02004KT 10SM BKN250 16/04 A3024 RMK AO2 SLP239 T01560039 51019=
15/05/2023 01:51->METAR KJFK 150151Z 00000KT 10SM BKN250 13/10 A3023 RMK AO2 SLP237 T01330100=
15/05/2023 00:51->METAR KJFK 150051Z 00000KT 10SM BKN250 15/10 A3021 RMK AO2 SLP228 T01500100=
14/05/2023 23:51->METAR KJFK 142351Z 22003KT 10SM FEW180 BKN250 14/09 A3018 RMK AO2 SLP220 T01440094 10189 20144 53014=
14/05/2023 22:51->METAR KJFK 142251Z 19006KT 10SM FEW200 BKN250 16/10 A3016 RMK AO2 SLP212 T01560100=
14/05/2023 21:51->METAR KJFK 142151Z 20007KT 10SM FEW200 BKN250 17/09 A3015 RMK AO2 SLP210 T01670094=
14/05/2023 20:51->METAR KJFK 142051Z 20010KT 10SM FEW200 BKN250 17/11 A3014 RMK AO2 SLP206 T01720106 55007=
14/05/2023 19:51->METAR KJFK 141951Z 19009KT 10SM FEW200 SCT250 18/10 A3014 RMK AO2 SLP205 T01830100=
14/05/2023 18:51->METAR KJFK 141851Z 18008KT 10SM FEW200 FEW250 18/10 A3015 RMK AO2 SLP208 T01830100=
14/05/2023 17:51->METAR KJFK 141751Z 19010KT 10SM FEW040 FEW200 BKN250 18/10 A3016 RMK AO2 SLP213 T01830100 10206 20161 56012=
14/05/2023 16:51->METAR KJFK 141651Z 19008KT 10SM FEW200 BKN250 17/09 A3017 RMK AO2 SLP216 T01720094=
14/05/2023 15:51->METAR KJFK 141551Z VRB05KT 10SM FEW200 BKN250 18/08 A3018 RMK AO2 SLP220 T01830083=
14/05/2023 14:51->METAR KJFK 141451Z 01006KT 10SM FEW200 BKN250 19/02 A3020 RMK AO2 SLP225 T01890022 58002=
14/05/2023 13:51->METAR KJFK 141351Z 36007KT 10SM FEW200 BKN250 18/03 A3020 RMK AO2 SLP227 T01830028=
14/05/2023 12:51->METAR KJFK 141251Z 03008KT 10SM FEW200 BKN250 18/03 A3021 RMK AO2 SLP229 T01780033=
14/05/2023 11:51->METAR KJFK 141151Z 04008KT 10SM FEW200 BKN250 16/03 A3020 RMK AO2 SLP227 T01610033 10178 20144 51022=
14/05/2023 10:51->METAR KJFK 141051Z 04009KT 10SM FEW200 BKN250 15/03 A3019 RMK AO2 SLP224 T01500028=
14/05/2023 09:51->METAR KJFK 140951Z 01009KT 10SM BKN250 14/02 A3016 RMK AO2 SLP212 T01440022=
14/05/2023 08:51->METAR KJFK 140851Z 02012KT 10SM SCT250 16/02 A3014 RMK AO2 SLP205 T01560017 53015=
14/05/2023 07:51->METAR KJFK 140751Z 02009KT 10SM SCT250 16/01 A3013 RMK AO2 SLP201 T01610011=
14/05/2023 06:51->METAR KJFK 140651Z 01009KT 10SM SCT250 17/01 A3010 RMK AO2 SLP192 T01670006=
14/05/2023 05:51->METAR KJFK 140551Z 01011KT 10SM CLR 18/01 A3009 RMK AO2 SLP190 T01780006 10256 20178 51012=
14/05/2023 04:51->METAR KJFK 140451Z 36012KT 10SM CLR 19/01 A3009 RMK AO2 SLP188 T01940011 402670178=
14/05/2023 03:51->METAR KJFK 140351Z 01009KT 10SM CLR 20/02 A3008 RMK AO2 SLP185 T02000017=
14/05/2023 02:51->METAR KJFK 140251Z 36010KT 10SM CLR 21/03 A3006 RMK AO2 SLP179 T02110033 51027=
14/05/2023 01:51->METAR KJFK 140151Z 35010KT 10SM BKN250 23/03 A3004 RMK AO2 SLP170 T02280033=
14/05/2023 00:51->METAR KJFK 140051Z 36006KT 10SM FEW100 BKN250 24/04 A3000 RMK AO2 SLP160 T02390039=
13/05/2023 23:51->METAR KJFK 132351Z 33011KT 10SM FEW100 BKN250 26/03 A2998 RMK AO2 SLP151 T02560033 10267 20233 53009=
13/05/2023 22:51->METAR KJFK 132251Z 32010KT 10SM FEW100 BKN240 26/07 A2997 RMK AO2 SLP147 T02610067=
13/05/2023 21:51->METAR KJFK 132151Z 25009KT 10SM FEW090 BKN230 24/13 A2996 RMK AO2 SLP144 T02440133=
13/05/2023 20:51->METAR KJFK 132051Z 23012KT 10SM FEW070 SCT095 SCT200 OVC250 24/14 A2995 RMK AO2 SLP142 T02440139 56014=
13/05/2023 19:51->METAR KJFK 131951Z 23012KT 10SM FEW060 SCT200 OVC250 25/14 A2996 RMK AO2 SLP145 T02500144=
13/05/2023 18:51->METAR KJFK 131851Z 23010KT 10SM FEW060 FEW100 SCT200 OVC250 26/14 A2998 RMK AO2 SLP151 T02610144=
13/05/2023 17:51->METAR KJFK 131751Z 23004KT 10SM FEW100 OVC180 26/13 A2999 RMK AO2 SLP156 T02560128 10261 20206 58009=
13/05/2023 16:51->METAR KJFK 131651Z 31006KT 10SM SCT100 OVC170 26/12 A3001 RMK AO2 SLP161 T02610122=
13/05/2023 15:51->METAR KJFK 131551Z 30006KT 10SM SCT100 OVC170 26/12 A3002 RMK AO2 SLP164 T02610122=
13/05/2023 14:51->METAR KJFK 131451Z 03006KT 10SM SCT100 OVC200 25/11 A3002 RMK AO2 SLP165 T02500111 50002=
13/05/2023 13:51->METAR KJFK 131351Z 35006KT 10SM SCT100 OVC220 25/13 A3002 RMK AO2 SLP165 T02500128=
13/05/2023 12:51->METAR KJFK 131251Z 25007KT 10SM BKN110 OVC200 22/15 A3002 RMK AO2 SLP165 T02220150=
13/05/2023 11:51->METAR KJFK 131151Z 26006KT 10SM SCT100 OVC200 21/16 A3001 RMK AO2 SLP163 T02060156 10206 20178 53008=
13/05/2023 10:51->METAR KJFK 131051Z 26006KT 10SM BKN100 19/16 A3001 RMK AO2 SLP161 T01940161=
13/05/2023 09:51->METAR KJFK 130951Z 23008KT 10SM FEW105 BKN150 OVC220 18/16 A2999 RMK AO2 SLP155 T01830156=
13/05/2023 08:51->METAR KJFK 130851Z 22009KT 10SM SCT070 SCT220 18/16 A2999 RMK AO2 SLP155 T01830156 56002=
13/05/2023 07:51->METAR KJFK 130751Z 22009KT 10SM SCT160 BKN220 19/14 A2999 RMK AO2 SLP155 T01890144=
13/05/2023 06:51->METAR KJFK 130651Z 21008KT 10SM FEW160 BKN250 18/14 A2999 RMK AO2 SLP155 T01830144=
13/05/2023 05:51->METAR KJFK 130551Z 23007KT 10SM FEW180 SCT250 19/13 A3000 RMK AO2 SLP158 T01940133 10233 20172 58006=
13/05/2023 04:51->METAR KJFK 130451Z 24006KT 10SM FEW100 SCT230 19/14 A3001 RMK AO2 SLP161 T01940139 402830133=
13/05/2023 03:51->METAR KJFK 130351Z 25013KT 10SM FEW100 BKN240 23/12 A3001 RMK AO2 SLP163 T02330122=
13/05/2023 02:51->METAR KJFK 130251Z 23010KT 10SM FEW060 SCT250 20/12 A3002 RMK AO2 SLP163 T02000122 50006=
13/05/2023 01:51->METAR KJFK 130151Z 20005KT 10SM FEW060 BKN250 18/13 A3002 RMK AO2 SLP165 T01830128=
13/05/2023 00:51->METAR KJFK 130051Z 20005KT 10SM FEW100 BKN250 18/13 A3001 RMK AO2 SLP162 T01830133=
12/05/2023 23:51->METAR KJFK 122351Z 18005KT 10SM FEW070 FEW100 BKN250 18/14 A3000 RMK AO2 SLP158 T01830139 10278 20183 53002=
12/05/2023 22:51->METAR KJFK 122251Z 19009KT 10SM FEW100 BKN250 21/14 A2999 RMK AO2 SLP155 T02060139=
12/05/2023 21:51->METAR KJFK 122151Z 24011KT 10SM FEW100 BKN250 27/12 A2999 RMK AO2 SLP154 T02670122=
12/05/2023 20:51->METAR KJFK 122051Z 19011KT 10SM SCT100 BKN250 23/14 A2999 RMK AO2 SLP156 T02280139 58018=
12/05/2023 19:51->METAR KJFK 121951Z 18011KT 10SM FEW070 SCT100 BKN250 24/14 A3002 RMK AO2 SLP164 T02390144=
12/05/2023 18:51->METAR KJFK 121851Z 19016KT 10SM FEW070 BKN250 25/14 A3003 RMK AO2 SLP170 T02500139=
12/05/2023 17:51->METAR KJFK 121751Z 19010KT 10SM FEW065 BKN250 28/11 A3005 RMK AO2 SLP174 T02780111 10283 20183 58016=
12/05/2023 16:51->METAR KJFK 121651Z 21010KT 10SM FEW065 BKN250 28/11 A3007 RMK AO2 SLP181 T02780106=
12/05/2023 15:51->METAR KJFK 121551Z 24011KT 10SM FEW060 BKN250 27/13 A3009 RMK AO2 SLP188 T02720128=
12/05/2023 14:51->METAR KJFK 121451Z 23010KT 10SM BKN250 25/13 A3009 RMK AO2 SLP190 T02500133 53001=
12/05/2023 13:51->METAR KJFK 121351Z 22008KT 10SM BKN250 23/14 A3009 RMK AO2 SLP188 T02280139=
12/05/2023 12:51->METAR KJFK 121251Z 23003KT 10SM FEW100 BKN250 22/13 A3009 RMK AO2 SLP189 T02170128=
12/05/2023 11:51->METAR KJFK 121151Z 24004KT 10SM FEW100 BKN250 18/13 A3009 RMK AO2 SLP190 T01830128 10183 20133 51011=
12/05/2023 10:51->METAR KJFK 121051Z 25005KT 10SM BKN100 BKN250 16/13 A3009 RMK AO2 SLP189 T01610128=
12/05/2023 09:51->METAR KJFK 120951Z 25004KT 10SM BKN100 BKN250 14/12 A3008 RMK AO2 SLP184 T01440117=
12/05/2023 08:51->METAR KJFK 120851Z 22003KT 10SM FEW250 14/12 A3006 RMK AO2 SLP179 T01440122 56002=
12/05/2023 07:51->METAR KJFK 120751Z 22006KT 10SM FEW250 14/12 A3006 RMK AO2 SLP180 T01390117=
12/05/2023 06:51->METAR KJFK 120651Z 24006KT 10SM FEW250 15/12 A3006 RMK AO2 SLP179 T01500117=
12/05/2023 05:51->METAR KJFK 120551Z 25009KT 10SM FEW250 16/12 A3007 RMK AO2 SLP181 T01560117 10189 20156 50000=
12/05/2023 04:51->METAR KJFK 120451Z 25008KT 10SM FEW250 17/11 A3007 RMK AO2 SLP183 T01670106 402390106=
12/05/2023 03:51->METAR KJFK 120351Z 23009KT 10SM FEW250 17/10 A3007 RMK AO2 SLP182 T01720100=
12/05/2023 02:51->METAR KJFK 120251Z 24010KT 10SM FEW250 18/10 A3007 RMK AO2 SLP181 T01830100 51011=
12/05/2023 01:51->METAR KJFK 120151Z 18005KT 10SM FEW070 FEW250 16/12 A3006 RMK AO2 SLP179 T01610117=
12/05/2023 00:51->METAR KJFK 120051Z 19005KT 10SM FEW070 FEW250 17/11 A3005 RMK AO2 SLP174 T01720111=
11/05/2023 23:51->METAR KJFK 112351Z 20007KT 10SM FEW070 FEW250 19/12 A3003 RMK AO2 SLP170 T01890117 10239 20183 56004=
11/05/2023 22:51->METAR KJFK 112251Z 19009KT 10SM FEW070 FEW250 20/11 A3004 RMK AO2 SLP171 T02000111=
11/05/2023 21:51->METAR KJFK 112151Z 18011KT 10SM FEW070 FEW250 21/11 A3004 RMK AO2 SLP171 T02110111=
11/05/2023 20:51->METAR KJFK 112051Z 20012KT 10SM FEW065 SCT250 SCT300 21/12 A3005 RMK AO2 SLP174 FU SCT300 T02110117 58017=
11/05/2023 19:51->METAR KJFK 111951Z 20014KT 10SM SCT250 BKN300 22/11 A3006 RMK AO2 SLP179 FU BKN300 T02220106=
11/05/2023 18:51->METAR KJFK 111851Z 20014KT 10SM FEW250 BKN300 22/09 A3009 RMK AO2 SLP188 FU BKN300 T02170094=
11/05/2023 17:51->METAR KJFK 111751Z 21012KT 10SM SCT250 BKN300 23/07 A3010 RMK AO2 SLP191 FU BKN300 T02330072 10233 20172 56018=
11/05/2023 16:51->METAR KJFK 111651Z 21012KT 10SM SCT250 BKN300 22/07 A3011 RMK AO2 SLP197 FU BKN300 T02220072=
11/05/2023 15:51->METAR KJFK 111551Z 22010KT 10SM SCT250 SCT300 23/07 A3012 RMK AO2 SLP200 FU SCT300 T02280072=
11/05/2023 14:51->METAR KJFK 111451Z VRB06KT 10SM FEW250 SCT300 22/06 A3015 RMK AO2 SLP209 FU SCT300 T02220061 58001=
11/05/2023 13:51->METAR KJFK 111351Z 25009KT 10SM FEW250 SCT300 20/07 A3016 RMK AO2 SLP212 FU SCT300 T02000067=
11/05/2023 12:51->METAR KJFK 111251Z 24006KT 10SM FEW250 SCT300 18/08 A3016 RMK AO2 SLP211 FU SCT300 T01830083=
11/05/2023 11:51->METAR KJFK 111151Z 30006KT 10SM FEW250 BKN300 17/07 A3015 RMK AO2 SLP210 FU BKN300 T01720067 10172 20106 51016=
11/05/2023 10:51->METAR KJFK 111051Z 27008KT 10SM BKN300 13/08 A3014 RMK AO2 SLP207 FU BKN300 T01330078=
11/05/2023 09:51->METAR KJFK 110951Z 25007KT 10SM BKN300 11/07 A3012 RMK AO2 SLP200 FU BKN300 T01110067=
11/05/2023 08:51->METAR KJFK 110851Z 25003KT 10SM BKN300 12/08 A3010 RMK AO2 SLP194 FU BKN300 T01220078 58001=
11/05/2023 07:51->METAR KJFK 110751Z 21008KT 10SM BKN300 11/08 A3010 RMK AO2 SLP194 FU BKN300 T01110083=
11/05/2023 06:51->METAR KJFK 110651Z 25007KT 10SM BKN300 13/08 A3011 RMK AO2 SLP195 FU BKN300 T01280078=
11/05/2023 05:51->METAR KJFK 110551Z 25008KT 10SM BKN300 13/09 A3011 RMK AO2 SLP194 FU BKN300 T01280089 10139 20117 55000=
11/05/2023 04:51->METAR KJFK 110451Z 22007KT 10SM BKN300 13/09 A3011 RMK AO2 SLP194 FU BKN300 T01280094 401890067=
11/05/2023 03:51->METAR KJFK 110351Z 22005KT 10SM BKN300 13/10 A3010 RMK AO2 SLP193 FU BKN300 T01280100=
11/05/2023 02:51->METAR KJFK 110251Z 21005KT 10SM FEW250 BKN300 12/11 A3011 RMK AO2 SLP195 FU BKN300 T01220111 51007=
11/05/2023 01:51->METAR KJFK 110151Z 20007KT 10SM FEW250 BKN300 13/11 A3011 RMK AO2 SLP195 FU BKN300 T01280111=
11/05/2023 00:51->METAR KJFK 110051Z 21004KT 10SM BKN300 13/11 A3010 RMK AO2 SLP192 FU BKN300 T01330106=
10/05/2023 23:51->METAR KJFK 102351Z 19015KT 10SM BKN300 14/09 A3009 RMK AO2 SLP188 FU BKN300 T01390094 10189 20139 56005=
10/05/2023 22:51->METAR KJFK 102251Z 19017KT 10SM BKN300 15/08 A3009 RMK AO2 SLP188 FU BKN300 T01500078=
10/05/2023 21:51->METAR KJFK 102151Z 19017KT 10SM SCT300 16/07 A3009 RMK AO2 SLP190 FU SCT300 T01610072=
10/05/2023 20:51->METAR KJFK 102051Z 20020KT 10SM SCT300 17/08 A3010 RMK AO2 SLP193 FU SCT300 T01720083 56016=
10/05/2023 19:51->METAR KJFK 101951Z 19015KT 10SM BKN300 17/11 A3011 RMK AO2 SLP194 FU BKN300 T01720106=
10/05/2023 18:51->METAR KJFK 101851Z 18010KT 10SM BKN300 19/09 A3012 RMK AO2 SLP201 FU BKN300 T01890089=
10/05/2023 17:51->METAR KJFK 101751Z 19011KT 10SM FEW055 SCT300 17/08 A3015 RMK AO2 SLP208 FU SCT300 T01720083 10178 20122 56017=
10/05/2023 16:51->METAR KJFK 101651Z 21011KT 10SM FEW050 BKN300 17/08 A3016 RMK AO2 SLP214 FU BKN300 T01720083=
10/05/2023 15:51->METAR KJFK 101551Z 20009KT 10SM FEW050 BKN300 16/08 A3018 RMK AO2 SLP218 FU BKN300 T01560083=
10/05/2023 14:51->METAR KJFK 101451Z 20007KT 10SM FEW047 BKN300 16/09 A3020 RMK AO2 SLP225 FU BKN300 T01560089 50001=
10/05/2023 13:51->METAR KJFK 101351Z 20004KT 10SM BKN300 14/08 A3020 RMK AO2 SLP227 FU BKN300 T01440083=
10/05/2023 12:51->METAR KJFK 101251Z 21004KT 10SM BKN300 14/08 A3020 RMK AO2 SLP225 FU BKN300 T01390083=
10/05/2023 11:51->METAR KJFK 101151Z VRB03KT 10SM FEW250 BKN300 13/09 A3019 RMK AO2 SLP223 FU BKN300 T01280094 10128 20067 52017=
10/05/2023 10:51->METAR KJFK 101051Z 14003KT 10SM FEW250 SCT300 09/07 A3018 RMK AO2 SLP218 FU SCT300 FU PLUME N T00940072=
10/05/2023 09:51->METAR KJFK 100951Z 06003KT 10SM FEW250 07/05 A3016 RMK AO2 SLP212 T00670050=
10/05/2023 08:51->METAR KJFK 100851Z 12003KT 10SM SCT250 08/06 A3014 RMK AO2 SLP206 T00780056 52006=
10/05/2023 07:51->METAR KJFK 100751Z 00000KT 10SM SCT250 09/06 A3014 RMK AO2 SLP205 T00890056=
10/05/2023 06:51->METAR KJFK 100651Z 00000KT 10SM FEW250 09/06 A3013 RMK AO2 SLP202 T00890056=
10/05/2023 05:51->METAR KJFK 100551Z 21004KT 10SM SCT250 11/06 A3012 RMK AO2 SLP200 T01060061 10122 20100 51010=
10/05/2023 04:51->METAR KJFK 100451Z 17004KT 10SM FEW090 BKN250 11/06 A3012 RMK AO2 SLP200 T01060061 401720100=
10/05/2023 03:51->METAR KJFK 100351Z 14004KT 10SM FEW130 BKN250 11/07 A3012 RMK AO2 SLP198 T01060067=
10/05/2023 02:51->METAR KJFK 100251Z 14004KT 10SM BKN250 11/06 A3009 RMK AO2 SLP189 T01110061 51030=
10/05/2023 01:51->METAR KJFK 100151Z 14005KT 10SM SCT250 11/06 A3007 RMK AO2 SLP183 T01110056=
10/05/2023 00:51->METAR KJFK 100051Z 13005KT 10SM SCT250 SCT300 12/06 A3005 RMK AO2 SLP174 FU SCT300 T01170061=
09/05/2023 23:51->METAR KJFK 092351Z 15006KT 10SM FEW050 BKN250 BKN300 12/06 A3000 RMK AO2 SLP159 FU BKN300 T01220056 10172 20122 53010=
09/05/2023 22:51->METAR KJFK 092251Z 16007KT 10SM FEW050 BKN250 BKN300 14/04 A2999 RMK AO2 SLP155 FU BKN300 T01390039=
09/05/2023 21:51->METAR KJFK 092151Z 14010KT 10SM FEW050 FEW190 BKN250 BKN300 15/03 A2998 RMK AO2 SLP151 FU BKN300 T01500028=
09/05/2023 20:51->METAR KJFK 092051Z 16011KT 10SM FEW050 FEW070 SCT190 BKN250 16/02 A2997 RMK AO2 SLP149 T01560022 55003=
09/05/2023 19:51->METAR KJFK 091951Z 15010KT 10SM FEW050 FEW070 SCT180 BKN250 16/03 A2997 RMK AO2 SLP148 T01610028=
09/05/2023 18:51->METAR KJFK 091851Z 15011KT 10SM FEW050 FEW070 SCT160 BKN250 17/02 A2998 RMK AO2 SLP151 T01670022=
09/05/2023 17:51->METAR KJFK 091751Z 14008KT 10SM FEW050 SCT160 BKN250 17/02 A2998 RMK AO2 SLP152 T01670022 10172 20139 56001=
09/05/2023 16:51->METAR KJFK 091651Z 15009KT 10SM BKN160 BKN250 16/02 A2998 RMK AO2 SLP153 T01610022=
09/05/2023 15:51->METAR KJFK 091551Z 15007KT 10SM FEW130 BKN250 17/03 A2998 RMK AO2 SLP152 T01670028=
09/05/2023 14:51->METAR KJFK 091451Z 13004KT 10SM BKN130 BKN250 16/01 A2998 RMK AO2 SLP153 T01610011 51014=
09/05/2023 13:51->METAR KJFK 091351Z 09006KT 10SM BKN150 BKN250 16/02 A2997 RMK AO2 SLP149 T01560017=
09/05/2023 12:51->METAR KJFK 091251Z 06008KT 10SM BKN150 BKN250 15/03 A2996 RMK AO2 SLP145 T01500028=
09/05/2023 11:51->METAR KJFK 091151Z 04008KT 10SM BKN140 BKN250 14/04 A2994 RMK AO2 SLP140 T01440039 10161 20117 51015=
09/05/2023 10:51->METAR KJFK 091051Z 04007KT 10SM BKN150 BKN250 13/04 A2994 RMK AO2 SLP139 T01280039=
09/05/2023 09:51->METAR KJFK 090951Z 04006KT 10SM BKN160 BKN250 12/03 A2992 RMK AO2 SLP131 T01220033=
09/05/2023 08:51->METAR KJFK 090851Z 02007KT 10SM FEW200 BKN250 13/02 A2990 RMK AO2 SLP124 T01280017 53007=
09/05/2023 07:51->METAR KJFK 090751Z 01007KT 10SM FEW200 BKN250 13/01 A2989 RMK AO2 SLP122 T01330011=
09/05/2023 06:51->METAR KJFK 090651Z 04013G18KT 10SM FEW200 SCT250 14/01 A2988 RMK AO2 SLP119 T01440006=
09/05/2023 05:51->METAR KJFK 090551Z 02011KT 10SM SCT250 16/M01 A2988 RMK AO2 SLP117 T01611011 10217 20156 50005=
09/05/2023 04:51->METAR KJFK 090451Z 01007KT 10SM BKN250 17/04 A2989 RMK AO2 SLP121 T01670039 402560139=
09/05/2023 03:51->METAR KJFK 090351Z 01007KT 10SM BKN240 18/04 A2988 RMK AO2 SLP117 T01830039=
09/05/2023 02:51->METAR KJFK 090251Z 35008KT 10SM BKN250 19/04 A2986 RMK AO2 SLP112 T01940039 51028=
09/05/2023 01:51->METAR KJFK 090151Z 34010KT 10SM BKN250 21/04 A2984 RMK AO2 SLP106 T02060044=
09/05/2023 00:51->METAR KJFK 090051Z 34009KT 10SM BKN250 19/07 A2980 RMK AO2 SLP091 T01940072=
08/05/2023 23:51->METAR KJFK 082351Z 15006KT 10SM FEW075 BKN250 17/12 A2978 RMK AO2 SLP084 T01670117 10256 20161 53010=
08/05/2023 22:51->METAR KJFK 082251Z 18010KT 10SM FEW075 BKN250 19/12 A2976 RMK AO2 SLP077 T01890117=
08/05/2023 21:51->METAR KJFK 082151Z VRB03KT 10SM FEW075 BKN250 21/11 A2975 RMK AO2 SLP075 T02110111=
08/05/2023 20:51->METAR KJFK 082051Z 29012G20KT 10SM FEW075 BKN250 25/08 A2975 RMK AO2 SLP074 T02500078 56009=
08/05/2023 19:51->METAR KJFK 081951Z 28010KT 10SM FEW075 BKN250 24/08 A2975 RMK AO2 SLP074 T02440078=
08/05/2023 18:51->METAR KJFK 081851Z 28013G21KT 10SM SCT070 BKN250 24/09 A2976 RMK AO2 SLP078 T02440094=
08/05/2023 17:51->METAR KJFK 081751Z 34007KT 10SM FEW060 BKN250 24/09 A2978 RMK AO2 SLP083 T02390089 10239 20172 58005=
08/05/2023 16:51->METAR KJFK 081651Z 10SM FEW055 SCT250 23/09 A2979 RMK AO2 SLP087 T02280089=
08/05/2023 15:51->METAR KJFK 081551Z 01010KT 10SM FEW050 SCT250 22/09 A2980 RMK AO2 SLP090 T02170089=
08/05/2023 14:51->METAR KJFK 081451Z 32011KT 10SM FEW047 FEW250 21/09 A2979 RMK AO2 SLP088 T02060094 50003=
08/05/2023 13:51->METAR KJFK 081351Z 33013KT 10SM FEW047 SCT100 BKN250 19/11 A2979 RMK AO2 SLP088 T01890106=
08/05/2023 12:51->METAR KJFK 081251Z 33012KT 10SM FEW043 FEW100 BKN250 18/11 A2980 RMK AO2 SLP090 T01830111=
08/05/2023 11:51->METAR KJFK 081151Z 35008KT 10SM FEW040 FEW100 SCT250 17/11 A2978 RMK AO2 SLP085 60000 T01720106 10172 20139 53007=
08/05/2023 10:51->METAR KJFK 081051Z 34008KT 10SM FEW037 SCT100 SCT250 15/11 A2977 RMK AO2 SLP081 T01500106=
08/05/2023 09:51->METAR KJFK 080951Z 34006KT 10SM FEW037 FEW100 BKN250 14/11 A2977 RMK AO2 SLP079 T01440106=
08/05/2023 08:51->METAR KJFK 080851Z 33007KT 10SM FEW037 SCT065 OVC100 14/12 A2976 RMK AO2 RAB14E47 CIG 046 W SLP078 P0000 60000 T01440117 56000=
08/05/2023 07:51->METAR KJFK 080751Z 34007KT 10SM BKN050 16/12 A2977 RMK AO2 SLP080 T01560117=
08/05/2023 06:51->METAR KJFK 080651Z 02007KT 10SM BKN055 BKN095 15/12 A2975 RMK AO2 SLP072 T01500117=
08/05/2023 05:51->METAR KJFK 080551Z 36008KT 10SM BKN060 OVC075 17/12 A2976 RMK AO2 RAE0453 SLP078 P0000 60000 T01670122 10206 20156 56009=
08/05/2023 04:51->METAR KJFK 080451Z 01006KT 10SM -RA OVC065 18/14 A2978 RMK AO2 RAB37 SLP083 P0000 T01780139 402280117=
08/05/2023 03:51->METAR KJFK 080351Z 20005KT 10SM BKN060 OVC110 18/13 A2977 RMK AO2 RAE43 SLP080 P0000 T01780128=
08/05/2023 02:51->METAR KJFK 080251Z 29008KT 10SM -RA OVC090 20/12 A2979 RMK AO2 RAE15B46 SLP087 P0000 60000 T02000122 56013=
08/05/2023 01:51->METAR KJFK 080151Z 27013KT 10SM -RA OVC080 21/12 A2981 RMK AO2 RAB26 SLP093 P0000 T02060117=
08/05/2023 00:51->METAR KJFK 080051Z 24012KT 10SM BKN110 BKN150 BKN250 18/12 A2981 RMK AO2 SLP093 T01780122=
07/05/2023 23:51->METAR KJFK 072351Z 20010KT 10SM BKN110 BKN150 BKN250 16/12 A2983 RMK AO2 SLP100 T01610122 10228 20161 56017=
07/05/2023 22:51->METAR KJFK 072251Z 19011KT 10SM FEW090 BKN150 BKN250 17/12 A2984 RMK AO2 SLP104 T01670122=
07/05/2023 21:51->METAR KJFK 072151Z 18013KT 10SM FEW090 BKN200 OVC250 17/12 A2986 RMK AO2 SLP111 T01720122=
07/05/2023 20:51->METAR KJFK 072051Z 18014KT 10SM FEW090 BKN250 18/12 A2988 RMK AO2 SLP117 T01780122 58030=
07/05/2023 19:51->METAR KJFK 071951Z 17017KT 10SM FEW100 BKN250 19/11 A2991 RMK AO2 SLP128 T01940106=
07/05/2023 18:51->METAR KJFK 071851Z 17014KT 10SM FEW150 BKN250 20/07 A2994 RMK AO2 WSHFT 1810 SLP140 T02000067=
07/05/2023 17:51->METAR KJFK 071751Z 24012KT 10SM FEW150 BKN250 22/07 A2997 RMK AO2 SLP147 T02220067 10228 20156 58028=
07/05/2023 16:51->METAR KJFK 071651Z 20012KT 10SM FEW150 BKN250 21/07 A3000 RMK AO2 SLP157 T02110067=
07/05/2023 15:51->METAR KJFK 071551Z 22009KT 10SM FEW150 BKN250 21/06 A3003 RMK AO2 SLP167 T02060061=
07/05/2023 14:51->METAR KJFK 071451Z 23008KT 10SM FEW150 SCT250 21/06 A3005 RMK AO2 SLP176 T02060061 56013=
07/05/2023 13:51->METAR KJFK 071351Z 33004KT 10SM FEW250 19/06 A3006 RMK AO2 SLP180 T01940056=
07/05/2023 12:51->METAR KJFK 071251Z 34005KT 10SM FEW130 FEW250 18/06 A3007 RMK AO2 SLP184 T01830056=
07/05/2023 11:51->METAR KJFK 071151Z 24004KT 10SM FEW130 SCT250 16/07 A3009 RMK AO2 SLP189 T01560072 10156 20117 58004=
07/05/2023 10:51->METAR KJFK 071051Z 26006KT 10SM FEW130 SCT250 14/07 A3010 RMK AO2 SLP193 T01390067=
07/05/2023 09:51->METAR KJFK 070951Z 32006KT 10SM FEW250 12/04 A3010 RMK AO2 SLP191 T01220039=
07/05/2023 08:51->METAR KJFK 070851Z 31006KT 10SM FEW250 13/04 A3010 RMK AO2 SLP193 T01280044 56003=
07/05/2023 07:51->METAR KJFK 070751Z 30007KT 10SM FEW250 13/05 A3011 RMK AO2 SLP195 T01280050=
07/05/2023 06:51->METAR KJFK 070651Z VRB03KT 10SM FEW250 12/05 A3010 RMK AO2 SLP193 T01170050=
07/05/2023 05:51->METAR KJFK 070551Z 32006KT 10SM FEW250 14/06 A3011 RMK AO2 SLP196 T01440056 10150 20117 58009=
07/05/2023 04:51->METAR KJFK 070451Z 32006KT 10SM FEW095 FEW250 14/08 A3012 RMK AO2 SLP199 T01440083 402220089=
07/05/2023 03:51->METAR KJFK 070351Z 00000KT 10SM SCT090 14/11 A3013 RMK AO2 SLP203 T01390111=
07/05/2023 02:51->METAR KJFK 070251Z 21005KT 10SM BKN090 12/11 A3014 RMK AO2 SLP205 T01220111 50001=
07/05/2023 01:51->METAR KJFK 070151Z 20006KT 10SM SCT090 12/11 A3014 RMK AO2 SLP206 T01220111=
07/05/2023 00:51->METAR KJFK 070051Z 20007KT 10SM SCT090 14/11 A3014 RMK AO2 SLP206 T01390106=
06/05/2023 23:51->METAR KJFK 062351Z 20012KT 10SM FEW085 14/09 A3014 RMK AO2 SLP204 T01440094 10222 20144 55003=
06/05/2023 22:51->METAR KJFK 062251Z 19011KT 10SM SCT085 16/09 A3013 RMK AO2 SLP204 T01560089=
06/05/2023 21:51->METAR KJFK 062151Z 19012KT 10SM SCT080 17/09 A3014 RMK AO2 SLP205 T01670089=
06/05/2023 20:51->METAR KJFK 062051Z 19011KT 10SM BKN080 18/11 A3014 RMK AO2 SLP207 T01780106 56017=
06/05/2023 19:51->METAR KJFK 061951Z 19008KT 10SM SCT075 21/07 A3015 RMK AO2 SLP208 T02060067=
06/05/2023 18:51->METAR KJFK 061851Z 34008KT 10SM SCT070 22/06 A3017 RMK AO2 SLP216 T02220061=
06/05/2023 17:51->METAR KJFK 061751Z 31010G15KT 280V340 10SM SCT065 21/06 A3019 RMK AO2 SLP223 T02060061 10211 20139 58021=
06/05/2023 16:51->METAR KJFK 061651Z VRB04KT 10SM FEW060 19/06 A3021 RMK AO2 SLP230 T01940061=
06/05/2023 15:51->METAR KJFK 061551Z 32013KT 10SM FEW060 19/06 A3024 RMK AO2 SLP239 T01940061=
06/05/2023 14:51->METAR KJFK 061451Z 34008KT 10SM CLR 18/07 A3025 RMK AO2 SLP245 T01830067 58006=
06/05/2023 13:51->METAR KJFK 061351Z 35010KT 10SM CLR 17/07 A3027 RMK AO2 SLP248 T01720072=
06/05/2023 12:51->METAR KJFK 061251Z 32008KT 10SM CLR 16/07 A3027 RMK AO2 SLP250 T01560072=
06/05/2023 11:51->METAR KJFK 061151Z 32005KT 10SM CLR 14/08 A3027 RMK AO2 SLP251 T01390078 10139 20089 53006=
06/05/2023 10:51->METAR KJFK 061051Z 28005KT 10SM CLR 11/08 A3027 RMK AO2 SLP249 T01110083=
06/05/2023 09:51->METAR KJFK 060951Z 29005KT 10SM CLR 09/08 A3025 RMK AO2 SLP244 T00940078=
06/05/2023 08:51->METAR KJFK 060851Z 00000KT 10SM CLR 09/08 A3025 RMK AO2 SLP244 T00940078 53002=
06/05/2023 07:51->METAR KJFK 060751Z 27006KT 10SM CLR 10/08 A3025 RMK AO2 SLP242 T01000083=
06/05/2023 06:51->METAR KJFK 060651Z 25005KT 10SM FEW060 FEW080 10/08 A3025 RMK AO2 SLP241 T01000083=
06/05/2023 05:51->METAR KJFK 060551Z 26005KT 10SM FEW060 BKN080 11/09 A3025 RMK AO2 SLP242 T01110089 10111 20100 50001=
06/05/2023 04:51->METAR KJFK 060451Z 25007KT 10SM FEW050 FEW075 BKN150 11/09 A3026 RMK AO2 SLP246 T01110089 401610067=
06/05/2023 03:51->METAR KJFK 060351Z 23007KT 10SM FEW060 FEW110 11/09 A3025 RMK AO2 SLP244 T01060089=
06/05/2023 02:51->METAR KJFK 060251Z 19006KT 10SM FEW060 FEW075 10/08 A3025 RMK AO2 SLP242 T01000083 51004=
06/05/2023 01:51->METAR KJFK 060151Z 20006KT 10SM FEW050 SCT080 11/08 A3024 RMK AO2 SLP241 T01060083=
06/05/2023 00:51->METAR KJFK 060051Z 17004KT 10SM FEW055 SCT070 BKN120 BKN250 11/08 A3024 RMK AO2 SLP241 T01060078=
05/05/2023 23:51->METAR KJFK 052351Z 18006KT 10SM FEW050 SCT090 BKN110 BKN250 11/08 A3024 RMK AO2 SLP238 T01110078 10144 20111 51010=
05/05/2023 22:51->METAR KJFK 052251Z 19011KT 10SM FEW050 SCT090 SCT110 BKN250 12/07 A3022 RMK AO2 SLP233 T01170067=
05/05/2023 21:51->METAR KJFK 052151Z 18011KT 10SM FEW050 SCT090 SCT250 13/07 A3022 RMK AO2 SLP232 T01280072=
05/05/2023 20:51->METAR KJFK 052051Z 17008KT 10SM FEW050 SCT090 SCT250 14/07 A3020 RMK AO2 SLP227 T01390072 55003=
05/05/2023 19:51->METAR KJFK 051951Z 14006KT 10SM FEW050 BKN090 BKN250 13/07 A3020 RMK AO2 SLP226 T01330067=
05/05/2023 18:51->METAR KJFK 051851Z 18009KT 10SM SCT050 BKN080 BKN250 13/07 A3021 RMK AO2 SLP230 T01330072=
05/05/2023 17:51->METAR KJFK 051751Z 18009KT 10SM SCT050 BKN070 BKN250 14/08 A3021 RMK AO2 SLP231 T01390078 10161 20106 58002=
05/05/2023 16:51->METAR KJFK 051651Z 21011KT 10SM BKN050 BKN070 BKN250 14/08 A3022 RMK AO2 SLP233 T01390083=
05/05/2023 15:51->METAR KJFK 051551Z 20006KT 10SM FEW045 SCT070 SCT250 15/07 A3022 RMK AO2 SLP233 T01500067=
05/05/2023 14:51->METAR KJFK 051451Z VRB04KT 10SM SCT040 SCT065 SCT250 16/06 A3022 RMK AO2 SLP233 T01560056 51015=
05/05/2023 13:51->METAR KJFK 051351Z VRB06KT 10SM SCT034 BKN065 BKN250 14/06 A3021 RMK AO2 SLP229 T01440061=
05/05/2023 12:51->METAR KJFK 051251Z VRB06KT 10SM FEW028 SCT070 SCT250 13/07 A3020 RMK AO2 SLP226 T01280072=
05/05/2023 11:51->METAR KJFK 051151Z 04007KT 10SM FEW023 FEW070 FEW250 11/08 A3018 RMK AO2 SLP218 70002 T01060078 10106 20067 51022=
05/05/2023 10:51->METAR KJFK 051051Z 06003KT 9SM FEW016 FEW075 FEW250 09/08 A3016 RMK AO2 SLP212 T00890083=
05/05/2023 09:51->METAR KJFK 050951Z 04005KT 9SM FEW016 FEW075 SCT110 07/07 A3013 RMK AO2 SLP202 T00720067=
05/05/2023 08:51->METAR KJFK 050851Z 00000KT 10SM CLR 07/07 A3011 RMK AO2 SLP196 T00720067 53007=
05/05/2023 07:51->METAR KJFK 050751Z 00000KT 10SM FEW017 SCT110 07/07 A3010 RMK AO2 SLP193 T00720067=
05/05/2023 06:51->METAR KJFK 050651Z 00000KT 10SM FEW015 BKN110 09/08 A3009 RMK AO2 SLP190 T00890078=
05/05/2023 05:51->METAR KJFK 050551Z 03003KT 10SM FEW015 BKN100 09/08 A3009 RMK AO2 SLP189 T00940078 10111 20094 53010=
05/05/2023 04:51->METAR KJFK 050451Z 33004KT 10SM FEW020 BKN110 10/08 A3008 RMK AO2 SLP184 T01000078 401330083=
05/05/2023 03:51->METAR KJFK 050351Z 29005KT 10SM FEW025 BKN090 11/08 A3007 RMK AO2 SLP181 T01060078=
05/05/2023 02:51->METAR KJFK 050251Z 26007KT 10SM FEW030 BKN070 OVC085 11/08 A3006 RMK AO2 SLP178 T01060078 51016=
05/05/2023 01:51->METAR KJFK 050151Z 25009KT 10SM BKN060 OVC085 11/08 A3005 RMK AO2 SLP175 T01060078=
05/05/2023 00:51->METAR KJFK 050051Z 22009KT 10SM FEW040 BKN060 OVC085 11/08 A3003 RMK AO2 SLP168 T01060078=
04/05/2023 23:51->METAR KJFK 042351Z 21008KT 10SM FEW040 BKN065 BKN080 BKN250 10/07 A3001 RMK AO2 SLP163 60000 T01000072 10133 20100 53017=
04/05/2023 22:51->METAR KJFK 042251Z 19010KT 10SM FEW040 BKN075 BKN250 11/07 A2999 RMK AO2 SLP155 T01060072=
04/05/2023 21:51->METAR KJFK 042151Z 18011KT 10SM FEW044 SCT060 BKN075 BKN250 11/08 A2998 RMK AO2 SLP151 T01110078=
04/05/2023 20:51->METAR KJFK 042051Z 18009KT 10SM BKN044 OVC060 11/07 A2996 RMK AO2 RAB14E30 SLP145 P0000 60000 T01060072 53016=
04/05/2023 19:51->METAR KJFK 041951Z 17010KT 10SM BKN036 BKN048 BKN065 OVC250 11/07 A2994 RMK AO2 SLP138 VCSH W-NW T01060067=
04/05/2023 18:51->METAR KJFK 041851Z 06006KT 10SM FEW025 SCT033 BKN049 BKN250 13/05 A2993 RMK AO2 SLP133 T01280050=
04/05/2023 17:51->METAR KJFK 041751Z 05004KT 10SM FEW027 BKN033 BKN049 BKN250 12/06 A2991 RMK AO2 SLP129 60002 T01220056 10133 20089 51015=
04/05/2023 16:51->METAR KJFK 041651Z 02008KT 10SM FEW019 BKN028 BKN047 BKN250 13/07 A2990 RMK AO2 SLP124 T01280067=
04/05/2023 15:51->METAR KJFK 041551Z 03010KT 10SM FEW013 BKN028 OVC044 11/07 A2989 RMK AO2 SLP121 T01110072=
04/05/2023 14:51->METAR KJFK 041451Z 04009G18KT 10SM FEW011 BKN021 OVC035 09/08 A2987 RMK AO2 RAE12B38E49 SLP114 P0000 60002 T00940078 51017=
04/05/2023 13:51->METAR KJFK 041351Z 04006KT 10SM -RA FEW011 BKN036 BKN085 BKN160 09/08 A2984 RMK AO2 SLP105 P0000 T00940078=
04/05/2023 12:51->METAR KJFK 041251Z 03009KT 10SM -RA SCT009 BKN038 OVC048 09/08 A2982 RMK AO2 SLP097 P0002 T00940078=
04/05/2023 11:51->METAR KJFK 041151Z 02007KT 6SM -RA BR SCT009 OVC043 09/08 A2979 RMK AO2 SLP086 P0011 60014 70015 T00890078 10094 20083 51035=
04/05/2023 10:51->METAR KJFK 041051Z 06007KT 5SM RA BR BKN012 BKN042 OVC050 08/07 A2975 RMK AO2 RAB16 SLP075 VIS NE-SE 3 BKN012 V SCT P0003 T00830072=
04/05/2023 09:51->METAR KJFK 040951Z 03010KT 10SM OVC012 09/07 A2972 RMK AO2 RAB22E36 SLP063 P0000 T00940072=
04/05/2023 08:51->METAR KJFK 040851Z 36008KT 10SM FEW015 BKN050 OVC140 09/07 A2968 RMK AO2 SLP051 60000 T00890067 53020=
04/05/2023 07:51->METAR KJFK 040751Z 01009KT 10SM BKN050 OVC065 09/07 A2966 RMK AO2 RAE01 SLP042 P0000 T00890067=
04/05/2023 06:51->METAR KJFK 040651Z 36011KT 10SM -RA OVC060 09/06 A2964 RMK AO2 RAB47 SLP036 P0000 T00940061=
04/05/2023 05:51->METAR KJFK 040551Z 35010KT 10SM OVC060 09/06 A2963 RMK AO2 SLP031 60001 T00940056 10106 20094 53002=
04/05/2023 04:51->METAR KJFK 040451Z 33006KT 10SM BKN060 BKN090 OVC120 09/06 A2962 RMK AO2 SLP030 T00940056 401330083=
04/05/2023 03:51->METAR KJFK 040351Z 34008KT 10SM BKN041 OVC080 10/06 A2962 RMK AO2 RAB09E51 SLP029 P0000 T01000056=
04/05/2023 02:51->METAR KJFK 040251Z 30005KT 10SM OVC060 10/05 A2962 RMK AO2 RAE05B25E35 SLP029 P0000 60001 T01000050 51017=
04/05/2023 01:51->METAR KJFK 040151Z 30005KT 10SM -RA FEW042 BKN055 OVC070 10/04 A2961 RMK AO2 RAB21 SLP027 P0000 T01000044=
04/05/2023 00:51->METAR KJFK 040051Z 31005KT 10SM OVC045 11/04 A2959 RMK AO2 LTG DSNT S RAE24 SLP020 P0001 T01060044=
03/05/2023 23:51->METAR KJFK 032351Z 28008KT 10SM -RA BKN045 OVC060 11/04 A2957 RMK AO2 LTG DSNT S RAB31 SLP013 P0000 60000 T01060044 10133 20106 53019=
03/05/2023 22:51->METAR KJFK 032251Z 24012KT 10SM FEW040 BKN055 BKN110 BKN250 12/04 A2954 RMK AO2 SLP002 VCSH S AND NW T01170044=
03/05/2023 21:51->METAR KJFK 032151Z 17010KT 10SM FEW040 SCT055 BKN080 BKN250 11/06 A2953 RMK AO2 SLP000 VCSH S AND NW T01110056=
03/05/2023 20:51->METAR KJFK 032051Z 20009KT 10SM FEW040 BKN070 BKN140 BKN250 12/05 A2951 RMK AO2 SLP993 VCSH NW T01170050 53000=
03/05/2023 19:51->METAR KJFK 031951Z 19011KT 10SM FEW039 SCT060 SCT130 BKN250 12/06 A2950 RMK AO2 SLP988 T01220061=
03/05/2023 18:51->METAR KJFK 031851Z 18010KT 10SM FEW039 SCT060 SCT110 BKN170 BKN250 12/04 A2951 RMK AO2 SLP992 T01220044=
03/05/2023 17:51->METAR KJFK 031751Z 20012KT 10SM FEW039 BKN055 BKN170 13/04 A2951 RMK AO2 SLP993 T01280039 10133 20089 58002=
03/05/2023 16:51->METAR KJFK 031651Z 24009KT 10SM FEW039 SCT055 BKN170 BKN250 13/03 A2952 RMK AO2 SLP995 T01280033=
03/05/2023 15:51->METAR KJFK 031551Z 24009KT 10SM SCT039 BKN170 BKN250 12/04 A2952 RMK AO2 SLP996 T01220044=
03/05/2023 14:51->METAR KJFK 031451Z 24012G16KT 10SM SCT034 BKN170 BKN250 12/04 A2952 RMK AO2 SLP995 T01170044 51010=
03/05/2023 13:51->METAR KJFK 031351Z 26007KT 10SM SCT031 BKN170 BKN250 11/04 A2952 RMK AO2 SLP995 T01060039=
03/05/2023 12:51->METAR KJFK 031251Z 25009KT 10SM FEW025 SCT045 SCT100 BKN170 BKN250 10/04 A2950 RMK AO2 SLP991 T01000044=
03/05/2023 11:51->METAR KJFK 031151Z 27010KT 10SM FEW022 SCT100 BKN170 BKN250 09/04 A2949 RMK AO2 SLP986 70005 T00890044 10094 20083 51010=
03/05/2023 10:51->METAR KJFK 031051Z 25008KT 10SM FEW022 SCT065 SCT100 BKN140 08/04 A2948 RMK AO2 SLP982 T00830039=
03/05/2023 09:51->METAR KJFK 030951Z 28011KT 10SM BKN065 BKN120 BKN160 08/03 A2947 RMK AO2 SLP980 T00830033=
03/05/2023 08:51->METAR KJFK 030851Z 29007KT 10SM OVC065 08/03 A2946 RMK AO2 SLP975 T00830033 56008=
03/05/2023 07:51->METAR KJFK 030751Z 28010KT 10SM FEW065 BKN110 OVC160 08/03 A2946 RMK AO2 SLP976 T00830028=
03/05/2023 06:51->METAR KJFK 030651Z 28011KT 10SM FEW065 BKN160 OVC250 09/03 A2947 RMK AO2 SLP978 T00890028=
03/05/2023 05:51->METAR KJFK 030551Z 27012KT 10SM FEW075 BKN150 OVC250 09/03 A2948 RMK AO2 SLP983 T00940028 10117 20094 58003=
03/05/2023 04:51->METAR KJFK 030451Z 26014KT 10SM FEW075 BKN130 OVC250 10/03 A2949 RMK AO2 SLP987 T01000033 401390078=
03/05/2023 03:51->METAR KJFK 030351Z 27014KT 10SM SCT080 BKN130 OVC250 10/03 A2949 RMK AO2 SLP986 T01000028=
03/05/2023 02:51->METAR KJFK 030251Z 25013KT 10SM FEW080 OVC130 11/03 A2949 RMK AO2 SLP986 T01060033 50011=
03/05/2023 01:51->METAR KJFK 030151Z 25013KT 10SM FEW045 OVC130 11/03 A2949 RMK AO2 SLP986 T01110033=
03/05/2023 00:51->METAR KJFK 030051Z 26012KT 10SM FEW040 SCT080 BKN250 11/03 A2948 RMK AO2 SLP981 T01110033=
02/05/2023 23:51->METAR KJFK 022351Z 26012KT 10SM FEW040 FEW060 SCT080 BKN250 12/03 A2946 RMK AO2 SLP975 T01170033 10139 20111 53016=
02/05/2023 22:51->METAR KJFK 022251Z 25017KT 10SM FEW040 FEW060 BKN080 BKN250 12/03 A2944 RMK AO2 SLP968 T01220028=
02/05/2023 21:51->METAR KJFK 022151Z 24018KT 10SM FEW040 BKN055 BKN075 BKN250 13/03 A2943 RMK AO2 SLP964 T01280033=
02/05/2023 20:51->METAR KJFK 022051Z 25018KT 10SM FEW045 SCT060 BKN075 BKN250 13/03 A2941 RMK AO2 SLP959 T01330028 50002=
02/05/2023 19:51->METAR KJFK 021951Z 25017G25KT 10SM FEW045 BKN060 BKN075 BKN250 12/03 A2942 RMK AO2 SLP960 VCSH NW T01170028=
02/05/2023 18:51->METAR KJFK 021851Z 25016KT 10SM FEW030 FEW048 BKN070 12/02 A2941 RMK AO2 SLP958 VCSH E-S T01220022=
02/05/2023 17:51->METAR KJFK 021751Z 26010KT 10SM FEW030 BKN065 BKN085 BKN250 11/04 A2941 RMK SLP957 60005 T01110044 10122 20078 53002=
02/05/2023 16:51->METAR KJFK 021651Z 26015G22KT 10SM FEW032 SCT055 BKN090 BKN250 12/04 A2940 RMK SLP956 VCSH SE-S AND NW-N T01170044=
02/05/2023 15:51->METAR KJFK 021551Z 25018G23KT 10SM FEW030 BKN060 BKN110 BKN250 11/05 A2940 RMK RAB23E37 SLP957 VCSH S AND NW P0001 T01060050=
02/05/2023 14:51->METAR KJFK 021451Z 24015KT 10SM SCT031 BKN075 BKN100 BKN250 11/06 A2940 RMK RAE30 SLP956 P0000 60004 T01060056 56007=
02/05/2023 13:51->METAR KJFK 021351Z 23011KT 10SM -RA SCT028 BKN060 OVC100 09/06 A2940 RMK RAB45 SLP956 P0000 T00940061=
02/05/2023 12:51->METAR KJFK 021251Z 22006KT 10SM FEW021 SCT048 OVC100 08/06 A2940 RMK RAE36 SLP956 VCSH NE-E P0004 T00830056=
02/05/2023 11:51->METAR KJFK 021151Z 26015KT 6SM -RA BR FEW024 BKN034 OVC065 09/07 A2942 RMK SLP963 P0002 60005 70005 T00890067 10111 20078 53011=
02/05/2023 10:51->METAR KJFK 021051Z 20009KT 10SM -RA FEW045 BKN070 OVC095 10/07 A2940 RMK RAB29 SLP955 P0000 T01000067=
02/05/2023 09:51->METAR KJFK 020951Z 18006KT 10SM FEW045 BKN150 BKN220 09/07 A2939 RMK SLP952 T00940067=
02/05/2023 08:51->METAR KJFK 020851Z 17004KT 10SM FEW035 SCT100 BKN250 08/06 A2939 RMK SLP952 6003 T00830056 5610=
02/05/2023 07:51->METAR KJFK 020751Z 18012KT 10SM FEW030 BKN065 OVC095 09/06 A2940 RMK RAB32E51 SLP955 P0003 T00940061=
02/05/2023 06:51->METAR KJFK 020651Z 23006KT 10SM SCT050 BKN070 OVC090 10/06 A2940 RMK SLP954 T01000056=
02/05/2023 05:51->METAR KJFK 020551Z 26008KT 10SM BKN085 OVC110 11/04 A2942 RMK PK WND 24027/0511 WSHFT 0503 SLP962 T01110044 10139 20111 56008=
02/05/2023 04:51->METAR KJFK 020451Z 17014KT 10SM BKN090 BKN120 BKN250 12/09 A2942 RMK SLP964 T01170089 401670094=
02/05/2023 03:51->METAR KJFK 020351Z 17011KT 10SM FEW110 SCT116 SCT250 12/07 A2943 RMK SLP966 T01170067=
02/05/2023 02:51->METAR KJFK 020251Z 19007KT 10SM SCT085 SCT250 12/06 A2944 RMK SLP971 T01170056 50005=
02/05/2023 01:51->METAR KJFK 020151Z 22010KT 10SM SCT070 BKN250 13/04 A2946 RMK SLP975 T01280044=
02/05/2023 00:51->METAR KJFK 020051Z 24016KT 10SM SCT060 SCT075 BKN250 14/04 A2945 RMK SLP973 T01390039=
01/05/2023 23:51->METAR KJFK 012351Z 23011KT 10SM FEW080 BKN110 BKN250 14/04 A2943 RMK SLP965 VIRGA NW T01390044 10167 20122 51015=
01/05/2023 22:51->METAR KJFK 012251Z 18012KT 10SM FEW080 SCT110 BKN250 13/08 A2941 RMK SLP960 VIRGA NW T01330083=
01/05/2023 21:51->METAR KJFK 012151Z 18015KT 10SM BKN080 BKN100 BKN250 14/08 A2940 RMK SLP957 T01390083=
01/05/2023 20:51->METAR KJFK 012051Z 18013KT 10SM FEW075 BKN090 14/07 A2938 RMK SLP950 T01390072 51003=
01/05/2023 19:51->METAR KJFK 011951Z 22016KT 10SM FEW060 SCT080 BKN100 16/03 A2938 RMK SLP949 T01610033=
01/05/2023 18:51->METAR KJFK 011851Z 24017KT 10SM SCT060 BKN100 15/03 A2938 RMK SLP948 T01500028=
01/05/2023 17:51->METAR KJFK 011751Z 24020KT 10SM SCT060 BKN085 14/03 A2938 RMK PK WND 24026/1727 SLP947 T01440028 10161 20106 51004=
01/05/2023 16:51->METAR KJFK 011651Z 24018KT 10SM SCT060 BKN085 15/04 A2937 RMK SLP947 T01500039=
01/05/2023 15:51->METAR KJFK 011551Z 24015KT 10SM SCT050 16/06 A2937 RMK PK WND 24026/1537 SLP945 T01560056=
01/05/2023 14:51->METAR KJFK 011451Z 23018KT 10SM SCT047 15/06 A2936 RMK SLP942 T01500061 51015=
01/05/2023 13:51->METAR KJFK 011351Z 24015KT 10SM SCT044 SCT110 14/06 A2935 RMK SLP937 T01390056=
01/05/2023 12:51->METAR KJFK 011251Z 27017KT 10SM FEW041 FEW110 13/04 A2934 RMK PK WND 27027/1235 SLP934 T01280044=
01/05/2023 11:51->METAR KJFK 011151Z 26018G25KT 10SM FEW028 SCT041 SCT110 11/04 A2932 RMK PK WND 26028/1116 SLP927 60000 70139 T01060039 10133 20094 51048=
01/05/2023 10:51->METAR KJFK 011051Z 26019G28KT 10SM FEW024 BKN041 BKN110 10/05 A2928 RMK PK WND 26028/1027 SLP915 T01000050=
01/05/2023 09:51->METAR KJFK 010951Z 27019KT 10SM FEW030 BKN110 10/06 A2923 RMK PK WND 25028/0923 SLP898 T01000056=
01/05/2023 08:51->METAR KJFK 010851Z 27016G19KT 10SM FEW060 SCT110 10/06 A2917 RMK PRESRR SLP879 60000 T01000061 51050=
01/05/2023 07:51->METAR KJFK 010751Z 28021G27KT 10SM FEW025 BKN080 11/07 A2915 RMK PK WND 29034/0707 PRESRR SLP870 T01060072=
01/05/2023 06:51->METAR KJFK 010651Z 28019G27KT 10SM OVC015 12/10 A2908 RMK PK WND 27031/0632 RAE40 SLP847 P0000 T01220100=
01/05/2023 05:51->METAR KJFK 010551Z 25014KT 3SM -RA SCT003 OVC018 13/13 A2903 RMK SFC VIS 7 DZE21RAB21 SLP829 P0003 60010 T01330133 10150 20128 55010=
01/05/2023 04:51->METAR KJFK 010451Z 19007KT 1/4SM R04R/3500V4500FT -DZ BR OVC003 13/13 A2902 RMK SFC VIS 3/4 DZB44 SLP826 P0000 T01330133 401500100=
01/05/2023 03:51->METAR KJFK 010351Z 13007KT 1 1/2SM BR OVC003 14/14 A2903 RMK SFC VIS 3 RAE0254B26E37 SLP831 P0001 T01390139=
01/05/2023 02:51->METAR KJFK 010251Z 12008KT 10SM -RA OVC005 15/15 A2906 RMK RAB02 SLP839 P0003 60006 T01500150 58050=
01/05/2023 01:51->METAR KJFK 010151Z 10013KT 10SM OVC005 15/15 A2910 RMK RAE19 PRESFR SLP855 P0003 T01500150=
01/05/2023 00:51->METAR KJFK 010051Z 08009KT 1 1/2SM -RA BR BKN002 OVC018 14/14 A2918 RMK SFC VIS 5 PRESFR SLP881 P0000 T01440144=
30/04/2023 23:51->METAR KJFK 302351Z 09008KT 1/2SM -RA BR OVC002 14/14 A2920 RMK SFC VIS 2 1/2 SLP889 P0003 60099 T01440144 10150 20133 58043=
30/04/2023 22:51->METAR KJFK 302251Z 13009KT 8SM -RA BKN004 BKN023 OVC030 14/14 A2925 RMK PK WND 18026/2153 SLP906 P0034 T01440144=
30/04/2023 21:51->METAR KJFK 302151Z 20012G21KT 8SM -RA BKN004 OVC011 14/14 A2931 RMK PK WND 12030/2124 WSHFT 2117 VIS 1 1/2 W SLP925 P0035 T01440144=
30/04/2023 20:51->METAR KJFK 302051Z 11015G24KT 4SM RA BR OVC005 14/13 A2933 RMK PK WND 11030/2027 VIS 2 1/2 W RAB04 SLP931 P0011 60027 T01390133 56047=
30/04/2023 19:51->METAR KJFK 301951Z 10017KT 10SM FEW003 OVC007 15/14 A2937 RMK RAE49 SLP946 P0013 T01500144=
30/04/2023 18:51->METAR KJFK 301851Z 08014KT 9SM -RA OVC005 14/14 A2942 RMK RAB00 SLP964 P0003 T01440139=
30/04/2023 17:51->METAR KJFK 301751Z 07014KT 10SM OVC008 14/13 A2947 RMK RAE45 SLP979 P0008 60030 T01390133 10139 20106 58054=
30/04/2023 16:51->METAR KJFK 301651Z 08006KT 2SM R04R/4000V6000FT RA BR BKN006 OVC012 13/13 A2953 RMK SFC VIS 3 SLP001 P0010 T01330133=
30/04/2023 15:51->METAR KJFK 301551Z 05010KT 2SM -RA BR BKN006 BKN031 OVC042 13/13 A2959 RMK SFC VIS 5 RAB18 SLP019 P0012 T01330133=
30/04/2023 14:51->METAR KJFK 301451Z 08007KT 10SM OVC006 13/13 A2963 RMK SLP032 T01330128 56023=
30/04/2023 13:51->METAR KJFK 301351Z 08009KT 7SM OVC005 12/12 A2964 RMK SLP037 T01220117=
30/04/2023 12:51->METAR KJFK 301251Z 05012KT 1/4SM R04R/P6000FT BR OVC003 12/11 A2965 RMK SFC VIS 5 SLP041 T01170111=
30/04/2023 11:51->METAR KJFK 301151Z 03011KT 1/4SM R04R/P6000FT BR OVC003 11/11 A2969 RMK SFC VIS 1 3/4 SLP055 70060 T01060106 10106 20100 58008=
30/04/2023 10:51->METAR KJFK 301051Z 03005KT 1/4SM R04R/5000V6000FT BR OVC003 11/11 A2973 RMK SFC VIS 1 1/2 SLP066 T01060106=
30/04/2023 09:51->METAR KJFK 300951Z 05007KT 1/4SM BR OVC002 10/10 A2971 RMK SFC VIS 2 SLP059 T01000100=
30/04/2023 08:51->METAR KJFK 300851Z 03006KT 1/4SM BR OVC002 11/11 A2972 RMK SVC VIS 1 1/2 SLP062 T01060106 58018=
30/04/2023 07:51->METAR KJFK 300751Z 04008KT 1/2SM R04R/5500V6000FT BR OVC002 11/11 A2973 RMK SFC VIS 1 SLP06 T01060106=
30/04/2023 06:51->METAR KJFK 300651Z 02007KT 1/2SM BR OVC002 10/10 A2976 RMK SFC VIS 1 1/2 SLP076 T01000100=
30/04/2023 05:51->METAR KJFK 300551Z 01007KT 1/2SM BR OVC003 11/11 A2977 RMK SFC VIS 2 SLP080 60007 T01060106 10111 20106 56019=
30/04/2023 04:51->METAR KJFK 300451Z 04006KT 1SM BR OVC004 11/11 A2979 RMK SFC VIS 6 SLP086 T01060106 401110089=
30/04/2023 03:51->METAR KJFK 300351Z 04010KT 1SM BR OVC004 11/11 A2979 RMK SFC VIS 4 SLP086 T01060106=
30/04/2023 02:51->METAR KJFK 300251Z 01005KT 2SM BR OVC005 11/11 A2983 RMK DZE47 SLP099 P0002 60007 T01110111 58003=
30/04/2023 01:51->METAR KJFK 300151Z 05010KT 2SM -DZ BR OVC005 11/11 A2984 RMK RAE44DZB44 SLP105 P0002 T01110111=
30/04/2023 00:51->METAR KJFK 300051Z 07008KT 2SM -RA BR OVC005 11/11 A2985 RMK SLP107 P0003 T01110111=
29/04/2023 23:51->METAR KJFK 292351Z 08012KT 2SM -RA BR OVC006 11/11 A2983 RMK SFC VIS 3 SLP102 P0001 60014 T01110106 10111 20111 51005=
29/04/2023 22:51->METAR KJFK 292251Z 08011G22KT 5SM -RA BR OVC006 11/11 A2983 RMK SLP102 P0003 T01110106=
29/04/2023 21:51->METAR KJFK 292151Z 08016KT 6SM -RA BR OVC007 11/11 A2983 RMK PK WND 09026/2102 SLP101 P0005 T01110106=
29/04/2023 20:51->METAR KJFK 292051Z 09021G28KT 6SM -RA BR OVC008 11/11 A2982 RMK PK WND 10029/2041 SLP097 P0000 60005 T01110106 58015=
29/04/2023 19:51->METAR KJFK 291951Z 09017G27KT 7SM -RA OVC008 11/11 A2983 RMK PK WND 10030/1902 SLP101 P0003 T01110106=
29/04/2023 18:51->METAR KJFK 291851Z 09019G29KT 4SM -RA BR OVC009 11/11 A2985 RMK PK WND 09030/1814 SLP109 P0002 T01110106=
29/04/2023 17:51->METAR KJFK 291751Z 09023G30KT 3SM -RA BR OVC009 11/11 A2986 RMK PK WND 09030/1751 VIS 1 1/2 W SLP113 P0004 60039 T01110106 10111 20100 58012=
29/04/2023 16:51->METAR KJFK 291651Z 09021G31KT 2SM RA BR BKN009 OVC017 11/11 A2988 RMK PK WND 09031/1645 SLP116 P0008 T01110106=
29/04/2023 15:51->METAR KJFK 291551Z 09021G33KT 3SM -RA BR BKN011 BKN019 OVC024 11/10 A2989 RMK PK WND 10033/1517 SLP122 P0004 T01110100=
29/04/2023 14:51->METAR KJFK 291451Z 10021G36KT 3SM -RA BR BKN010 OVC014 11/10 A2990 RMK PK WND 10036/1448 SLP125 P0006 60023 T01060100 58002=
29/04/2023 13:51->METAR KJFK 291351Z 09019G30KT 4SM -RA BR BKN013 OVC020 11/010 A2990 RMK PK WND 10030/1335 SLP125 P0007 T01060100=
29/04/2023 12:51->METAR KJFK 291251Z 09021G29KT 2SM RA BR BKN010 OVC018 11/09 A2991 RMK PK WND 09029/1249 SLP128 P0010 T01060094=
29/04/2023 11:51->METAR KJFK 291151Z 09017G28KT 5SM RA BR SCT010 BKN028 OVC047 10/09 A2991 RMK PK WND 09029/1139 CIG 015 W SLP127 P0027 60099 70151 T01000094 10100 20089 58004=
29/04/2023 10:51->METAR KJFK 291051Z 08020G27KT 4SM +RA BR FEW009 BKN012 OVC044 10/09 A2993 RMK PK WND 08027/1050 SLP126 P0026 T01000089=
29/04/2023 10:27->METAR KJFK 291027Z 07016G25KT 3SM +RA BR BKN012 OVC025 10/09 A2994 RMK P0012 T01000089=
29/04/2023 09:51->METAR KJFK 290951Z 06017G21KT 6SM RA BR BKN012 BKN022 OVC045 10/09 A2993 RMK SLP135 P0010 T01000089=
29/04/2023 08:51->METAR KJFK 290851Z 07015G22KT 5SM RA BR BKN010 BKN016 OVC022 09/08 A2992 RMK PK WND 07026/0752 SLP131 P0007 60035 T00940083 56018=
29/04/2023 08:10->METAR KJFK 290810Z 07017G23KT 6SM RA BR BKN012 BKN022 OVC048 09/08 A2993 RMK PK WND 07026/0752 P0004 T00940083=
29/04/2023 07:51->METAR KJFK 290751Z 07019G26KT 6SM RA BR SCT010 BKN017 OVC055 09/08 A2994 RMK PK WND 06026/0743 SLP137 P0015 T00890083=
29/04/2023 06:51->METAR KJFK 290651Z 07018KT 3SM RA BR FEW012 BKN023 OVC030 09/08 A2996 RMK SLP144 P0013 T00890083=
29/04/2023 05:51->METAR KJFK 290551Z 07010KT 3SM RA BR FEW019 OVC031 09/08 A3001 RMK SLP162 P0016 60046 T00890078 10094 20089 58010=
29/04/2023 04:51->METAR KJFK 290451Z 07011KT 5SM RA BR OVC026 09/08 A3002 RMK SLP166 P0007 T00890078=
29/04/2023 03:51->METAR KJFK 290351Z 07014KT 9SM -RA OVC036 09/07 A3003 RMK SLP170 P0005 T00890072=
29/04/2023 02:51->METAR KJFK 290251Z 08010KT 7SM -RA BKN038 OVC055 09/08 A3006 RMK SLP188 P0005 T00940078=
29/04/2023 01:51->METAR KJFK 290151Z 08010KT 8SM RA FEW020 BKN050 OVC070 09/08 A3009 RMK SLP188 P0008 T00940078=
29/04/2023 00:51->METAR KJFK 290051Z 07009KT 8SM RA BKN055 OVC075 09/08 A3010 RMK SLP192 P0005 T00940083=
28/04/2023 23:51->METAR KJFK 282351Z 06010KT 10SM -RA FEW025 OVC055 09/08 A3009 RMK SLP190 P0005 60005 T00940078 10117 20094 58003=
28/04/2023 22:51->METAR KJFK 282251Z 08014G20KT 10SM -RA FEW034 BKN070 OVC085 11/07 A3010 RMK RAE2152B36 SLP193 P0000 T01060067=
28/04/2023 21:51->METAR KJFK 282151Z 08013G20KT 10SM -RA FEW034 BKN070 OVC095 12/05 A3010 RMK RAB27 SLP193 P0000 T01170050=
28/04/2023 20:51->METAR KJFK 282051Z 08013KT 10SM FEW025 SCT060 OVC110 12/04 A3010 RMK SLP192 T01170039 57024=
28/04/2023 19:51->METAR KJFK 281951Z 07012G19KT 10SM FEW025 OVC100 11/04 A3012 RMK SLP199 T01110044=
28/04/2023 18:51->METAR KJFK 281851Z 08013G21KT 10SM FEW025 BKN110 OVC140 11/04 A3015 RMK SLP210 T0110044=
28/04/2023 17:51->METAR KJFK 281751Z 09014G20KT 10SM FEW025 OVC140 11/04 A3017 RMK SLP217 T01110044 10122 20100 58003=
28/04/2023 16:51->METAR KJFK 281651Z 10016G21KT 10SM FEW027 OVC140 12/04 A3018 RMK SLP220 T01170039=
28/04/2023 15:51->METAR KJFK 281551Z 10014G27KT 10SM OVC150 12/02 A3019 RMK PK WND 10027/1547 SLP223 T01170022=
28/04/2023 14:51->METAR KJFK 281451Z 09010G20KT 10SM FEW130 OVC170 12/04 A3018 RMK SLP220 T01220039 55003=
28/04/2023 13:51->METAR KJFK 281351Z 09014G21KT 10SM FEW025 FEW150 OVC190 12/04 A3017 RMK SLP216 T01170039=
28/04/2023 12:51->METAR KJFK 281251Z 08012KT 10SM FEW015 FEW160 OVC210 11/06 A3018 RMK SLP219 T01060061=
28/04/2023 11:51->METAR KJFK 281151Z 06010KT 10SM FEW012 FEW160 OVC230 10/08 A3019 RMK SLP223 T01000078 10100 20078 51003=
28/04/2023 10:51->METAR KJFK 281051Z 05007KT 10SM FEW010 BKN220 08/07 A3019 RMK SLP222 T00830072=
28/04/2023 09:51->METAR KJFK 280951Z 05004KT 9SM FEW010 BKN250 08/07 A3019 RMK SLP221 T00780072=
28/04/2023 08:51->METAR KJFK 280851Z 05007KT 9SM SCT010 OVC250 08/08 A3018 RMK AO2 SLP220 T00830078 58005=
28/04/2023 07:51->METAR KJFK 280751Z 08006KT 10SM SCT011 OVC240 09/08 A3019 RMK AO2 SLP224 T00890078=
28/04/2023 06:51->METAR KJFK 280651Z 04004KT 10SM BKN009 BKN250 09/08 A3019 RMK AO2 SLP222 T00890078=
28/04/2023 05:51->METAR KJFK 280551Z 05004KT 10SM BKN008 OVC250 08/08 A3020 RMK AO2 SLP225 T00830078 10106 20083 58008=
28/04/2023 04:51->METAR KJFK 280451Z 09004KT 10SM SCT008 BKN250 09/08 A3022 RMK AO2 SLP232 SCT008 V BKN T00890078 401390089=
28/04/2023 03:51->METAR KJFK 280351Z 10003KT 10SM FEW011 BKN250 09/08 A3022 RMK AO2 SLP231 T00890078=
28/04/2023 02:51->METAR KJFK 280251Z 13005KT 10SM SCT011 BKN250 09/08 A3022 RMK AO2 SLP233 T00940083 53003=
28/04/2023 01:51->METAR KJFK 280151Z 12006KT 10SM BKN012 BKN036 10/08 A3022 RMK AO2 SLP232 BKN012 V SCT T01000083=
28/04/2023 00:51->METAR KJFK 280051Z 12007KT 10SM SCT012 SCT036 BKN250 10/08 A3021 RMK AO2 SLP230 SCT012 V BKN T01000083=
27/04/2023 23:51->METAR KJFK 272351Z 11007KT 10SM FEW017 FEW036 BKN250 11/07 A3020 RMK AO2 SLP225 T01060072 10128 20106 58003=
27/04/2023 22:51->METAR KJFK 272251Z 14008KT 10SM FEW017 BKN036 BKN048 BKN250 11/08 A3021 RMK AO2 SLP228 T01110078=
27/04/2023 21:51->METAR KJFK 272151Z 13006KT 10SM FEW017 BKN037 BKN050 BKN250 12/08 A3021 RMK AO2 SLP228 T01170078=
27/04/2023 20:51->METAR KJFK 272051Z 14010KT 10SM SCT020 BKN040 BKN055 12/08 A3021 RMK AO2 SLP228 T01220078 58005=
27/04/2023 19:51->METAR KJFK 271951Z 17008KT 10SM SCT021 BKN050 BKN075 13/08 A3021 RMK AO2 SLP230 T01280078=
27/04/2023 18:51->METAR KJFK 271851Z 17010KT 10SM SCT019 BKN027 BKN070 BKN250 12/08 A3022 RMK AO2 SLP233 T01220078=
27/04/2023 17:51->METAR KJFK 271751Z 14010KT 10SM FEW025 BKN044 BKN160 BKN250 13/08 A3023 RMK AO2 SLP237 T01280078 10139 20100 56003=
27/04/2023 16:51->METAR KJFK 271651Z 17008KT 10SM FEW024 SCT035 BKN050 OVC160 13/07 A3023 RMK AO2 SLP238 T01280072=
27/04/2023 15:51->METAR KJFK 271551Z 14007KT 10SM SCT020 BKN049 BKN085 BKN160 13/08 A3023 RMK AO2 SLP238 T01280078=
27/04/2023 14:51->METAR KJFK 271451Z 17006KT 10SM SCT032 BKN050 OVC085 12/08 A3024 RMK AO2 SLP241 T01170078 53005=
27/04/2023 13:51->METAR KJFK 271351Z 15005KT 10SM FEW025 BKN050 OVC085 11/07 A3023 RMK AO2 SLP237 T01110072=
27/04/2023 12:51->METAR KJFK 271251Z 14006KT 10SM FEW022 SCT039 BKN060 BKN250 11/07 A3023 RMK AO2 SLP236 T01060067=
27/04/2023 11:51->METAR KJFK 271151Z 15005KT 10SM FEW017 BKN046 BKN080 BKN250 10/07 A3023 RMK AO2 SLP236 60000 T01000072 10106 20094 53011=
27/04/2023 10:51->METAR KJFK 271051Z 20005KT 10SM FEW009 SCT023 OVC055 10/06 A3022 RMK AO2 RAE03 SLP233 P0000 T01000061=
27/04/2023 09:51->METAR KJFK 270951Z 17006KT 10SM -RA FEW009 OVC065 10/07 A3020 RMK AO2 RAB0859 SLP225 P0000 T01000067=
27/04/2023 08:51->METAR KJFK 270851Z 19010KT 10SM BKN009 OVC065 11/09 A3020 RMK AO2 RAE26 SLP225 P0000 60000 T01060094 50003=
27/04/2023 07:51->METAR KJFK 270751Z 17005KT 10SM -RA SCT008 OVC090 10/09 A3020 RMK AO2 RAB43 SLP225 P0000 T01000089=
27/04/2023 06:51->METAR KJFK 270651Z 11003KT 10SM FEW008 SCT100 09/09 A3019 RMK AO2 SLP223 T00940089=
27/04/2023 05:51->METAR KJFK 270551Z 13006KT 10SM FEW008 BKN100 09/09 A3019 RMK AO2 SLP222 T00940089 10106 20094 58009=
27/04/2023 04:51->METAR KJFK 270451Z 14006KT 10SM FEW008 BKN110 10/09 A3021 RMK AO2 SLP230 T01000089 401330056=
27/04/2023 03:51->METAR KJFK 270351Z 15006KT 10SM FEW008 SCT100 BKN160 10/09 A3021 RMK AO2 SLP229 T01000089=
27/04/2023 02:51->METAR KJFK 270251Z 14007KT 10SM FEW008 SCT090 10/09 A3022 RMK AO2 SLP231 T01000089 58000=
27/04/2023 01:51->METAR KJFK 270151Z 15007KT 10SM BKN010 BKN090 11/09 A3022 RMK AO2 SLP233 T01060089=
27/04/2023 00:51->METAR KJFK 270051Z 16009KT 10SM BKN011 BKN110 10/08 A3022 RMK AO2 SLP233 T01000083=
26/04/2023 23:51->METAR KJFK 262351Z 14010KT 10SM SCT010 BKN110 BKN130 10/08 A3022 RMK AO2 SLP232 SCT V BKN T01000078 10128 20100 53006=
26/04/2023 22:51->METAR KJFK 262251Z 15011KT 10SM SCT012 SCT080 11/08 A3020 RMK AO2 SLP226 T01060078=
26/04/2023 21:51->METAR KJFK 262151Z 12012KT 10SM FEW014 FEW040 11/08 A3020 RMK AO2 SLP225 T01110078=
26/04/2023 20:51->METAR KJFK 262051Z 13010KT 10SM FEW015 FEW040 SCT085 SCT250 12/08 A3020 RMK AO2 SLP226 T01170078 58011=
26/04/2023 19:51->METAR KJFK 261951Z 15012KT 10SM FEW017 FEW040 BKN085 BKN250 12/08 A3021 RMK AO2 SLP229 T01220078=
26/04/2023 18:51->METAR KJFK 261851Z 14009KT 10SM FEW020 FEW040 SCT080 BKN250 12/07 A3023 RMK AO2 SLP235 T01220072=
26/04/2023 17:51->METAR KJFK 261751Z 13012KT 10SM FEW020 BKN080 BKN250 13/07 A3023 RMK AO2 SLP236 T01280072 10133 20089 58006=
26/04/2023 16:51->METAR KJFK 261651Z 15010KT 10SM FEW018 BKN090 BKN250 12/07 A3025 RMK AO2 SLP242 T01170067=
26/04/2023 15:51->METAR KJFK 261551Z 10012KT 10SM FEW013 BKN085 BKN140 BKN250 11/07 A3026 RMK AO2 SLP246 VCSH SW-NW T01060067=
26/04/2023 14:51->METAR KJFK 261451Z 12013KT 10SM FEW013 BKN080 BKN140 BKN250 11/07 A3025 RMK AO2 SLP242 T01110067 58002=
26/04/2023 13:51->METAR KJFK 261351Z 12009KT 10SM SCT095 SCT120 BKN250 13/06 A3025 RMK AO2 SLP242 T01280056=
26/04/2023 12:51->METAR KJFK 261251Z 11005KT 10SM SCT100 BKN140 BKN250 12/04 A3026 RMK AO2 SLP246 T01170044=
26/04/2023 11:51->METAR KJFK 261151Z 05007KT 10SM BKN100 BKN150 BKN250 09/04 A3025 RMK AO2 SLP244 T00890039 10089 20056 51011=
26/04/2023 10:51->METAR KJFK 261051Z 03005KT 10SM SCT110 BKN150 BKN250 08/03 A3025 RMK AO2 SLP243 T00780033=
26/04/2023 09:51->METAR KJFK 260951Z 03004KT 10SM SCT150 SCT250 07/02 A3023 RMK AO2 SLP237 T00670022=
26/04/2023 08:51->METAR KJFK 260851Z 05005KT 10SM FEW250 06/02 A3022 RMK AO2 SLP233 T00610017 53001=
26/04/2023 07:51->METAR KJFK 260751Z 04005KT 10SM FEW250 06/01 A3022 RMK AO2 SLP232 T00610011=
26/04/2023 06:51->METAR KJFK 260651Z 02003KT 10SM FEW250 07/01 A3021 RMK AO2 SLP230 T00720006=
26/04/2023 05:51->METAR KJFK 260551Z 36005KT 10SM FEW250 08/01 A3022 RMK AO2 SLP232 T00780006 10111 20078 50005=
26/04/2023 04:51->METAR KJFK 260451Z 36006KT 10SM FEW250 09/02 A3022 RMK AO2 SLP233 T00890017 401440072=
26/04/2023 03:51->METAR KJFK 260351Z 01004KT 10SM FEW250 09/04 A3021 RMK AO2 SLP230 T00940044=
26/04/2023 02:51->METAR KJFK 260251Z 22003KT 10SM FEW080 FEW250 09/05 A3020 RMK AO2 SLP227 T00940050 51008=
26/04/2023 01:51->METAR KJFK 260151Z 14004KT 10SM FEW080 SCT250 10/04 A3020 RMK AO2 SLP226 T01000039=
26/04/2023 00:51->METAR KJFK 260051Z 21004KT 10SM SCT080 BKN250 11/04 A3019 RMK AO2 SLP223 T01110044=
25/04/2023 23:51->METAR KJFK 252351Z 19008KT 10SM BKN080 BKN250 11/05 A3018 RMK AO2 SLP219 T01110050 10144 20111 53005=
25/04/2023 22:51->METAR KJFK 252251Z 18009KT 10SM FEW065 BKN080 BKN250 12/05 A3017 RMK AO2 SLP216 T01170050=
25/04/2023 21:51->METAR KJFK 252151Z 20010KT 10SM FEW065 BKN085 BKN250 12/04 A3017 RMK AO2 SLP215 T01220044=
25/04/2023 20:51->METAR KJFK 252051Z 19009KT 10SM FEW065 BKN085 BKN250 12/03 A3016 RMK AO2 SLP214 T01220033 53001 $=
25/04/2023 19:51->METAR KJFK 251951Z 21008KT 10SM FEW055 BKN090 13/02 A3015 RMK AO2 SLP211 T01330017 $=
25/04/2023 18:51->METAR KJFK 251851Z 22009KT 10SM FEW055 BKN090 13/M01 A3016 RMK AO2 SLP213 T01331011 $=
25/04/2023 17:51->METAR KJFK 251751Z 19009KT 10SM FEW055 BKN085 14/02 A3016 RMK AO2 SLP213 T01390017 10144 20094 58003 $=
25/04/2023 16:51->METAR KJFK 251651Z 23009KT 10SM FEW050 BKN080 13/03 A3017 RMK AO2 SLP216 T01330028 $=
25/04/2023 15:51->METAR KJFK 251551Z 18008KT 10SM FEW048 SCT080 13/02 A3018 RMK AO2 SLP218 SCT V BKN T01280017=
25/04/2023 14:51->METAR KJFK 251451Z 00000KT 10SM FEW046 SCT075 13/01 A3017 RMK AO2 SLP216 T01280011 51006=
25/04/2023 13:51->METAR KJFK 251351Z 01005KT 10SM FEW045 SCT075 12/03 A3017 RMK AO2 SLP216 T01220028=
25/04/2023 12:51->METAR KJFK 251251Z 33010KT 10SM FEW045 SCT070 10/02 A3016 RMK AO2 SLP212 SCT V BKN T01000017=
25/04/2023 11:51->METAR KJFK 251151Z 36009KT 10SM FEW045 FEW070 09/02 A3015 RMK AO2 SLP210 T00940017 10094 20072 53011=
25/04/2023 10:51->METAR KJFK 251051Z 35008KT 10SM FEW043 FEW070 08/02 A3014 RMK AO2 SLP205 T00780017=
25/04/2023 09:51->METAR KJFK 250951Z 35010KT 10SM FEW085 08/01 A3012 RMK AO2 SLP200 T00780011=
25/04/2023 08:51->METAR KJFK 250851Z 34010KT 10SM FEW085 08/02 A3012 RMK AO2 SLP199 T00830017 53004=
25/04/2023 07:51->METAR KJFK 250751Z 36007KT 10SM FEW085 08/01 A3011 RMK AO2 SLP195 T00830011=
25/04/2023 06:51->METAR KJFK 250651Z 35007KT 10SM SCT085 09/01 A3010 RMK AO2 SLP192 T00890006=
25/04/2023 05:51->METAR KJFK 250551Z 33010KT 10SM SCT090 09/00 A3011 RMK AO2 SLP194 T00940000 10122 20094 50008=
25/04/2023 04:51->METAR KJFK 250451Z 33011KT 10SM BKN085 11/M01 A3011 RMK AO2 SLP195 T01061006 401500067=
25/04/2023 03:51->METAR KJFK 250351Z 32010KT 10SM BKN085 12/M01 A3010 RMK AO2 SLP191 T01171006=
25/04/2023 02:51->METAR KJFK 250251Z 35007KT 10SM BKN080 12/03 A3008 RMK AO2 SLP186 T01220033 51012=
25/04/2023 01:51->METAR KJFK 250151Z 21006KT 10SM BKN075 12/06 A3008 RMK AO2 SLP184 T01170061=
25/04/2023 00:51->METAR KJFK 250051Z 20010KT 10SM BKN085 11/06 A3007 RMK AO2 SLP180 T01110061=
24/04/2023 23:51->METAR KJFK 242351Z 20009KT 10SM BKN090 11/06 A3005 RMK AO2 SLP174 T01060061 10150 20106 53008=
24/04/2023 22:51->METAR KJFK 242251Z 20015KT 10SM FEW060 BKN090 11/06 A3003 RMK AO2 SLP170 T01110056=
24/04/2023 21:51->METAR KJFK 242151Z 19012KT 10SM FEW060 BKN090 12/05 A3003 RMK AO2 SLP170 T01170050=
24/04/2023 20:51->METAR KJFK 242051Z 18014KT 10SM SCT060 SCT080 12/04 A3002 RMK AO2 SLP166 T01220039 55002=
24/04/2023 19:51->METAR KJFK 241951Z 20013KT 10SM SCT060 SCT075 14/02 A3002 RMK AO2 SLP165 T01440022=
24/04/2023 18:51->METAR KJFK 241851Z 20011KT 10SM SCT060 14/02 A3002 RMK AO2 SLP165 T01390022=
24/04/2023 17:51->METAR KJFK 241751Z 18011KT 10SM SCT055 13/03 A3003 RMK AO2 SLP168 T01330033 10133 20083 58010=
24/04/2023 16:51->METAR KJFK 241651Z 21012KT 10SM SCT050 SCT110 13/04 A3004 RMK AO2 SLP173 T01280044=
24/04/2023 15:51->METAR KJFK 241551Z 22007KT 180V260 10SM SCT042 SCT110 13/04 A3005 RMK AO2 SLP176 T01330039=
24/04/2023 14:51->METAR KJFK 241451Z 30006KT 10SM BKN038 BKN100 12/03 A3006 RMK AO2 SLP177 T01170028 50002=
24/04/2023 13:51->METAR KJFK 241351Z 10SM FEW038 SCT085 11/03 A3006 RMK AO2 SLP180 T01060033=
24/04/2023 12:51->METAR KJFK 241251Z 32005KT 10SM FEW050 SCT085 10/03 A3007 RMK AO2 SLP181 T01000033=
24/04/2023 11:51->METAR KJFK 241151Z 35007KT 10SM FEW047 BKN085 08/02 A3005 RMK AO2 SLP176 70013 T00830022 10100 20067 53009 $=
24/04/2023 10:51->METAR KJFK 241051Z 33010KT 10SM SCT090 07/02 A3004 RMK AO2 SLP173 T00720017 $=
24/04/2023 09:51->METAR KJFK 240951Z 33009KT 10SM FEW080 07/02 A3003 RMK AO2 SLP167 T00670017 $=
24/04/2023 08:51->METAR KJFK 240851Z 32010KT 10SM CLR 08/02 A3002 RMK AO2 SLP166 T00780022 53006 $=
24/04/2023 07:51->METAR KJFK 240751Z 31012KT 10SM FEW080 08/03 A3002 RMK AO2 SLP164 T00830028 $=
24/04/2023 06:51->METAR KJFK 240651Z 31010KT 10SM FEW075 09/03 A3000 RMK AO2 SLP158 T00890033 $=
24/04/2023 05:51->METAR KJFK 240551Z 32011KT 10SM FEW080 10/03 A3001 RMK AO2 SLP160 T01000028 10167 20094 50010 $=
24/04/2023 04:51->METAR KJFK 240451Z 31011KT 10SM FEW085 11/03 A3001 RMK AO2 SLP161 T01060028 402060106 $=
24/04/2023 03:51->METAR KJFK 240351Z 30011KT 10SM FEW080 FEW250 12/02 A3000 RMK AO2 SLP157 T01220022 $=
24/04/2023 02:51->METAR KJFK 240251Z 31011KT 10SM BKN095 BKN250 13/02 A2998 RMK AO2 SLP150 T01330017 51024 $=
24/04/2023 01:51->METAR KJFK 240151Z 30013KT 10SM BKN100 BKN250 14/03 A2996 RMK AO2 SLP145 T01440033 $=
24/04/2023 00:51->METAR KJFK 240051Z 31010KT 10SM FEW080 SCT250 16/05 A2994 RMK AO2 WSHFT 2343 SLP137 T01560050 $=
23/04/2023 23:51->METAR KJFK 232351Z 28013KT 10SM FEW049 SCT080 BKN090 BKN250 17/03 A2991 RMK AO2 SLP127 T01670033 10206 20161 53017 $=
23/04/2023 22:51->METAR KJFK 232251Z 04007KT 10SM FEW030 SCT055 BKN080 BKN250 17/09 A2989 RMK AO2 SLP121 T01670089 $=
23/04/2023 21:51->METAR KJFK 232151Z 04006KT 10SM FEW030 BKN070 BKN250 17/09 A2987 RMK AO2 SLP115 T01720089 $=
23/04/2023 20:51->METAR KJFK 232051Z 36010KT 10SM BKN070 BKN090 BKN250 18/09 A2986 RMK AO2 SLP110 T01830089 53008 $=
23/04/2023 19:51->METAR KJFK 231951Z 30012KT 10SM SCT065 BKN080 BKN250 20/07 A2984 RMK AO2 SLP104 T02000067 $=
23/04/2023 18:51->METAR KJFK 231851Z 27012G18KT 10SM SCT050 SCT060 BKN250 19/08 A2983 RMK AO2 SLP102 T01890078 $=
23/04/2023 17:51->METAR KJFK 231751Z 30010G18KT 10SM FEW020 FEW035 SCT045 BKN250 18/10 A2983 RMK AO2 SLP102 60013 T01780100 10183 20128 58007 $=
23/04/2023 16:51->METAR KJFK 231651Z 26007KT 10SM FEW020 FEW041 SCT048 BKN250 17/12 A2985 RMK AO2 SLP107 T01670122 $=
23/04/2023 15:51->METAR KJFK 231551Z 35005KT 10SM FEW017 BKN028 OVC034 15/11 A2985 RMK AO2 CIG 023 W SLP109 T01500111 $=
23/04/2023 14:51->METAR KJFK 231451Z 32010KT 10SM FEW011 BKN065 BKN090 14/12 A2984 RMK AO2 RAE15 SLP103 P0001 60013 T01440122 53007 $=
23/04/2023 13:51->METAR KJFK 231351Z 01011KT 8SM -RA FEW010 BKN050 OVC070 13/12 A2981 RMK AO2 SLP093 P0003 T01280122 $=
23/04/2023 12:51->METAR KJFK 231251Z 35008KT 10SM -RA FEW009 BKN035 OVC060 13/12 A2981 RMK AO2 SLP093 P0009 T01280122 $=
23/04/2023 11:51->METAR KJFK 231151Z 33010KT 1SM R04R/P6000FT +RA BR FEW009 BKN029 OVC034 13/12 A2982 RMK AO2 SFC VIS 3 SLP097 P0021 60087 70215 T01280122 10139 20128 50007 $=
23/04/2023 10:51->METAR KJFK 231051Z 00000KT 1SM R04R/4000VP6000FT -RA BR BKN004 OVC019 13/13 A2983 RMK AO2 SFC VIS 4 SLP099 P0003 T01330133 $=
23/04/2023 09:51->METAR KJFK 230951Z 14007KT 10SM -RA SCT004 BKN070 OVC085 13/13 A2980 RMK AO2 SLP090 P0003 T01330133 $=
23/04/2023 08:51->METAR KJFK 230851Z 14011KT 5SM RA BR OVC005 13/13 A2980 RMK AO2 SLP089 P0004 60060 T01330133 56013 $=
23/04/2023 07:51->METAR KJFK 230751Z 11006KT 6SM RA BR BKN006 OVC060 14/14 A2980 RMK AO2 SLP091 P0025 T01390139 $=
23/04/2023 06:51->METAR KJFK 230651Z 09008KT 4SM +RA BR SCT009 BKN037 OVC065 13/13 A2982 RMK AO2 CIG 009 W SLP098 P0031 T01330133 $=
23/04/2023 05:51->METAR KJFK 230551Z 08008KT 4SM +RA BR SCT012 BKN043 OVC075 14/13 A2983 RMK AO2 SLP102 P0031 60128 T01390133 10150 20133 56022 $=
23/04/2023 04:51->METAR KJFK 230451Z 07005KT 5SM RA BR FEW015 BKN065CB OVC080 14/14 A2986 RMK AO2 LTG DSNT NE AND S TSB11E14E47 SLP111 OCNL LTGIC DSNT S CB DSNT S P0018 T01390139 401830117 $=
23/04/2023 03:51->METAR KJFK 230351Z 07009KT 8SM VCTS -RA FEW008 BKN055CB OVC090 14/14 A2987 RMK AO2 LTG DSNT S TSE0253E06 SLP115 CB DSNT S P0057 T01390139 $=
23/04/2023 02:51->METAR KJFK 230251Z 00000KT 3SM R04R/5500VP6000FT +TSRA BR FEW012 BKN040CB OVC055 14/14 A2990 RMK AO2 LTG DSNT S RAB15 SLP124 OCNL LTGIC SW TS SW MOV NE P0022 60022 T01440139 50005 $=
23/04/2023 01:51->METAR KJFK 230151Z 11011G19KT 10SM TS FEW007 SCT035CB BKN070 OVC160 14/13 A2992 RMK AO2 LTG DSNT ALQDS TSE48B49 PRESRR SLP133 OCNL LTGIC SW TS SW MOV NE T01390128 $=
23/04/2023 00:51->METAR KJFK 230051Z 11012KT 9SM FEW006 SCT045 BKN180 OVC250 14/13 A2988 RMK AO2 LTG DSNT SW-NW SLP117 OCNL LTGIC DSNT W CB DSNT W MOV NE T01390128 $=
22/04/2023 23:51->METAR KJFK 222351Z 12011G19KT 9SM FEW007 SCT045 BKN100 OVC210 14/13 A2988 RMK AO2 SLP119 T01390133 10183 20139 58001 $=
22/04/2023 22:51->METAR KJFK 222251Z 11018G23KT 10SM FEW020 FEW045 BKN200 BKN250 14/12 A2989 RMK AO2 SLP120 CB DSNT W T01440122 $=
22/04/2023 21:51->METAR KJFK 222151Z 11016KT 9SM SCT009 BKN043 BKN060 BKN250 15/13 A2989 RMK AO2 SLP120 T01500128 $=
22/04/2023 20:51->METAR KJFK 222051Z 10016G23KT 10SM FEW009 SCT022 BKN030 BKN250 16/13 A2989 RMK AO2 SLP123 T01560128 57013 $=
22/04/2023 19:51->METAR KJFK 221951Z 10017KT 10SM FEW018 BKN027 BKN180 OVC250 18/13 A2991 RMK AO2 SLP127 T01780133 $=
22/04/2023 18:51->METAR KJFK 221851Z 11013KT 10SM FEW018 BKN036 BKN200 18/13 A2992 RMK AO2 SLP132 T01830133=
22/04/2023 17:51->METAR KJFK 221751Z 11015KT 10SM FEW016 BKN032 17/13 A2993 RMK AO2 SLP136 T01720128 10178 20128 56017=
22/04/2023 16:51->METAR KJFK 221651Z 11017KT 10SM FEW011 BKN035 17/13 A2995 RMK AO2 SLP140 T01720128=
22/04/2023 15:51->METAR KJFK 221551Z 10013KT 10SM FEW011 BKN033 17/13 A2996 RMK AO2 SLP146 T01720128=
22/04/2023 14:51->METAR KJFK 221451Z 09009KT 10SM FEW008 OVC035 16/12 A2998 RMK AO2 SLP153 T01560122 55002=
22/04/2023 13:51->METAR KJFK 221351Z 09012KT 10SM FEW003 SCT008 BKN034 15/12 A2998 RMK AO2 SLP153 T01500117=
22/04/2023 12:51->METAR KJFK 221251Z 09007KT 10SM FEW003 OVC008 15/12 A2999 RMK AO2 SLP154 T01500117=
22/04/2023 11:51->METAR KJFK 221151Z 08009KT 10SM FEW003 OVC006 13/11 A2999 RMK AO2 SLP155 T01280111 10128 20117 53003=
22/04/2023 10:51->METAR KJFK 221051Z 09006KT 10SM OVC006 12/11 A2999 RMK AO2 SLP155 T01220111=
22/04/2023 09:51->METAR KJFK 220951Z 07009KT 10SM OVC006 12/11 A2998 RMK AO2 SLP151 T01220111=
22/04/2023 08:51->METAR KJFK 220851Z 07009KT 10SM OVC005 12/11 A2998 RMK AO2 SLP152 T01220111 55003=
22/04/2023 07:51->METAR KJFK 220751Z 07008KT 5SM BR OVC004 12/12 A2998 RMK AO2 SLP151 T01170117=
22/04/2023 06:51->METAR KJFK 220651Z 06008KT 5SM BR OVC004 12/11 A2997 RMK AO2 SLP150 T01170111=
22/04/2023 05:51->METAR KJFK 220551Z 08009KT 10SM OVC006 12/11 A2999 RMK AO2 SLP155 T01170111 10128 20117 57014=
22/04/2023 04:51->METAR KJFK 220451Z 08011KT 10SM OVC008 12/11 A3001 RMK AO2 SLP162 T01220106 401890083=
22/04/2023 03:51->METAR KJFK 220351Z 08010KT 10SM OVC010 12/10 A3001 RMK AO2 SLP163 T01220100=
22/04/2023 02:51->METAR KJFK 220251Z 08012KT 10SM OVC010 12/10 A3003 RMK AO2 SLP169 T01220100 58002=
22/04/2023 01:51->METAR KJFK 220151Z 08013KT 10SM OVC012 12/09 A3004 RMK AO2 SLP171 T01220094=
22/04/2023 00:51->METAR KJFK 220051Z 09011KT 10SM OVC016 12/09 A3004 RMK AO2 SLP172 T01220094=
21/04/2023 23:51->METAR KJFK 212351Z 09013KT 10SM OVC017 13/09 A3004 RMK AO2 SLP171 T01280094 10189 20128 50002=
21/04/2023 22:51->METAR KJFK 212251Z 09014KT 10SM OVC018 13/09 A3004 RMK AO2 SLP171 T01330094=
21/04/2023 21:51->METAR KJFK 212151Z 11013KT 10SM BKN018 14/09 A3003 RMK AO2 SLP170 T01440089=
21/04/2023 20:51->METAR KJFK 212051Z 11014G21KT 10SM FEW012 BKN020 16/11 A3003 RMK AO2 SLP168 T01560106 56013=
21/04/2023 19:51->METAR KJFK 211951Z 10015KT 10SM SCT020 SCT250 17/11 A3004 RMK AO2 SLP171 SCT020 V BKN T01720111=
21/04/2023 18:51->METAR KJFK 211851Z 11016KT 10SM FEW022 FEW250 18/11 A3004 RMK AO2 SLP173 T01780111=
21/04/2023 17:51->METAR KJFK 211751Z 09014KT 10SM FEW022 FEW250 18/11 A3007 RMK AO2 SLP181 T01830111 10183 20117 58015=
21/04/2023 16:51->METAR KJFK 211651Z 10014KT 10SM FEW022 SCT130 SCT250 17/11 A3009 RMK AO2 SLP187 T01720111=
21/04/2023 15:51->METAR KJFK 211551Z 12012KT 10SM FEW020 SCT130 SCT250 17/11 A3010 RMK AO2 SLP192 T01670106=
21/04/2023 14:51->METAR KJFK 211451Z 10011KT 10SM FEW018 FEW090 FEW250 16/10 A3011 RMK AO2 SLP196 T01610100 55003=
21/04/2023 13:51->METAR KJFK 211351Z 12009KT 10SM FEW014 FEW250 16/11 A3011 RMK AO2 SLP196 T01560106=
21/04/2023 12:51->METAR KJFK 211251Z 10009KT 10SM FEW011 FEW250 14/09 A3012 RMK AO2 SLP198 T01390094=
21/04/2023 11:51->METAR KJFK 211151Z 09007KT 10SM FEW100 FEW250 12/08 A3012 RMK AO2 SLP200 T01170083 10117 20083 53001=
21/04/2023 10:51->METAR KJFK 211051Z 07004KT 10SM SCT250 09/07 A3011 RMK AO2 SLP196 T00940072=
21/04/2023 09:51->METAR KJFK 210951Z 05006KT 10SM FEW130 BKN250 09/07 A3010 RMK AO2 SLP194 T00890072=
21/04/2023 08:51->METAR KJFK 210851Z 06005KT 10SM FEW250 08/07 A3012 RMK AO2 SLP198 T00830072 56006=
21/04/2023 07:51->METAR KJFK 210751Z 00000KT 10SM SCT250 09/07 A3013 RMK AO2 SLP202 T00940072=
21/04/2023 06:51->METAR KJFK 210651Z 05004KT 10SM SCT250 09/07 A3012 RMK AO2 SLP200 T00940072=
21/04/2023 05:51->METAR KJFK 210551Z 05003KT 10SM SCT130 BKN250 09/07 A3014 RMK AO2 SLP205 T00940072 10106 20089 58004=
21/04/2023 04:51->METAR KJFK 210451Z 00000KT 10SM BKN120 OVC250 11/08 A3015 RMK AO2 SLP208 T01060078 401500061=
21/04/2023 03:51->METAR KJFK 210351Z 21004KT 10SM BKN130 OVC250 10/08 A3016 RMK AO2 SLP211 T01000078=
21/04/2023 02:51->METAR KJFK 210251Z 18004KT 10SM FEW150 SCT250 09/07 A3015 RMK AO2 SLP209 T00890067 58001=
21/04/2023 01:51->METAR KJFK 210151Z 16004KT 10SM SCT250 09/06 A3015 RMK AO2 SLP210 T00940061=
21/04/2023 00:51->METAR KJFK 210051Z 14004KT 10SM SCT250 09/06 A3015 RMK AO2 SLP210 T00890061=
20/04/2023 23:51->METAR KJFK 202351Z 15006KT 10SM SCT250 09/06 A3015 RMK AO2 SLP210 T00940056 10133 20094 55006=
20/04/2023 22:51->METAR KJFK 202251Z 17008KT 10SM SCT250 11/04 A3015 RMK AO2 SLP210 T01060044=
20/04/2023 21:51->METAR KJFK 202151Z 17007KT 10SM FEW250 12/04 A3016 RMK AO2 SLP213 T01220039=
20/04/2023 20:51->METAR KJFK 202051Z 18008KT 10SM FEW250 12/04 A3017 RMK AO2 SLP217 T01220039 55010 $=
20/04/2023 19:51->METAR KJFK 201951Z 18009KT 10SM FEW250 13/04 A3017 RMK AO2 SLP216 T01280039 $=
20/04/2023 18:51->METAR KJFK 201851Z 17009KT 10SM FEW250 13/04 A3019 RMK AO2 SLP222 T01280039=
20/04/2023 17:51->METAR KJFK 201751Z 17008KT 10SM FEW110 SCT250 13/03 A3020 RMK AO2 SLP227 T01330033 10150 20083 58020=
20/04/2023 16:51->METAR KJFK 201651Z 18009KT 10SM FEW100 FEW140 BKN250 13/03 A3022 RMK AO2 SLP234 T01280028=
20/04/2023 15:51->METAR KJFK 201551Z 21007KT 10SM SCT095 BKN250 13/02 A3025 RMK AO2 SLP244 T01330022=
20/04/2023 14:51->METAR KJFK 201451Z 36005KT 10SM FEW110 BKN250 13/01 A3026 RMK AO2 SLP247 T01280011 51001=
20/04/2023 13:51->METAR KJFK 201351Z VRB05KT 10SM BKN110 BKN250 11/01 A3026 RMK AO2 SLP248 T01060011=
20/04/2023 12:51->METAR KJFK 201251Z 06005KT 10SM SCT130 BKN250 09/01 A3027 RMK AO2 SLP248 T00940011=
20/04/2023 11:51->METAR KJFK 201151Z 03005KT 10SM SCT120 BKN250 08/01 A3026 RMK AO2 SLP247 60000 T00830011 10083 20061 53015=
20/04/2023 10:51->METAR KJFK 201051Z 02009KT 10SM FEW100 SCT160 BKN250 07/01 A3023 RMK AO2 SLP237 T00670011=
20/04/2023 09:51->METAR KJFK 200951Z 03006KT 10SM SCT100 BKN160 BKN250 06/01 A3022 RMK AO2 SLP231 T00610006=
20/04/2023 08:51->METAR KJFK 200851Z 01004KT 10SM BKN150 07/01 A3022 RMK AO2 SLP231 60000 T00720006 53008=
20/04/2023 07:51->METAR KJFK 200751Z 03008KT 10SM FEW070 BKN160 08/01 A3020 RMK AO2 RAB0657E06 SLP227 P0000 T00780011=
20/04/2023 06:51->METAR KJFK 200651Z 07005KT 10SM SCT150 08/03 A3019 RMK AO2 SLP223 T00780028=
20/04/2023 05:51->METAR KJFK 200551Z 03006KT 10SM FEW150 FEW250 07/04 A3019 RMK AO2 SLP223 T00720044 10106 20067 52016=
20/04/2023 04:51->METAR KJFK 200451Z 04006KT 10SM FEW250 07/04 A3018 RMK AO2 SLP219 T00720044 401780061=
20/04/2023 03:51->METAR KJFK 200351Z 04004KT 10SM FEW250 08/05 A3016 RMK AO2 SLP212 T00780050=
20/04/2023 02:51->METAR KJFK 200251Z 05006KT 10SM FEW250 08/05 A3015 RMK AO2 SLP208 T00830050 51016=
20/04/2023 01:51->METAR KJFK 200151Z 05006KT 10SM FEW250 09/06 A3014 RMK AO2 SLP205 T00940056=
20/04/2023 00:51->METAR KJFK 200051Z 14006KT 10SM FEW250 09/06 A3012 RMK AO2 SLP200 T00940056=
19/04/2023 23:51->METAR KJFK 192351Z 07005KT 10SM FEW250 10/05 A3010 RMK AO2 PRESRR SLP192 T01000050 10178 20100 53029=
19/04/2023 22:51->METAR KJFK 192251Z 17013KT 10SM FEW250 11/05 A3006 RMK AO2 SLP177 T01110050=
19/04/2023 21:51->METAR KJFK 192151Z 25013KT 10SM BKN250 18/00 A3002 RMK AO2 SLP166 T01780000=
19/04/2023 20:51->METAR KJFK 192051Z 28007G20KT 10SM BKN250 17/00 A3001 RMK AO2 SLP163 T01720000 56013=
19/04/2023 19:51->METAR KJFK 191951Z 28010KT 10SM FEW055 BKN250 16/00 A3002 RMK AO2 SLP164 T01610000=
19/04/2023 18:51->METAR KJFK 191851Z 24012G21KT 10SM FEW055 BKN250 16/01 A3003 RMK AO2 SLP169 T01560006=
19/04/2023 17:51->METAR KJFK 191751Z 26015G20KT 10SM SCT055 14/00 A3005 RMK AO2 SLP175 T01440000 10144 20078 58006=
19/04/2023 16:51->METAR KJFK 191651Z 31014G20KT 10SM SCT050 13/M01 A3006 RMK AO2 SLP180 T01281006=
19/04/2023 15:51->METAR KJFK 191551Z 29016G25KT 10SM BKN050 12/M01 A3007 RMK AO2 SLP181 T01221011=
19/04/2023 14:51->METAR KJFK 191451Z 29016G23KT 10SM BKN049 10/M01 A3007 RMK AO2 SLP181 T01001011 53003=
19/04/2023 13:51->METAR KJFK 191351Z 26013KT 10SM SCT055 11/M01 A3005 RMK AO2 SLP176 SCT V BKN T01061011=
19/04/2023 12:51->METAR KJFK 191251Z 26012KT 10SM FEW042 SCT060 09/M01 A3005 RMK AO2 SLP174 T00941006=
19/04/2023 11:51->METAR KJFK 191151Z 27012KT 10SM FEW040 BKN060 08/M01 A3006 RMK AO2 SLP178 T00781011 10083 20061 51024=
19/04/2023 10:51->METAR KJFK 191051Z 27011KT 10SM FEW038 BKN060 07/M02 A3004 RMK AO2 SLP172 T00721017=
19/04/2023 09:51->METAR KJFK 190951Z 25013KT 10SM BKN070 07/M01 A3001 RMK AO2 SLP161 T00721011=
19/04/2023 08:51->METAR KJFK 190851Z 26010KT 10SM OVC070 07/M02 A2999 RMK AO2 SLP154 T00721017 53006=
19/04/2023 07:51->METAR KJFK 190751Z 25009KT 10SM BKN080 07/M01 A2998 RMK AO2 SLP152 T00721011=
19/04/2023 06:51->METAR KJFK 190651Z 29008KT 10SM FEW095 07/M03 A2997 RMK AO2 SLP147 T00671033=
19/04/2023 05:51->METAR KJFK 190551Z 31009KT 10SM FEW100 07/M04 A2997 RMK AO2 SLP149 T00721039 10106 20072 53008=
19/04/2023 04:51->METAR KJFK 190451Z 29008KT 10SM FEW100 07/M03 A2996 RMK AO2 SLP146 T00721033 401440072=
19/04/2023 03:51->METAR KJFK 190351Z 31011G20KT 10SM FEW055 FEW100 07/M03 A2995 RMK AO2 SLP141 T00721028=
19/04/2023 02:51->METAR KJFK 190251Z 31013KT 10SM FEW055 08/M02 A2995 RMK AO2 SLP140 T00831022 51033=
19/04/2023 01:51->METAR KJFK 190151Z 29014G24KT 10SM FEW055 09/M03 A2993 RMK AO2 SLP135 T00941028=
19/04/2023 00:51->METAR KJFK 190051Z 29017G25KT 10SM FEW055 FEW085 09/M03 A2990 RMK AO2 PK WND 30029/2357 SLP123 T00941028=
18/04/2023 23:51->METAR KJFK 182351Z 28015G25KT 10SM FEW055 FEW090 FEW250 11/M03 A2985 RMK AO2 SLP107 T01061028 10144 20106 53027=
18/04/2023 22:51->METAR KJFK 182251Z 30020G27KT 10SM FEW055 FEW250 12/M03 A2981 RMK AO2 PK WND 29030/2159 SLP094 T01171033=
18/04/2023 21:51->METAR KJFK 182151Z 28022G27KT 10SM FEW055 FEW250 13/M02 A2978 RMK AO2 PK WND 27030/2140 SLP086 T01331017=
18/04/2023 20:51->METAR KJFK 182051Z 28020G27KT 10SM FEW055 FEW250 14/00 A2977 RMK AO2 PK WND 26029/2025 SLP080 T01390000 53001=
18/04/2023 19:51->METAR KJFK 181951Z 28019G26KT 10SM FEW055 SCT250 14/01 A2976 RMK AO2 PK WND 29028/1940 SLP076 T01390006=
18/04/2023 18:51->METAR KJFK 181851Z 27019G27KT 10SM FEW055 BKN090 13/00 A2976 RMK AO2 PK WND 26028/1818 SLP078 T01280000=
18/04/2023 17:51->METAR KJFK 181751Z 29016G26KT 10SM FEW055 BKN090 12/01 A2977 RMK AO2 PK WND 29026/1658 SLP079 T01220006 10139 20111 51006=
18/04/2023 16:51->METAR KJFK 181651Z 29015G26KT 10SM FEW055 BKN090 13/01 A2976 RMK AO2 PK WND 29032/1618 SLP078 T01280011=
18/04/2023 15:51->METAR KJFK 181551Z 27016G24KT 10SM FEW055 BKN090 13/02 A2976 RMK AO2 SLP078 T01330022=
18/04/2023 14:51->METAR KJFK 181451Z 25018KT 10SM FEW055 BKN080 BKN120 12/02 A2975 RMK AO2 PK WND 22039/1424 SLP074 T01220017 53004=
18/04/2023 13:51->METAR KJFK 181351Z 23017KT 10SM FEW055 BKN110 13/03 A2974 RMK AO2 SLP070 T01330028=
18/04/2023 12:51->METAR KJFK 181251Z 25017KT 10SM BKN110 12/02 A2974 RMK AO2 SLP069 T01220017=
18/04/2023 11:51->METAR KJFK 181151Z 25017KT 10SM FEW046 BKN110 11/02 A2974 RMK AO2 SLP069 70001 T01110017 10122 20100 53011=
18/04/2023 10:51->METAR KJFK 181051Z 25017KT 10SM FEW046 SCT110 10/01 A2972 RMK AO2 SLP065 T01000011=
18/04/2023 09:51->METAR KJFK 180951Z 25014KT 10SM FEW110 10/00 A2971 RMK AO2 SLP061 T01000000=
18/04/2023 08:51->METAR KJFK 180851Z 25015G27KT 10SM FEW055 FEW110 10/00 A2971 RMK AO2 PK WND 26027/0843 SLP058 T01000000 56002=
18/04/2023 07:51->METAR KJFK 180751Z 25020G30KT 10SM FEW055 11/00 A2971 RMK AO2 PK WND 25031/0700 SLP059 T01060000=
18/04/2023 06:51->METAR KJFK 180651Z 25020G28KT 10SM FEW055 11/00 A2970 RMK AO2 PK WND 24028/0649 SLP057 T01110000=
18/04/2023 05:51->METAR KJFK 180551Z 25020G23KT 10SM FEW055 12/01 A2971 RMK AO2 PK WND 25027/0524 SLP060 T01220011 10167 20117 51009=
18/04/2023 04:51->METAR KJFK 180451Z 26015KT 10SM FEW055 FEW100 13/01 A2971 RMK AO2 PK WND 27029/0400 SLP059 T01280006 401940117=
18/04/2023 03:51->METAR KJFK 180351Z 26021G28KT 10SM FEW050 OVC095 14/M01 A2969 RMK AO2 PK WND 27030/0320 SLP054 T01441006=
18/04/2023 02:51->METAR KJFK 180251Z 26018G26KT 10SM OVC085 16/02 A2968 RMK AO2 PK WND 27028/0201 SLP051 T01560022 51021=
18/04/2023 01:51->METAR KJFK 180151Z 28016G27KT 10SM OVC080 16/02 A2967 RMK AO2 PK WND 27027/0143 SLP046 T01610022=
18/04/2023 00:51->METAR KJFK 180051Z 27011KT 10SM BKN085 BKN250 17/03 A2964 RMK AO2 SLP037 T01670028=
17/04/2023 23:51->METAR KJFK 172351Z 27014G19KT 10SM SCT080 SCT250 17/03 A2962 RMK AO2 SLP030 T01670028 10194 20144 53024=
17/04/2023 22:51->METAR KJFK 172251Z 26017KT 10SM SCT070 SCT250 18/03 A2959 RMK AO2 SLP019 T01780028=
17/04/2023 21:51->METAR KJFK 172151Z 24016KT 10SM SCT050 SCT250 18/05 A2957 RMK AO2 SLP012 T01830050=
17/04/2023 20:51->METAR KJFK 172051Z 25020KT 10SM FEW040 FEW085 BKN250 19/05 A2955 RMK AO2 SLP007 T01940050 55013=
17/04/2023 19:51->METAR KJFK 171951Z 23015KT 10SM FEW022 SCT040 SCT085 BKN250 18/09 A2955 RMK AO2 SLP005 T01830089=
17/04/2023 18:51->METAR KJFK 171851Z 25011KT 10SM SCT022 BKN085 BKN250 18/11 A2957 RMK AO2 SLP011 T01780111=
17/04/2023 17:51->METAR KJFK 171751Z 27017G22KT 10SM FEW009 BKN017 OVC027 15/11 A2959 RMK AO2 SLP020 FROPA 60001 T01500106 10150 20122 58005=
17/04/2023 16:51->METAR KJFK 171651Z 24009KT 1 1/2SM BR BKN005 OVC017 13/13 A2961 RMK AO2 SFC VIS 4 SLP026 CIG 004V006 T01330128=
17/04/2023 15:51->METAR KJFK 171551Z 31006KT 5SM BR BKN007 BKN013 OVC026 13/12 A2961 RMK AO2 SLP027 T01280117=
17/04/2023 14:51->METAR KJFK 171451Z 32007KT 5SM BR OVC005 13/13 A2961 RMK AO2 SLP025 60001 T01330128 56011=
17/04/2023 13:51->METAR KJFK 171351Z 01004KT 5SM BR OVC004 13/13 A2961 RMK AO2 RAE04 SLP026 P0000 T01330128=
17/04/2023 12:51->METAR KJFK 171251Z 09007KT 1/4SM R04R/5000VP6000FT -RA BR FEW000 OVC002 13/13 A2963 RMK AO2 SFC VIS 1 1/2 RAB11 SLP033 BR FEW000 P0001 T01280128=
17/04/2023 11:51->METAR KJFK 171151Z 08006KT 1SM R04R/P6000FT BR OVC003 12/12 A2964 RMK AO2 SFC VIS 5 SLP036 T01220122 10128 20117 53003 $=
17/04/2023 10:51->METAR KJFK 171051Z 07008KT 6SM BR OVC004 12/12 A2962 RMK AO2 SLP029 T01220117 $=
17/04/2023 09:51->METAR KJFK 170951Z 09008KT 1/4SM R04R/P6000FT BR OVC003 12/12 A2963 RMK AO2 SFC VIS 4 SLP033 T01220117 $=
17/04/2023 08:51->METAR KJFK 170851Z 08008KT 1/4SM R04R/P6000FT BR OVC003 13/13 A2964 RMK AO2 SFC VIS 4 SLP037 T01280128 56020 $=
17/04/2023 07:51->METAR KJFK 170751Z 08008KT 1/4SM R04R/P6000FT BR OVC003 13/13 A2965 RMK AO2 SFC VIS 3 SLP039 T01280128 $=
17/04/2023 06:51->METAR KJFK 170651Z 06006KT 1/4SM R04R/P6000FT BR OVC002 12/12 A2967 RMK AO2 SFC VIS 2 1/2 SLP046 T01220122 $=
17/04/2023 05:51->METAR KJFK 170551Z 07007KT 1/4SM R04R/P6000FT BR OVC002 12/12 A2970 RMK AO2 SFC VIS 1 1/2 SLP056 T01170117 10133 20111 58025 $=
17/04/2023 04:51->METAR KJFK 170451Z 10006KT 1/2SM R04R/6000VP6000FT BR OVC003 11/11 A2974 RMK AO2 SFC VIS 1 3/4 SLP071 T01110111 401890111 $=
17/04/2023 03:51->METAR KJFK 170351Z 07007KT 1/2SM R04R/P6000FT BR OVC003 11/11 A2975 RMK AO2 SFC VIS 4 SLP073 T01110106 $=
17/04/2023 02:51->METAR KJFK 170251Z 10010KT 1/2SM R04R/P6000FT BR OVC003 12/11 A2977 RMK AO2 SFC VIS 6 SLP081 T01170111 58004 $=
17/04/2023 01:51->METAR KJFK 170151Z 10012KT 1/2SM R04R/P6000FT OVC003 12/11 A2979 RMK AO2 SFC VIS 7 SLP088 T01170111 $=
17/04/2023 00:51->METAR KJFK 170051Z 09010KT 2SM VCFG BKN003 BKN006 BKN250 12/12 A2978 RMK AO2 SFC VIS 10 SLP083 VCFG SE T01220117 $=
16/04/2023 23:51->METAR KJFK 162351Z 10012KT 10SM FEW007 SCT040 BKN250 13/12 A2978 RMK AO2 SLP084 T01330122 10183 20133 56005 $=
16/04/2023 22:51->METAR KJFK 162251Z 11006KT 10SM FEW010 SCT045 BKN250 16/12 A2978 RMK AO2 SLP085 T01560122 $=
16/04/2023 21:51->METAR KJFK 162151Z 11010KT 10SM FEW009 SCT044 BKN250 16/14 A2979 RMK AO2 SLP087 T01610139 $=
16/04/2023 20:51->METAR KJFK 162051Z 10006KT 10SM FEW009 BKN049 BKN250 17/14 A2980 RMK AO2 SLP089 T01670139 58017 $=
16/04/2023 19:51->METAR KJFK 161951Z 13008KT 8SM FEW004 SCT009 BKN049 BKN250 17/14 A2982 RMK AO2 SLP096 T01670139 $=
16/04/2023 18:51->METAR KJFK 161851Z 14009KT 6SM HZ FEW004 FEW010 SCT029 BKN250 17/14 A2983 RMK AO2 SLP100 T01720139 $=
16/04/2023 17:51->METAR KJFK 161751Z 17008KT 7SM FEW006 FEW012 BKN031 BKN250 17/14 A2985 RMK AO2 CIG 006 W SLP106 T01670144 10189 20133 50003 $=
16/04/2023 16:51->METAR KJFK 161651Z 19008KT 10SM FEW015 FEW030 SCT150 BKN200 BKN250 18/15 A2984 RMK AO2 SLP106 T01830150 $=
16/04/2023 15:51->METAR KJFK 161551Z 18007KT 10SM SCT015 BKN150 BKN200 BKN260 18/15 A2984 RMK AO2 SLP103 T01780150 $=
16/04/2023 14:51->METAR KJFK 161451Z 00000KT 10SM BKN014 BKN250 18/14 A2985 RMK AO2 SLP108 T01830144 58010 $=
16/04/2023 13:51->METAR KJFK 161351Z 01008KT 6SM HZ BKN011 BKN016 BKN250 17/14 A2986 RMK AO2 SLP110 T01720144 $=
16/04/2023 12:51->METAR KJFK 161251Z 17005KT 4SM BR OVC008 14/14 A2988 RMK AO2 SLP117 T01440139 $=
16/04/2023 11:51->METAR KJFK 161151Z 00000KT 2SM BR OVC004 13/13 A2987 RMK AO2 SLP115 70002 T01330133 10139 20122 53010 $=
16/04/2023 10:51->METAR KJFK 161051Z 21006KT 1/2SM R04R/3000V3500FT BR OVC002 13/13 A2986 RMK AO2 SFC VIS 3/4 SLP110 T01280128 $=
16/04/2023 09:51->METAR KJFK 160951Z 00000KT 1/2SM R04R/5000VP6000FT BR OVC002 13/13 A2985 RMK AO2 SFC VIS 1 1/2 SLP106 T01330133 $=
16/04/2023 08:51->METAR KJFK 160851Z 01004KT 1/2SM R04R/5500V6000FT BR OVC002 14/14 A2984 RMK AO2 SFC VIS 2 SLP106 T01390139 58005 $=
16/04/2023 07:51->METAR KJFK 160751Z 00000KT 1/2SM R04R/4000V4500FT BR VV003 13/13 A2985 RMK AO2 SFC VIS 3/4 SLP107 T01280128 $=
16/04/2023 06:51->METAR KJFK 160651Z 00000KT 1/2SM R04R/5000VP6000FT BR VV003 12/12 A2987 RMK AO2 SFC VIS 1 SLP113 T01220122 $=
16/04/2023 05:51->METAR KJFK 160551Z 18004KT 1/2SM R04R/P6000FT BR OVC002 13/13 A2986 RMK AO2 SFC VIS 2 SLP111 60001 T01280128 10144 20128 53000 $=
16/04/2023 04:51->METAR KJFK 160451Z 12007KT 1/2SM R04R/P6000FT BR OVC002 13/13 A2984 RMK AO2 SFC VIS 1 1/2 SLP103 T01330133 401830122 $=
16/04/2023 03:51->METAR KJFK 160351Z 10004KT 1/2SM R04R/3000V3500FT FG VV002 14/14 A2983 RMK AO2 RAE0255 SLP102 P0000 T01390139 $=
16/04/2023 02:51->METAR KJFK 160251Z 09004KT 1/2SM R04R/2600V3500FT -RA FG VV003 13/13 A2986 RMK AO2 DZE46RAB46 SLP111 P0001 60001 T01330133 58013 $=
16/04/2023 01:51->METAR KJFK 160151Z 12005KT 1 1/2SM -DZ BR OVC003 14/14 A2988 RMK AO2 RAB21E38DZB47 SLP116 P0000 T01390139 $=
16/04/2023 00:51->METAR KJFK 160051Z 10007KT 1 1/2SM BR OVC004 14/14 A2988 RMK AO2 SFC VIS 5 SLP119 T01390139 $=
15/04/2023 23:51->METAR KJFK 152351Z 11003KT 1SM R04R/P6000FT BR OVC003 14/14 A2990 RMK AO2 SFC VIS 2 LTG DSNT N AND NW RAE00B30E48 SLP124 P0001 60001 T01440144 10178 20144 51006 $=
15/04/2023 22:51->METAR KJFK 152251Z 11004KT 1/2SM R04R/6000VP6000FT -RA BR OVC003 14/14 A2989 RMK AO2 SFC VIS 1 1/2 LTG DSNT W AND NW RAB45 SLP121 P0000 T01440144 $=
15/04/2023 21:51->METAR KJFK 152151Z 11008KT 1/2SM R04R/P6000FT BR OVC003 14/14 A2988 RMK AO2 SFC VIS 2 LTG DSNT W SLP118 T01440144 $=
15/04/2023 20:51->METAR KJFK 152051Z 11007KT 10SM BKN005 OVC020 16/14 A2987 RMK AO2 SLP115 T01560144 55011 $=
15/04/2023 19:51->METAR KJFK 151951Z 12009KT 10SM R04R/1600VP6000FT BKN006 BKN035 OVC070 16/14 A2987 RMK AO2 SLP114 VCFG SE T01610139 $=
15/04/2023 18:51->METAR KJFK 151851Z 13009KT 8SM BKN009 BKN016 BKN090 BKN200 18/15 A2988 RMK AO2 SLP119 T01780150 $=
15/04/2023 17:51->METAR KJFK 151751Z 11007KT 3SM BR OVC004 15/14 A2991 RMK AO2 LTG DSNT W SLP127 T01500139 10183 20133 57013 $=
15/04/2023 16:51->METAR KJFK 151651Z 14009KT 10SM FEW003 OVC009 17/14 A2993 RMK AO2 SLP134 T01670144 $=
15/04/2023 15:51->METAR KJFK 151551Z 12007KT 10SM FEW003 OVC007 18/15 A2992 RMK AO2 SLP133 T01780150 $=
15/04/2023 14:51->METAR KJFK 151451Z 14007KT 2 1/2SM OVC004 16/14 A2994 RMK AO2 SFC VIS 7 SLP140 VCFG SE T01610144 58000 $=
15/04/2023 13:51->METAR KJFK 151351Z 16005KT 1SM R04R/P6000FT OVC004 16/14 A2995 RMK AO2 SFC VIS 7 SLP140 VCFG T01560144 $=
15/04/2023 12:51->METAR KJFK 151251Z 17007KT 1SM R04R/P6000FT BR OVC004 14/13 A2996 RMK AO2 SFC VIS 5 SLP143 T01390128=
15/04/2023 11:51->METAR KJFK 151151Z 18006KT 10SM FEW014 SCT190 BKN250 15/13 A2995 RMK AO2 SLP140 T01500133 10150 20122 53013=
15/04/2023 10:51->METAR KJFK 151051Z 00000KT 10SM FEW004 SCT190 BKN250 13/12 A2993 RMK AO2 SLP136 T01280122=
15/04/2023 09:51->METAR KJFK 150951Z 16004KT 10SM BKN080 12/12 A2992 RMK AO2 SLP130 T01220122=
15/04/2023 08:51->METAR KJFK 150851Z 04003KT 10SM SCT190 14/13 A2991 RMK AO2 SLP127 T01390133 53004=
15/04/2023 07:51->METAR KJFK 150751Z 18007KT 10SM SCT200 13/13 A2991 RMK AO2 SLP127 T01330128=
15/04/2023 06:51->METAR KJFK 150651Z 19005KT 10SM FEW150 SCT210 14/13 A2990 RMK AO2 SLP123 T01440128=
15/04/2023 05:51->METAR KJFK 150551Z 20005KT 10SM SCT190 14/12 A2990 RMK AO2 SLP123 T01440122 10167 20139 51006=
15/04/2023 04:51->METAR KJFK 150451Z 19007KT 10SM FEW150 SCT220 OVC260 14/12 A2989 RMK AO2 SLP122 T01440117 402780128=
15/04/2023 03:51->METAR KJFK 150351Z 19004KT 10SM FEW150 SCT220 14/12 A2989 RMK AO2 SLP120 T01440117=
15/04/2023 02:51->METAR KJFK 150251Z 19008KT 10SM SCT190 16/12 A2988 RMK AO2 SLP117 T01560117 51011=
15/04/2023 01:51->METAR KJFK 150151Z 20010KT 10SM BKN230 16/12 A2988 RMK AO2 SLP117 T01610117=
15/04/2023 00:51->METAR KJFK 150051Z 20007KT 10SM SCT200 BKN250 16/12 A2986 RMK AO2 SLP112 T01560117=
14/04/2023 23:51->METAR KJFK 142351Z 23004KT 10SM BKN250 16/12 A2985 RMK AO2 SLP106 T01560117 10261 20156 53003=
14/04/2023 22:51->METAR KJFK 142251Z 18012KT 10SM FEW140 BKN250 17/11 A2984 RMK AO2 SLP104 T01720111=
14/04/2023 21:51->METAR KJFK 142151Z 18017KT 10SM FEW140 BKN250 19/11 A2984 RMK AO2 SLP103 T01940111=
14/04/2023 20:51->METAR KJFK 142051Z 18017KT 10SM BKN250 22/11 A2984 RMK AO2 SLP103 T02170106 58013=
14/04/2023 19:51->METAR KJFK 141951Z 19016G23KT 10SM BKN250 22/11 A2985 RMK AO2 SLP108 T02220106=
14/04/2023 18:51->METAR KJFK 141851Z 17008KT 10SM BKN250 22/11 A2988 RMK AO2 SLP118 T02170111=
14/04/2023 17:51->METAR KJFK 141751Z 17010KT 10SM BKN250 26/10 A2987 RMK AO2 SLP116 T02560100 10278 20183 58009=
14/04/2023 16:51->METAR KJFK 141651Z 18008KT 10SM BKN250 24/11 A2988 RMK AO2 SLP119 T02390106=
14/04/2023 15:51->METAR KJFK 141551Z 21007KT 10SM BKN250 27/09 A2989 RMK AO2 SLP122 T02670094=
14/04/2023 14:51->METAR KJFK 141451Z 19004KT 10SM BKN250 27/11 A2990 RMK AO2 SLP125 T02670106 51001=
14/04/2023 13:51->METAR KJFK 141351Z 22003KT 10SM BKN250 24/11 A2990 RMK AO2 SLP124 T02390106=
14/04/2023 12:51->METAR KJFK 141251Z 22006KT 10SM BKN250 21/10 A2990 RMK AO2 SLP124 T02060100=
14/04/2023 11:51->METAR KJFK 141151Z 23006KT 10SM SCT250 18/11 A2990 RMK AO2 SLP123 T01780106 10206 20128 53014=
14/04/2023 10:51->METAR KJFK 141051Z 24006KT 10SM FEW012 FEW250 15/09 A2988 RMK AO2 SLP116 FU FEW012 T01500089=
14/04/2023 09:51->METAR KJFK 140951Z 22004KT 10SM FEW012 FEW250 14/09 A2986 RMK AO2 SLP111 FU FEW012 T01390094=
14/04/2023 08:51->METAR KJFK 140851Z 22006KT 10SM CLR 14/09 A2985 RMK AO2 SLP109 T01440089 56002=
14/04/2023 07:51->METAR KJFK 140751Z 22009KT 10SM CLR 14/09 A2986 RMK AO2 SLP110 T01390094=
14/04/2023 06:51->METAR KJFK 140651Z 23006KT 10SM CLR 16/09 A2985 RMK AO2 SLP108 T01560094=
14/04/2023 05:51->METAR KJFK 140551Z 25009KT 10SM FEW250 16/10 A2986 RMK AO2 SLP111 T01610100 10244 20161 50006=
14/04/2023 04:51->METAR KJFK 140451Z 24008KT 10SM CLR 18/10 A2986 RMK AO2 SLP112 T01780100 402940117=
14/04/2023 03:51->METAR KJFK 140351Z 25010KT 10SM FEW250 19/09 A2985 RMK AO2 SLP108 T01940094=
14/04/2023 02:51->METAR KJFK 140251Z 22010KT 10SM FEW250 19/09 A2984 RMK AO2 SLP105 T01940089 51014=
14/04/2023 01:51->METAR KJFK 140151Z 24008KT 10SM FEW250 22/09 A2983 RMK AO2 SLP102 T02170094=
14/04/2023 00:51->METAR KJFK 140051Z 24011KT 10SM FEW250 22/09 A2982 RMK AO2 SLP097 T02220094=
13/04/2023 23:51->METAR KJFK 132351Z 23015KT 10SM FEW250 23/09 A2980 RMK AO2 SLP091 T02330094 10294 20228 53002=
13/04/2023 22:51->METAR KJFK 132251Z 23015KT 10SM FEW250 26/09 A2979 RMK AO2 SLP087 T02560094=
13/04/2023 21:51->METAR KJFK 132151Z 20011KT 10SM FEW250 23/11 A2979 RMK AO2 SLP087 T02330106=
13/04/2023 20:51->METAR KJFK 132051Z 20012KT 10SM FEW250 25/10 A2979 RMK AO2 SLP088 T02500100 58017=
13/04/2023 19:51->METAR KJFK 131951Z 19013KT 10SM FEW250 26/10 A2981 RMK AO2 SLP095 T02560100=
13/04/2023 18:51->METAR KJFK 131851Z 19015KT 10SM FEW250 26/09 A2983 RMK AO2 SLP102 T02610094=
13/04/2023 17:51->METAR KJFK 131751Z 21014KT 10SM CLR 28/09 A2984 RMK AO2 SLP106 T02830094 10283 20172 56017=
13/04/2023 16:51->METAR KJFK 131651Z 21014KT 10SM CLR 27/10 A2986 RMK AO2 SLP110 T02720100=
13/04/2023 15:51->METAR KJFK 131551Z 22014KT 10SM CLR 26/10 A2988 RMK AO2 SLP118 T02560100=
13/04/2023 14:51->METAR KJFK 131451Z 23012KT 10SM CLR 24/10 A2989 RMK AO2 SLP123 T02440100 58003=
13/04/2023 13:51->METAR KJFK 131351Z 24008KT 10SM CLR 24/10 A2990 RMK AO2 SLP124 T02390100=
13/04/2023 12:51->METAR KJFK 131251Z 24008KT 10SM CLR 19/10 A2991 RMK AO2 SLP127 T01940100=
13/04/2023 11:51->METAR KJFK 131151Z 23007KT 10SM CLR 17/11 A2990 RMK AO2 SLP126 T01720106 10172 20117 51009=
13/04/2023 10:51->METAR KJFK 131051Z 24006KT 10SM CLR 13/09 A2990 RMK AO2 SLP124 T01280094=
13/04/2023 09:51->METAR KJFK 130951Z 24003KT 10SM CLR 13/09 A2989 RMK AO2 SLP120 T01280089=
13/04/2023 08:51->METAR KJFK 130851Z 25005KT 10SM CLR 15/09 A2988 RMK AO2 SLP117 T01500089 53008=
13/04/2023 07:51->METAR KJFK 130751Z 25003KT 10SM CLR 13/09 A2987 RMK AO2 SLP113 T01330089=
13/04/2023 06:51->METAR KJFK 130651Z 25003KT 10SM CLR 17/09 A2986 RMK AO2 SLP110 T01670094=
13/04/2023 05:51->METAR KJFK 130551Z 26006KT 10SM CLR 16/09 A2985 RMK AO2 SLP108 T01560089 10228 20156 53008=
13/04/2023 04:51->METAR KJFK 130451Z 24009KT 10SM CLR 16/09 A2984 RMK AO2 SLP105 T01610089 402890133=
13/04/2023 03:51->METAR KJFK 130351Z 24008KT 10SM CLR 17/09 A2983 RMK AO2 SLP101 T01670089=
13/04/2023 02:51->METAR KJFK 130251Z 23011KT 10SM CLR 19/08 A2983 RMK AO2 SLP101 T01890083 51013=
13/04/2023 01:51->METAR KJFK 130151Z 23007KT 10SM CLR 18/09 A2983 RMK AO2 SLP101 T01780089=
13/04/2023 00:51->METAR KJFK 130051Z 26006KT 10SM CLR 21/09 A2981 RMK AO2 SLP094 T02060089=
12/04/2023 23:51->METAR KJFK 122351Z 24009KT 10SM FEW080 22/08 A2979 RMK AO2 SLP087 T02170083 10289 20211 53007=
12/04/2023 22:51->METAR KJFK 122251Z 24012KT 10SM FEW080 25/07 A2978 RMK AO2 SLP084 T02500072=
12/04/2023 21:51->METAR KJFK 122151Z 24011KT 10SM FEW080 26/07 A2977 RMK AO2 SLP082 T02610072=
12/04/2023 20:51->METAR KJFK 122051Z 27017G24KT 10SM FEW080 FEW180 28/04 A2977 RMK AO2 PK WND 30026/2020 SLP080 T02830039 56017=
12/04/2023 19:51->METAR KJFK 121951Z 27016G24KT 10SM FEW080 FEW180 FEW250 28/04 A2978 RMK AO2 SLP084 T02830044=
12/04/2023 18:51->METAR KJFK 121851Z 27017G22KT 10SM FEW080 FEW250 28/04 A2980 RMK AO2 SLP092 T02780044=
12/04/2023 17:51->METAR KJFK 121751Z 31011G24KT 10SM FEW080 FEW250 27/06 A2982 RMK AO2 SLP097 T02720056 10278 20156 58021=
12/04/2023 16:51->METAR KJFK 121651Z 31015G19KT 10SM FEW250 27/06 A2984 RMK AO2 SLP105 T02670061=
12/04/2023 15:51->METAR KJFK 121551Z 29012G19KT 10SM FEW170 SCT250 24/06 A2986 RMK AO2 SLP112 T02440056=
12/04/2023 14:51->METAR KJFK 121451Z 29017G21KT 10SM SCT170 BKN250 23/06 A2988 RMK AO2 SLP117 T02280056 56002=
12/04/2023 13:51->METAR KJFK 121351Z 29013G20KT 10SM BKN170 BKN250 21/04 A2988 RMK AO2 SLP119 T02060044=
12/04/2023 12:51->METAR KJFK 121251Z 24009KT 10SM BKN170 BKN250 18/07 A2988 RMK AO2 SLP117 T01780067=
12/04/2023 11:51->METAR KJFK 121151Z 23010KT 10SM BKN180 BKN250 16/06 A2989 RMK AO2 SLP120 T01560056 10183 20133 53008=
12/04/2023 10:51->METAR KJFK 121051Z 24011KT 10SM BKN170 OVC250 14/06 A2987 RMK AO2 SLP114 T01440061=
12/04/2023 09:51->METAR KJFK 120951Z 23010KT 10SM BKN160 OVC250 14/06 A2987 RMK AO2 SLP113 T01440056=
12/04/2023 08:51->METAR KJFK 120851Z 24009KT 10SM OVC230 15/04 A2986 RMK AO2 SLP111 T01500044 56014=
12/04/2023 07:51->METAR KJFK 120751Z 24008KT 10SM FEW180 OVC250 14/06 A2986 RMK AO2 SLP112 T01390056=
12/04/2023 06:51->METAR KJFK 120651Z 25010KT 10SM SCT180 BKN250 15/04 A2989 RMK AO2 SLP119 T01500044=
12/04/2023 05:51->METAR KJFK 120551Z 24012KT 10SM BKN180 OVC250 15/05 A2990 RMK AO2 SLP126 T01500050 10178 20144 58012=
12/04/2023 04:51->METAR KJFK 120451Z 25014KT 10SM BKN180 OVC250 16/05 A2992 RMK AO2 SLP131 T01610050 402280072=
12/04/2023 03:51->METAR KJFK 120351Z 24014KT 10SM FEW180 OVC250 16/06 A2992 RMK AO2 SLP133 T01560056=
12/04/2023 02:51->METAR KJFK 120251Z 24016KT 10SM FEW170 BKN240 16/05 A2994 RMK AO2 SLP138 T01560050 58009=
12/04/2023 01:51->METAR KJFK 120151Z 22012KT 10SM OVC220 16/04 A2995 RMK AO2 SLP143 T01610039=
12/04/2023 00:51->METAR KJFK 120051Z 23014KT 10SM BKN180 BKN250 18/03 A2996 RMK AO2 SLP145 T01780028=
11/04/2023 23:51->METAR KJFK 112351Z 23013KT 10SM FEW140 BKN210 BKN250 17/04 A2997 RMK AO2 SLP147 T01720039 10228 20172 56006=
11/04/2023 22:51->METAR KJFK 112251Z 24015KT 10SM SCT190 BKN250 18/04 A2997 RMK AO2 SLP149 T01780039=
11/04/2023 21:51->METAR KJFK 112151Z 23015KT 10SM SCT160 OVC250 19/03 A2997 RMK AO2 SLP150 T01940028=
11/04/2023 20:51->METAR KJFK 112051Z 23017KT 10SM FEW180 SCT200 BKN250 21/02 A2998 RMK AO2 SLP153 T02060022 56035=
11/04/2023 19:51->METAR KJFK 111951Z 23020KT 10SM FEW140 BKN250 22/02 A3001 RMK AO2 SLP162 T02220017=
11/04/2023 18:51->METAR KJFK 111851Z 23020KT 10SM FEW140 BKN250 22/01 A3005 RMK AO2 SLP174 T02170011=
11/04/2023 17:51->METAR KJFK 111751Z 20015KT 10SM FEW180 BKN250 21/03 A3009 RMK AO2 SLP188 T02060033 10217 20106 58033=
11/04/2023 16:51->METAR KJFK 111651Z 23014KT 10SM FEW180 BKN250 21/02 A3013 RMK AO2 SLP202 T02060017=
11/04/2023 15:51->METAR KJFK 111551Z 23014KT 10SM FEW180 BKN250 18/02 A3016 RMK AO2 SLP211 T01780022=
11/04/2023 14:51->METAR KJFK 111451Z 23009KT 10SM BKN250 16/04 A3019 RMK AO2 SLP221 T01560039 58015=
11/04/2023 13:51->METAR KJFK 111351Z 23008KT 10SM BKN250 13/04 A3020 RMK AO2 SLP226 T01330044=
11/04/2023 12:51->METAR KJFK 111251Z 26008KT 10SM BKN250 13/02 A3022 RMK AO2 SLP234 T01280017=
11/04/2023 11:51->METAR KJFK 111151Z 25005KT 10SM BKN250 10/02 A3023 RMK AO2 SLP236 T01000017 10100 20072 53002=
11/04/2023 10:51->METAR KJFK 111051Z 24009KT 10SM BKN250 08/02 A3022 RMK AO2 SLP233 T00780022=
11/04/2023 09:51->METAR KJFK 110951Z 25009KT 10SM FEW250 08/02 A3022 RMK AO2 SLP232 T00830017=
11/04/2023 08:51->METAR KJFK 110851Z 25009KT 10SM CLR 08/03 A3022 RMK AO2 SLP234 T00780028 56015=
11/04/2023 07:51->METAR KJFK 110751Z 25009KT 10SM CLR 09/02 A3023 RMK AO2 SLP238 T00940017=
11/04/2023 06:51->METAR KJFK 110651Z 25009KT 10SM CLR 09/03 A3025 RMK AO2 SLP242 T00890028=
11/04/2023 05:51->METAR KJFK 110551Z 24009KT 10SM CLR 09/03 A3027 RMK AO2 SLP249 T00890028 10100 20072 58012=
11/04/2023 04:51->METAR KJFK 110451Z 23010KT 10SM CLR 09/04 A3028 RMK AO2 SLP252 T00890039 401440033=
11/04/2023 03:51->METAR KJFK 110351Z 22008KT 10SM CLR 09/04 A3029 RMK AO2 SLP258 T00890039=
11/04/2023 02:51->METAR KJFK 110251Z 21005KT 10SM FEW250 08/06 A3030 RMK AO2 SLP261 T00780056 58003=
11/04/2023 01:51->METAR KJFK 110151Z 21006KT 10SM FEW250 08/06 A3032 RMK AO2 SLP267 T00830056=
11/04/2023 00:51->METAR KJFK 110051Z 19012KT 10SM FEW250 09/05 A3032 RMK AO2 SLP266 T00940050=
10/04/2023 23:51->METAR KJFK 102351Z 19014KT 10SM FEW250 09/04 A3031 RMK AO2 SLP264 T00940039 10139 20094 58012=
10/04/2023 22:51->METAR KJFK 102251Z 19016G20KT 10SM SCT250 11/03 A3033 RMK AO2 SLP269 T01060033=
10/04/2023 21:51->METAR KJFK 102151Z 18014KT 10SM SCT250 11/03 A3034 RMK AO2 SLP272 T01110033=
10/04/2023 20:51->METAR KJFK 102051Z 18014KT 10SM SCT250 12/03 A3035 RMK AO2 SLP276 T01220033 56021=
10/04/2023 19:51->METAR KJFK 101951Z 19014KT 10SM SCT250 13/04 A3036 RMK AO2 SLP281 T01280039=
10/04/2023 18:51->METAR KJFK 101851Z 19013KT 10SM SCT250 13/04 A3038 RMK AO2 SLP288 T01280039=
10/04/2023 17:51->METAR KJFK 101751Z 19012KT 10SM FEW250 13/02 A3041 RMK AO2 SLP297 T01330022 10144 20072 58026=
10/04/2023 16:51->METAR KJFK 101651Z 18012KT 10SM FEW250 14/02 A3044 RMK AO2 SLP307 T01390017=
10/04/2023 15:51->METAR KJFK 101551Z 22013KT 10SM FEW250 13/01 A3047 RMK AO2 SLP318 T01280011=
10/04/2023 14:51->METAR KJFK 101451Z 23012KT 10SM FEW250 11/00 A3049 RMK AO2 SLP323 T01060000 58007=
10/04/2023 13:51->METAR KJFK 101351Z 22009KT 10SM FEW250 09/01 A3050 RMK AO2 SLP326 T00940011=
10/04/2023 12:51->METAR KJFK 101251Z 23008KT 10SM CLR 09/03 A3051 RMK AO2 SLP330 T00890028 $=
10/04/2023 11:51->METAR KJFK 101151Z 25008KT 10SM CLR 07/03 A3051 RMK AO2 SLP330 T00720028 10072 20033 53006 $=
10/04/2023 10:51->METAR KJFK 101051Z 24009KT 10SM CLR 05/03 A3050 RMK AO2 SLP328 T00500033 $=
10/04/2023 09:51->METAR KJFK 100951Z 23008KT 10SM CLR 04/02 A3049 RMK AO2 SLP324 T00440022 $=
10/04/2023 08:51->METAR KJFK 100851Z 23007KT 10SM CLR 04/02 A3049 RMK AO2 SLP324 T00390017 55002 $=
10/04/2023 07:51->METAR KJFK 100751Z 25007KT 10SM CLR 04/01 A3049 RMK AO2 SLP323 T00440011 $=
10/04/2023 06:51->METAR KJFK 100651Z 22007KT 10SM CLR 03/01 A3048 RMK AO2 SLP322 T00330006 $=
10/04/2023 05:51->METAR KJFK 100551Z 22006KT 10SM CLR 04/01 A3050 RMK AO2 SLP326 T00390011 10061 20039 58003 $=
10/04/2023 04:51->METAR KJFK 100451Z 22007KT 10SM CLR 04/01 A3050 RMK AO2 SLP328 T00440006 401060033 $=
10/04/2023 03:51->METAR KJFK 100351Z 20008KT 10SM CLR 05/01 A3050 RMK AO2 SLP328 T00500006 $=
10/04/2023 02:51->METAR KJFK 100251Z 19007KT 10SM CLR 04/01 A3051 RMK AO2 SLP329 T00440006 51006 $=
10/04/2023 01:51->METAR KJFK 100151Z 17006KT 10SM CLR 05/00 A3051 RMK AO2 SLP329 T00500000 $=
10/04/2023 00:51->METAR KJFK 100051Z 16007KT 10SM CLR 06/00 A3050 RMK AO2 SLP326 T00560000 $=
09/04/2023 23:51->METAR KJFK 092351Z 17008KT 10SM CLR 06/00 A3049 RMK AO2 SLP324 T00610000 10106 20061 56006 $=
09/04/2023 22:51->METAR KJFK 092251Z 17009KT 10SM CLR 07/00 A3049 RMK AO2 SLP325 T00670000 $=
09/04/2023 21:51->METAR KJFK 092151Z 17013KT 10SM CLR 08/M01 A3050 RMK AO2 SLP328 T00781006 $=
09/04/2023 20:51->METAR KJFK 092051Z 15011G18KT 10SM FEW055 09/M01 A3051 RMK AO2 SLP329 T00891011 56010 $=
09/04/2023 19:51->METAR KJFK 091951Z 14012KT 10SM FEW050 09/M03 A3051 RMK AO2 SLP331 T00941033 $=
09/04/2023 18:51->METAR KJFK 091851Z 15014KT 10SM FEW050 09/M03 A3053 RMK AO2 SLP337 T00941033 $=
09/04/2023 17:51->METAR KJFK 091751Z 12012KT 10SM FEW050 10/M02 A3054 RMK AO2 SLP340 T01001022 10106 20061 55000 $=
09/04/2023 16:51->METAR KJFK 091651Z 13015KT 10SM FEW050 FEW250 10/M02 A3054 RMK AO2 SLP340 T01001022 $=
09/04/2023 15:51->METAR KJFK 091551Z 12014KT 10SM FEW250 10/M02 A3054 RMK AO2 SLP341 T01001017 $=
09/04/2023 14:51->METAR KJFK 091451Z 08008KT 10SM FEW250 11/M04 A3054 RMK AO2 SLP340 T01061039 53013 $=
09/04/2023 13:51->METAR KJFK 091351Z 06009KT 10SM FEW200 FEW250 09/M03 A3052 RMK AO2 SLP336 T00941033 $=
09/04/2023 12:51->METAR KJFK 091251Z 05012KT 10SM FEW200 FEW250 08/M03 A3051 RMK AO2 SLP331 T00781028 $=
09/04/2023 11:51->METAR KJFK 091151Z 02007KT 10SM FEW200 SCT250 06/M02 A3050 RMK AO2 SLP327 T00611017 10061 20033 53018 $=
09/04/2023 10:51->METAR KJFK 091051Z 01005KT 10SM FEW200 BKN250 03/M02 A3048 RMK AO2 SLP321 T00331022 $=
09/04/2023 09:51->METAR KJFK 090951Z 02004KT 10SM SCT250 04/M02 A3046 RMK AO2 SLP314 T00391022 $=
09/04/2023 08:51->METAR KJFK 090851Z 03004KT 10SM BKN250 04/M03 A3045 RMK AO2 SLP309 T00391028 55002 $=
09/04/2023 07:51->METAR KJFK 090751Z 32006KT 10SM BKN230 05/M03 A3045 RMK AO2 SLP309 T00501033 $=
09/04/2023 06:51->METAR KJFK 090651Z 27003KT 10SM OVC250 05/M04 A3045 RMK AO2 SLP309 T00501039 $=
09/04/2023 05:51->METAR KJFK 090551Z 27004KT 10SM BKN250 04/M03 A3045 RMK AO2 SLP311 T00441028 10061 20044 58006 $=
09/04/2023 04:51->METAR KJFK 090451Z 25007KT 10SM OVC250 05/M02 A3046 RMK AO2 SLP314 T00501017 401060033 $=
09/04/2023 03:51->METAR KJFK 090351Z 24008KT 10SM BKN250 05/M01 A3047 RMK AO2 SLP316 T00501011 $=
09/04/2023 02:51->METAR KJFK 090251Z 23009KT 10SM OVC250 06/M01 A3047 RMK AO2 SLP317 T00561011 51011 $=
09/04/2023 01:51->METAR KJFK 090151Z 21010KT 10SM OVC240 06/00 A3046 RMK AO2 SLP314 T00610000 $=
09/04/2023 00:51->METAR KJFK 090051Z 20010KT 10SM OVC230 06/M01 A3045 RMK AO2 SLP311 T00611006 $=
08/04/2023 23:51->METAR KJFK 082351Z 20011KT 10SM BKN220 OVC250 06/M02 A3044 RMK AO2 SLP306 T00611017 10106 20061 51004 $=
08/04/2023 22:51->METAR KJFK 082251Z 18010KT 10SM BKN220 OVC250 07/M02 A3044 RMK AO2 SLP305 T00671022 $=
08/04/2023 21:51->METAR KJFK 082151Z 17011KT 10SM SCT220 OVC250 07/M03 A3044 RMK AO2 SLP306 T00721028 $=
08/04/2023 20:51->METAR KJFK 082051Z 18010KT 10SM FEW200 BKN250 08/M03 A3042 RMK AO2 SLP302 T00781033 56024 $=
08/04/2023 19:51->METAR KJFK 081951Z 18010KT 10SM FEW200 BKN250 08/M04 A3045 RMK AO2 SLP309 T00781044 $=
08/04/2023 18:51->METAR KJFK 081851Z VRB05KT 10SM FEW200 BKN250 11/M08 A3047 RMK AO2 SLP317 T01061078 $=
08/04/2023 17:51->METAR KJFK 081751Z 36008KT 10SM BKN250 09/M07 A3050 RMK AO2 SLP326 T00941072 10094 20039 58019 $=
08/04/2023 16:51->METAR KJFK 081651Z 03008KT 10SM BKN250 09/M06 A3052 RMK AO2 SLP333 T00891061 $=
08/04/2023 15:51->METAR KJFK 081551Z 29007KT 10SM BKN250 08/M07 A3054 RMK AO2 SLP342 T00781067 $=
08/04/2023 14:51->METAR KJFK 081451Z 33013G17KT 10SM FEW055 BKN250 07/M06 A3055 RMK AO2 SLP345 T00721061 51004 $=
08/04/2023 13:51->METAR KJFK 081351Z 01009KT 10SM BKN250 07/M06 A3055 RMK AO2 SLP344 T00671061 $=
08/04/2023 12:51->METAR KJFK 081251Z 35011KT 10SM SCT250 06/M06 A3055 RMK AO2 SLP343 T00561061 $=
08/04/2023 11:51->METAR KJFK 081151Z 02007KT 10SM SCT150 BKN250 04/M06 A3054 RMK AO2 SLP340 T00391061 10056 20033 51024 $=
08/04/2023 10:51->METAR KJFK 081051Z 02007KT 10SM BKN150 BKN250 03/M07 A3051 RMK AO2 SLP332 T00331072 $=
08/04/2023 09:51->METAR KJFK 080951Z 01008KT 10SM BKN200 BKN250 04/M08 A3049 RMK AO2 SLP325 T00391078 $=
08/04/2023 08:51->METAR KJFK 080851Z 01010KT 10SM BKN200 OVC250 04/M07 A3047 RMK AO2 SLP317 T00391072 53012 $=
08/04/2023 07:51->METAR KJFK 080751Z 02009KT 10SM SCT200 OVC250 04/M07 A3044 RMK AO2 SLP307 T00441072 $=
08/04/2023 06:51->METAR KJFK 080651Z 35010KT 10SM BKN200 OVC250 05/M08 A3043 RMK AO2 SLP305 T00501083 $=
08/04/2023 05:51->METAR KJFK 080551Z 33015G20KT 10SM BKN200 BKN250 06/M08 A3043 RMK AO2 SLP305 T00561083 10094 20056 53012 $=
08/04/2023 04:51->METAR KJFK 080451Z 34011KT 10SM BKN250 06/M08 A3042 RMK AO2 SLP301 T00611083 401440061 $=
08/04/2023 03:51->METAR KJFK 080351Z 33018KT 10SM SCT220 BKN250 07/M09 A3041 RMK AO2 SLP296 T00671089 $=
08/04/2023 02:51->METAR KJFK 080251Z 33016G22KT 10SM BKN200 BKN250 08/M09 A3040 RMK AO2 SLP293 T00781089 51018 $=
08/04/2023 01:51->METAR KJFK 080151Z 32016G24KT 10SM BKN210 OVC250 08/M09 A3038 RMK AO2 PK WND 31028/0122 SLP287 T00831094 $=
08/04/2023 00:51->METAR KJFK 080051Z 33014KT 10SM BKN200 OVC250 09/M08 A3037 RMK AO2 PK WND 33026/0009 SLP282 T00941078 $=
07/04/2023 23:51->METAR KJFK 072351Z 33013KT 10SM BKN190 OVC240 09/M07 A3034 RMK AO2 SLP275 T00941072 10133 20094 51018 $=
07/04/2023 22:51->METAR KJFK 072251Z 33015KT 10SM OVC170 11/M06 A3033 RMK AO2 PK WND 31028/2226 SLP270 T01061061 $=
07/04/2023 21:51->METAR KJFK 072151Z 30014G20KT 10SM BKN160 OVC250 12/M06 A3031 RMK AO2 SLP263 T01171061 $=
07/04/2023 20:51->METAR KJFK 072051Z 30016G22KT 10SM BKN150 OVC250 12/M07 A3029 RMK AO2 SLP257 T01171067 56008 $=
07/04/2023 19:51->METAR KJFK 071951Z 29016G22KT 10SM BKN140 OVC250 12/M07 A3029 RMK AO2 SLP257 T01221067 $=
07/04/2023 18:51->METAR KJFK 071851Z 30014KT 10SM BKN130 OVC250 13/M06 A3030 RMK AO2 SLP259 T01331061 $=
07/04/2023 17:51->METAR KJFK 071751Z 30012KT 10SM BKN120 OVC160 13/M06 A3032 RMK AO2 SLP265 T01281061 10139 20106 55005=
07/04/2023 16:51->METAR KJFK 071651Z 31013G20KT 10SM FEW110 OVC160 13/M06 A3032 RMK AO2 SLP265 T01331056=
07/04/2023 15:51->METAR KJFK 071551Z 30014KT 10SM FEW110 BKN150 OVC250 13/M06 A3033 RMK AO2 SLP270 T01331056=
07/04/2023 14:51->METAR KJFK 071451Z 32013KT 10SM SCT110 BKN140 OVC250 12/M06 A3033 RMK AO2 SLP270 T01171056 55003=
07/04/2023 13:51->METAR KJFK 071351Z 32016KT 10SM BKN110 OVC250 12/M06 A3033 RMK AO2 SLP269 T01171061=
07/04/2023 12:51->METAR KJFK 071251Z 32020G25KT 10SM BKN100 BKN250 11/M06 A3033 RMK AO2 SLP272 T01111056=
07/04/2023 11:51->METAR KJFK 071151Z 33013KT 10SM BKN100 BKN250 11/M05 A3034 RMK AO2 SLP273 70002 T01111050 10144 20111 53030=
07/04/2023 10:51->METAR KJFK 071051Z 31016KT 10SM BKN100 BKN150 BKN220 12/M06 A3032 RMK AO2 SLP266 T01171056=
07/04/2023 09:51->METAR KJFK 070951Z 33013KT 10SM SCT090 BKN150 OVC220 12/M04 A3027 RMK AO2 SLP250 T01221044=
07/04/2023 08:51->METAR KJFK 070851Z 32014KT 10SM BKN100 OVC150 13/M05 A3025 RMK AO2 SLP244 T01281050 53008=
07/04/2023 07:51->METAR KJFK 070751Z 33013KT 10SM OVC100 13/M03 A3024 RMK AO2 SLP240 T01331028=
07/04/2023 06:51->METAR KJFK 070651Z 33016G24KT 10SM BKN085 OVC110 14/00 A3022 RMK AO2 SLP234 T01390000=
07/04/2023 05:51->METAR KJFK 070551Z 33015KT 10SM BKN075 OVC110 14/06 A3023 RMK AO2 RAE0452 SLP235 P0000 60002 T01440061 10194 20139 50013=
07/04/2023 04:51->METAR KJFK 070451Z 34010KT 10SM -RA OVC070 14/09 A3023 RMK AO2 SLP236 P0000 T01440089 402330089=
07/04/2023 03:51->METAR KJFK 070351Z 35012KT 10SM -RA BKN060 OVC095 14/08 A3019 RMK AO2 RAE0255B35 SLP224 P0000 T01440083=
07/04/2023 02:51->METAR KJFK 070251Z 33011KT 10SM -RA BKN050 OVC120 16/09 A3019 RMK AO2 SLP222 P0002 60002 T01610094 53018=
07/04/2023 01:51->METAR KJFK 070151Z 34006KT 9SM RA FEW050 BKN065 OVC090 17/11 A3017 RMK AO2 RAB44 SLP217 P0000 T01720111=
07/04/2023 00:51->METAR KJFK 070051Z 35012KT 10SM BKN060 BKN095 BKN140 18/11 A3015 RMK AO2 SLP210 T01780111=
06/04/2023 23:51->METAR KJFK 062351Z 33019G25KT 10SM FEW030 BKN055 BKN100 19/14 A3014 RMK AO2 SLP205 T01940139 10233 20133 53013=
06/04/2023 22:51->METAR KJFK 062251Z 20006KT 10SM BKN055 BKN075 BKN110 16/13 A3009 RMK AO2 SLP190 T01560128=
06/04/2023 21:51->METAR KJFK 062151Z 16006KT 10SM SCT065 BKN110 BKN150 BKN250 17/13 A3009 RMK AO2 SLP188 T01670133=
06/04/2023 20:51->METAR KJFK 062051Z 19005KT 8SM FEW060 SCT110 BKN150 BKN220 14/12 A3010 RMK AO2 SLP192 T01440117 56006=
06/04/2023 19:51->METAR KJFK 061951Z 18008KT 7SM FEW080 SCT120 SCT200 BKN250 15/11 A3010 RMK AO2 WSHFT 1901 SLP194 T01500106=
06/04/2023 18:51->METAR KJFK 061851Z 24010KT 10SM FEW075 BKN130 BKN250 23/15 A3009 RMK AO2 SLP190 T02330150=
06/04/2023 17:51->METAR KJFK 061751Z 23008KT 10SM BKN140 BKN250 20/14 A3012 RMK AO2 SLP198 T02000139 10206 20094 58011=
06/04/2023 16:51->METAR KJFK 061651Z 23008KT 7SM FEW085 BKN140 BKN250 19/13 A3013 RMK AO2 SLP203 T01890133=
06/04/2023 15:51->METAR KJFK 061551Z 23006KT 7SM BKN120 BKN250 16/12 A3016 RMK AO2 SLP212 T01610117=
06/04/2023 14:51->METAR KJFK 061451Z 31005KT 8SM FEW045 BKN100 BKN250 17/12 A3015 RMK AO2 SLP209 T01670122 51009=
06/04/2023 13:51->METAR KJFK 061351Z 32004KT 8SM FEW010 FEW045 BKN110 BKN250 13/11 A3014 RMK AO2 SLP205 T01330111=
06/04/2023 12:51->METAR KJFK 061251Z 00000KT 7SM FEW006 FEW048 BKN120 BKN250 11/09 A3014 RMK AO2 SLP204 T01060094=
06/04/2023 11:51->METAR KJFK 061151Z 34005KT 5SM BR SCT004 SCT080 BKN130 BKN250 09/09 A3012 RMK AO2 SLP200 VIS W-NE 2 1/2 60000 T00940094 10106 20089 53013=
06/04/2023 10:51->METAR KJFK 061051Z 34006KT 1/4SM R04R/1600V2800FT BR SCT000 BKN002 BKN037 OVC085 09/09 A3010 RMK AO2 SFC VIS 3/4 SLP193 BR SCT000 T00940094=
06/04/2023 09:51->METAR KJFK 060951Z 36003KT 1/4SM R04R/4000VP6000FT BR OVC002 09/09 A3009 RMK AO2 SFC VIS 1 SLP189 VIS E 1/2 T00940089=
06/04/2023 08:51->METAR KJFK 060851Z 34007KT 1/4SM R04R/4500V5000FT BR OVC002 09/09 A3009 RMK AO2 SFC VIS 2 RAB17E45 SLP187 P0000 60000 T00940094 56008=
06/04/2023 07:51->METAR KJFK 060751Z 35006KT 1/4SM R04R/1800V2000FT FG VV002 09/09 A3009 RMK AO2 SLP190 T00940094=
06/04/2023 06:51->METAR KJFK 060651Z 36006KT 1/4SM R04R/1800FT FG VV002 10/10 A3011 RMK AO2 SLP195 T01000100=
06/04/2023 05:51->METAR KJFK 060551Z 04003KT 1/4SM R04R/1600FT FG VV002 11/11 A3012 RMK AO2 DZE0457 SLP198 P0000 60000 T01060106 10106 20089 58005=
06/04/2023 04:51->METAR KJFK 060451Z 07003KT 1/4SM R04R/1800FT -DZ FG VV002 11/11 A3013 RMK AO2 SLP201 P0000 T01060106 401220089=
06/04/2023 03:51->METAR KJFK 060351Z 09004KT 1/4SM R04R/1800V2000FT -DZ FG VV002 10/10 A3013 RMK AO2 SFC VIS 1/2 SLP203 P0000 T01000100=
06/04/2023 02:51->METAR KJFK 060251Z 07005KT 1/4SM R04R/2400V2800FT -DZ FG VV002 10/10 A3016 RMK AO2 SFC VIS 1/2 SLP212 P0000 60000 T01000100 58004=
06/04/2023 01:51->METAR KJFK 060151Z 07007KT 3/4SM R04R/3500V4000FT -DZ BR VV002 09/09 A3017 RMK AO2 SLP217 P0000 T00940094=
06/04/2023 00:51->METAR KJFK 060051Z 08009KT 3/4SM R04R/4000V4500FT -DZ BR VV002 09/09 A3017 RMK AO2 SLP216 P0000 T00890089=
05/04/2023 23:51->METAR KJFK 052351Z 09009KT 1 1/4SM R04R/5500VP6000FT -DZ BR OVC002 09/09 A3017 RMK AO2 SLP216 P0000 60000 T00890089 10100 20089 58008=
05/04/2023 22:51->METAR KJFK 052251Z 07009KT 1 1/4SM R04R/6000VP6000FT -DZ BR OVC003 09/09 A3019 RMK AO2 TWR VIS 1 1/2 SLP223 P0000 T00890089=
05/04/2023 21:51->METAR KJFK 052151Z 07011KT 1 1/4SM R04R/5500VP6000FT -DZ BR OVC003 09/09 A3020 RMK AO2 TWR VIS 1 1/2 DZB06 SLP224 P0000 T00890089=
05/04/2023 20:51->METAR KJFK 052051Z 08011KT 1 1/4SM R04R/4500V6000FT BR OVC005 09/09 A3020 RMK AO2 TWR VIS 1 1/2 SLP225 T00890089 56018=
05/04/2023 19:51->METAR KJFK 051951Z 07009KT 1 1/2SM R04R/6000VP6000FT BR OVC005 09/09 A3021 RMK AO2 SFC VIS 2 1/2 SLP229 T00890089=
05/04/2023 18:51->METAR KJFK 051851Z 09014G21KT 1 1/2SM BR OVC005 09/08 A3022 RMK AO2 SLP233 T00890083=
05/04/2023 17:51->METAR KJFK 051751Z 09016G24KT 3SM BR OVC007 09/08 A3025 RMK AO2 SFC VIS 6 SLP242 60000 T00940078 10117 20094 56012=
05/04/2023 16:51->METAR KJFK 051651Z 09015G26KT 3SM BR OVC008 09/08 A3025 RMK AO2 PK WND 10026/1610 SFC VIS 5 DZB04E25 SLP243 P0000 T00940078=
05/04/2023 15:51->METAR KJFK 051551Z 09020G27KT 5SM BR OVC009 10/08 A3027 RMK AO2 PK WND 10027/1551 SLP249 VIS SE-SW 2 1/2 T01000083=
05/04/2023 14:51->METAR KJFK 051451Z 09015KT 2 1/2SM BR OVC006 11/09 A3028 RMK AO2 PK WND 08026/1358 SFC VIS 6 SLP254 CIG 004V008 T01060094 53010=
05/04/2023 13:51->METAR KJFK 051351Z 08015G20KT 1 1/2SM BR OVC004 11/11 A3025 RMK AO2 SFC VIS 4 SLP245 T01110106=
05/04/2023 12:51->METAR KJFK 051251Z 07011KT 2 1/2SM BR OVC004 11/11 A3025 RMK AO2 SLP242 T01110106=
05/04/2023 11:51->METAR KJFK 051151Z 07010KT 2 1/2SM BR OVC004 11/10 A3025 RMK AO2 SFC VIS 5 DZE39 SLP244 P0000 60000 T01060100 10122 20100 51019=
05/04/2023 10:51->METAR KJFK 051051Z 05010KT 1/2SM R04R/P6000FT -DZ BR OVC003 10/10 A3025 RMK AO2 SFC VIS 2 DZB48 SLP241 P0000 T01000100=
05/04/2023 09:51->METAR KJFK 050951Z 05009KT 1/2SM R04R/P6000FT BR OVC003 10/10 A3022 RMK AO2 SFC VIS 3 SLP232 T01000100=
05/04/2023 08:51->METAR KJFK 050851Z 05010KT 1/2SM R04R/P6000FT BR OVC003 11/11 A3020 RMK AO2 SFC VIS 3 SLP225 T01060106 53010=
05/04/2023 07:51->METAR KJFK 050751Z 06008KT 1/4SM R04R/3500V4500FT FG VV002 12/12 A3019 RMK AO2 SLP222 T01220122=
05/04/2023 06:51->METAR KJFK 050651Z 07004KT 1/4SM R04R/1600FT FG VV002 12/12 A3016 RMK AO2 SLP214 T01170117=
05/04/2023 05:51->METAR KJFK 050551Z 06004KT 1/4SM R04R/2200V2800FT FG VV002 11/11 A3017 RMK AO2 SFC VIS 1/2 SLP216 T01110111 10122 20100 53019=
05/04/2023 04:51->METAR KJFK 050451Z 00000KT 1/4SM R04R/2400V2600FT FG VV002 11/10 A3015 RMK AO2 SFC VIS 1/2 SLP208 T01060100 401780061=
05/04/2023 03:51->METAR KJFK 050351Z 16005KT 1/4SM R04R/2600V3000FT FG VV002 10/10 A3012 RMK AO2 SLP197 T01000100=
05/04/2023 02:51->METAR KJFK 050251Z 18007KT 1/4SM R04R/2200V2800FT FG VV002 11/11 A3011 RMK AO2 SLP197 T01060106 51022=
05/04/2023 01:51->METAR KJFK 050151Z 20008KT 1/2SM R04R/P6000FT BKN003 OVC250 11/11 A3010 RMK AO2 SFC VIS 9 SLP191 T01110106=
05/04/2023 00:51->METAR KJFK 050051Z 17005KT 10SM FEW060 BKN250 11/11 A3008 RMK AO2 SLP184 T01110111=
04/04/2023 23:51->METAR KJFK 042351Z 19013KT 10SM FEW065 BKN250 12/12 A3005 RMK AO2 SLP175 T01220117 10172 20122 53013=
04/04/2023 22:51->METAR KJFK 042251Z 19018G25KT 10SM SCT075 BKN250 14/13 A3003 RMK AO2 PK WND 19027/2157 SLP167 T01440128=
04/04/2023 21:51->METAR KJFK 042151Z 19020G28KT 10SM SCT065 BKN250 15/13 A3001 RMK AO2 PK WND 19029/2125 SLP163 T01500133=
04/04/2023 20:51->METAR KJFK 042051Z 18018G26KT 10SM SCT070 BKN250 14/12 A3001 RMK AO2 PK WND 18026/2043 SLP162 T01440117 58012=
04/04/2023 19:51->METAR KJFK 041951Z 16013KT 10SM FEW050 BKN070 BKN250 16/11 A3002 RMK AO2 SLP166 T01560111=
04/04/2023 18:51->METAR KJFK 041851Z 17009KT 10SM SCT040 BKN250 17/12 A3004 RMK AO2 SLP172 T01720117=
04/04/2023 17:51->METAR KJFK 041751Z 17009KT 10SM FEW037 BKN250 17/12 A3005 RMK AO2 SLP174 T01670117 10178 20094 56008=
04/04/2023 16:51->METAR KJFK 041651Z 16006KT 10SM FEW035 BKN250 17/12 A3005 RMK AO2 SLP174 T01670117=
04/04/2023 15:51->METAR KJFK 041551Z 16005KT 10SM FEW028 SCT250 16/12 A3006 RMK AO2 SLP180 T01610117=
04/04/2023 14:51->METAR KJFK 041451Z 17007KT 10SM FEW022 SCT250 14/11 A3007 RMK AO2 SLP182 T01440106 53004=
04/04/2023 13:51->METAR KJFK 041351Z 18003KT 10SM BKN014 BKN250 14/11 A3006 RMK AO2 SLP180 CIG 012V016 T01390106=
04/04/2023 12:51->METAR KJFK 041251Z 00000KT 10SM FEW018 FEW250 11/09 A3006 RMK AO2 SLP177 T01110094=
04/04/2023 11:51->METAR KJFK 041151Z 00000KT 9SM FEW018 FEW250 09/09 A3006 RMK AO2 SLP177 T00940089 10094 20061 53014=
04/04/2023 10:51->METAR KJFK 041051Z 00000KT 8SM FEW016 FEW250 07/07 A3004 RMK AO2 SLP171 T00720072=
04/04/2023 09:51->METAR KJFK 040951Z 14004KT 9SM FEW012 07/07 A3003 RMK AO2 SLP167 T00720072=
04/04/2023 08:51->METAR KJFK 040851Z 10004KT 9SM FEW012 07/07 A3002 RMK AO2 SLP164 T00670067 53005=
04/04/2023 07:51->METAR KJFK 040751Z 05003KT 10SM CLR 07/07 A3000 RMK AO2 SLP159 T00720067=
04/04/2023 06:51->METAR KJFK 040651Z 18007KT 10SM FEW170 08/07 A2999 RMK AO2 SLP156 T00780072=
04/04/2023 05:51->METAR KJFK 040551Z 17007KT 10SM FEW170 08/07 A3000 RMK AO2 SLP159 T00830072 10089 20083 56009=
04/04/2023 04:51->METAR KJFK 040451Z 18007KT 10SM FEW170 08/07 A3001 RMK AO2 SLP163 T00830072 401170006=
04/04/2023 03:51->METAR KJFK 040351Z 19009KT 10SM SCT170 08/07 A3001 RMK AO2 SLP163 T00830072=
04/04/2023 02:51->METAR KJFK 040251Z 19009KT 10SM FEW150 FEW250 08/07 A3003 RMK AO2 SLP168 T00830072 50000=
04/04/2023 01:51->METAR KJFK 040151Z 19013KT 10SM SCT180 SCT250 09/07 A3003 RMK AO2 SLP169 T00890067=
04/04/2023 00:51->METAR KJFK 040051Z 19016KT 10SM FEW180 SCT250 09/06 A3003 RMK AO2 SLP169 T00890061=
03/04/2023 23:51->METAR KJFK 032351Z 18019KT 10SM FEW100 SCT180 BKN250 09/05 A3003 RMK AO2 PK WND 18028/2254 SLP168 T00890050 10117 20089 50002=
03/04/2023 22:51->METAR KJFK 032251Z 18021G29KT 10SM FEW110 BKN250 09/04 A3003 RMK AO2 PK WND 19031/2201 SLP168 T00940044=
03/04/2023 21:51->METAR KJFK 032151Z 18022G31KT 10SM FEW110 BKN240 10/04 A3002 RMK AO2 PK WND 19034/2116 SLP167 T01000044=
03/04/2023 20:51->METAR KJFK 032051Z 18023G30KT 10SM FEW110 BKN250 10/04 A3002 RMK AO2 PK WND 19036/2013 SLP165 T01000044 56033=
03/04/2023 19:51->METAR KJFK 031951Z 18024G31KT 10SM FEW110 SCT250 11/04 A3005 RMK AO2 PK WND 19031/1951 SLP174 T01110039=
03/04/2023 18:51->METAR KJFK 031851Z 17020G27KT 10SM FEW110 SCT250 11/03 A3008 RMK AO2 PK WND 17029/1833 SLP185 T01110028=
03/04/2023 17:51->METAR KJFK 031751Z 17019G25KT 10SM FEW110 FEW250 11/03 A3012 RMK AO2 SLP198 T01060028 10117 20039 58026 $=
03/04/2023 16:51->METAR KJFK 031651Z 16015KT 10SM FEW055 FEW250 11/03 A3014 RMK AO2 SLP207 T01060033 $=
03/04/2023 15:51->METAR KJFK 031551Z 16013KT 10SM FEW075 FEW250 09/01 A3018 RMK AO2 SLP219 T00940011=
03/04/2023 14:51->METAR KJFK 031451Z 16009KT 10SM FEW250 09/01 A3019 RMK AO2 SLP224 T00890006 56009=
03/04/2023 13:51->METAR KJFK 031351Z 15010KT 10SM FEW250 08/00 A3020 RMK AO2 SLP228 T00830000=
03/04/2023 12:51->METAR KJFK 031251Z 14009KT 10SM FEW250 07/M02 A3019 RMK AO2 SLP223 T00671017=
03/04/2023 11:51->METAR KJFK 031151Z 00000KT 10SM FEW250 04/M06 A3022 RMK AO2 SLP233 T00391061 10039 20006 53029=
03/04/2023 10:51->METAR KJFK 031051Z 06004KT 10SM FEW250 01/M08 A3018 RMK AO2 SLP220 T00111078=
03/04/2023 09:51->METAR KJFK 030951Z 06003KT 10SM CLR 01/M08 A3016 RMK AO2 SLP212 T00061083=
03/04/2023 08:51->METAR KJFK 030851Z 08005KT 10SM CLR 01/M09 A3014 RMK AO2 SLP204 T00111089 58003=
03/04/2023 07:51->METAR KJFK 030751Z 07005KT 10SM CLR 01/M07 A3014 RMK AO2 SLP207 T00111072=
03/04/2023 06:51->METAR KJFK 030651Z 09004KT 10SM CLR 02/M09 A3015 RMK AO2 SLP208 T00171094=
03/04/2023 05:51->METAR KJFK 030551Z 08004KT 10SM CLR 03/M09 A3015 RMK AO2 SLP208 T00281094 10083 20022 50008=
03/04/2023 04:51->METAR KJFK 030451Z 05004KT 10SM CLR 03/M09 A3015 RMK AO2 SLP209 T00331094 401110033=
03/04/2023 03:51->METAR KJFK 030351Z 02006KT 10SM CLR 04/M11 A3014 RMK AO2 SLP205 T00441106=
03/04/2023 02:51->METAR KJFK 030251Z 33009KT 10SM CLR 07/M12 A3012 RMK AO2 SLP200 T00671122 51026=
03/04/2023 01:51->METAR KJFK 030151Z 34009KT 10SM CLR 07/M12 A3011 RMK AO2 SLP197 T00671117=
03/04/2023 00:51->METAR KJFK 030051Z 34010KT 10SM FEW250 07/M12 A3008 RMK AO2 SLP185 T00721117=
02/04/2023 23:51->METAR KJFK 022351Z 32013G19KT 10SM FEW250 08/M13 A3004 RMK AO2 SLP173 T00831128 10111 20083 53020=
02/04/2023 22:51->METAR KJFK 022251Z 32013KT 10SM FEW250 09/M12 A3001 RMK AO2 SLP163 T00941122=
02/04/2023 21:51->METAR KJFK 022151Z 32012KT 10SM FEW250 10/M12 A3000 RMK AO2 SLP157 T01001117=
02/04/2023 20:51->METAR KJFK 022051Z 30011G19KT 10SM CLR 11/M11 A2999 RMK AO2 SLP154 T01061106 53003=
02/04/2023 19:51->METAR KJFK 021951Z 33014G20KT 10SM CLR 11/M10 A2998 RMK AO2 SLP151 T01111100=
02/04/2023 18:51->METAR KJFK 021851Z 33015G24KT 270V360 10SM FEW250 10/M09 A2997 RMK AO2 PK WND 34030/1840 SLP149 T01001094=
02/04/2023 17:51->METAR KJFK 021751Z 34016G22KT 10SM FEW250 10/M09 A2998 RMK AO2 PK WND 35028/1700 SLP150 T01001094 10106 20050 51024=
02/04/2023 16:51->METAR KJFK 021651Z 36018G26KT 10SM FEW250 09/M09 A2996 RMK AO2 PK WND 33027/1626 SLP143 T00891089=
02/04/2023 15:51->METAR KJFK 021551Z 32018G27KT 10SM FEW250 08/M07 A2993=
02/04/2023 14:51->METAR KJFK 021451Z 33024G30KT 10SM FEW040 FEW250 08/M07 A2991=
02/04/2023 13:51->METAR KJFK 021351Z 31023G32KT 10SM FEW040 SCT250 06/M04 A2988 RMK AO2 PK WND 33038/1332 SLP118 T00611044=
02/04/2023 12:51->METAR KJFK 021251Z 31026G39KT 10SM SCT039 BKN250 05/M04 A2985 RMK AO2 PK WND 31039/1243 SLP107 T00501039=
02/04/2023 11:51->METAR KJFK 021151Z 31022G38KT 10SM SCT040 SCT250 05/M03 A2982 RMK AO2 PK WND 32038/1149 SLP097 70022 T00501028 10100 20050 53051=
02/04/2023 10:51->METAR KJFK 021051Z 31023KT 10SM FEW045 SCT250 05/M03 A2977 RMK AO2 PK WND 31035/1041 SLP079 T00501028=
02/04/2023 09:51->METAR KJFK 020951Z 30020G27KT 10SM FEW045 06/M02 A2970 RMK AO2 PK WND 32037/0928 SLP057 T00611022=
02/04/2023 08:51->METAR KJFK 020851Z 31025G39KT 10SM FEW042 07/M02 A2967 RMK AO2 PK WND 31039/0842 SLP045 T00671017 53049=
02/04/2023 07:51->METAR KJFK 020751Z 31024G31KT 10SM FEW048 SCT250 08/M01 A2961 RMK AO2 PK WND 30034/0738 SLP027 T00781006=
02/04/2023 06:51->METAR KJFK 020651Z 29020G26KT 10SM SCT080 BKN250 09/00 A2957 RMK AO2 PK WND 29041/0553 SLP012 T00890000=
02/04/2023 05:51->METAR KJFK 020551Z 30026G42KT 10SM FEW075 SCT110 SCT250 10/01 A2952 RMK AO2 PK WND 29042/0546 SLP996 60009 T01000011 10144 20100 53029=
02/04/2023 04:51->METAR KJFK 020451Z 29024G36KT 10SM SCT042 BKN050 OVC060 11/02 A2949 RMK AO2 PK WND 28036/0445 RAE44 SLP985 P0001 T01060022 401610056=
02/04/2023 03:51->METAR KJFK 020351Z 28022G30KT 9SM -RA SCT042 OVC060 12/07 A2943 RMK AO2 PK WND 29030/0351 RAB31 SLP966 P0000 T01220067=
02/04/2023 02:51->METAR KJFK 020251Z 22014KT 10SM SCT090 BKN110 12/08 A2943 RMK AO2 SLP967 60008 T01170083 53005=
02/04/2023 01:51->METAR KJFK 020151Z 01004KT 10SM FEW065 SCT110 BKN160 12/09 A2940 RMK AO2 PK WND 32028/0054 RAE24 SLP955 P0001 T01220089 $=
02/04/2023 00:51->METAR KJFK 020051Z 32020G29KT 9SM -RA OVC065 13/09 A2942 RMK AO2 PK WND 31035/0006 WSHFT 2338 TSE47 SLP961 OCNL LTGIC DSNT SE CB DSNT SE MOV E P0007 T01330094 $=
01/04/2023 23:51->METAR KJFK 012351Z 32020G25KT 9SM -TSRA FEW027 BKN060CB OVC110 14/09 A2935 RMK AO2 WSHFT 2331 RAB38 TSB47 SLP940 FRQ LTGICCG W TS W MOV E P0000 60000 T01440094 10161 20111 53001 $=
01/04/2023 22:51->METAR KJFK 012251Z 19013KT 10SM FEW055 SCT090 SCT250 12/10 A2931 RMK AO2 LTG DSNT NW SLP925 CB DSNT NW T01170100 $=
01/04/2023 21:51->METAR KJFK 012151Z 18020KT 10SM FEW050 FEW090 FEW250 12/09 A2934 RMK AO2 SLP934 T01220094 $=
01/04/2023 20:51->METAR KJFK 012051Z 19019KT 10SM FEW045 FEW080 FEW250 14/11 A2935 RMK AO2 SLP939 60000 T01440106 56035 $=
01/04/2023 19:51->METAR KJFK 011951Z 19016KT 10SM FEW045 FEW080 FEW150 FEW250 15/11 A2937 RMK AO2 SLP946 T01500111 $=
01/04/2023 18:51->METAR KJFK 011851Z 19012KT 10SM FEW045 FEW080 SCT150 BKN250 16/13 A2941 RMK AO2 RAE19 SLP958 P0000 T01610133 $=
01/04/2023 17:51->METAR KJFK 011751Z 19011KT 9SM -RA FEW055 BKN090 OVC100 14/13 A2945 RMK AO2 RAB08E29B36 PRESFR SLP973 P0000 60013 T01390133 10139 20094 58035 $=
01/04/2023 16:51->METAR KJFK 011651Z 19016KT 1/2SM R04R/P6000FT BR BKN003 OVC085 12/12 A2949 RMK AO2 SFC VIS 4 SLP986 T01170117 $=
01/04/2023 15:51->METAR KJFK 011551Z 19017KT 1/2SM R04R/P6000FT BR SCT003 OVC018 11/11 A2952 RMK AO2 SFC VIS 3 RAE15 SLP997 P0002 T01110111 $=
01/04/2023 14:51->METAR KJFK 011451Z 19018KT 1SM R04R/P6000FT -RA BR OVC020 11/11 A2955 RMK AO2 SFC VIS 2 RAB09 SLP008 P0001 60011 T01110111 56031 $=
01/04/2023 13:51->METAR KJFK 011351Z 18016KT 1/2SM R04R/P6000FT BR OVC002 10/10 A2958 RMK AO2 SFC VIS 3 RAE45 SLP015 P0005 T01000100=
01/04/2023 12:51->METAR KJFK 011251Z 17012KT 1/2SM R04R/5500VP6000FT +RA BR OVC002 09/09 A2961 RMK AO2 SFC VIS 1 1/2 SLP025 P0005 T00940094 VISNO W=
01/04/2023 11:51->METAR KJFK 011151Z 19016KT 1/2SM R04R/P6000FT -RA BR BKN003 OVC025 10/10 A2965 RMK AO2 SFC VIS 1 1/2 LTG DSNT W RAB46 SLP038 P0000 60000 T01000100 10117 20100 56027=
01/04/2023 10:51->METAR KJFK 011051Z 18017KT 1/2SM R04R/P6000FT BR OVC005 10/09 A2966 RMK AO2 SFC VIS 6 RAB12E29 SLP045 P0000 T01000094=
01/04/2023 09:51->METAR KJFK 010951Z 18013KT 8SM SCT026 OVC035 11/09 A2968 RMK AO2 SLP049 T01060094=
01/04/2023 08:51->METAR KJFK 010851Z 18016KT 10SM OVC025 10/09 A2973 RMK AO2 RAE0756B33E43 PRESFR SLP066 P0000 60000 T01000094 58043=
01/04/2023 07:51->METAR KJFK 010751Z 17013KT 8SM -RA OVC025 10/08 A2977 RMK AO2 RAB47 SLP080 P0000 T01000083=
01/04/2023 06:51->METAR KJFK 010651Z 17010KT 10SM BKN029 OVC055 11/08 A2981 RMK AO2 SLP095 T01110078=
01/04/2023 05:51->METAR KJFK 010551Z 18009KT 10SM BKN060 OVC100 11/08 A2985 RMK AO2 SLP108 T01060078 10117 20089 58024=
01/04/2023 04:51->METAR KJFK 010451Z 20011KT 10SM BKN060 OVC100 12/08 A2989 RMK AO2 SLP120 T01170083 401171017=
01/04/2023 03:51->METAR KJFK 010351Z 20011KT 10SM BKN055 10/08 A2991 RMK AO2 SLP128 T01000083=
01/04/2023 02:51->METAR KJFK 010251Z 20016KT 9SM BKN060 10/08 A2992 RMK AO2 SLP133 T01000083 56022=
01/04/2023 01:51->METAR KJFK 010151Z 19013KT 10SM OVC065 10/08 A2995 RMK AO2 SLP141 T01000078=
01/04/2023 00:51->METAR KJFK 010051Z 17009KT 10SM BKN065 OVC100 09/08 A2996 RMK AO2 SLP145 T00890078=
30/06/2017 23:51->METAR KJFK 302351Z 19017KT 10SM FEW050 BKN140 BKN210 BKN250 23/20 A2995 RMK AO2 PK WND 19026/2307 SLP141 T02280200 10267 20222 53010=
30/06/2017 22:51->METAR KJFK 302251Z 19020G26KT 10SM FEW050 FEW110 BKN250 23/19 A2992 RMK AO2 PK WND 19032/2222 SLP133 T02280194=
30/06/2017 21:51->METAR KJFK 302151Z 19021G30KT 10SM FEW048 FEW080 BKN250 25/20 A2990 RMK AO2 PK WND 18031/2139 SLP123 T02500200=
30/06/2017 20:51->METAR KJFK 302051Z 18020G29KT 10SM FEW048 FEW100 SCT250 25/20 A2992 RMK AO2 PK WND 18029/2045 SLP131 T02500200 56025=
30/06/2017 19:51->METAR KJFK 301951Z 18019G27KT 10SM FEW048 FEW100 SCT250 26/21 A2995 RMK AO2 PK WND 18027/1951 SLP141 T02560206=
30/06/2017 18:51->METAR KJFK 301851Z 18019G23KT 10SM FEW042 FEW110 SCT270 26/21 A2996 RMK AO2 SLP147 T02610206=
30/06/2017 17:51->METAR KJFK 301751Z 19015KT 10SM FEW042 FEW110 FEW210 BKN300 26/21 A2999 RMK AO2 SLP157 T02560206 10261 20211 58012=
30/06/2017 16:51->METAR KJFK 301651Z 18012KT 10SM FEW110 FEW190 BKN300 25/21 A3001 RMK AO2 SLP163 T02500206=
30/06/2017 15:51->METAR KJFK 301551Z 18012KT 10SM FEW055 SCT110 BKN300 25/20 A3003 RMK AO2 SLP167 T02500200=
30/06/2017 14:51->METAR KJFK 301451Z 17009KT 10SM FEW060 FEW085 SCT120 BKN300 25/20 A3003 RMK AO2 SLP169 T02500200 56001=
30/06/2017 13:51->METAR KJFK 301351Z 19008KT 10SM FEW060 FEW085 BKN260 24/19 A3003 RMK AO2 SLP169 T02390194=
30/06/2017 12:51->METAR KJFK 301251Z 19008KT 10SM FEW060 BKN080 BKN280 22/19 A3003 RMK AO2 SLP169 T02220189=
30/06/2017 11:51->METAR KJFK 301151Z 19009KT 10SM FEW060 SCT075 SCT100 BKN280 21/18 A3003 RMK AO2 SLP170 T02110183 10211 20200 52009=
30/06/2017 10:51->METAR KJFK 301051Z 18009KT 10SM SCT065 BKN095 BKN260 20/18 A3002 RMK AO2 SLP165 T02000178=
30/06/2017 09:51->METAR KJFK 300951Z 18007KT 10SM BKN085 BKN110 BKN260 21/18 A3002 RMK AO2 SLP165 T02060178=
30/06/2017 08:51->METAR KJFK 300851Z 18007KT 10SM BKN095 BKN260 20/18 A3001 RMK AO2 SLP161 T02000178 58013=
30/06/2017 07:51->METAR KJFK 300751Z 19009KT 10SM BKN090 OVC260 21/17 A3002 RMK AO2 SLP165 T02060172=
30/06/2017 06:51->METAR KJFK 300651Z 19008KT 10SM SCT080 BKN180 OVC260 20/17 A3003 RMK AO2 SLP170 T02000167=
30/06/2017 05:51->METAR KJFK 300551Z 20009KT 10SM SCT070 BKN250 21/17 A3005 RMK AO2 SLP174 T02110167 10211 20200 58002=
30/06/2017 04:51->METAR KJFK 300451Z 20007KT 10SM SCT080 BKN250 20/17 A3005 RMK AO2 SLP175 T02000167 402500194=
30/06/2017 03:51->METAR KJFK 300351Z 20010KT 10SM SCT080 BKN250 21/17 A3005 RMK AO2 SLP176 T02060167=
30/06/2017 02:51->METAR KJFK 300251Z 19013KT 10SM FEW070 BKN250 21/17 A3005 RMK AO2 SLP177 T02060172 53001=
30/06/2017 01:51->METAR KJFK 300151Z 19015KT 10SM FEW070 FEW100 BKN250 21/17 A3006 RMK AO2 SLP178 T02060172=
30/06/2017 00:51->METAR KJFK 300051Z 19019G24KT 10SM FEW070 SCT100 OVC250 21/18 A3004 RMK AO2 PK WND 19026/0024 SLP172 T02110183=
29/06/2017 23:51->METAR KJFK 292351Z 19018G26KT 10SM FEW055 FEW080 OVC250 21/19 A3005 RMK AO2 PK WND 19029/2254 SLP175 T02060189 10244 20206 55002=
29/06/2017 22:51->METAR KJFK 292251Z 18024G28KT 10SM FEW055 BKN250 22/19 A3004 RMK AO2 PK WND 19032/2153 SLP173 T02170189=
29/06/2017 21:51->METAR KJFK 292151Z 19025G33KT 10SM FEW055 BKN250 23/18 A3005 RMK AO2 PK WND 18034/2121 SLP175 T02280183=
29/06/2017 20:51->METAR KJFK 292051Z 18024G31KT 10SM FEW055 BKN250 23/18 A3006 RMK AO2 PK WND 18033/2041 SLP177 T02280183 58019=
29/06/2017 19:51->METAR KJFK 291951Z 18023G32KT 10SM FEW055 BKN250 23/19 A3008 RMK AO2 PK WND 19032/1944 SLP184 T02330189=
29/06/2017 18:51->METAR KJFK 291851Z 18019G29KT 10SM SCT050 BKN250 24/19 A3010 RMK AO2 PK WND 18029/1844 SLP191 T02390189=
29/06/2017 17:51->METAR KJFK 291751Z 18019G26KT 10SM SCT050 SCT200 BKN250 24/19 A3011 RMK AO2 PK WND 18026/1742 SLP196 T02440189 10250 20206 57014=
29/06/2017 16:51->METAR KJFK 291651Z 18017KT 10SM FEW045 FEW150 BKN250 24/18 A3012 RMK AO2 SLP200 T02390183=
29/06/2017 15:51->METAR KJFK 291551Z 18015KT 10SM FEW040 FEW150 SCT180 BKN250 24/18 A3014 RMK AO2 SLP206 T02440178=
29/06/2017 14:51->METAR KJFK 291451Z 18015KT 10SM FEW150 SCT180 BKN250 24/18 A3015 RMK AO2 SLP210 T02390178 55007=
29/06/2017 13:51->METAR KJFK 291351Z 19010KT 10SM FEW150 SCT180 SCT250 23/18 A3015 RMK AO2 SLP209 T02330178=
29/06/2017 12:51->METAR KJFK 291251Z 21010KT 10SM FEW150 SCT180 SCT250 23/17 A3017 RMK AO2 SLP217 T02280167=
29/06/2017 11:51->METAR KJFK 291151Z 22009KT 10SM FEW150 SCT180 BKN250 21/17 A3017 RMK AO2 SLP217 T02060167 10211 20194 56000=
29/06/2017 10:51->METAR KJFK 291051Z 23006KT 10SM SCT180 BKN250 20/17 A3017 RMK AO2 SLP217 T02000167=
29/06/2017 09:51->METAR KJFK 290951Z 24010KT 10SM BKN170 BKN240 20/16 A3017 RMK AO2 SLP214 T02000156=
29/06/2017 08:51->METAR KJFK 290851Z 27005KT 10SM BKN170 BKN250 19/16 A3017 RMK AO2 SLP218 T01940156 53009=
29/06/2017 07:51->METAR KJFK 290751Z 25012KT 10SM SCT150 BKN250 20/15 A3016 RMK AO2 SLP213 T02000150=
29/06/2017 06:51->METAR KJFK 290651Z 24007KT 10SM BKN260 19/15 A3015 RMK AO2 SLP209 T01940150=
29/06/2017 05:51->METAR KJFK 290551Z 24009KT 10SM SCT250 20/14 A3015 RMK AO2 SLP208 T02000144 10217 20200 53007=
29/06/2017 04:51->METAR KJFK 290451Z 24011KT 10SM BKN260 21/14 A3014 RMK AO2 SLP204 T02060139 402780172=
29/06/2017 03:51->METAR KJFK 290351Z 23011KT 10SM OVC260 21/14 A3014 RMK AO2 SLP205 T02110144=
29/06/2017 02:51->METAR KJFK 290251Z 21008KT 10SM OVC260 21/17 A3013 RMK AO2 SLP202 T02060167 53011=
29/06/2017 01:51->METAR KJFK 290151Z 20009KT 10SM FEW080 BKN250 21/17 A3012 RMK AO2 SLP197 T02060167=
29/06/2017 00:51->METAR KJFK 290051Z 19012KT 10SM FEW080 BKN250 21/16 A3010 RMK AO2 SLP193 T02060161=
28/06/2017 23:51->METAR KJFK 282351Z 19017KT 10SM FEW080 BKN250 21/16 A3010 RMK AO2 SLP191 T02110156 10278 20211 50002=
28/06/2017 22:51->METAR KJFK 282251Z 19017KT 10SM FEW080 SCT250 21/16 A3010 RMK AO2 SLP192 T02110161=
28/06/2017 21:51->METAR KJFK 282151Z 19014KT 10SM SCT080 SCT250 23/16 A3009 RMK AO2 WSHFT 2102 SLP191 T02280156=
28/06/2017 20:51->METAR KJFK 282051Z 28013G18KT 10SM SCT080 SCT250 27/08 A3009 RMK AO2 SLP189 T02670083 56012=
28/06/2017 19:51->METAR KJFK 281951Z 28004KT 10SM SCT075 SCT250 27/09 A3010 RMK AO2 SLP192 T02670094=
28/06/2017 18:51->METAR KJFK 281851Z 28013G19KT 10SM SCT070 SCT250 27/10 A3010 RMK AO2 SLP194 T02670100=
28/06/2017 17:51->METAR KJFK 281751Z 30010G17KT 10SM SCT070 25/09 A3013 RMK AO2 SLP201 T02500089 10256 20194 51002=
28/06/2017 16:51->METAR KJFK 281651Z 28008G17KT 10SM SCT065 23/09 A3012 RMK AO2 SLP201 T02330094=
28/06/2017 15:51->METAR KJFK 281551Z 28007KT 230V300 10SM FEW055 SCT250 24/09 A3013 RMK AO2 SLP202 T02440094=
28/06/2017 14:51->METAR KJFK 281451Z VRB04KT 10SM FEW050 SCT250 23/10 A3012 RMK AO2 SLP199 T02330100 51005=
28/06/2017 13:51->METAR KJFK 281351Z 35010KT 10SM SCT250 23/11 A3012 RMK AO2 SLP199 T02280111=
28/06/2017 12:51->METAR KJFK 281251Z 34009KT 10SM SCT250 21/12 A3012 RMK AO2 SLP199 T02110117=
28/06/2017 11:51->METAR KJFK 281151Z 32011KT 10SM FEW250 19/11 A3011 RMK AO2 SLP194 T01940111 10194 20172 53009=
28/06/2017 10:51->METAR KJFK 281051Z 31012KT 10SM FEW250 19/11 A3009 RMK AO2 SLP190 T01890111=
28/06/2017 09:51->METAR KJFK 280951Z 31008KT 10SM FEW250 18/11 A3009 RMK AO2 SLP188 T01780106=
28/06/2017 08:51->METAR KJFK 280851Z 31009KT 10SM CLR 18/11 A3008 RMK AO2 SLP185 T01780106 53016=
28/06/2017 07:51->METAR KJFK 280751Z 32009KT 10SM CLR 18/11 A3006 RMK AO2 SLP178 T01780106=
28/06/2017 06:51->METAR KJFK 280651Z 32013KT 10SM CLR 19/10 A3005 RMK AO2 SLP174 T01890100=
28/06/2017 05:51->METAR KJFK 280551Z 32010KT 10SM CLR 19/09 A3003 RMK AO2 SLP169 T01940094 10228 20194 51012=
28/06/2017 04:51->METAR KJFK 280451Z 33009KT 10SM FEW110 20/11 A3003 RMK AO2 SLP168 T02000106 402500167=
28/06/2017 03:51->METAR KJFK 280351Z 33006KT 10SM SCT100 22/11 A3001 RMK AO2 SLP163 T02170106=
28/06/2017 02:51->METAR KJFK 280251Z 29010KT 10SM FEW100 22/09 A3000 RMK AO2 SLP157 T02220094 53013=
28/06/2017 01:51->METAR KJFK 280151Z 30007KT 10SM FEW055 FEW075 BKN100 BKN130 BKN250 23/09 A2998 RMK AO2 SLP151 T02280089=
28/06/2017 00:51->METAR KJFK 280051Z 19005KT 10SM FEW055 BKN075 BKN250 21/17 A2997 RMK AO2 SLP147 VIRGA W-NW T02060172=
27/06/2017 23:51->METAR KJFK 272351Z 21010KT 10SM FEW055 FEW100 BKN250 21/18 A2996 RMK AO2 SLP144 CB DSNT W TCU DSNT S 60000 T02060178 10250 20206 53004=
27/06/2017 22:51->METAR KJFK 272251Z 19011KT 10SM SCT055 SCT075 SCT100 BKN250 22/16 A2994 RMK AO2 RAB26E51 SLP137 CB DSNT NW P0000 T02220161=
27/06/2017 21:51->METAR KJFK 272151Z 19011KT 10SM SCT055 SCT075 SCT250 23/14 A2994 RMK AO2 SLP137 CB DSNT N T02280144=
27/06/2017 20:51->METAR KJFK 272051Z 17012KT 10SM SCT055 SCT075 SCT110 SCT250 23/17 A2995 RMK AO2 LTG DSNT SE SLP140 CB DSNT N T02280167 56007=
27/06/2017 19:51->METAR KJFK 271951Z 18011KT 10SM SCT055CB SCT075 SCT120 BKN140 BKN250 23/16 A2996 RMK AO2 LTG DSNT S AND SW SLP143 CB N MOV E CB DSNT S TCU DSNT NW VCSH N T02330161=
27/06/2017 18:51->METAR KJFK 271851Z 19009KT 10SM SCT043 SCT130 SCT250 24/16 A2994 RMK AO2 SLP140 VCSH W T02390156=
27/06/2017 17:51->METAR KJFK 271751Z 20008KT 10SM FEW043 FEW150 SCT250 24/15 A2997 RMK AO2 SLP147 CB DSNT SW T02390150 10239 20183 58016=
27/06/2017 16:51->METAR KJFK 271651Z 21007KT 10SM FEW040 FEW150 BKN200 23/14 A2999 RMK AO2 SLP156 T02280139=
27/06/2017 15:51->METAR KJFK 271551Z 24008KT 10SM FEW037 SCT150 BKN190 22/15 A3000 RMK AO2 SLP160 T02170150=
27/06/2017 14:51->METAR KJFK 271451Z 20008KT 10SM FEW050 FEW110 BKN150 BKN250 21/17 A3001 RMK AO2 SLP163 T02060172 56001=
27/06/2017 13:51->METAR KJFK 271351Z 26005KT 10SM FEW045 SCT075 BKN100 BKN220 22/16 A3001 RMK AO2 SLP163 T02170161=
27/06/2017 12:51->METAR KJFK 271251Z 03003KT 10SM FEW043 SCT120 SCT220 21/17 A3001 RMK AO2 SLP160 T02060167=
27/06/2017 11:51->METAR KJFK 271151Z 02004KT 10SM FEW047 BKN120 BKN220 18/16 A3002 RMK SLP164 60011 70011 T01830161 10217 20167 51003=
27/06/2017 10:51->METAR KJFK 271051Z 06007KT 10SM FEW027 BKN075 BKN100 17/16 A3000 RMK RAE50 SLP160 VCSH NE-SE P0009 T01670156=
27/06/2017 09:51->METAR KJFK 270951Z 34007KT 7SM RA OVC070 17/14 A3004 RMK SLP173 P0002 T01720144=
27/06/2017 08:51->METAR KJFK 270851Z 0000KT 10SM BKN085 BKN120 BKN210 19/12 A3001 RMK SLP161 T01940117 53008=
27/06/2017 07:51->METAR KJFK 270751Z 02008KT 10SM BKN085 BKN120 BKN220 19/11 A2999 RMK SLP154 T01940106=
27/06/2017 06:51->METAR KJFK 270651Z 33013KT 10SM SCT100 BKN120 BKN240 22/11 A2999 RMK SLP155 T02170106=
27/06/2017 05:51->METAR KJFK 270551Z 22006KT 10SM BKN110 19/14 A2998 RMK AO2 SLP153 T01940139 10217 20194 58004=
27/06/2017 04:51->METAR KJFK 270451Z 20007KT 10SM FEW100 20/13 A2999 RMK AO2 SLP156 T02000133 402560178=
27/06/2017 03:51->METAR KJFK 270351Z 24009KT 10SM CLR 22/13 A2999 RMK AO2 SLP155 T02170128=
27/06/2017 02:51->METAR KJFK 270251Z 21007KT 10SM CLR 21/16 A3000 RMK AO2 SLP158 T02060161 53002=
27/06/2017 01:51->METAR KJFK 270151Z 19009KT 10SM FEW070 20/18 A3000 RMK AO2 SLP157 T02000178=
27/06/2017 00:51->METAR KJFK 270051Z 18014KT 10SM FEW070 21/18 A2998 RMK AO2 SLP153 T02060183=
26/06/2017 23:51->METAR KJFK 262351Z 18016KT 10SM FEW070 FEW100 22/18 A2999 RMK AO2 SLP156 T02170178 10250 20217 56003=
26/06/2017 22:51->METAR KJFK 262251Z 18015G21KT 10SM FEW070 FEW090 22/14 A3000 RMK AO2 SLP158 T02220144=
26/06/2017 21:51->METAR KJFK 262151Z 18017KT 10SM FEW070 SCT100 SCT260 23/12 A3000 RMK AO2 SLP157 T02330117=
26/06/2017 20:51->METAR KJFK 262051Z 18016KT 10SM FEW070 SCT100 SCT270 24/13 A3000 RMK AO2 SLP159 T02390128 58007=
26/06/2017 19:51->METAR KJFK 261951Z 19019KT 10SM SCT070 SCT270 24/12 A3001 RMK AO2 SLP163 T02440122=
26/06/2017 18:51->METAR KJFK 261851Z 19014KT 10SM SCT070 SCT090 SCT270 24/13 A3002 RMK AO2 SLP164 T02440133=
26/06/2017 17:51->METAR KJFK 261751Z 20014KT 10SM SCT070 SCT095 SCT300 23/13 A3002=
26/06/2017 16:51->METAR KJFK 261651Z 19014KT 10SM SCT065 SCT300 26/12 A3003=
26/06/2017 15:51->METAR KJFK 261551Z 21010KT 10SM FEW060 SCT300 25/12 A3003=
26/06/2017 14:51->METAR KJFK 261451Z 24009KT 210V280 10SM FEW055 SCT300 24/13 A3004=
26/06/2017 13:51->METAR KJFK 261351Z 23009KT 10SM FEW047 FEW280 23/12 A3005=
26/06/2017 12:51->METAR KJFK 261251Z 30007KT 10SM FEW280 23/10 A3005=
26/06/2017 11:51->METAR KJFK 261151Z 34008KT 10SM FEW280 22/11 A3004=
26/06/2017 10:51->METAR KJFK 261051Z 32006KT 10SM FEW085 21/11 A3004=
26/06/2017 09:51->METAR KJFK 260951Z 00000KT 10SM FEW100 19/11 A3002 RMK SLP166 T01890106=
26/06/2017 08:51->METAR KJFK 260851Z 32004KT 10SM FEW100 19/11 A3001 RMK SLP161 T01890106 53008=
26/06/2017 07:51->METAR KJFK 260751Z 32008KT 10SM FEW100 20/10 A3000 RMK AO2 SLP160 T02000100=
26/06/2017 06:51->METAR KJFK 260651Z 00000KT 10SM FEW100 20/11 A2998 RMK AO2 SLP153 T02000111=
26/06/2017 05:51->METAR KJFK 260551Z 36012KT 10SM FEW100 21/11 A2998 RMK AO2 SLP153 60000 T02110111 10256 20211 50007=
26/06/2017 04:51->METAR KJFK 260451Z 33018G25KT 10SM SCT100 23/11 A2999 RMK AO2 SLP154 T02330111 402780206=
26/06/2017 03:51->METAR KJFK 260351Z 27014KT 10SM BKN100 26/12 A2996 RMK AO2 SLP146 T02560117=
26/06/2017 02:51->METAR KJFK 260251Z 20006KT 10SM BKN110 OVC250 22/20 A2996 RMK AO2 RAE14 SLP146 P0000 60000 T02170200 51008=
26/06/2017 01:51->METAR KJFK 260151Z 22006KT 10SM -RA SCT090 BKN120 BKN250 22/19 A2995 RMK AO2 RAB46 SLP143 P0000 T02170194=
26/06/2017 00:51->METAR KJFK 260051Z 19010KT 10SM FEW060 BKN120 BKN250 22/19 A2995 RMK AO2 SLP141 T02170194 $=
25/06/2017 23:51->METAR KJFK 252351Z 19014KT 10SM SCT070 SCT130 BKN250 22/19 A2994 RMK AO2 SLP138 T02220194 10278 20222 53004 $=
25/06/2017 22:51->METAR KJFK 252251Z 19013KT 10SM SCT065 SCT080 BKN100 BKN250 24/18 A2993 RMK AO2 SLP135 T02390183 $=
25/06/2017 21:51->METAR KJFK 252151Z 19010KT 10SM BKN070 BKN080 BKN110 BKN250 24/18 A2993 RMK AO2 SLP135 T02440178 $=
25/06/2017 20:51->METAR KJFK 252051Z 17014KT 10SM BKN070 BKN100 BKN250 25/17 A2993 RMK AO2 SLP134 T02500172 56015 $=
25/06/2017 19:51->METAR KJFK 251951Z 17017KT 10SM SCT060 BKN100 BKN250 26/16 A2994=
25/06/2017 18:51->METAR KJFK 251851Z 17015KT 10SM SCT060 SCT200 BKN250 27/14 A2995 RMK AO2 SLP142 T02670144 $=
25/06/2017 17:51->METAR KJFK 251751Z 17012KT 10SM SCT060 SCT200 BKN250 28/16 A2997 RMK AO2 SLP148 T02780156 10278 20233 58010 $=
25/06/2017 16:51->METAR KJFK 251651Z 19009KT 10SM SCT060 SCT110 SCT200 BKN250 27/16 A2999 RMK AO2 SLP154 T02670156 $=
25/06/2017 15:51->METAR KJFK 251551Z 19010KT 10SM SCT055 SCT110 SCT200 BKN250 26/16 A3000 RMK AO2 SLP158 T02610156 $=
25/06/2017 14:51->METAR KJFK 251451Z 19007KT 10SM SCT110 SCT200 BKN250 26/16 A3000 RMK AO2 SLP159 T02610161 52002 $=
25/06/2017 13:51->METAR KJFK 251351Z 19005KT 10SM FEW110 BKN250 26/15 A3000 RMK AO2 SLP159 T02610150 $=
25/06/2017 12:51->METAR KJFK 251251Z 35003KT 10SM SCT100 SCT250 26/14 A2999 RMK AO2 SLP157 T02610144 $=
25/06/2017 11:51->METAR KJFK 251151Z 00000KT 10SM SCT110 BKN250 23/16 A3000 RMK AO2 SLP157 70021 T02330156 10244 20206 51016=
25/06/2017 10:51->METAR KJFK 251051Z 00000KT 10SM SCT110 SCT250 23/17 A2998 RMK AO2 SLP153 T02330167=
25/06/2017 09:51->METAR KJFK 250951Z 01003KT 10SM FEW080 FEW110 FEW250 21/16 A2997 RMK AO2 SLP147 T02110161=
25/06/2017 08:51->METAR KJFK 250851Z 00000KT 10SM FEW080 FEW110 FEW250 21/16 A2995 RMK AO2 SLP141 T02060161 53010=
25/06/2017 07:51->METAR KJFK 250751Z 34005KT 10SM FEW080 SCT110 SCT250 22/16 A2993 RMK AO2 SLP136 T02220156=
25/06/2017 06:51->METAR KJFK 250651Z 36004KT 10SM SCT080 SCT110 SCT250 23/16 A2992 RMK AO2 SLP131 T02280156=
25/06/2017 05:51->METAR KJFK 250551Z 35006KT 10SM SCT110 SCT250 23/16 A2992 RMK AO2 WSHFT 0446 SLP131 T02330156 10278 20222 51008=
25/06/2017 04:51->METAR KJFK 250451Z 32014KT 10SM FEW080 SCT250 25/16 A2992 RMK AO2 SLP131 T02500161 403060211=
25/06/2017 03:51->METAR KJFK 250351Z 24005KT 10SM FEW080 FEW250 24/18 A2990 RMK AO2 SLP125 T02440183=
25/06/2017 02:51->METAR KJFK 250251Z 23010KT 10SM FEW080 FEW250 25/18 A2989 RMK AO2 SLP123 T02500183 53020=
25/06/2017 01:51->METAR KJFK 250151Z 23010KT 10SM FEW080 SCT250 25/18 A2988 RMK AO2 SLP118 T02500178=
25/06/2017 00:51->METAR KJFK 250051Z 23013KT 10SM FEW075 BKN250 26/18 A2984 RMK AO2 SLP105 T02560178=
24/06/2017 23:51->METAR KJFK 242351Z 23009KT 10SM FEW075 FEW200 BKN250 28/16 A2983 RMK AO2 SLP102 T02780161 10306 20278 53016=
24/06/2017 22:51->METAR KJFK 242251Z 26012KT 10SM FEW075 SCT250 29/12 A2981 RMK AO2 SLP095 T02940122=
24/06/2017 21:51->METAR KJFK 242151Z 29013G21KT 10SM FEW070 BKN250 30/12 A2980 RMK AO2 SLP090 T03000122=
24/06/2017 20:51->METAR KJFK 242051Z 31014KT 10SM FEW070 BKN250 30/13 A2979 RMK AO2 PK WND 27026/2022 SLP087 VIRGA OHD T03000133 53019=
24/06/2017 19:51->METAR KJFK 241951Z 31014G21KT 10SM FEW065 BKN250 29/13 A2976 RMK AO2 PK WND 31026/1927 SLP078 VIRGA OHD T02940133=
24/06/2017 18:51->METAR KJFK 241851Z 31021G26KT 10SM FEW065 SCT250 31/13 A2975 RMK AO2 PK WND 27027/1833 SLP072 T03060128=
24/06/2017 17:51->METAR KJFK 241751Z 29016G27KT 10SM FEW060 SCT250 30/14 A2973 RMK AO2 PK WND 31027/1747 SLP068 60021 T03000139 10306 20222 51026=
24/06/2017 16:51->METAR KJFK 241651Z 30019G26KT 10SM FEW060 SCT250 29/13 A2971 RMK AO2 PK WND 30027/1649 SLP060 T02940133=
24/06/2017 15:51->METAR KJFK 241551Z 31013G24KT 10SM FEW039 SCT130 SCT250 29/19 A2968 RMK AO2 SLP052 T02940189=
24/06/2017 14:51->METAR KJFK 241451Z 25009KT 10SM BKN022 BKN028 BKN130 27/23 A2965 RMK AO2 SLP042 60021 T02670228 53020=
24/06/2017 13:51->METAR KJFK 241351Z 26009KT 10SM SCT015 BKN120 BKN250 25/23 A2964 RMK AO2 RAE08 SLP035 P0000 T02500228=
24/06/2017 12:51->METAR KJFK 241251Z 31009KT 10SM -RA SCT012 BKN100 22/22 A2960 RMK AO2 LTG DSNT E TSE1154E1155 SLP025 P0021 T02220222=
24/06/2017 11:51->METAR KJFK 241151Z 30008KT 1SM +TSRA BR FEW004 SCT010 OVC020 22/22 A2959 RMK AO2 TWR VIS 1 1/2 LTG DSNT S AND SW TSB39 CIG 006 W SLP021 P0079 60150 70152 T02220222 10239 20211 55000 RVRNO=
24/06/2017 10:51->METAR KJFK 241051Z 00000KT 1SM +RA BR FEW005 BKN029 OVC040 22/22 A2958 RMK AO2 TWR VIS 1 1/2 CIG 012 W SLP017 P0059 T02170217 RVRNO=
24/06/2017 09:51->METAR KJFK 240951Z 15006KT 5SM -RA BR FEW022 BKN044 BKN070 OVC140 22/22 A2960 RMK AO2 RAB49 SLP022 P0000 T02170217=
24/06/2017 08:51->METAR KJFK 240851Z 16005KT 10SM BKN042 BKN110 BKN170 OVC210 23/22 A2960 RMK AO2 SLP022 60012 T02280222 56018=
24/06/2017 07:51->METAR KJFK 240751Z 21005KT 10SM SCT038 OVC190 23/23 A2961 RMK AO2 SLP026 T02330228=
24/06/2017 06:51->METAR KJFK 240651Z 24010KT 10SM BKN038 BKN065 BKN090 24/23 A2963 RMK AO2 RAE21 SLP034 P0012 T02390228=
24/06/2017 05:51->METAR KJFK 240551Z 22009KT 3SM +RA BR SCT026 BKN035 BKN070 23/22 A2965 RMK AO2 RAB44 SLP039 P0002 60002 T02280222 10239 20222 55002=
24/06/2017 04:51->METAR KJFK 240451Z 19010KT 10SM FEW031 SCT060 SCT150 BKN200 BKN250 22/22 A2964 RMK AO2 SLP037 T02220217 402830217=
24/06/2017 03:51->METAR KJFK 240351Z 19012KT 10SM FEW031 BKN150 BKN200 BKN250 22/22 A2964 RMK AO2 SLP037 T02220217=
24/06/2017 02:51->METAR KJFK 240251Z 19010KT 10SM SCT031 BKN150 BKN200 BKN250 23/22 A2966 RMK AO2 SLP042 T02330222 58001=
24/06/2017 01:51->METAR KJFK 240151Z 20014KT 10SM FEW032 SCT050 SCT200 BKN250 24/22 A2967 RMK AO2 SLP046 T02390217=
24/06/2017 00:51->METAR KJFK 240051Z 19016KT 10SM SCT032CB SCT050 BKN160 BKN200 BKN250 23/22 A2965 RMK AO2 SLP041 CB NW MOV E VCSH NW T02280217=
23/06/2017 23:51->METAR KJFK 232351Z 19014KT 10SM FEW038 SCT050 BKN150 BKN250 23/22 A2966 RMK AO2 RAB21E32 SLP042 P0000 60000 T02280217 10278 20222 55009=
23/06/2017 22:51->METAR KJFK 232251Z 18015KT 10SM FEW039 SCT055 SCT110 BKN160 BKN250 23/21 A2964 RMK AO2 SLP038 T02330211=
23/06/2017 21:51->METAR KJFK 232151Z 19015KT 10SM FEW038 BKN060 BKN250 25/22 A2967 RMK AO2 SLP048 T02500217=
23/06/2017 20:51->METAR KJFK 232051Z 19014KT 10SM BKN038 BKN055 BKN250 24/21 A2968 RMK AO2 SLP052 T02390211 56016=
23/06/2017 19:51->METAR KJFK 231951Z 19013KT 10SM FEW023 BKN033 BKN060 BKN250 24/22 A2970 RMK AO2 SLP056 T02440217=
23/06/2017 18:51->METAR KJFK 231851Z 18013KT 10SM BKN026 BKN032 BKN060 BKN250 28/23 A2971 RMK AO2 SLP060 T02780228=
23/06/2017 17:51->METAR KJFK 231751Z 20014KT 8SM BKN031 BKN085 OVC160 24/22 A2973 RMK AO2 SLP067 VCSH NW-NE 60000 T02440217 10283 20233 58022=
23/06/2017 16:51->METAR KJFK 231651Z 19011KT 10SM FEW023 FEW085 BKN160 BKN260 28/24 A2975 RMK AO2 SLP073 T02830239=
23/06/2017 15:51->METAR KJFK 231551Z 20009KT 10SM FEW023 SCT130 BKN180 BKN260 26/23 A2978 RMK AO2 RAB35E47 SLP084 P0000 T02610228=
23/06/2017 14:51->METAR KJFK 231451Z 19008KT 8SM BKN130 BKN180 OVC260 24/22 A2980 RMK AO2 SLP089 T02390222 58015=
23/06/2017 13:51->METAR KJFK 231351Z 19011KT 7SM FEW140 BKN180 OVC260 25/23 A2981 RMK AO2 SLP094 T02500228=
23/06/2017 12:51->METAR KJFK 231251Z 20006KT 7SM SCT140 SCT210 OVC260 24/23 A2983 RMK AO2 SLP100 T02440228=
23/06/2017 11:51->METAR KJFK 231151Z 19007KT 8SM FEW140 SCT210 BKN260 24/23 A2984 RMK AO2 SLP104 T02390228 10244 20217 50001=
23/06/2017 10:51->METAR KJFK 231051Z 21004KT 7SM SCT140 BKN260 22/22 A2985 RMK AO2 SLP107 T02220217=
23/06/2017 09:51->METAR KJFK 230951Z 21007KT 8SM SCT140 BKN260 22/22 A2985 RMK AO2 SLP106 T02220217=
23/06/2017 08:51->METAR KJFK 230851Z 19006KT 10SM OVC140 22/21 A2984 RMK AO2 SLP103 T02170211 56016=
23/06/2017 07:51->METAR KJFK 230751Z 17004KT 10SM OVC140 22/22 A2984 RMK AO2 SLP105 T02220217=
23/06/2017 06:51->METAR KJFK 230651Z 19005KT 10SM BKN140 OVC200 23/22 A2986 RMK AO2 SLP111 T02280217=
23/06/2017 05:51->METAR KJFK 230551Z 17003KT 10SM BKN140 OVC230 23/22 A2988 RMK AO2 SLP119 T02280217 10228 20217 58013=
23/06/2017 04:51->METAR KJFK 230451Z 19005KT 10SM BKN150 OVC250 23/22 A2990 RMK AO2 SLP126 T02280217 402610189=
23/06/2017 03:51->METAR KJFK 230351Z 18006KT 10SM BKN160 OVC250 22/21 A2992 RMK AO2 SLP131 T02220211=
23/06/2017 02:51->METAR KJFK 230251Z 19006KT 10SM OVC250 22/21 A2992 RMK AO2 SLP131 T02220211 58001=
23/06/2017 01:51->METAR KJFK 230151Z 20007KT 10SM FEW140 BKN250 22/21 A2992 RMK AO2 SLP133 T02220211=
23/06/2017 00:51->METAR KJFK 230051Z 18005KT 10SM FEW140 BKN250 22/21 A2992 RMK AO2 SLP132 T02220211=
22/06/2017 23:51->METAR KJFK 222351Z 18013KT 10SM FEW140 BKN250 23/21 A2992 RMK AO2 SLP132 T02280206 10261 20228 55009=
22/06/2017 22:51->METAR KJFK 222251Z 18014KT 10SM FEW060 FEW150 BKN250 24/19 A2991 RMK AO2 SLP129 T02390194=
22/06/2017 21:51->METAR KJFK 222151Z 18015KT 10SM FEW060 FEW150 BKN250 25/18 A2992 RMK AO2 SLP130 T02500183=
22/06/2017 20:51->METAR KJFK 222051Z 17007KT 10SM FEW060 BKN250 26/19 A2995 RMK AO2 SLP141 T02560189 56015=
22/06/2017 19:51->METAR KJFK 221951Z 17011KT 10SM FEW060 BKN250 25/19 A2996 RMK AO2 SLP145 T02500189=
22/06/2017 18:51->METAR KJFK 221851Z 16011KT 10SM FEW055 SCT250 26/14 A2997 RMK AO2 SLP149 T02560144=
22/06/2017 17:51->METAR KJFK 221751Z 18012KT 10SM FEW055 SCT270 26/14 A2999 RMK AO2 SLP156 T02610144 10261 20228 58005=
22/06/2017 16:51->METAR KJFK 221651Z 18010KT 10SM FEW055 SCT270 25/14 A3001 RMK AO2 SLP162 T02500144=
22/06/2017 15:51->METAR KJFK 221551Z 18011KT 10SM FEW050 SCT300 25/16 A3002 RMK AO2 SLP165 T02500161=
22/06/2017 14:51->METAR KJFK 221451Z 15009KT 10SM FEW230 SCT300 25/17 A3001 RMK AO2 SLP161 T02500167 58009 $=
22/06/2017 13:51->METAR KJFK 221351Z VRB03KT 10SM SCT330 25/17 A3002 RMK AO2 SLP166 T02500167 $=
22/06/2017 12:51->METAR KJFK 221251Z 08004KT 10SM SCT330 24/16 A3004 RMK AO2 SLP171 T02440156 $=
22/06/2017 11:51->METAR KJFK 221151Z 09003KT 10SM BKN330 23/16 A3003 RMK AO2 SLP169 T02280156 10228 20189 51015 $=
22/06/2017 10:51->METAR KJFK 221051Z 03004KT 10SM BKN330 22/16 A3002 RMK AO2 SLP166 T02170156 $=
22/06/2017 09:51->METAR KJFK 220951Z 02003KT 10SM FEW070 SCT250 20/16 A3000 RMK AO2 SLP159 T02000156 $=
22/06/2017 08:51->METAR KJFK 220851Z 02003KT 10SM FEW070 FEW250 20/16 A2999 RMK AO2 SLP155 T02000161 53007 $=
22/06/2017 07:51->METAR KJFK 220751Z 36006KT 10SM FEW070 FEW250 21/18 A2997 RMK AO2 SLP148 T02060178 $=
22/06/2017 06:51->METAR KJFK 220651Z 31003KT 10SM FEW250 21/18 A2996 RMK AO2 SLP146 T02110178 $=
22/06/2017 05:51->METAR KJFK 220551Z 26007KT 10SM FEW070 21/19 A2997 RMK AO2 SLP148 T02110189 10256 20206 51009 $=
22/06/2017 04:51->METAR KJFK 220451Z 24009KT 10SM FEW070 21/19 A2996 RMK AO2 SLP147 T02110194 403000206 $=
22/06/2017 03:51->METAR KJFK 220351Z 23011KT 10SM FEW070 FEW250 22/19 A2996 RMK AO2 SLP143 T02220189 $=
22/06/2017 02:51->METAR KJFK 220251Z 20009KT 10SM FEW070 FEW250 21/18 A2994 RMK AO2 SLP139 T02110183 51020 $=
22/06/2017 01:51->METAR KJFK 220151Z 23010KT 10SM FEW070 FEW100 FEW250 23/18 A2993 RMK AO2 SLP136 T02330178 $=
22/06/2017 00:51->METAR KJFK 220051Z 22012KT 10SM FEW070 FEW100 FEW160 FEW250 23/17 A2991 RMK AO2 SLP129 T02280172 $=
21/06/2017 23:51->METAR KJFK 212351Z 23015KT 10SM FEW070 FEW100 FEW160 FEW250 26/14 A2988 RMK AO2 SLP119 T02560144 10300 20244 53004 $=
21/06/2017 22:51->METAR KJFK 212251Z 19012KT 10SM SCT070 SCT100 SCT170 SCT250 25/19 A2987 RMK AO2 SLP115 T02500194 $=
21/06/2017 21:51->METAR KJFK 212151Z 19011KT 10SM FEW040 SCT070 BKN160 BKN250 26/18 A2987 RMK AO2 LTG DSNT S AND SW SLP114 VCSH NE T02560183 $=
21/06/2017 20:51->METAR KJFK 212051Z 18012KT 10SM FEW040 SCT065 BKN120 BKN250 27/17 A2987 RMK AO2 SLP116 VCSH NW T02670172 56010 $=
21/06/2017 19:51->METAR KJFK 211951Z 23012KT 10SM SCT065 SCT080 SCT120 SCT250 29/15 A2987 RMK AO2 SLP116 T02940150 $=
21/06/2017 18:51->METAR KJFK 211851Z 24013G18KT 10SM FEW060 SCT110 SCT250 29/14 A2989 RMK AO2 SLP121 T02940144 $=
21/06/2017 17:51->METAR KJFK 211751Z 24013KT 10SM FEW060 BKN110 BKN160 28/17 A2990 RMK AO2 SLP125 T02830167 10300 20239 58011 $=
21/06/2017 16:51->METAR KJFK 211651Z 26012G19KT 10SM FEW060 FEW110 BKN180 BKN250 30/14 A2992 RMK AO2 SLP132 ACC DSNT S ACSL DSNT S-DSNT SW T03000144 $=
21/06/2017 15:51->METAR KJFK 211551Z 25013KT 10SM FEW050 BKN180 BKN250 28/16 A2994 RMK AO2 SLP137 T02830161 $=
21/06/2017 14:51->METAR KJFK 211451Z 26010KT 10SM FEW047 FEW120 SCT180 SCT250 28/15 A2994 RMK AO2 SLP137 T02830150 56004 $=
21/06/2017 13:51->METAR KJFK 211351Z 27009KT 10SM FEW100 SCT140 BKN230 27/18 A2994 RMK AO2 SLP137 T02670178 $=
21/06/2017 12:51->METAR KJFK 211251Z 23009KT 10SM FEW100 SCT140 BKN250 24/21 A2995 RMK AO2 SLP140 T02440206 $=
21/06/2017 11:51->METAR KJFK 211151Z 22008KT 10SM FEW110 SCT250 24/21 A2995 RMK AO2 SLP141 T02390206 10239 20217 50006 $=
21/06/2017 10:51->METAR KJFK 211051Z 23008KT 10SM SCT110 BKN250 23/20 A2995 RMK AO2 SLP141 T02280200 $=
21/06/2017 09:51->METAR KJFK 210951Z 24005KT 10SM BKN110 BKN250 22/19 A2993 RMK AO2 SLP136 T02220194=
21/06/2017 08:51->METAR KJFK 210851Z 26006KT 10SM BKN100 23/21 A2993 RMK AO2 SLP135 T02330206 55002=
21/06/2017 07:51->METAR KJFK 210751Z 25008KT 10SM BKN095 22/21 A2992 RMK AO2 SLP133 T02220206=
21/06/2017 06:51->METAR KJFK 210651Z 21006KT 10SM BKN100 23/21 A2993 RMK AO2 SLP134 T02280206=
21/06/2017 05:51->METAR KJFK 210551Z 23009KT 10SM BKN100 23/21 A2994 RMK AO2 SLP137 T02280206 10283 20211 58008=
21/06/2017 04:51->METAR KJFK 210451Z 22010KT 10SM FEW080 FEW250 23/20 A2995 RMK AO2 SLP142 T02280200 403000144=
21/06/2017 03:51->METAR KJFK 210351Z 22013KT 10SM FEW080 FEW250 24/19 A2996 RMK AO2 SLP145 T02390189=
21/06/2017 02:51->METAR KJFK 210251Z 20011KT 10SM FEW080 SCT250 22/19 A2996 RMK AO2 SLP146 T02220189 51007=
21/06/2017 01:51->METAR KJFK 210151Z 16006KT 10SM FEW080 FEW250 22/18 A2996 RMK AO2 SLP144 T02220183=
21/06/2017 00:51->METAR KJFK 210051Z 24008KT 10SM FEW080 FEW250 27/13 A2995 RMK AO2 SLP141 T02670133=
20/06/2017 23:51->METAR KJFK 202351Z 26012KT 10SM FEW080 SCT250 28/13 A2994 RMK AO2 SLP138 T02780128 10300 20272 53009=
20/06/2017 22:51->METAR KJFK 202251Z 24011KT 10SM FEW080 SCT250 28/12 A2993 RMK AO2 SLP134 T02830122=
20/06/2017 21:51->METAR KJFK 202151Z 25016G24KT 10SM FEW080 SCT250 29/12 A2992 RMK AO2 SLP130 T02890122=
20/06/2017 20:51->METAR KJFK 202051Z 25019G24KT 10SM FEW075 SCT250 29/13 A2991 RMK AO2 PK WND 26026/2034 SLP130 T02940133 53001=
20/06/2017 19:51->METAR KJFK 201951Z 24017KT 10SM SCT070 SCT250 29/15 A2991 RMK AO2 SLP129 T02890150=
20/06/2017 18:51->METAR KJFK 201851Z 23018G24KT 10SM SCT060 SCT250 29/16 A2991 RMK AO2 SLP128 T02890156=
20/06/2017 17:51->METAR KJFK 201751Z 23019G22KT 10SM FEW060 SCT250 28/16 A2991 RMK AO2 SLP128 T02830156 10283 20228 58002=
20/06/2017 16:51->METAR KJFK 201651Z 23015KT 10SM FEW045 FEW260 28/16 A2992 RMK AO2 SLP132 T02780156=
20/06/2017 15:51->METAR KJFK 201551Z 23014G22KT 10SM FEW043 FEW130 SCT260 27/16 A2993 RMK AO2 SLP133 T02670161=
20/06/2017 14:51->METAR KJFK 201451Z 23014G21KT 10SM FEW040 FEW085 FEW260 27/17 A2992 RMK AO2 SLP130 T02670167 53008=
20/06/2017 13:51->METAR KJFK 201351Z 24012KT 10SM FEW027 FEW085 SCT300 26/18 A2991 RMK AO2 SLP127 T02560183=
20/06/2017 12:51->METAR KJFK 201251Z 24013KT 10SM FEW012 FEW100 SCT280 24/21 A2990 RMK AO2 SLP124 T02440206=
20/06/2017 11:51->METAR KJFK 201151Z 24008KT 8SM FEW006 SCT120 BKN320 23/21 A2989 RMK AO2 SLP122 60000 70113 T02280211 10228 20194 53013=
20/06/2017 10:51->METAR KJFK 201051Z 23007KT 8SM FEW008 FEW037 SCT140 BKN260 22/21 A2987 RMK AO2 SLP114 T02170206=
20/06/2017 09:51->METAR KJFK 200951Z 20005KT 9SM SCT008 BKN140 BKN260 21/21 A2986 RMK AO2 RAE0852 SLP111 SCT008 V BKN P0000 T02060206=
20/06/2017 08:51->METAR KJFK 200851Z 19004KT 10SM -RA FEW007 SCT080 OVC120 20/20 A2985 RMK AO2 RAB40 SLP109 P0000 60000 T02000200 58001=
20/06/2017 07:51->METAR KJFK 200751Z 19006KT 8SM OVC007 21/21 A2986 RMK AO2 SLP110 T02060206=
20/06/2017 06:51->METAR KJFK 200651Z 20009KT 8SM OVC008 20/20 A2987 RMK AO2 RAB07E49 SLP114 P0000 T02000200=
20/06/2017 05:51->METAR KJFK 200551Z 19016KT 1SM BKN003 BKN055 OVC130 19/19 A2986 RMK AO2 SFC VIS 10 RAE51 SLP111 P0001 60022 T01940194 10217 20194 58015=
20/06/2017 04:51->METAR KJFK 200451Z 18016KT 1SM -RA OVC003 20/20 A2988 RMK AO2 SFC VIS 8 RAB0353 SLP117 P0000 T02000200 402610200=
20/06/2017 03:51->METAR KJFK 200351Z 19015KT 10SM BKN005 OVC024 20/20 A2990 RMK AO2 RAE01 SLP125 P0000 T02000200=
20/06/2017 02:51->METAR KJFK 200251Z 18013KT 10SM -RA BKN004 OVC025 21/21 A2990 RMK AO2 RAE26B47 SLP125 P0001 60021 T02060206 52013=
20/06/2017 01:51->METAR KJFK 200151Z 18015KT 8SM -RA FEW008 SCT040 SCT080 OVC140 21/21 A2990 RMK AO2 SLP124 P0005 T02110211=
20/06/2017 00:51->METAR KJFK 200051Z 18008KT 7SM -RA FEW012 SCT040 BKN100 OVC140 21/21 A2987 RMK AO2 LTG DSNT NE AND E SLP113 P0015 T02110211=
19/06/2017 23:51->METAR KJFK 192351Z 21007KT 6SM RA BR FEW012 SCT040 BKN100 OVC140 21/21 A2986 RMK AO2 LTG DSNT NE TSE41 SLP112 P0011 60091 T02110211 10261 20211 53018=
19/06/2017 22:51->METAR KJFK 192251Z 24006KT 5SM -TSRA BR BKN016 OVC040CB 22/22 A2985 RMK AO2 PK WND 20031/2233 LTG DSNT ALQDS SLP106 OCNL LTGIC NW-E TS NW-E MOV NE P0076 T02220222=
19/06/2017 21:51->METAR KJFK 192151Z 21018G29KT 2SM +TSRA BR BKN011 OVC039CB 22/22 A2981 RMK AO2 PK WND 18033/2122 SFC VIS 2 1/2 LTG DSNT ALQDS RAB24 TSB03 SLP093 OCNL LTGICCG OHD AND SW-NW TS OHD AND SW-NW MOV NE P0004 T02170217=
19/06/2017 20:51->METAR KJFK 192051Z 18024G30KT 9SM FEW020 SCT048 SCT065 BKN150 BKN250 23/22 A2977 RMK AO2 PK WND 17035/2015 LTG DSNT SW-N SLP081 CB DSNT W TCU DSNT N T02330217 56020=
19/06/2017 19:51->METAR KJFK 191951Z 18022G29KT 9SM FEW048 FEW065 SCT140 SCT250 26/22 A2978 RMK AO2 PK WND 19033/1901 SLP085 TCU DSNT N AND DSNT SW T02560222=
19/06/2017 18:51->METAR KJFK 191851Z 18027G35KT 9SM FEW048 FEW120 BKN150 BKN250 25/22 A2979 RMK AO2 PK WND 18035/1850 SLP088 CB DSNT NW TCU DSNT N T02500222=
19/06/2017 17:51->METAR KJFK 191751Z 18024G30KT 8SM FEW048 FEW110 BKN160 BKN240 25/22 A2983 RMK AO2 PK WND 18031/1729 SLP101 TCU DSNT N T02500217 10256 20233 58011=
19/06/2017 16:51->METAR KJFK 191651Z 18022G29KT 9SM FEW045 FEW080 BKN160 BKN240 25/22 A2985 RMK AO2 PK WND 19030/1620 SLP106 CB DSNT N T02500222=
19/06/2017 15:51->METAR KJFK 191551Z 18018KT 9SM FEW036 FEW120 SCT220 25/22 A2985 RMK AO2 PK WND 18026/1528 LTG DSNT NW SLP106 CB DSNT NW-N T02500222=
19/06/2017 14:51->METAR KJFK 191451Z 17017KT 9SM FEW024 SCT180 25/22 A2986 RMK AO2 SLP111 T02500222 58002=
19/06/2017 13:51->METAR KJFK 191351Z 19017KT 8SM SCT024 24/22 A2987 RMK AO2 SLP115 T02390217 $=
19/06/2017 12:51->METAR KJFK 191251Z 18013KT 9SM FEW019 FEW230 23/22 A2987 RMK AO2 SLP115 T02330217 $=
19/06/2017 11:51->METAR KJFK 191151Z 18012KT 8SM FEW018 FEW220 23/22 A2987 RMK AO2 SLP113 T02330222 10233 20211 51008 $=
19/06/2017 10:51->METAR KJFK 191051Z 18013KT 7SM FEW020 FEW060 SCT220 22/22 A2986 RMK AO2 SLP112 T02220217 $=
19/06/2017 09:51->METAR KJFK 190951Z 18009KT 8SM FEW160 FEW250 22/22 A2985 RMK AO2 SLP109 T02170217 $=
19/06/2017 08:51->METAR KJFK 190851Z 18011KT 8SM FEW150 SCT250 21/21 A2984 RMK AO2 SLP105 T02110211 53003 $=
19/06/2017 07:51->METAR KJFK 190751Z 18012KT 8SM FEW150 SCT250 22/22 A2983 RMK AO2 SLP102 T02170217 $=
19/06/2017 06:51->METAR KJFK 190651Z 19012KT 8SM SCT150 SCT250 22/22 A2984 RMK AO2 SLP103 T02170217 $=
19/06/2017 05:51->METAR KJFK 190551Z 19011KT 8SM FEW004 SCT250 22/22 A2984 RMK AO2 SLP103 T02170217 10228 20217 58003 $=
19/06/2017 02:51->METAR KJFK 190251Z 19015KT 8SM FEW005 FEW035 SCT250 22/22 A2984 RMK AO2 PK WND 18026/0213 SLP106 T02220222 53012 $=
19/06/2017 01:51->METAR KJFK 190151Z 18017KT 8SM FEW010 SCT250 22/22 A2982 RMK AO2 SLP098 T02220222 $=
19/06/2017 00:51->METAR KJFK 190051Z 18018KT 8SM FEW090 SCT250 22/22 A2981 RMK AO2 SLP093 T02220217 $=
18/06/2017 23:51->METAR KJFK 182351Z 18020G27KT 8SM FEW035 SCT090 BKN250 23/22 A2981 RMK AO2 PK WND 18027/2349 SLP094 TCU DSNT W T02280217 10261 20228 53001 $=
18/06/2017 22:51->METAR KJFK 182251Z 18019G27KT 9SM FEW020 SCT070 BKN100 BKN250 23/22 A2980 RMK AO2 PK WND 18032/2208 SLP092 T02330222 $=
18/06/2017 21:51->METAR KJFK 182151Z 18021G27KT 10SM FEW045 SCT075 SCT250 25/22 A2979 RMK AO2 PK WND 18034/2126 SLP088 T02500222 $=
18/06/2017 20:51->METAR KJFK 182051Z 18023G32KT 10SM FEW020 SCT050 SCT250 25/22 A2981 RMK AO2 PK WND 19032/2051 SLP093 T02500222 58018 $=
18/06/2017 19:51->METAR KJFK 181951Z 17020G26KT 10SM FEW005 FEW025 SCT050 SCT250 26/23 A2983 RMK AO2 PK WND 17030/1906 SLP102 T02560228 $=
18/06/2017 18:51->METAR KJFK 181851Z 18019G26KT 10SM FEW005 FEW050 SCT250 26/23 A2985 RMK AO2 PK WND 17026/1845 SLP107 T02560228 $=
18/06/2017 17:51->METAR KJFK 181751Z 17016KT 10SM FEW005 FEW022 SCT039 SCT250 26/23 A2986 RMK AO2 RAB1653E03 SLP111 TCU DSNT S P0000 60000 T02560228 10261 20217 58017 $=
18/06/2017 16:51->METAR KJFK 181651Z 17014KT 10SM FEW005 FEW012 SCT045 SCT250 25/23 A2988 RMK AO2 SLP118 TCU DSNT S T02500228 $=
18/06/2017 15:51->METAR KJFK 181551Z 17012KT 7SM FEW004 SCT016 BKN045 BKN150 BKN250 24/23 A2990 RMK AO2 SLP123 T02440228 $=
18/06/2017 14:51->METAR KJFK 181451Z 17013KT 2SM BR SCT004 BKN016 BKN060 24/23 A2991 RMK AO2 SFC VIS 6 SLP128 T02440228 50001 $=
18/06/2017 13:51->METAR KJFK 181351Z 18011KT 1 1/2SM BR BKN004 BKN015 BKN025 23/22 A2992 RMK AO2 SFC VIS 5 SLP131 T02330222 $=
18/06/2017 12:51->METAR KJFK 181251Z 17009KT 3/4SM BR BKN003 BKN013 OVC026 22/22 A2992 RMK AO2 SFC VIS 4 SLP130 BKN003 V SCT T02220222 $=
18/06/2017 11:51->METAR KJFK 181151Z 17008KT 1/4SM BR OVC002 22/22 A2991 RMK AO2 SFC VIS 2 SLP127 70034 T02170217 10217 20206 51006 $=
18/06/2017 10:51->METAR KJFK 181051Z 18010KT 1/4SM BR OVC002 22/22 A2991 RMK AO2 SFC VIS 3 SLP126 T02170217 $=
18/06/2017 09:51->METAR KJFK 180951Z 17010KT 1/4SM FG VV002 21/21 A2990 RMK AO2 SLP124 T02060206 RVRNO $=
18/06/2017 08:51->METAR KJFK 180851Z 19008KT 1/4SM FG VV002 21/21 A2989 RMK AO2 SLP121 T02060206 56004 RVRNO $=
18/06/2017 07:51->METAR KJFK 180751Z 19007KT 1/4SM FG VV002 21/21 A2989 RMK AO2 SLP123 T02060206 RVRNO $=
18/06/2017 06:51->METAR KJFK 180651Z 19009KT 1/4SM FG VV002 21/21 A2989 RMK AO2 SLP122 T02060206 RVRNO $=
18/06/2017 05:51->METAR KJFK 180551Z 18007KT 1/4SM FG VV002 21/21 A2990 RMK AO2 SFC VIS 1/2 SLP125 60001 T02060206 10211 20200 58012 RVRNO $=
18/06/2017 04:51->METAR KJFK 180451Z 16006KT 1/4SM BR OVC003 21/21 A2992 RMK AO2 SFC VIS 2 SLP132 T02060206 402280189 $=
18/06/2017 03:51->METAR KJFK 180351Z 13004KT 1/4SM BR OVC003 21/21 A2994 RMK AO2 SFC VIS 2 SLP137 T02060206 $=
18/06/2017 02:51->METAR KJFK 180251Z 10004KT 1/4SM FG VV002 21/21 A2994 RMK AO2 SFC VIS 1/2 SLP137 60001 T02060206 51001 RVRNO $=
18/06/2017 01:51->METAR KJFK 180151Z 12007KT 1/4SM FG VV002 21/21 A2993 RMK AO2 SFC VIS 1/2 SLP136 T02060206 RVRNO $=
18/06/2017 00:51->METAR KJFK 180051Z 10004KT 3SM BR OVC004 21/21 A2994 RMK AO2 SFC VIS 6 RAE40 SLP138 P0001 T02060206 $=
17/06/2017 23:51->METAR KJFK 172351Z 10005KT 1/2SM -RA BR OVC002 20/20 A2993 RMK AO2 SFC VIS 1 3/4 RAB21 SLP136 P0001 60005 T02000200 10222 20200 55001 $=
17/06/2017 22:51->METAR KJFK 172251Z 13007KT 1SM BR OVC003 21/21 A2992 RMK AO2 SFC VIS 6 SLP131 T02060206 $=
17/06/2017 21:51->METAR KJFK 172151Z 16009KT 2SM BR OVC005 21/21 A2993 RMK AO2 SFC VIS 6 SLP135 T02110206=
17/06/2017 20:51->METAR KJFK 172051Z 15008KT 6SM BR OVC005 22/21 A2994 RMK AO2 SLP137 60004 T02170211 58006=
17/06/2017 19:51->METAR KJFK 171951Z 13007KT 3SM OVC004 21/21 A2994 RMK AO2 SFC VIS 8 SLP139 T02110211=
17/06/2017 18:51->METAR KJFK 171851Z 13005KT 10SM BKN004 OVC017 21/21 A2995 RMK AO2 RAE38 SLP143 P0004 T02060206=
17/06/2017 17:51->METAR KJFK 171751Z 14007KT 2 1/2SM -RA BR BKN004 BKN020 OVC030 20/20 A2996 RMK AO2 SLP145 P0019 60028 T02000200 10228 20200 53001=
17/06/2017 16:51->METAR KJFK 171651Z 13006KT 6SM -RA BR BKN006 BKN013 OVC036 20/20 A2996 RMK AO2 RAB00 SLP145 P0009 T02000200=
17/06/2017 15:51->METAR KJFK 171551Z 14008KT 5SM BR BKN007 OVC014 22/21 A2995 RMK AO2 SLP143 T02170206=
17/06/2017 14:51->METAR KJFK 171451Z 13005KT 7SM OVC010 22/21 A2996 RMK AO2 SLP143 T02220206 56002=
17/06/2017 13:51->METAR KJFK 171351Z 06004KT 8SM BKN008 OVC011 22/20 A2996 RMK AO2 SLP145 T02220200=
17/06/2017 12:51->METAR KJFK 171251Z 00000KT 10SM OVC008 21/20 A2996 RMK AO2 SLP145 T02110200=
17/06/2017 11:51->METAR KJFK 171151Z 00000KT 10SM OVC007 20/19 A2994 RMK AO2 SLP138 70003 T02000194 10200 20189 53006=
17/06/2017 10:51->METAR KJFK 171051Z 03004KT 7SM BKN009 OVC046 20/19 A2993 RMK AO2 SLP134 T02000194=
17/06/2017 09:51->METAR KJFK 170951Z 33004KT 6SM BR BKN004 OVC011 19/19 A2993 RMK AO2 SLP133 T01940194=
17/06/2017 08:51->METAR KJFK 170851Z 04004KT 6SM BR BKN004 OVC011 19/19 A2992 RMK AO2 SLP132 T01940194 56003=
17/06/2017 07:51->METAR KJFK 170751Z 01004KT 6SM BR BKN004 OVC011 19/19 A2993 RMK AO2 SLP134 T01890189=
17/06/2017 06:51->METAR KJFK 170651Z 01005KT 1 1/2SM BR OVC003 19/19 A2992 RMK AO2 SLP133 T01890189=
17/06/2017 05:51->METAR KJFK 170551Z 04006KT 1 1/2SM BR OVC003 19/19 A2993 RMK AO2 SLP135 T01890189 10206 20189 58001=
17/06/2017 04:51->METAR KJFK 170451Z 02004KT 1 1/2SM BR OVC003 19/19 A2994 RMK AO2 SLP138 T01890189 402110172=
17/06/2017 03:51->METAR KJFK 170351Z 36006KT 1 1/2SM BR OVC003 19/19 A2995 RMK AO2 SLP140 T01890189=
17/06/2017 02:51->METAR KJFK 170251Z 01005KT 4SM BR OVC004 19/19 A2993 RMK AO2 SLP136 T01940194 56002=
17/06/2017 01:51->METAR KJFK 170151Z 01006KT 6SM BR OVC004 19/19 A2993 RMK AO2 SLP136 T01940194=
17/06/2017 00:51->METAR KJFK 170051Z 03005KT 7SM OVC005 20/19 A2993 RMK AO2 SLP135 T02000194=
16/06/2017 23:51->METAR KJFK 162351Z 04004KT 7SM OVC006 21/20 A2994 RMK AO2 SLP138 60000 T02060200 10211 20189 53003=
16/06/2017 22:51->METAR KJFK 162251Z 03005KT 10SM OVC007 21/20 A2994 RMK AO2 SLP138 T02060200=
16/06/2017 21:51->METAR KJFK 162151Z 05004KT 10SM OVC007 21/19 A2993 RMK AO2 SLP134 T02060194=
16/06/2017 20:51->METAR KJFK 162051Z 06006KT 5SM BR OVC006 21/20 A2993 RMK AO2 DZE42 SLP135 P0000 60000 T02060200 56012=
16/06/2017 19:51->METAR KJFK 161951Z 07005KT 5SM -DZ BR OVC007 20/19 A2994 RMK AO2 DZB44 SLP139 P0000 T02000194=
16/06/2017 18:51->METAR KJFK 161851Z 09005KT 10SM OVC008 21/19 A2995 RMK AO2 DZE1758 SLP142 P0000 T02060189=
16/06/2017 17:51->METAR KJFK 161751Z 08007KT 6SM -DZ BR OVC008 19/19 A2997 RMK AO2 SLP147 P0000 60003 T01890189 10194 20178 58009=
16/06/2017 16:51->METAR KJFK 161651Z 08007KT 10SM -DZ OVC009 19/18 A2998 RMK AO2 DZB48 SLP151 P0000 T01940183=
16/06/2017 15:51->METAR KJFK 161551Z 10007KT 10SM OVC009 19/18 A2998 RMK AO2 SLP152 T01890178=
16/06/2017 14:51->METAR KJFK 161451Z 10011KT 10SM OVC008 18/18 A2999 RMK AO2 RAE18 SLP156 P0001 60003 T01830178 57005=
16/06/2017 13:51->METAR KJFK 161351Z 10009KT 4SM -RA BR BKN010 OVC022 18/18 A2999 RMK AO2 DZE21RAB21 SLP157 CIG 008V013 P0002 T01830178=
16/06/2017 12:51->METAR KJFK 161251Z 09013KT 8SM -DZ OVC012 19/17 A3001 RMK AO2 DZB49 SLP160 P0000 T01890167=
16/06/2017 11:51->METAR KJFK 161151Z 10013KT 10SM OVC012 19/17 A3001 RMK AO2 SLP161 T01890167 10189 20172 51003=
16/06/2017 10:51->METAR KJFK 161051Z 10011KT 10SM BKN012 BKN065 BKN250 18/17 A3001 RMK AO2 SLP160 T01830167=
16/06/2017 09:51->METAR KJFK 160951Z 09009KT 10SM BKN010 BKN050 OVC250 18/17 A3001 RMK AO2 SLP160 T01780167=
16/06/2017 08:51->METAR KJFK 160851Z 10010KT 10SM FEW012 BKN060 BKN250 17/17 A3000 RMK AO2 SLP159 T01720167 56011=
16/06/2017 07:51->METAR KJFK 160751Z 09008KT 10SM FEW012 SCT250 17/16 A3000 RMK AO2 SLP160 T01720161=
16/06/2017 06:51->METAR KJFK 160651Z 12008KT 10SM FEW013 BKN250 18/16 A3002 RMK AO2 SLP165 T01780161=
16/06/2017 05:51->METAR KJFK 160551Z 11007KT 10SM FEW014 BKN250 18/16 A3003 RMK AO2 SLP169 T01780161 10189 20178 58004=
16/06/2017 04:51->METAR KJFK 160451Z 12007KT 10SM FEW015 FEW060 BKN250 18/16 A3005 RMK AO2 SLP176 T01780156 402220161=
16/06/2017 03:51->METAR KJFK 160351Z 09006KT 10SM BKN250 18/15 A3005 RMK AO2 SLP175 T01780150=
16/06/2017 02:51->METAR KJFK 160251Z 12007KT 10SM BKN250 18/15 A3004 RMK AO2 SLP174 T01780150 50004=
16/06/2017 01:51->METAR KJFK 160151Z 11006KT 10SM FEW060 BKN250 18/15 A3006 RMK AO2 SLP178 T01780150=
16/06/2017 00:51->METAR KJFK 160051Z 11008KT 10SM FEW060 FEW140 SCT250 18/15 A3004 RMK AO2 SLP172 T01830150=
15/06/2017 23:51->METAR KJFK 152351Z 11011KT 10SM FEW060 BKN250 19/15 A3003 RMK AO2 SLP170 T01890150 10222 20189 55001=
15/06/2017 22:51->METAR KJFK 152251Z 12010KT 10SM SCT055 SCT250 20/14 A3003 RMK AO2 SLP168 T02000144=
15/06/2017 21:51->METAR KJFK 152151Z 12012KT 10SM FEW070 FEW150 BKN250 21/14 A3004 RMK AO2 SLP170 T02060144=
15/06/2017 20:51->METAR KJFK 152051Z 14012KT 10SM FEW070 FEW170 BKN250 21/13 A3004 RMK AO2 SLP171 T02110133 58013=
15/06/2017 19:51->METAR KJFK 151951Z 14012KT 10SM FEW070 FEW170 BKN250 22/13 A3006 RMK AO2 SLP178 T02170128=
15/06/2017 18:51->METAR KJFK 151851Z 14011KT 10SM FEW070 FEW200 BKN250 22/12 A3006 RMK AO2 SLP180 T02220117=
15/06/2017 17:51->METAR KJFK 151751Z 14012KT 10SM FEW070 SCT120 SCT200 SCT250 22/13 A3007 RMK AO2 SLP184 T02220128 10222 20189 58004=
15/06/2017 16:51->METAR KJFK 151651Z 13012KT 10SM FEW070 FEW110 SCT250 22/13 A3008 RMK AO2 SLP185 T02170128=
15/06/2017 15:51->METAR KJFK 151551Z 13010KT 10SM SCT070 SCT110 SCT250 22/13 A3009 RMK AO2 SLP190 T02220133=
15/06/2017 14:51->METAR KJFK 151451Z 13009KT 10SM SCT070 SCT250 22/14 A3009 RMK AO2 SLP188 T02170144 51007=
15/06/2017 13:51->METAR KJFK 151351Z 13009KT 10SM BKN070 BKN250 21/15 A3009 RMK AO2 SLP188 T02110150=
15/06/2017 12:51->METAR KJFK 151251Z 11009KT 10SM BKN065 BKN250 20/15 A3007 RMK AO2 SLP183 T02000150=
15/06/2017 11:51->METAR KJFK 151151Z 11008KT 10SM SCT065 SCT250 19/15 A3007 RMK AO2 SLP180 70020 T01940150 10194 20161 51012=
15/06/2017 10:51->METAR KJFK 151051Z 09004KT 10SM FEW060 FEW150 SCT250 18/16 A3005 RMK AO2 SLP177 T01830161=
15/06/2017 09:51->METAR KJFK 150951Z 09004KT 10SM FEW060 FEW250 17/16 A3005 RMK AO2 SLP175 T01670156=
15/06/2017 08:51->METAR KJFK 150851Z 09007KT 10SM FEW250 17/16 A3003 RMK AO2 SLP169 T01670161 55003=
15/06/2017 07:51->METAR KJFK 150751Z 11007KT 10SM FEW250 17/16 A3003 RMK AO2 SLP169 T01720161=
15/06/2017 06:51->METAR KJFK 150651Z 11004KT 10SM SCT250 17/16 A3004 RMK AO2 SLP172 T01720156=
15/06/2017 05:51->METAR KJFK 150551Z 09005KT 10SM BKN250 18/16 A3004 RMK AO2 SLP173 T01780156 10206 20172 55002=
15/06/2017 04:51->METAR KJFK 150451Z 00000KT 10SM SCT250 18/15 A3004 RMK AO2 SLP172 T01830150 402780183=
15/06/2017 03:51->METAR KJFK 150351Z 18003KT 10SM SCT250 19/15 A3004 RMK AO2 SLP173 T01890150=
15/06/2017 02:51->METAR KJFK 150251Z 19003KT 10SM BKN250 19/15 A3005 RMK AO2 SLP174 T01890150 53017=
15/06/2017 01:51->METAR KJFK 150151Z 16004KT 10SM BKN250 19/14 A3002 RMK AO2 SLP166 T01940144=
15/06/2017 00:51->METAR KJFK 150051Z 19005KT 10SM BKN250 19/14 A3000 RMK AO2 SLP160 T01940144=
14/06/2017 23:51->METAR KJFK 142351Z 19005KT 10SM BKN250 21/13 A3000 RMK AO2 SLP157 T02060133 10256 20206 55002=
14/06/2017 22:51->METAR KJFK 142251Z 17008KT 10SM BKN250 22/12 A2999 RMK AO2 SLP154 T02220122=
14/06/2017 21:51->METAR KJFK 142151Z 17009KT 10SM FEW050 BKN250 23/15 A2999 RMK AO2 SLP153 T02280150=
14/06/2017 20:51->METAR KJFK 142051Z 18008KT 10SM FEW050 BKN250 24/16 A3000 RMK AO2 SLP159 T02390156 53000=
14/06/2017 19:51->METAR KJFK 141951Z 17009KT 10SM FEW037 FEW050 BKN250 24/15 A2999 RMK AO2 SLP157 T02440150=
14/06/2017 18:51->METAR KJFK 141851Z 16009KT 10SM FEW050 BKN250 25/15 A2999 RMK AO2 SLP154 T02500150=
14/06/2017 17:51->METAR KJFK 141751Z 16007KT 10SM SCT050 BKN250 25/17 A3000 RMK AO2 SLP158 60020 T02500172 10256 20206 58003=
14/06/2017 16:51->METAR KJFK 141651Z 12007KT 10SM FEW030 SCT044 SCT070 SCT220 24/18 A3001 RMK AO2 SLP161 T02390178=
14/06/2017 15:51->METAR KJFK 141551Z 14008KT 10SM FEW019 SCT036 BKN070 BKN220 24/21 A3001 RMK AO2 SLP163 T02390206=
14/06/2017 14:51->METAR KJFK 141451Z VRB04KT 9SM FEW016 SCT022 BKN070 24/21 A3001 RMK AO2 SLP162 60020 T02440211 51007=
14/06/2017 13:51->METAR KJFK 141351Z 10004KT 7SM FEW014 SCT042 BKN070 BKN170 22/21 A3000 RMK AO2 RAE00 SLP160 P0000 T02170211=
14/06/2017 12:51->METAR KJFK 141251Z 13006KT 6SM -RA BR SCT010 BKN036 BKN070 BKN140 21/21 A3001 RMK AO2 RAB04 SLP161 P0020 T02060206=
14/06/2017 11:51->METAR KJFK 141151Z 05005KT 10SM FEW022 BKN035 BKN055 OVC160 22/21 A2999 RMK AO2 SLP155 VIS LWR NW-N VCSH W-N 60010 70010 T02220211 10272 20217 51026=
14/06/2017 10:51->METAR KJFK 141051Z 05009KT 9SM FEW027 BKN048 BKN095 22/20 A2996 RMK AO2 RAE49 SLP145 VCSH NE-SE P0010 T02170200=
14/06/2017 09:51->METAR KJFK 140951Z 00000KT 10SM -RA OVC050 23/21 A2994 RMK AO2 RAE11B47 SLP139 P0000 T02280211=
14/06/2017 08:51->METAR KJFK 140851Z 04013KT 10SM -RA SCT048 OVC090 23/21 A2991 RMK AO2 LTG DSNT NE RAB48 SLP129 OCNL LTGIC DSNT NE CB DSNT NE MOV SE P0000 60000 T02280206 53010=
14/06/2017 07:51->METAR KJFK 140751Z 02007KT 10SM BKN070 BKN250 25/18 A2989 RMK AO2 LTG DSNT NE AND NW SLP122 T02500183=
14/06/2017 06:51->METAR KJFK 140651Z 01006KT 10SM SCT065 SCT120 SCT250 26/19 A2989 RMK AO2 SLP120 T02610194=
14/06/2017 05:51->METAR KJFK 140551Z 03010KT 10SM BKN065 BKN120 OVC250 27/19 A2988 RMK AO2 SLP119 T02720194 10306 20272 51004=
14/06/2017 04:51->METAR KJFK 140451Z 03007KT 10SM SCT060 BKN095 OVC250 28/20 A2988 RMK AO2 SLP118 T02830200 403440222=
14/06/2017 03:51->METAR KJFK 140351Z 00000KT 10SM FEW050 SCT100 OVC240 28/20 A2988 RMK AO2 SLP116 T02830200=
14/06/2017 02:51->METAR KJFK 140251Z 04003KT 10SM FEW048 FEW080 BKN260 29/20 A2987 RMK AO2 SLP115 T02890200 50014=
14/06/2017 01:51->METAR KJFK 140151Z 02008KT 10SM SCT080 BKN250 30/20 A2987 RMK AO2 SLP116 T03000200=
14/06/2017 00:51->METAR KJFK 140051Z 24008KT 10SM FEW060 SCT085 BKN250 29/20 A2984 RMK AO2 SLP104 CB DSNT NW T02940200=
13/06/2017 23:51->METAR KJFK 132351Z 21008KT 10SM FEW060 SCT085 BKN250 27/20 A2983 RMK AO2 SLP101 TCU DSNT NW T02720200 10344 20267 55001=
13/06/2017 22:51->METAR KJFK 132251Z 20009KT 10SM SCT075 BKN250 27/20 A2982 RMK AO2 SLP097 T02720200=
13/06/2017 21:51->METAR KJFK 132151Z 19013KT 10SM SCT075 SCT260 29/20 A2981 RMK AO2 SLP095 T02890200=
13/06/2017 20:51->METAR KJFK 132051Z 19013KT 10SM SCT075 SCT260 30/20 A2983 RMK AO2 SLP102 T03000200 58018=
13/06/2017 19:51->METAR KJFK 131951Z 20013KT 10SM SCT075 SCT270 32/20 A2985 RMK AO2 SLP108 T03170200=
13/06/2017 18:51->METAR KJFK 131851Z 19014KT 10SM SCT075 SCT270 31/21 A2987 RMK AO2 SLP113 T03110206=
13/06/2017 17:51->METAR KJFK 131751Z 23014G22KT 10SM SCT070 SCT340 34/20 A2989 RMK AO2 SLP120 T03390200 10344 20261 58015=
13/06/2017 16:51->METAR KJFK 131651Z 22013KT 10SM FEW065 FEW340 33/21 A2990 RMK AO2 SLP125 T03330206=
13/06/2017 15:51->METAR KJFK 131551Z 21011KT 10SM SCT065 SCT340 31/20 A2992 RMK AO2 SLP132 T03110200=
13/06/2017 14:51->METAR KJFK 131451Z 23009KT 10SM FEW330 31/21 A2993 RMK AO2 SLP135 T03060211 58007=
13/06/2017 13:51->METAR KJFK 131351Z 23008KT 10SM FEW070 SCT320 30/21 A2994 RMK AO2 SLP137 T03000206=
13/06/2017 12:51->METAR KJFK 131251Z 24007KT 10SM FEW070 SCT320 28/21 A2995 RMK AO2 SLP142 T02780211=
13/06/2017 11:51->METAR KJFK 131151Z 24006KT 10SM SCT075 BKN320 26/20 A2995 RMK AO2 SLP142 T02610200 10261 20222 50001=
13/06/2017 10:51->METAR KJFK 131051Z 24006KT 10SM SCT075 BKN320 24/20 A2996 RMK AO2 SLP144 T02440200=
13/06/2017 09:51->METAR KJFK 130951Z 24006KT 10SM SCT075 SCT250 23/20 A2995 RMK AO2 SLP141 T02280200=
13/06/2017 08:51->METAR KJFK 130851Z 23007KT 10SM SCT075 23/20 A2995 RMK AO2 SLP141 T02280200 55001=
13/06/2017 07:51->METAR KJFK 130751Z 22006KT 10SM SCT070 SCT250 23/20 A2995 RMK AO2 SLP140 T02330200=
13/06/2017 06:51->METAR KJFK 130651Z 25007KT 10SM FEW060 24/20 A2995 RMK AO2 SLP142 T02440200=
13/06/2017 05:51->METAR KJFK 130551Z 23008KT 10SM CLR 24/19 A2995 RMK AO2 SLP142 T02440194 10294 20244 53001=
13/06/2017 04:51->METAR KJFK 130451Z 24009KT 10SM FEW250 25/19 A2995 RMK AO2 SLP140 T02500194 403330206=
13/06/2017 03:51->METAR KJFK 130351Z 23008KT 10SM FEW250 26/19 A2995 RMK AO2 SLP140 T02560194=
13/06/2017 02:51->METAR KJFK 130251Z 23008KT 10SM FEW250 27/19 A2995 RMK AO2 SLP141 T02670189 51006=
13/06/2017 01:51->METAR KJFK 130151Z 24010KT 10SM FEW250 29/18 A2995 RMK AO2 SLP141 T02890183=
13/06/2017 00:51->METAR KJFK 130051Z 24009KT 10SM FEW075 FEW250 29/19 A2994 RMK AO2 SLP137 T02890189=
12/06/2017 23:51->METAR KJFK 122351Z 21010KT 10SM FEW075 FEW250 28/19 A2993 RMK AO2 SLP135 T02780189 10333 20278 55002=
12/06/2017 22:51->METAR KJFK 122251Z 21008KT 10SM FEW075 28/19 A2993 RMK AO2 SLP133 T02830189=
12/06/2017 21:51->METAR KJFK 122151Z 19012KT 10SM FEW065 28/19 A2992 RMK AO2 SLP133 T02830189=
12/06/2017 20:51->METAR KJFK 122051Z 19013KT 10SM FEW060 29/19 A2994 RMK AO2 SLP138 T02940189 56017=
12/06/2017 19:51->METAR KJFK 121951Z 19016KT 10SM FEW060 30/19 A2995 RMK AO2 SLP143 T03000189=
12/06/2017 18:51->METAR KJFK 121851Z 19016KT 10SM FEW060 31/19 A2997 RMK AO2 SLP148 T03110194=
12/06/2017 17:51->METAR KJFK 121751Z 22013KT 10SM FEW060 33/18 A2999 RMK AO2 SLP155 T03280183 10328 20244 58012=
12/06/2017 16:51->METAR KJFK 121651Z 24013KT 10SM FEW055 32/19 A3001 RMK AO2 SLP161 T03220189=
12/06/2017 15:51->METAR KJFK 121551Z 23013KT 10SM CLR 31/19 A3002 RMK AO2 SLP164 T03060189=
12/06/2017 14:51->METAR KJFK 121451Z 23010KT 10SM CLR 29/19 A3002 RMK AO2 SLP166 T02940189 58013=
12/06/2017 13:51->METAR KJFK 121351Z 23010KT 10SM CLR 29/19 A3004 RMK AO2 SLP172 T02890189=
12/06/2017 12:51->METAR KJFK 121251Z 26007KT 10SM CLR 28/19 A3005 RMK AO2 SLP175 T02830189=
12/06/2017 11:51->METAR KJFK 121151Z 23007KT 10SM CLR 24/20 A3006 RMK AO2 SLP179 T02440200 10244 20206 51013=
12/06/2017 10:51->METAR KJFK 121051Z 23008KT 10SM CLR 23/20 A3006 RMK AO2 SLP177 T02280200=
12/06/2017 09:51->METAR KJFK 120951Z 21006KT 10SM CLR 21/19 A3004 RMK AO2 SLP172 T02110194=
12/06/2017 08:51->METAR KJFK 120851Z 24006KT 10SM CLR 21/19 A3002 RMK AO2 SLP166 T02110194 53005=
12/06/2017 07:51->METAR KJFK 120751Z 26006KT 10SM CLR 24/19 A3001 RMK AO2 SLP161 T02390194=
12/06/2017 06:51->METAR KJFK 120651Z 26008KT 10SM CLR 24/20 A3001 RMK AO2 SLP161 T02390200=
12/06/2017 05:51->METAR KJFK 120551Z 24007KT 10SM FEW250 23/20 A3001 RMK AO2 SLP161 T02330200 10256 20222 58005=
12/06/2017 04:51->METAR KJFK 120451Z 21006KT 10SM FEW250 23/19 A3002 RMK AO2 SLP164 T02280194 403060189=
12/06/2017 03:51->METAR KJFK 120351Z 24010KT 10SM FEW250 24/19 A3002 RMK AO2 SLP165 T02440194=
12/06/2017 02:51->METAR KJFK 120251Z 24010KT 10SM SCT250 26/19 A3002 RMK AO2 SLP166 T02560189 53009=
12/06/2017 01:51->METAR KJFK 120151Z 20007KT 10SM SCT250 23/19 A3001 RMK AO2 SLP163 T02330189=
12/06/2017 00:51->METAR KJFK 120051Z 19006KT 10SM BKN250 23/18 A3000 RMK AO2 SLP158 T02330183=
11/06/2017 23:51->METAR KJFK 112351Z 20007KT 10SM BKN250 25/18 A2999 RMK AO2 SLP157 T02500183 10300 20250 55005=
11/06/2017 22:51->METAR KJFK 112251Z 19009KT 10SM BKN250 26/19 A2999 RMK AO2 SLP155 T02560189=
11/06/2017 21:51->METAR KJFK 112151Z 19014KT 10SM BKN250 26/19 A3000 RMK AO2 SLP159 T02560194=
11/06/2017 20:51->METAR KJFK 112051Z 19016KT 10SM BKN250 26/19 A3001 RMK AO2 SLP161 T02610194 58011=
11/06/2017 19:51->METAR KJFK 111951Z 19014KT 10SM BKN250 28/19 A3002 RMK AO2 SLP166 T02780194=
11/06/2017 18:51->METAR KJFK 111851Z 18014KT 10SM BKN250 28/19 A3003 RMK AO2 SLP169 T02830189=
11/06/2017 17:51->METAR KJFK 111751Z 19014KT 10SM BKN250 28/19 A3004 RMK AO2 SLP172 T02830189 10306 20228 58011=
11/06/2017 16:51->METAR KJFK 111651Z 21013KT 10SM BKN250 30/19 A3006 RMK AO2 SLP179 T03000189=
11/06/2017 15:51->METAR KJFK 111551Z 20010KT 10SM BKN250 28/19 A3007 RMK AO2 SLP181 T02830189=
11/06/2017 14:51->METAR KJFK 111451Z 20009KT 10SM BKN250 27/19 A3007 RMK AO2 SLP184 T02670194 58003=
11/06/2017 13:51->METAR KJFK 111351Z 20009KT 10SM SCT250 26/19 A3008 RMK AO2 SLP187 T02560189=
11/06/2017 12:51->METAR KJFK 111251Z 21007KT 10SM FEW250 25/19 A3009 RMK AO2 SLP188 T02500194=
11/06/2017 11:51->METAR KJFK 111151Z 24009KT 10SM FEW250 23/19 A3008 RMK AO2 SLP187 T02280189 10233 20189 51010=
11/06/2017 10:51->METAR KJFK 111051Z 23007KT 10SM FEW250 22/18 A3008 RMK AO2 SLP186 T02170183=
11/06/2017 09:51->METAR KJFK 110951Z 22007KT 10SM FEW250 21/18 A3007 RMK AO2 SLP181 T02060183=
11/06/2017 08:51->METAR KJFK 110851Z 20006KT 10SM FEW090 FEW250 19/18 A3006 RMK AO2 SLP177 T01890178 53003=
11/06/2017 07:51->METAR KJFK 110751Z 22007KT 10SM FEW250 21/18 A3004 RMK AO2 SLP172 T02060178=
11/06/2017 06:51->METAR KJFK 110651Z 19006KT 10SM SCT250 20/18 A3005 RMK AO2 SLP174 T02000178=
11/06/2017 05:51->METAR KJFK 110551Z 22005KT 10SM SCT250 19/18 A3005 RMK AO2 SLP174 T01940178 10222 20194 53001=
11/06/2017 04:51->METAR KJFK 110451Z 21005KT 10SM SCT250 20/18 A3005 RMK AO2 SLP174 T02000178 402720167=
11/06/2017 03:51->METAR KJFK 110351Z 19006KT 10SM FEW095 SCT250 19/18 A3004 RMK AO2 SLP173 T01940178=
11/06/2017 02:51->METAR KJFK 110251Z 19005KT 10SM FEW095 BKN250 20/18 A3004 RMK AO2 SLP173 T02000178 51019=
11/06/2017 01:51->METAR KJFK 110151Z 19009KT 10SM SCT095 BKN250 21/18 A3003 RMK AO2 SLP169 T02060178=
11/06/2017 00:51->METAR KJFK 110051Z 19012KT 10SM BKN095 BKN250 22/18 A3000 RMK AO2 SLP159 T02170178=
10/06/2017 23:51->METAR KJFK 102351Z 19016G22KT 10SM FEW070 FEW130 SCT250 22/18 A2999 RMK AO2 SLP154 T02220178 10272 20222 53007=
10/06/2017 22:51->METAR KJFK 102251Z 19017KT 10SM FEW070 SCT130 SCT250 23/17 A2997 RMK AO2 SLP147 T02330172=
10/06/2017 21:51->METAR KJFK 102151Z 18019G24KT 10SM FEW070 SCT120 SCT250 24/17 A2996 RMK AO2 SLP144 T02390167=
10/06/2017 20:51->METAR KJFK 102051Z 19018KT 10SM FEW065 SCT110 SCT250 24/17 A2996 RMK AO2 SLP147 T02440172 56015=
10/06/2017 19:51->METAR KJFK 101951Z 18017KT 10SM FEW060 SCT110 SCT250 26/17 A2997 RMK AO2 SLP149 T02560167=
10/06/2017 18:51->METAR KJFK 101851Z 18016KT 10SM FEW065 FEW110 SCT250 26/16 A2999 RMK AO2 SLP155 T02560161=
10/06/2017 17:51->METAR KJFK 101751Z 18013KT 10SM FEW060 FEW100 SCT250 27/16 A3001 RMK AO2 SLP162 T02720156 10272 20217 58002=
10/06/2017 16:51->METAR KJFK 101651Z 21010KT 10SM FEW060 FEW110 SCT250 27/15 A3001 RMK AO2 SLP163 T02720150=
10/06/2017 15:51->METAR KJFK 101551Z 21009KT 10SM BKN100 BKN250 26/15 A3001 RMK AO2 SLP163 T02610150=
10/06/2017 14:51->METAR KJFK 101451Z 23007KT 10SM SCT095 BKN250 27/15 A3001 RMK AO2 SLP163 T02670150 51008=
10/06/2017 13:51->METAR KJFK 101351Z VRB06KT 10SM BKN110 BKN250 25/14 A3001 RMK AO2 SLP163 T02500139=
10/06/2017 12:51->METAR KJFK 101251Z 28009KT 10SM SCT120 SCT250 26/13 A3000 RMK AO2 SLP160 T02560133=
10/06/2017 11:51->METAR KJFK 101151Z 25007KT 10SM FEW110 SCT250 22/14 A2999 RMK AO2 SLP155 T02170139 10217 20167 53021=
10/06/2017 10:51->METAR KJFK 101051Z 25004KT 10SM FEW100 FEW250 20/13 A2996 RMK AO2 SLP143 T02000133=
10/06/2017 09:51->METAR KJFK 100951Z 24005KT 10SM FEW090 SCT250 18/14 A2994 RMK AO2 SLP138 T01780139=
10/06/2017 08:51->METAR KJFK 100851Z 21003KT 10SM FEW090 SCT250 18/14 A2993 RMK AO2 SLP134 T01780144 51006=
10/06/2017 07:51->METAR KJFK 100751Z 24006KT 10SM FEW090 SCT250 18/14 A2992 RMK AO2 SLP133 T01780139=
10/06/2017 06:51->METAR KJFK 100651Z 22008KT 10SM FEW090 FEW250 18/14 A2992 RMK AO2 SLP131 T01830139=
10/06/2017 05:51->METAR KJFK 100551Z 24007KT 10SM FEW090 FEW250 19/14 A2991 RMK AO2 SLP128 T01890144 10272 20189 51011=
10/06/2017 04:51->METAR KJFK 100451Z 23006KT 10SM FEW090 19/14 A2990 RMK AO2 SLP125 T01940139 402890106=
10/06/2017 03:51->METAR KJFK 100351Z 24008KT 10SM FEW090 22/14 A2989 RMK AO2 SLP121 T02170139=
10/06/2017 02:51->METAR KJFK 100251Z 23009KT 10SM SCT090 22/13 A2988 RMK AO2 SLP117 T02220133 53028=
10/06/2017 01:51->METAR KJFK 100151Z 24011KT 10SM FEW090 23/13 A2985 RMK AO2 SLP108 T02330128=
10/06/2017 00:51->METAR KJFK 100051Z 26010KT 10SM FEW060 FEW080 27/09 A2981 RMK AO2 SLP096 T02670094=
09/06/2017 23:51->METAR KJFK 092351Z 27013KT 10SM FEW080 27/10 A2979 RMK AO2 SLP089 T02720100 10289 20261 53015=
09/06/2017 22:51->METAR KJFK 092251Z 25015G19KT 10SM SCT080 28/09 A2977 RMK AO2 SLP080 T02780089=
09/06/2017 21:51->METAR KJFK 092151Z 28009KT 10SM SCT080 28/09 A2975 RMK AO2 SLP074 T02780089=
09/06/2017 20:51->METAR KJFK 092051Z 28011G16KT 10SM SCT075 SCT100 SCT250 28/10 A2975 RMK AO2 SLP074 T02780100 55000=
09/06/2017 19:51->METAR KJFK 091951Z 31014KT 10SM SCT070 SCT095 SCT250 27/09 A2974 RMK AO2 SLP072 T02670094=
09/06/2017 18:51->METAR KJFK 091851Z 28014G21KT 10SM SCT065 SCT250 27/09 A2974 RMK AO2 SLP071 T02670094=
09/06/2017 17:51->METAR KJFK 091751Z 30005KT 10SM FEW065 FEW140 SCT250 27/11 A2975 RMK AO2 SLP074 T02670111 10267 20161 58004=
09/06/2017 16:51->METAR KJFK 091651Z 34007G14KT 10SM FEW060 FEW140 SCT250 26/10 A2976 RMK AO2 SLP077 T02610100=
09/06/2017 15:51->METAR KJFK 091551Z 32009KT 10SM FEW055 FEW140 BKN260 24/11 A2977 RMK AO2 SLP080 T02390106=
09/06/2017 14:51->METAR KJFK 091451Z 24009KT 10SM FEW070 FEW140 BKN260 22/10 A2976 RMK AO2 SLP077 T02220100 50000=
09/06/2017 13:51->METAR KJFK 091351Z 26010KT 10SM FEW100 SCT140 BKN260 19/08 A2976 RMK AO2 SLP078 T01940083=
09/06/2017 12:51->METAR KJFK 091251Z 25009KT 10SM SCT160 BKN260 18/08 A2977 RMK AO2 SLP080 T01830083=
09/06/2017 11:51->METAR KJFK 091151Z 25006KT 10SM BKN160 BKN280 16/08 A2976 RMK AO2 SLP077 T01610083 10161 20106 50004=
09/06/2017 10:51->METAR KJFK 091051Z 23005KT 10SM SCT160 BKN280 15/12 A2976 RMK AO2 SLP078 T01500117=
09/06/2017 09:51->METAR KJFK 090951Z 23005KT 10SM SCT150 12/10 A2975 RMK AO2 SLP074 T01170100=
09/06/2017 08:51->METAR KJFK 090851Z 32003KT 10SM FEW150 12/10 A2975 RMK AO2 SLP072 T01170100 56014=
09/06/2017 07:51->METAR KJFK 090751Z 00000KT 10SM SCT150 13/10 A2975 RMK AO2 SLP074 T01280100=
09/06/2017 06:51->METAR KJFK 090651Z 35003KT 10SM BKN140 13/10 A2976 RMK AO2 SLP079 T01280100=
09/06/2017 05:51->METAR KJFK 090551Z 03004KT 10SM BKN140 13/09 A2979 RMK AO2 SLP086 T01330089 10161 20128 56019=
09/06/2017 04:51->METAR KJFK 090451Z 04005KT 10SM SCT140 13/08 A2980 RMK AO2 SLP089 T01330078 401940122=
09/06/2017 03:51->METAR KJFK 090351Z 01004KT 10SM BKN140 14/07 A2982 RMK AO2 SLP098 T01440067=
09/06/2017 02:51->METAR KJFK 090251Z 01005KT 10SM BKN170 14/06 A2984 RMK AO2 SLP105 T01440061 56012=
09/06/2017 01:51->METAR KJFK 090151Z 00000KT 10SM FEW150 BKN180 BKN250 15/06 A2985 RMK AO2 SLP108 T01500056=
09/06/2017 00:51->METAR KJFK 090051Z 08004KT 10SM BKN150 BKN250 16/06 A2985 RMK AO2 SLP108 T01560056=
08/06/2017 23:51->METAR KJFK 082351Z 00000KT 10SM BKN130 BKN250 16/06 A2988 RMK AO2 SLP117 T01610061 10183 20161 56022=
08/06/2017 22:51->METAR KJFK 082251Z 08006KT 10SM FEW035 BKN140 BKN250 16/06 A2989 RMK AO2 SLP122 VIRGA SE T01610061=
08/06/2017 21:51->METAR KJFK 082151Z 09007KT 10SM FEW035 BKN150 BKN210 BKN250 16/06 A2992 RMK AO2 SLP132 T01610061=
08/06/2017 20:51->METAR KJFK 082051Z 11011KT 10SM FEW035 BKN190 BKN250 17/08 A2994 RMK AO2 SLP139 T01670083 58019=
08/06/2017 19:51->METAR KJFK 081951Z 12008KT 10SM FEW035 BKN170 OVC250 17/11 A2998 RMK AO2 SLP152 T01670106=
08/06/2017 18:51->METAR KJFK 081851Z 10009KT 10SM FEW035 BKN180 OVC250 18/10 A2998 RMK AO2 SLP153 T01780100=
08/06/2017 17:51->METAR KJFK 081751Z 12010KT 10SM FEW035 OVC210 18/09 A3000 RMK AO2 SLP159 T01830094 10194 20161 58012=
08/06/2017 16:51->METAR KJFK 081651Z 13006KT 10SM FEW035 BKN230 18/11 A3002 RMK AO2 SLP166 T01830111=
08/06/2017 15:51->METAR KJFK 081551Z 14006KT 10SM FEW032 BKN240 18/13 A3004 RMK AO2 SLP171 T01780133=
08/06/2017 14:51->METAR KJFK 081451Z 15011KT 10SM FEW030 FEW120 BKN260 19/13 A3003 RMK AO2 SLP170 T01890133 53000=
08/06/2017 13:51->METAR KJFK 081351Z 11007KT 10SM FEW140 BKN270 19/14 A3002 RMK AO2 SLP167 T01940139=
08/06/2017 12:51->METAR KJFK 081251Z 06005KT 10SM FEW012 FEW140 BKN270 17/14 A3003 RMK AO2 SLP169 T01720139=
08/06/2017 11:51->METAR KJFK 081151Z 06004KT 10SM FEW140 SCT270 16/13 A3003 RMK AO2 SLP170 T01610128 10161 20122 53009=
08/06/2017 10:51->METAR KJFK 081051Z 00000KT 10SM FEW140 SCT270 15/12 A3002 RMK AO2 SLP165 T01500122=
08/06/2017 09:51->METAR KJFK 080951Z 03003KT 10SM FEW250 14/12 A3001 RMK AO2 SLP162 T01390117=
08/06/2017 08:51->METAR KJFK 080851Z 00000KT 10SM FEW250 12/11 A3001 RMK AO2 SLP160 T01220111 56005=
08/06/2017 07:51->METAR KJFK 080751Z 00000KT 10SM FEW250 14/12 A3001 RMK AO2 SLP161 T01440117=
08/06/2017 06:51->METAR KJFK 080651Z 26005KT 10SM FEW250 14/12 A3002 RMK AO2 SLP165 T01440122=
08/06/2017 05:51->METAR KJFK 080551Z 26005KT 10SM FEW250 15/13 A3002 RMK AO2 SLP166 T01500128 10167 20144 58004=
08/06/2017 04:51->METAR KJFK 080451Z 24006KT 10SM FEW250 16/14 A3003 RMK AO2 SLP169 T01560139 402000111=
08/06/2017 03:51->METAR KJFK 080351Z 22006KT 10SM SCT250 15/13 A3004 RMK AO2 SLP171 T01500133=
08/06/2017 02:51->METAR KJFK 080251Z 24006KT 10SM FEW250 16/13 A3004 RMK AO2 SLP170 T01560128 51005=
08/06/2017 01:51->METAR KJFK 080151Z 20005KT 10SM FEW250 14/13 A3003 RMK AO2 SLP170 T01440128=
08/06/2017 00:51->METAR KJFK 080051Z 21005KT 10SM FEW070 FEW250 15/12 A3002 RMK AO2 SLP167 T01500117=
07/06/2017 23:51->METAR KJFK 072351Z 20005KT 10SM FEW045 FEW070 FEW250 17/11 A3002 RMK AO2 SLP165 T01670111 10194 20167 53002=
07/06/2017 22:51->METAR KJFK 072251Z 21007KT 10SM FEW045 FEW070 FEW250 17/12 A3001 RMK AO2 SLP163 T01720117=
07/06/2017 21:51->METAR KJFK 072151Z 19009KT 10SM FEW045 SCT070 SCT250 17/11 A3002 RMK AO2 SLP164 T01720111=
07/06/2017 20:51->METAR KJFK 072051Z 19011KT 10SM FEW045 SCT060 SCT250 18/11 A3001 RMK AO2 SLP163 T01830111 53009=
07/06/2017 19:51->METAR KJFK 071951Z 16010KT 10SM SCT045 BKN055 BKN090 BKN250 18/11 A3000 RMK AO2 SLP159 T01780111=
07/06/2017 18:51->METAR KJFK 071851Z 03006KT 10SM SCT042 BKN055 BKN250 19/09 A2999 RMK AO2 SLP155 T01890094=
07/06/2017 17:51->METAR KJFK 071751Z 36008KT 10SM SCT042 BKN055 BKN090 BKN170 19/10 A2999 RMK AO2 SLP154 SCT V BKN T01890100 10200 20133 56005=
07/06/2017 16:51->METAR KJFK 071651Z 01009KT 10SM FEW037 BKN055 BKN160 19/09 A2999 RMK AO2 SLP155 T01890094=
07/06/2017 15:51->METAR KJFK 071551Z 35010KT 10SM FEW032 BKN050 BKN160 18/09 A3000 RMK AO2 SLP157 T01780094=
07/06/2017 14:51->METAR KJFK 071451Z 35010G15KT 10SM SCT031 BKN050 BKN160 17/10 A3000 RMK AO2 SLP159 T01670100 51007=
07/06/2017 13:51->METAR KJFK 071351Z 02010KT 10SM FEW023 SCT035 BKN055 BKN140 16/10 A3000 RMK AO2 SLP158 T01610100=
07/06/2017 12:51->METAR KJFK 071251Z 02008KT 10SM FEW020 BKN035 BKN050 15/10 A3000 RMK AO2 SLP157 T01500100=
07/06/2017 11:51->METAR KJFK 071151Z 02010KT 10SM SCT017 BKN032 BKN330 13/09 A2998 RMK AO2 SLP152 SCT V BKN 60000 70005 T01330094 10133 20111 53014=
07/06/2017 10:51->METAR KJFK 071051Z 02011KT 10SM BKN019 BKN032 BKN045 BKN330 12/09 A2996 RMK AO2 SLP146 T01220094=
07/06/2017 09:51->METAR KJFK 070951Z 01008KT 10SM FEW019 OVC028 12/09 A2995 RMK AO2 SLP142 T01220094=
07/06/2017 08:51->METAR KJFK 070851Z 02008KT 10SM FEW017 OVC026 12/09 A2994 RMK AO2 SLP138 60000 T01170094 53000=
07/06/2017 07:51->METAR KJFK 070751Z 02010KT 10SM OVC018 12/10 A2994 RMK AO2 RAB43E50 SLP136 P0000 T01170100=
07/06/2017 06:51->METAR KJFK 070651Z 02007KT 10SM OVC017 12/09 A2994 RMK AO2 SLP137 T01170094=
07/06/2017 05:51->METAR KJFK 070551Z 02006KT 10SM OVC019 12/09 A2994 RMK AO2 SLP138 T01170089 10133 20117 53002=
07/06/2017 04:51->METAR KJFK 070451Z 03009KT 10SM BKN022 OVC090 12/09 A2994 RMK AO2 SLP137 T01170089 401560117=
07/06/2017 03:51->METAR KJFK 070351Z 03009KT 10SM OVC020 12/09 A2993 RMK AO2 SLP135 T01220089=
07/06/2017 02:51->METAR KJFK 070251Z 03006KT 10SM BKN016 OVC038 12/10 A2993 RMK AO2 SLP135 T01220100 51018=
07/06/2017 01:51->METAR KJFK 070151Z 04010KT 10SM BKN018 OVC037 12/10 A2991 RMK AO2 SLP129 BKN V SCT T01220100=
07/06/2017 00:51->METAR KJFK 070051Z 04012KT 10SM SCT016 BKN025 OVC032 12/11 A2990 RMK AO2 SLP123 T01220106=
06/06/2017 23:51->METAR KJFK 062351Z 05011KT 10SM SCT017 OVC024 13/11 A2988 RMK AO2 CIG 019 W SLP117 60001 T01330106 10150 20128 53015=
06/06/2017 22:51->METAR KJFK 062251Z 07010KT 10SM BKN017 OVC026 14/11 A2985 RMK AO2 SLP107 T01390111=
06/06/2017 21:51->METAR KJFK 062151Z 04011KT 10SM BKN014 OVC023 13/12 A2983 RMK AO2 SLP102 T01330117=
06/06/2017 20:51->METAR KJFK 062051Z 05011KT 10SM BKN019 OVC026 14/12 A2982 RMK AO2 SLP096 60001 T01440117 53006=
06/06/2017 19:51->METAR KJFK 061951Z 06008KT 10SM BKN017 OVC024 14/12 A2981 RMK AO2 SLP094 T01440117=
06/06/2017 18:51->METAR KJFK 061851Z 05010KT 10SM SCT008 BKN013 OVC030 14/12 A2980 RMK AO2 RAE14 SLP091 P0001 T01440122=
06/06/2017 17:51->METAR KJFK 061751Z 02006KT 1 3/4SM -RA BR BKN007 BKN018 OVC023 13/12 A2980 RMK AO2 SFC VIS 2 1/2 DZB14E23 SLP090 BKN007 V SCT P0000 60004 T01280122 10139 20128 53012=
06/06/2017 16:51->METAR KJFK 061651Z 03010KT 9SM -RA OVC014 13/11 A2978 RMK AO2 RAB51 SLP085 P0000 T01330111=
06/06/2017 15:51->METAR KJFK 061551Z 05009KT 10SM OVC012 14/12 A2978 RMK AO2 SLP084 T01390117=
06/06/2017 14:51->METAR KJFK 061451Z 05013KT 10SM OVC011 14/12 A2976 RMK AO2 SLP079 60004 T01390122 51008=
06/06/2017 13:51->METAR KJFK 061351Z 03009KT 10SM OVC012 14/12 A2976 RMK AO2 RAE25 SLP077 P0000 T01390122=
06/06/2017 12:51->METAR KJFK 061251Z 03009KT 10SM -RA OVC012 13/13 A2975 RMK AO2 SLP074 P0004 T01330128=
06/06/2017 11:51->METAR KJFK 061151Z 04010KT 10SM -RA OVC012 13/12 A2974 RMK AO2 SLP070 P0000 60000 T01330122 10150 20133 51016=
06/06/2017 10:51->METAR KJFK 061051Z 03014KT 10SM -RA BKN012 OVC027 14/12 A2973 RMK AO2 RAB47 SLP066 P0000 T01390122=
06/06/2017 09:51->METAR KJFK 060951Z 01009KT 10SM OVC011 14/13 A2972 RMK AO2 SLP062 T01390128=
06/06/2017 08:51->METAR KJFK 060851Z 03013KT 10SM OVC008 14/13 A2969 RMK AO2 SLP054 T01390128 56006=
06/06/2017 07:51->METAR KJFK 060751Z 04011KT 10SM OVC010 14/13 A2970 RMK AO2 SLP056 T01390128=
06/06/2017 06:51->METAR KJFK 060651Z 03011KT 10SM OVC008 14/13 A2971 RMK AO2 SLP061 T01440133=
06/06/2017 05:51->METAR KJFK 060551Z 04014KT 10SM OVC007 15/14 A2971 RMK AO2 SLP061 60000 T01500139 10167 20150 58005=
06/06/2017 04:51->METAR KJFK 060451Z 04010KT 7SM OVC006 16/16 A2973 RMK AO2 DZE49 SLP066 P0000 T01560156 402170156=
06/06/2017 03:51->METAR KJFK 060351Z 06010KT 4SM -DZ BR OVC005 17/17 A2973 RMK AO2 DZB48 SLP068 P0000 T01670167=
06/06/2017 02:51->METAR KJFK 060251Z 08009KT 10SM OVC007 17/16 A2973 RMK AO2 SLP067 T01670161 55009=
06/06/2017 01:51->METAR KJFK 060151Z 06011KT 10SM OVC007 17/16 A2973 RMK AO2 SLP066 T01670161=
06/06/2017 00:51->METAR KJFK 060051Z 10011KT 2 1/2SM OVC005 16/16 A2974 RMK AO2 SFC VIS 7 SLP069 T01610161=
05/06/2017 23:51->METAR KJFK 052351Z 11012G20KT 1SM BR OVC003 16/16 A2976 RMK AO2 SFC VIS 4 SLP076 T01610161 10217 20161 53006=
05/06/2017 22:51->METAR KJFK 052251Z 09011G18KT 1SM BR OVC004 17/17 A2975 RMK AO2 SFC VIS 4 SLP075 T01670167=
05/06/2017 21:51->METAR KJFK 052151Z 11011KT 3SM BR BKN008 OVC015 19/18 A2974 RMK AO2 SFC VIS 6 SLP069 T01890178=
05/06/2017 20:51->METAR KJFK 052051Z 10007KT 3SM BR BKN013 OVC021 19/18 A2974 RMK AO2 SFC VIS 6 SLP070 T01890178 58009=
05/06/2017 19:51->METAR KJFK 051951Z 19007KT 2SM BR SCT006 OVC012 18/18 A2976 RMK AO2 SFC VIS 4 CIG 003 W SLP076 VIS E 2 T01830183=
05/06/2017 18:51->METAR KJFK 051851Z 15007KT 5SM BR BKN013 OVC023 20/19 A2976 RMK AO2 SLP077 T02000189=
05/06/2017 17:51->METAR KJFK 051751Z 08003KT 7SM BKN015 BKN110 BKN150 OVC250 22/19 A2976 RMK AO2 SLP079 T02170189 10217 20172 55001=
05/06/2017 16:51->METAR KJFK 051651Z 04006KT 7SM OVC014 21/19 A2976 RMK AO2 SLP076 T02110189=
05/06/2017 15:51->METAR KJFK 051551Z 04005KT 7SM BKN012 OVC110 21/19 A2977 RMK AO2 SLP080 T02110189=
05/06/2017 14:51->METAR KJFK 051451Z 03005KT 6SM BR BKN010 BKN110 OVC250 21/18 A2977 RMK AO2 SLP080 T02060183 50002=
05/06/2017 13:51->METAR KJFK 051351Z 04006KT 5SM BR BKN009 BKN014 19/18 A2978 RMK AO2 SLP083 T01940178=
05/06/2017 12:51->METAR KJFK 051251Z 00000KT 5SM BR SCT005 OVC010 18/17 A2977 RMK AO2 SLP082 CIG 008V012 T01830172=
05/06/2017 11:51->METAR KJFK 051151Z 00000KT 5SM BR BKN005 BKN043 OVC120 17/17 A2976 RMK AO2 SLP078 BKN005 V SCT TCU DSNT E 60036 70049 T01720172 10172 20161 51007=
05/06/2017 10:51->METAR KJFK 051051Z 36003KT 5SM BR SCT004 SCT055 OVC120 17/17 A2976 RMK AO2 SLP078 T01670167=
05/06/2017 09:51->METAR KJFK 050951Z 34006KT 5SM BR FEW005 BKN080 OVC120 17/17 A2975 RMK AO2 LTG DSNT E AND SE RAE0855 SLP073 P0000 T01670167=
05/06/2017 08:51->METAR KJFK 050851Z 08005KT 5SM -RA BR FEW003 SCT041 OVC085 17/17 A2974 RMK AO2 LTG DSNT E AND SE TSB13E49 SLP071 FRQ LTGICCA DSNT NE-SE CB DSNT NE-SE MOV E P0017 60036 T01670167 58018=
05/06/2017 07:51->METAR KJFK 050751Z 13004KT 6SM -RA BR FEW047 OVC110 16/16 A2977 RMK AO2 LTG DSNT SE-W SLP079 FRQ LTGICCCCA DSNT SE-SW P0011 T01610161=
05/06/2017 06:51->METAR KJFK 050651Z 33005KT 5SM +RA BR SCT044 OVC090 17/16 A2981 RMK AO2 LTG DSNT SW AND W SLP093 OCNL LTGICCG DSNT SW CB DSNT SW MOV E P0008 T01670161=
05/06/2017 05:51->METAR KJFK 050551Z 06005KT 10SM -RA FEW044 OVC110 17/17 A2979 RMK AO2 SLP088 P0007 60013 T01670167 10178 20167 58018=
05/06/2017 04:51->METAR KJFK 050451Z 36007KT 6SM +RA BR SCT044 OVC080 17/17 A2984 RMK AO2 RAB23 SLP103 P0006 T01720167 402110122=
05/06/2017 03:51->METAR KJFK 050351Z 14006KT 10SM SCT085 BKN150 OVC250 17/16 A2982 RMK AO2 SLP098 T01720156=
05/06/2017 02:51->METAR KJFK 050251Z 17008KT 10SM SCT085 BKN180 OVC250 17/15 A2985 RMK AO2 SLP106 T01720150 58016=
05/06/2017 01:51->METAR KJFK 050151Z 16005KT 10SM BKN080 BKN130 BKN200 17/14 A2987 RMK AO2 SLP116 T01720144=
05/06/2017 00:51->METAR KJFK 050051Z 16004KT 10SM BKN085 BKN200 17/14 A2988 RMK AO2 SLP118 T01720144=
04/06/2017 23:51->METAR KJFK 042351Z 19005KT 10SM FEW060 OVC085 17/14 A2989 RMK AO2 RAE40 SLP122 P0000 60000 T01720144 10183 20172 55008=
04/06/2017 22:51->METAR KJFK 042251Z 14009KT 10SM -RA FEW060 OVC100 17/14 A2988 RMK AO2 SLP119 P0000 T01720144=
04/06/2017 21:51->METAR KJFK 042151Z 15012KT 10SM -RA SCT070 OVC090 18/13 A2989 RMK AO2 SLP121 P0000 T01780128=
04/06/2017 20:51->METAR KJFK 042051Z 13009KT 10SM -RA FEW050 SCT070 OVC100 18/10 A2992 RMK AO2 SLP130 P0000 60000 T01830100 58027=
04/06/2017 19:51->METAR KJFK 041951Z 13005KT 10SM -RA OVC100 18/11 A2996 RMK AO2 SLP145 P0000 T01830106=
04/06/2017 18:51->METAR KJFK 041851Z 15005KT 10SM -RA OVC085 18/10 A2998 RMK AO2 RAE19B47 SLP151 P0000 T01780100=
04/06/2017 17:51->METAR KJFK 041751Z 17005KT 10SM -RA FEW045 OVC090 18/10 A3000 RMK AO2 RAB49 PRESRR SLP158 P0000 60000 T01780100 10211 20178 55011=
04/06/2017 16:51->METAR KJFK 041651Z 16008KT 10SM FEW050 BKN100 BKN250 18/09 A2999 RMK AO2 SLP154 T01830089=
04/06/2017 15:51->METAR KJFK 041551Z 17008KT 10SM SCT050 BKN120 BKN250 19/09 A3002 RMK AO2 SLP164 T01890094=
04/06/2017 14:51->METAR KJFK 041451Z 18008KT 10SM FEW070 BKN150 BKN250 19/08 A3003 RMK AO2 SLP169 T01890078 50001 $=
04/06/2017 13:51->METAR KJFK 041351Z 17006KT 10SM SCT200 BKN250 21/07 A3003 RMK AO2 SLP170 T02060067 $=
04/06/2017 12:51->METAR KJFK 041251Z 22004KT 10SM FEW010 FEW200 SCT250 19/07 A3004 RMK AO2 SLP171 FU FEW010 FU PLUME SW DRFTG W T01940072 $=
04/06/2017 11:51->METAR KJFK 041151Z 00000KT 10SM FEW200 FEW250 19/07 A3003 RMK AO2 SLP168 70002 T01890072 10189 20122 50002 $=
04/06/2017 10:51->METAR KJFK 041051Z 00000KT 10SM FEW250 17/10 A3003 RMK AO2 SLP169 T01720100 $=
04/06/2017 09:51->METAR KJFK 040951Z 15004KT 10SM FEW250 14/08 A3003 RMK AO2 SLP168 T01390078 $=
04/06/2017 08:51->METAR KJFK 040851Z 28003KT 10SM FEW250 16/06 A3002 RMK AO2 SLP166 T01610056 51004 $=
04/06/2017 07:51->METAR KJFK 040751Z 00000KT 10SM FEW250 15/06 A3002 RMK AO2 SLP166 T01500056 $=
04/06/2017 06:51->METAR KJFK 040651Z 03006KT 10SM FEW250 16/06 A3002 RMK AO2 SLP165 T01610056 $=
04/06/2017 05:51->METAR KJFK 040551Z 34005KT 10SM FEW250 17/05 A3001 RMK AO2 SLP162 T01720050 10228 20172 51007 $=
04/06/2017 04:51->METAR KJFK 040451Z 32007KT 10SM FEW250 18/05 A3001 RMK AO2 SLP162 T01780050 402440133 $=
04/06/2017 03:51->METAR KJFK 040351Z 33007KT 10SM FEW250 19/04 A3000 RMK AO2 SLP157 T01940044 $=
04/06/2017 02:51->METAR KJFK 040251Z 30007KT 10SM FEW250 21/04 A2999 RMK AO2 SLP156 T02060039 51011 $=
04/06/2017 01:51->METAR KJFK 040151Z 31009KT 10SM FEW085 FEW250 21/04 A2999 RMK AO2 SLP155 T02110044 $=
04/06/2017 00:51->METAR KJFK 040051Z 31011KT 10SM FEW085 FEW250 22/04 A2997 RMK AO2 SLP149 T02220039 $=
03/06/2017 23:51->METAR KJFK 032351Z 32012KT 10SM FEW085 FEW250 23/04 A2996 RMK AO2 SLP145 T02280039 10244 20211 53008 $=
03/06/2017 22:51->METAR KJFK 032251Z 29013KT 10SM FEW085 23/03 A2994 RMK AO2 SLP139 T02330033 $=
03/06/2017 21:51->METAR KJFK 032151Z 31013KT 10SM FEW085 23/03 A2993 RMK AO2 PK WND 32026/2112 SLP136 T02330033 $=
03/06/2017 20:51->METAR KJFK 032051Z 30018G21KT 10SM FEW085 24/03 A2993 RMK AO2 SLP136 T02390033 56006 $=
03/06/2017 19:51->METAR KJFK 031951Z 29013G23KT 10SM SCT080 SCT250 24/04 A2994 RMK AO2 SLP138 T02390039 $=
03/06/2017 18:51->METAR KJFK 031851Z 32012G17KT 10SM SCT080 SCT250 22/04 A2994 RMK AO2 SLP140 T02220044 $=
03/06/2017 17:51->METAR KJFK 031751Z 34014G20KT 10SM SCT065 SCT220 22/05 A2995 RMK AO2 SLP142 60002 T02220050 10222 20139 56008 $=
03/06/2017 16:51->METAR KJFK 031651Z 32014G23KT 10SM SCT055 BKN085 BKN220 21/06 A2996 RMK AO2 SLP144 T02060061 $=
03/06/2017 15:51->METAR KJFK 031551Z 25012KT 10SM SCT048 SCT150 SCT220 20/11 A2996 RMK AO2 SLP145 T02000106 $=
03/06/2017 14:51->METAR KJFK 031451Z 27012KT 10SM FEW055 FEW110 SCT150 BKN220 18/11 A2998 RMK AO2 SLP150 60002 T01780106 56014 $=
03/06/2017 13:51->METAR KJFK 031351Z 26014KT 10SM SCT090 BKN120 BKN220 15/11 A2999 RMK AO2 SLP154 T01500111 $=
03/06/2017 12:51->METAR KJFK 031251Z 26010KT 10SM FEW060 BKN095 BKN120 OVC200 15/10 A2999 RMK AO2 RAE24 PRESFR SLP153 P0002 T01500100 $=
03/06/2017 11:51->METAR KJFK 031151Z 28017G22KT 8SM -RA BKN065 BKN120 OVC190 15/09 A3002 RMK AO2 RAB33 SLP164 P0000 60000 T01500089 10172 20133 53015 $=
03/06/2017 10:51->METAR KJFK 031051Z 26006KT 10SM FEW120 BKN150 BKN250 17/08 A2999 RMK AO2 SLP155 T01720083 CHINO W $=
03/06/2017 09:51->METAR KJFK 030951Z 27008KT 10SM BKN140 BKN200 BKN250 16/08 A2997 RMK AO2 SLP149 T01610078=
03/06/2017 08:51->METAR KJFK 030851Z 00000KT 10SM FEW130 BKN170 BKN250 15/08 A2997 RMK AO2 SLP149 T01500078 55001=
03/06/2017 07:51->METAR KJFK 030751Z 26004KT 10SM FEW150 SCT190 SCT250 15/08 A2997 RMK AO2 SLP148 T01500078=
03/06/2017 06:51->METAR KJFK 030651Z 25004KT 10SM CLR 14/07 A2998 RMK AO2 SLP151 T01440072=
03/06/2017 05:51->METAR KJFK 030551Z 30004KT 10SM CLR 16/04 A2998 RMK AO2 SLP150 T01610044 10222 20161 58001=
03/06/2017 04:51->METAR KJFK 030451Z 01004KT 10SM CLR 17/05 A2998 RMK AO2 SLP152 T01670050 402500139=
03/06/2017 03:51->METAR KJFK 030351Z 36007KT 10SM CLR 18/05 A2998 RMK AO2 SLP153 T01780050=
03/06/2017 02:51->METAR KJFK 030251Z 35009KT 10SM CLR 19/04 A2998 RMK AO2 SLP151 T01940044 51022=
03/06/2017 01:51->METAR KJFK 030151Z 35010KT 10SM FEW070 20/04 A2996 RMK AO2 SLP146 T02000044=
03/06/2017 00:51->METAR KJFK 030051Z 35012G18KT 10SM FEW070 21/04 A2994 RMK AO2 SLP137 T02110044=
02/06/2017 23:51->METAR KJFK 022351Z 35013KT 10SM FEW070 FEW250 22/04 A2991 RMK AO2 SLP129 T02220044 10250 20183 53011=
02/06/2017 22:51->METAR KJFK 022251Z 32018G26KT 10SM FEW070 FEW100 24/02 A2989 RMK AO2 PK WND 32027/2158 SLP122 T02390017=
02/06/2017 21:51->METAR KJFK 022151Z 33018G24KT 10SM FEW070 FEW100 25/01 A2988 RMK AO2 WSHFT 2129 SLP118 T02500011=
02/06/2017 20:51->METAR KJFK 022051Z 01009G18KT 10SM FEW060 FEW085 SCT100 SCT250 23/09 A2989 RMK AO2 SLP120 VCSH NE T02330089 56016=
02/06/2017 19:51->METAR KJFK 021951Z 17020KT 10SM FEW060 SCT090 SCT110 SCT130 SCT250 19/13 A2989 RMK AO2 PK WND 18026/1923 LTG DSNT NE SLP120 VIRGA W AND NW T01940128=
02/06/2017 18:51->METAR KJFK 021851Z 18019G24KT 10SM FEW050 SCT085 SCT120 19/11 A2992 RMK AO2 SLP130 T01940111=
02/06/2017 17:51->METAR KJFK 021751Z 17016KT 10SM FEW050 SCT085 SCT250 21/12 A2993 RMK AO2 SLP136 T02060117 10211 20178 58019=
02/06/2017 16:51->METAR KJFK 021651Z 17015KT 10SM FEW050 FEW075 SCT170 SCT250 21/11 A2995 RMK AO2 SLP142 ACSL N AND NW T02060106=
02/06/2017 15:51->METAR KJFK 021551Z 18013KT 10SM FEW045 FEW065 SCT250 20/11 A2998 RMK AO2 SLP150 T02000111=
02/06/2017 14:51->METAR KJFK 021451Z 18010KT 10SM FEW040 FEW065 SCT250 19/11 A2999 RMK AO2 SLP155 T01940111 58003=
02/06/2017 13:51->METAR KJFK 021351Z 21007KT 10SM FEW065 FEW250 19/11 A3000 RMK AO2 SLP160 T01890111=
02/06/2017 12:51->METAR KJFK 021251Z 21008KT 10SM FEW085 FEW270 19/09 A3000 RMK AO2 SLP159 T01890089=
02/06/2017 11:51->METAR KJFK 021151Z 16003KT 10SM FEW080 FEW290 18/09 A3000 RMK AO2 SLP158 T01780094 10189 20139 53003=
02/06/2017 10:51->METAR KJFK 021051Z 14004KT 10SM FEW080 FEW290 16/09 A2999 RMK AO2 SLP156 T01610094=
02/06/2017 09:51->METAR KJFK 020951Z 00000KT 10SM FEW080 FEW250 14/09 A2999 RMK AO2 SLP156 T01440094=
02/06/2017 08:51->METAR KJFK 020851Z 36004KT 10SM CLR 16/09 A2999 RMK AO2 SLP155 T01560089 51008=
02/06/2017 07:51->METAR KJFK 020751Z 35005KT 10SM CLR 16/10 A2998 RMK AO2 SLP153 T01560100=
02/06/2017 06:51->METAR KJFK 020651Z 36007KT 10SM FEW080 17/10 A2998 RMK AO2 SLP150 T01720100=
02/06/2017 05:51->METAR KJFK 020551Z 35010KT 10SM FEW080 19/08 A2997 RMK AO2 SLP147 T01940083 10250 20194 53007=
02/06/2017 04:51->METAR KJFK 020451Z 28013G20KT 10SM FEW070 21/09 A2995 RMK AO2 SLP142 T02110094 402780156=
02/06/2017 03:51->METAR KJFK 020351Z 26009KT 10SM FEW070 21/11 A2994 RMK AO2 SLP138 T02060111=
02/06/2017 02:51->METAR KJFK 020251Z 23012KT 10SM CLR 21/11 A2995 RMK AO2 SLP140 T02110111 51019=
02/06/2017 01:51->METAR KJFK 020151Z 24009KT 10SM FEW250 22/10 A2994 RMK AO2 SLP137 T02220100=
02/06/2017 00:51->METAR KJFK 020051Z 25010KT 10SM FEW080 FEW250 23/11 A2991 RMK AO2 SLP127 T02280106=
01/06/2017 23:51->METAR KJFK 012351Z 26012G19KT 10SM FEW080 FEW250 25/08 A2989 RMK AO2 SLP122 T02500078 10278 20244 53005=
01/06/2017 22:51->METAR KJFK 012251Z 28010KT 10SM SCT085 SCT250 26/07 A2989 RMK AO2 SLP120 T02560072=
01/06/2017 21:51->METAR KJFK 012151Z 26015G19KT 10SM SCT085 27/08 A2988 RMK AO2 SLP118 T02670078=
01/06/2017 20:51->METAR KJFK 012051Z 27017G22KT 10SM SCT085 27/08 A2988 RMK AO2 SLP117 T02720078 56008=
01/06/2017 19:51->METAR KJFK 011951Z 26016KT 10SM FEW065 SCT080 28/09 A2988 RMK AO2 SLP118 T02780094=
01/06/2017 18:51->METAR KJFK 011851Z 22011G18KT 10SM FEW055 SCT080 26/11 A2989 RMK AO2 SLP120 T02610111=
01/06/2017 17:51->METAR KJFK 011751Z 20008KT 10SM SCT055 SCT080 24/15 A2990 RMK AO2 SLP125 T02440150 10250 20167 58017=
01/06/2017 16:51->METAR KJFK 011651Z 20009KT 10SM SCT055 23/15 A2992 RMK AO2 SLP132 T02330150=
01/06/2017 15:51->METAR KJFK 011551Z 23011KT 10SM FEW045 FEW085 24/16 A2993 RMK AO2 SLP136 T02390156=
01/06/2017 14:51->METAR KJFK 011451Z 21011KT 10SM FEW045 SCT085 22/17 A2995 RMK AO2 SLP142 T02170172 58005=
01/06/2017 13:51->METAR KJFK 011351Z 23004KT 3SM BR SCT004 BKN085 18/17 A2996 RMK AO2 SFC VIS 5 SLP144 T01780172=
01/06/2017 12:51->METAR KJFK 011251Z 23005KT 0SM FG VV002 17/17 A2998 RMK AO2 SFC VIS 1/4 SLP150 T01670167 RVRNO=
01/06/2017 11:51->METAR KJFK 011151Z 00000KT 0SM FG VV002 17/17 A2996 RMK AO2 SFC VIS 1/8 SLP146 T01670167 10167 20156 50006 RVRNO=
01/06/2017 10:51->METAR KJFK 011051Z 12003KT 0SM FG VV002 16/16 A2997 RMK AO2 SFC VIS 1/4 SLP147 T01560156 RVRNO=
01/06/2017 09:51->METAR KJFK 010951Z 09004KT 0SM BR OVC002 16/16 A2996 RMK AO2 SFC VIS 1 SLP143 VIS E-S 1/2 NW-N 3 T01560156 RVRNO=
01/06/2017 08:51->METAR KJFK 010851Z 10005KT 10SM FEW005 SCT085 BKN140 16/16 A2995 RMK AO2 SLP141 T01560156 58002=
01/06/2017 07:51->METAR KJFK 010751Z 07004KT 10SM FEW006 SCT027 BKN140 BKN250 16/16 A2995 RMK AO2 SLP141 T01610156=
01/06/2017 06:51->METAR KJFK 010651Z 05003KT 10SM FEW006 BKN120 17/15 A2996 RMK AO2 SLP145 T01670150=
01/06/2017 05:51->METAR KJFK 010551Z 09006KT 10SM FEW035 17/16 A2995 RMK AO2 SLP142 T01670156 10183 20161 50003=
01/06/2017 04:51->METAR KJFK 010451Z 04007KT 10SM SCT015 SCT040 18/17 A2996 RMK AO2 SLP144 T01780172 402280144=
01/06/2017 03:51->METAR KJFK 010351Z 00000KT 10SM FEW050 18/18 A2994 RMK AO2 LTG DSNT N SLP139 OCNL LTGIC DSNT NW-N CB DSNT NW-N T01780178=
01/06/2017 02:51->METAR KJFK 010251Z 17003KT 10SM SCT050 17/17 A2994 RMK AO2 LTG DSNT W SLP139 FRQ LTGIC DSNT NW CB DSNT NW MOV E T01720172 58001=
01/06/2017 01:51->METAR KJFK 010151Z 15003KT 7SM SCT003 BKN050 17/17 A2996 RMK AO2 LTG DSNT NW SLP144 VIS NW-N 3 OCNL LTGIC DSNT NW CB DSNT NW T01670167=
01/06/2017 00:51->METAR KJFK 010051Z 19004KT 1SM BR OVC003 16/16 A2994 RMK AO2 SFC VIS 1 1/2 SLP139 T01610161=
31/05/2017 23:51->METAR KJFK 312351Z 16008KT 10SM FEW004 FEW012 FEW040 SCT200 17/16 A2994 RMK AO2 SLP138 T01720161 10228 20172 57001=
31/05/2017 22:51->METAR KJFK 312251Z 18010KT 10SM FEW040 SCT210 19/17 A2994 RMK AO2 SLP139 T01940167=
31/05/2017 21:51->METAR KJFK 312151Z 18009KT 10SM FEW032 FEW120 FEW250 21/17 A2994 RMK AO2 SLP139 T02110172=
31/05/2017 20:51->METAR KJFK 312051Z 16006KT 10SM FEW025 FEW250 22/18 A2994 RMK AO2 SLP139 T02220178 58024=
31/05/2017 19:51->METAR KJFK 311951Z 19007KT 10SM FEW006 FEW025 FEW250 22/18 A2997 RMK AO2 SLP147 T02170178=
31/05/2017 18:51->METAR KJFK 311851Z 20008KT 3SM BR BKN005 BKN022 18/17 A3000 RMK AO2 SFC VIS 5 SLP160 T01830167=
31/05/2017 17:51->METAR KJFK 311751Z 19008KT 10SM BKN010 BKN022 BKN120 19/17 A3001 RMK AO2 SLP163 60000 T01940172 10211 20156 56009=
31/05/2017 16:51->METAR KJFK 311651Z 13004KT 10SM FEW013 SCT120 BKN250 21/18 A3002 RMK AO2 SLP163 T02110178=
31/05/2017 15:51->METAR KJFK 311551Z 13008KT 10SM SCT011 BKN120 BKN230 20/17 A3002 RMK AO2 SLP164 SCT V BKN T02000172=
31/05/2017 14:51->METAR KJFK 311451Z 04005KT 10SM BKN007 BKN210 18/17 A3004 RMK AO2 SLP173 60000 T01780167 58006=
31/05/2017 13:51->METAR KJFK 311351Z 36007KT 10SM OVC007 17/17 A3005 RMK AO2 SLP176 T01720167=
31/05/2017 12:51->METAR KJFK 311251Z 01005KT 8SM BKN005 OVC011 17/16 A3006 RMK AO2 RAE12DZB12E36 SLP178 CIG 004V006 P0000 T01670161=
31/05/2017 11:51->METAR KJFK 311151Z 01006KT 2 1/2SM -RA BR BKN005 OVC012 16/16 A3006 RMK AO2 SFC VIS 4 DZE37RAB37 SLP179 P0002 60003 70003 T01560156 10161 20150 51008=
31/05/2017 10:51->METAR KJFK 311051Z 01005KT 1 1/2SM -DZ BR OVC006 16/16 A3006 RMK AO2 SLP178 P0001 T01610161=
31/05/2017 09:51->METAR KJFK 310951Z 08005KT 3/4SM -DZ BR OVC004 16/16 A3004 RMK AO2 SFC VIS 4 DZB19 SLP173 P0000 T01560156=
31/05/2017 08:51->METAR KJFK 310851Z 10006KT 1SM BR OVC003 15/15 A3004 RMK AO2 SFC VIS 3 SLP171 T01500150 56012=
31/05/2017 07:51->METAR KJFK 310751Z 09006KT 1SM BR OVC004 15/15 A3004 RMK AO2 SFC VIS 5 SLP172 T01500150=
31/05/2017 06:51->METAR KJFK 310651Z 09006KT 1SM OVC003 15/15 A3006 RMK AO2 SFC VIS 7 SLP177 T01500150=
31/05/2017 05:51->METAR KJFK 310551Z 08004KT 1SM OVC004 15/15 A3007 RMK AO2 SFC VIS 7 SLP183 60000 T01500150 10150 20139 58017=
31/05/2017 04:51->METAR KJFK 310451Z 11006KT 3/4SM OVC003 14/14 A3010 RMK AO2 SFC VIS 8 DZE29 SLP191 P0000 T01440144 401560128=
31/05/2017 03:51->METAR KJFK 310351Z 10006KT 1SM -DZ BR OVC003 14/14 A3011 RMK AO2 SFC VIS 4 SLP197 P0000 T01440144=
31/05/2017 02:51->METAR KJFK 310251Z 10008KT 1SM -DZ BR OVC003 14/14 A3012 RMK AO2 SFC VIS 2 1/2 DZB47 SLP200 P0000 60000 T01440144 58001=
31/05/2017 01:51->METAR KJFK 310151Z 12009KT 2SM OVC004 14/14 A3013 RMK AO2 SFC VIS 8 SLP202 T01440144=
31/05/2017 00:51->METAR KJFK 310051Z 10008KT 2SM BR OVC004 14/14 A3013 RMK AO2 SFC VIS 4 SLP203 T01440144=
30/05/2017 23:51->METAR KJFK 302351Z 11008KT 2 1/2SM OVC006 14/14 A3013 RMK AO2 SFC VIS 7 SLP202 60000 T01440139 10156 20139 56001=
30/05/2017 22:51->METAR KJFK 302251Z 12010KT 10SM BKN008 OVC018 14/13 A3013 RMK AO2 SLP202 T01440133=
30/05/2017 21:51->METAR KJFK 302151Z 12009KT 10SM BKN008 OVC022 15/14 A3013 RMK AO2 SLP202 T01500139=
30/05/2017 20:51->METAR KJFK 302051Z 13009KT 10SM BKN009 OVC013 14/13 A3013 RMK AO2 SLP203 60000 T01440133 56011=
30/05/2017 19:51->METAR KJFK 301951Z 13008KT 10SM OVC010 15/13 A3013 RMK AO2 SLP203 T01500133=
30/05/2017 18:51->METAR KJFK 301851Z 14008KT 10SM BKN007 OVC015 14/13 A3015 RMK AO2 RAE11 SLP208 P0000 T01390133=
30/05/2017 17:51->METAR KJFK 301751Z 13010KT 10SM -RA BKN005 OVC013 14/13 A3016 RMK AO2 RAB41 SLP213 P0000 60000 T01390133 10150 20133 58006=
30/05/2017 16:51->METAR KJFK 301651Z 14010KT 10SM BKN007 OVC020 14/13 A3019 RMK AO2 SLP221 T01440128=
30/05/2017 15:51->METAR KJFK 301551Z 14010KT 10SM BKN011 OVC034 14/13 A3019 RMK AO2 SLP222 CIG 009V013 T01440128=
30/05/2017 14:51->METAR KJFK 301451Z 11009KT 10SM OVC008 14/13 A3018 RMK AO2 SLP220 T01440133 50001=
30/05/2017 13:51->METAR KJFK 301351Z 13010KT 10SM OVC007 14/13 A3019 RMK AO2 SLP221 T01390128=
30/05/2017 12:51->METAR KJFK 301251Z 12008KT 10SM OVC007 14/13 A3019 RMK AO2 SLP222 T01390128=
30/05/2017 11:51->METAR KJFK 301151Z 13007KT 10SM OVC006 13/13 A3018 RMK AO2 SLP219 70003 T01330128 10133 20128 53008=
30/05/2017 10:51->METAR KJFK 301051Z 14008KT 10SM OVC005 13/13 A3017 RMK AO2 SLP215 T01280128=
30/05/2017 09:51->METAR KJFK 300951Z 15008KT 10SM OVC005 13/13 A3016 RMK AO2 SLP213 T01280128=
30/05/2017 08:51->METAR KJFK 300851Z 13006KT 10SM OVC007 13/12 A3015 RMK AO2 SLP210 T01280122 53006=
30/05/2017 07:51->METAR KJFK 300751Z 13006KT 10SM OVC009 13/12 A3014 RMK AO2 SLP206 T01280122=
30/05/2017 06:51->METAR KJFK 300651Z 12006KT 10SM OVC009 13/12 A3014 RMK AO2 SLP207 T01330117=
30/05/2017 05:51->METAR KJFK 300551Z 12008KT 10SM OVC011 13/12 A3014 RMK AO2 SLP205 T01330117 10144 20133 50009=
30/05/2017 04:51->METAR KJFK 300451Z 13009KT 10SM BKN009 OVC018 13/12 A3014 RMK AO2 SLP205 T01330122 401610133=
30/05/2017 03:51->METAR KJFK 300351Z 12008KT 10SM OVC009 14/13 A3011 RMK AO2 SLP196 T01390128=
30/05/2017 02:51->METAR KJFK 300251Z 10005KT 10SM SCT008 OVC014 14/13 A3011 RMK AO2 SLP196 T01390128 52009=
30/05/2017 01:51->METAR KJFK 300151Z 12007KT 10SM SCT009 OVC016 14/13 A3010 RMK AO2 SLP191 T01390128=
30/05/2017 00:51->METAR KJFK 300051Z 11008KT 10SM BKN011 OVC024 14/13 A3008 RMK AO2 SLP186 T01390133=
29/05/2017 23:51->METAR KJFK 292351Z 09006KT 10SM BKN011 BKN018 OVC034 14/13 A3008 RMK AO2 SLP185 T01440133 10161 20144 51013=
29/05/2017 22:51->METAR KJFK 292251Z 11006KT 10SM SCT012 BKN020 OVC034 15/13 A3007 RMK AO2 SLP183 T01500133=
29/05/2017 21:51->METAR KJFK 292151Z 13008KT 10SM SCT013 OVC022 15/13 A3005 RMK AO2 SLP175 T01500128=
29/05/2017 20:51->METAR KJFK 292051Z 13006KT 10SM FEW016 SCT024 OVC037 15/13 A3004 RMK AO2 SLP171 SCT V BKN T01500128 52016=
29/05/2017 19:51->METAR KJFK 291951Z 11008KT 10SM SCT020 OVC029 16/12 A3002 RMK AO2 SLP165 T01560122=
29/05/2017 18:51->METAR KJFK 291851Z 11007KT 10SM FEW017 BKN022 OVC029 16/12 A3001 RMK AO2 SLP162 T01560122=
29/05/2017 17:51->METAR KJFK 291751Z 10006KT 10SM SCT020 BKN027 BKN040 16/13 A2999 RMK AO2 RAE1654 SLP155 P0000 60003 T01610128 10161 20144 51017=
29/05/2017 16:51->METAR KJFK 291651Z 05004KT 10SM -RA SCT014 BKN020 OVC044 15/13 A2999 RMK AO2 SLP154 P0001 T01500128=
29/05/2017 15:51->METAR KJFK 291551Z 07007KT 8SM -RA BKN016 OVC043 15/12 A2995 RMK AO2 RAE28B46 SLP143 VIS LWR W-NW P0000 T01500117=
29/05/2017 14:51->METAR KJFK 291451Z 08009KT 10SM -RA FEW011 BKN017 OVC042 14/13 A2994 RMK AO2 RAB28 SLP138 P0000 60002 T01440128 53014=
29/05/2017 13:51->METAR KJFK 291351Z 07011KT 10SM BKN013 OVC042 14/13 A2992 RMK AO2 RAE39 SLP132 P0002 T01440133=
29/05/2017 12:51->METAR KJFK 291251Z 08008KT 8SM -RA FEW008 BKN017 OVC085 14/13 A2991 RMK AO2 SLP129 P0000 T01440128=
29/05/2017 11:51->METAR KJFK 291151Z 07008KT 9SM -RA FEW007 BKN015 OVC110 14/14 A2990 RMK AO2 SLP124 CIG 013V017 P0008 60026 70026 T01440139 10150 20139 50004=
29/05/2017 10:51->METAR KJFK 291051Z 07005KT 8SM -RA SCT017 BKN060 OVC110 14/14 A2990 RMK AO2 SLP125 P0010 T01390139=
29/05/2017 09:51->METAR KJFK 290951Z 06007KT 7SM RA FEW011 OVC049 14/14 A2990 RMK AO2 SLP123 P0007 T01390139=
29/05/2017 08:51->METAR KJFK 290851Z 06008KT 10SM -RA FEW012 OVC040 14/13 A2988 RMK AO2 SLP119 P0001 60001 T01440133 55004=
29/05/2017 07:51->METAR KJFK 290751Z 07009KT 10SM -RA OVC050 14/13 A2988 RMK AO2 SLP117 P0000 T01440133=
29/05/2017 06:51->METAR KJFK 290651Z 08008KT 10SM -RA OVC049 15/13 A2989 RMK AO2 RAB0558E16B41 SLP119 P0000 T01500128=
29/05/2017 05:51->METAR KJFK 290551Z 08010KT 10SM OVC050 15/13 A2990 RMK AO2 RAB05E47 SLP123 P0000 60000 T01500128 10167 20150 56014=
29/05/2017 04:51->METAR KJFK 290451Z 09008KT 10SM OVC045 16/13 A2991 RMK AO2 SLP128 T01560128 402000144=
29/05/2017 03:51->METAR KJFK 290351Z 10009KT 10SM BKN047 OVC095 16/13 A2992 RMK AO2 SLP133 T01560128=
29/05/2017 02:51->METAR KJFK 290251Z 10009KT 10SM BKN046 OVC110 16/13 A2994 RMK AO2 SLP137 T01560128 58005=
29/05/2017 01:51->METAR KJFK 290151Z 10010G17KT 10SM FEW050 FEW070 BKN110 OVC140 16/12 A2994 RMK AO2 SLP138 T01610122=
29/05/2017 00:51->METAR KJFK 290051Z 10009KT 10SM FEW050 SCT080 BKN100 OVC140 16/12 A2995 RMK AO2 SLP141 T01610122=
28/05/2017 23:51->METAR KJFK 282351Z 10011KT 10SM FEW070 BKN100 BKN150 OVC200 17/12 A2995 RMK AO2 SLP142 T01670122 10200 20167 58001=
28/05/2017 22:51->METAR KJFK 282251Z 11013KT 10SM SCT070 BKN200 OVC250 17/12 A2995 RMK AO2 SLP142 T01720117=
28/05/2017 21:51->METAR KJFK 282151Z 12011KT 10SM SCT070 BKN100 BKN200 BKN250 18/12 A2996 RMK AO2 SLP145 T01780117=
28/05/2017 20:51->METAR KJFK 282051Z 14009KT 10SM SCT070 SCT200 BKN250 18/13 A2995 RMK AO2 SLP143 T01830128 55012=
28/05/2017 19:51->METAR KJFK 281951Z 13011KT 10SM FEW020 FEW070 BKN250 19/14 A2995 RMK AO2 SLP140 T01940139=
28/05/2017 18:51->METAR KJFK 281851Z 15009KT 10SM FEW070 BKN250 19/14 A2995 RMK AO2 SLP142 T01940144=
28/05/2017 17:51->METAR KJFK 281751Z 15010KT 10SM FEW020 SCT070 SCT200 BKN260 19/14 A2999 RMK AO2 SLP154 T01940144 10194 20161 51012=
28/05/2017 16:51->METAR KJFK 281651Z 15010KT 10SM FEW015 SCT040 BKN250 19/16 A2999 RMK AO2 SLP154 T01940156=
28/05/2017 15:51->METAR KJFK 281551Z 14012KT 10SM FEW013 SCT040 BKN250 19/16 A2997 RMK AO2 SLP148 T01890161=
28/05/2017 14:51->METAR KJFK 281451Z 17009KT 10SM FEW012 SCT044 SCT070 BKN250 19/15 A2995 RMK AO2 SLP143 T01890150 51001=
28/05/2017 13:51->METAR KJFK 281351Z 17008KT 10SM SCT012 BKN044 BKN070 BKN250 19/15 A2995 RMK AO2 SLP142 T01890150=
28/05/2017 12:51->METAR KJFK 281251Z 17006KT 10SM BKN011 BKN070 BKN250 18/14 A2996 RMK AO2 SLP145 T01830144=
28/05/2017 11:51->METAR KJFK 281151Z 11003KT 7SM OVC008 16/15 A2995 RMK AO2 SLP142 T01610150 10161 20144 53010=
28/05/2017 10:51->METAR KJFK 281051Z 10004KT 1SM BR OVC005 15/15 A2994 RMK AO2 SFC VIS 6 SLP139 T01500150=
28/05/2017 09:51->METAR KJFK 280951Z 08004KT 1/2SM BR OVC004 15/15 A2992 RMK AO2 SFC VIS 2 1/2 SLP130 T01500150=
28/05/2017 08:51->METAR KJFK 280851Z 00000KT 8SM OVC006 15/14 A2992 RMK AO2 SLP131 T01500144 55001=
28/05/2017 07:51->METAR KJFK 280751Z 08003KT 9SM BKN006 14/14 A2991 RMK AO2 SLP127 T01440144=
28/05/2017 06:51->METAR KJFK 280651Z 11003KT 10SM BKN075 15/14 A2992 RMK AO2 SLP130 T01500144=
28/05/2017 05:51->METAR KJFK 280551Z 13003KT 10SM BKN075 15/14 A2992 RMK AO2 SLP132 T01500144 10178 20150 55004=
28/05/2017 04:51->METAR KJFK 280451Z 12005KT 10SM FEW055 SCT075 16/14 A2992 RMK AO2 SLP131 T01560144 402280156=
28/05/2017 03:51->METAR KJFK 280351Z 10005KT 10SM FEW055 BKN075 16/15 A2993 RMK AO2 SLP134 T01610150=
28/05/2017 02:51->METAR KJFK 280251Z 12006KT 10SM FEW055 BKN075 16/15 A2993 RMK AO2 SLP136 T01610150 51012=
28/05/2017 01:51->METAR KJFK 280151Z 11008KT 10SM BKN075 BKN250 16/15 A2993 RMK AO2 SLP136 T01610150=
28/05/2017 00:51->METAR KJFK 280051Z 11006KT 10SM FEW040 SCT075 BKN250 17/14 A2991 RMK AO2 SLP129 T01670144=
27/05/2017 23:51->METAR KJFK 272351Z 11008KT 10SM FEW045 SCT080 BKN240 18/14 A2990 RMK AO2 SLP124 T01780144 10222 20178 52007=
27/05/2017 22:51->METAR KJFK 272251Z 12007KT 10SM FEW060 BKN075 BKN150 BKN230 19/14 A2989 RMK AO2 SLP122 T01890144=
27/05/2017 21:51->METAR KJFK 272151Z 17006KT 10SM BKN047 OVC075 19/14 A2989 RMK AO2 SLP120 T01890144=
27/05/2017 20:51->METAR KJFK 272051Z 19011KT 10SM BKN047 OVC070 19/14 A2988 RMK AO2 SLP118 T01890144 53001=
27/05/2017 19:51->METAR KJFK 271951Z 19011KT 10SM BKN050 BKN060 OVC070 19/14 A2988 RMK AO2 SLP117 T01940139=
27/05/2017 18:51->METAR KJFK 271851Z 20008KT 10SM BKN055 OVC070 21/15 A2987 RMK AO2 SLP115 T02060150=
27/05/2017 17:51->METAR KJFK 271751Z 23010KT 10SM BKN048 OVC065 21/14 A2988 RMK AO2 SLP117 T02110144 10228 20189 51000=
27/05/2017 16:51->METAR KJFK 271651Z 22012KT 10SM BKN047 BKN060 BKN250 21/14 A2988 RMK AO2 SLP116 T02060139=
27/05/2017 15:51->METAR KJFK 271551Z 23011KT 10SM BKN047 BKN060 BKN250 21/14 A2988 RMK AO2 SLP117 T02060144=
27/05/2017 14:51->METAR KJFK 271451Z VRB03KT 10SM SCT043 BKN250 22/13 A2988 RMK AO2 SLP116 T02220128 58001=
27/05/2017 13:51->METAR KJFK 271351Z 33004KT 10SM SCT036 SCT250 21/13 A2988 RMK AO2 SLP119 T02060133=
27/05/2017 12:51->METAR KJFK 271251Z 31004KT 10SM FEW028 SCT075 BKN250 21/13 A2988 RMK AO2 SLP117 T02060133=
27/05/2017 11:51->METAR KJFK 271151Z 32010KT 10SM SCT026 SCT080 BKN250 19/13 A2988 RMK AO2 SLP117 T01890133 10189 20161 51010=
27/05/2017 10:51->METAR KJFK 271051Z 31009KT 10SM FEW045 SCT080 SCT250 18/13 A2988 RMK AO2 SLP117 T01780133=
27/05/2017 09:51->METAR KJFK 270951Z 32005KT 10SM FEW045 SCT080 17/13 A2986 RMK AO2 SLP112 T01670133=
27/05/2017 08:51->METAR KJFK 270851Z 27007KT 10SM FEW045 17/13 A2985 RMK AO2 SLP107 T01670128 53010=
27/05/2017 07:51->METAR KJFK 270751Z 30007KT 10SM FEW045 18/13 A2983 RMK AO2 SLP101 T01780128=
27/05/2017 06:51->METAR KJFK 270651Z 31010G18KT 10SM FEW045 18/12 A2982 RMK AO2 SLP099 T01780122=
27/05/2017 05:51->METAR KJFK 270551Z 31012KT 10SM FEW045 18/12 A2982 RMK AO2 SLP097 T01830117 10228 20183 51009=
27/05/2017 04:51->METAR KJFK 270451Z 30010KT 10SM FEW042 FEW075 19/12 A2982 RMK AO2 SLP096 T01890122 402500139=
27/05/2017 03:51->METAR KJFK 270351Z 31013G18KT 10SM FEW042 FEW055 FEW075 19/12 A2981 RMK AO2 SLP093 T01940117=
27/05/2017 02:51->METAR KJFK 270251Z 31012KT 10SM FEW050 FEW075 21/12 A2979 RMK AO2 SLP088 T02060117 51032=
27/05/2017 01:51->METAR KJFK 270151Z 32015KT 10SM SCT050 SCT075 21/12 A2977 RMK AO2 SLP081 T02110117=
27/05/2017 00:51->METAR KJFK 270051Z 28012G18KT 10SM SCT049 SCT055 BKN075 22/14 A2973 RMK AO2 CIG 049 W SLP068 T02220144=
26/05/2017 23:51->METAR KJFK 262351Z 27011G17KT 10SM SCT055 SCT100 SCT250 22/14 A2970 RMK AO2 SLP056 T02220139 10250 20222 53021=
26/05/2017 22:51->METAR KJFK 262251Z 25015KT 10SM FEW055 SCT100 SCT250 23/14 A2967 RMK AO2 SLP046 T02280144=
26/05/2017 21:51->METAR KJFK 262151Z 27013G21KT 10SM FEW055 BKN100 BKN250 24/13 A2965 RMK AO2 SLP039 T02390128=
26/05/2017 20:51->METAR KJFK 262051Z 29012G24KT 10SM FEW050 FEW075 BKN100 BKN250 24/13 A2963 RMK AO2 SLP034 T02390128 51011=
26/05/2017 19:51->METAR KJFK 261951Z 31011KT 10SM FEW050 BKN095 BKN250 24/13 A2962 RMK AO2 SLP031 T02440133=
26/05/2017 18:51->METAR KJFK 261851Z 29012G18KT 10SM SCT047 BKN075 24/13 A2962 RMK AO2 SLP029 T02390133=
26/05/2017 17:51->METAR KJFK 261751Z 27017G22KT 10SM SCT041 BKN070 24/14 A2960 RMK AO2 SLP023 SCT V BKN T02440144 10244 20150 53002=
26/05/2017 16:51->METAR KJFK 261651Z 27014KT 10SM FEW033 BKN047 BKN080 22/14 A2959 RMK AO2 SLP021 T02220144=
26/05/2017 15:51->METAR KJFK 261551Z 27010KT 10SM SCT026 BKN044 BKN080 22/16 A2960 RMK AO2 SLP023 T02170161=
26/05/2017 14:51->METAR KJFK 261451Z 25010KT 10SM BKN024 BKN080 19/16 A2960 RMK AO2 SLP021 T01890161 50006=
26/05/2017 13:51->METAR KJFK 261351Z 25011KT 10SM FEW012 BKN019 BKN170 BKN260 17/14 A2960 RMK AO2 SLP023 T01720144=
26/05/2017 12:51->METAR KJFK 261251Z 29007KT 10SM SCT012 BKN024 BKN170 17/14 A2959 RMK AO2 SLP021 T01670144=
26/05/2017 11:51->METAR KJFK 261151Z 30004KT 10SM FEW006 BKN010 BKN028 BKN170 15/14 A2958 RMK AO2 RAE18 SLP015 P0001 60015 70108 T01500144 10150 20139 51023=
26/05/2017 10:51->METAR KJFK 261051Z 34007KT 7SM -RA BKN008 BKN013 OVC060 14/14 A2956 RMK AO2 RAB0955 SLP010 BKN008 V SCT P0000 T01390139=
26/05/2017 09:51->METAR KJFK 260951Z 35007KT 10SM BKN009 OVC026 14/14 A2954 RMK AO2 RAE02B26E36 SLP002 P0001 T01390139=
26/05/2017 08:51->METAR KJFK 260851Z 31007KT 5SM -RA BR BKN010 OVC027 14/14 A2951 RMK AO2 SLP992 P0009 60013 T01390139 53013=
26/05/2017 07:51->METAR KJFK 260751Z 33006KT 10SM -RA OVC007 14/14 A2949 RMK AO2 SLP987 P0000 T01440139=
26/05/2017 06:51->METAR KJFK 260651Z 33007KT 10SM -RA BKN009 OVC075 14/14 A2947 RMK AO2 SLP979 P0004 T01390139=
26/05/2017 05:51->METAR KJFK 260551Z 35016KT 10SM -RA FEW008 FEW035 OVC090 14/14 A2945 RMK AO2 WSHFT 0445 TSE36 SLP971 P0026 60065 T01390139 10161 20139 58004=
26/05/2017 04:51->METAR KJFK 260451Z 32011KT 3SM +TSRA BR BKN006 OVC033CB 15/15 A2948 RMK AO2 SLP982 OCNL LTGICCA S TS S MOV N P0031 T01500150 401610133=
26/05/2017 03:51->METAR KJFK 260351Z 36010KT 3SM -TSRA BR BKN005 OVC032CB 14/14 A2946 RMK AO2 LTG DSNT ALQDS SLP976 DZE14RAB28TSB46 OCNL LTGIC NE TS NE MOV N P0003 T01440144=
26/05/2017 02:51->METAR KJFK 260251Z 05014KT 2SM -DZ BR OVC004 15/15 A2947 RMK AO2 LTG DSNT ALQDS SLP980 P0001 60005 T01500150 56022=
26/05/2017 01:51->METAR KJFK 260151Z 07009KT 1SM -DZ BR OVC004 16/16 A2949 RMK AO2 SFC VIS 1 1/2 LTG DSNT E AND SE SLP986 P0003 T01610161=
26/05/2017 00:51->METAR KJFK 260051Z 06011KT 1SM -DZ BR OVC003 16/16 A2949 RMK AO2 SFC VIS 2 1/2 SLP986 P0001 T01560156=
25/05/2017 23:51->METAR KJFK 252351Z 08008KT 1SM -DZ BR OVC003 16/16 A2954 RMK AO2 SFC VIS 2 1/2 SLP001 VIS E-SE 1 P0000 60002 T01560156 10156 20150 51003=
25/05/2017 22:51->METAR KJFK 252251Z 07007KT 1SM -DZ BR OVC003 16/16 A2954 RMK AO2 SFC VIS 2 SLP001 VIS LWR E P0000 T01560156=
25/05/2017 21:51->METAR KJFK 252151Z 09010G18KT 2SM -DZ BR OVC003 16/16 A2956 RMK AO2 SFC VIS 2 1/2 DZB47 SLP008 P0000 T01560156=
25/05/2017 20:51->METAR KJFK 252051Z 06009KT 2SM BR OVC004 16/16 A2953 RMK AO2 SFC VIS 4 RAB1952E1955B12E23 PRESFR SLP999 P0001 60002 T01560156 58020=
25/05/2017 19:51->METAR KJFK 251951Z 08014G20KT 2SM BR OVC004 15/15 A2956 RMK AO2 SFC VIS 3 RAE51 SLP011 P0001 T01500150=
25/05/2017 18:51->METAR KJFK 251851Z 07012G19KT 2SM -RA BR OVC004 15/15 A2958 RMK AO2 SFC VIS 2 1/2 DZE16RAB16 SLP015 P0000 T01500150=
25/05/2017 17:51->METAR KJFK 251751Z 08014G21KT 2SM -DZ BR OVC005 15/15 A2959 RMK AO2 PK WND 10027/1701 RAE40DZB40 SLP019 CIG 004V006 P0000 60026 T01500150 10150 20133 56018=
25/05/2017 16:51->METAR KJFK 251651Z 09015G23KT 3SM -RA BR OVC006 15/15 A2960 RMK AO2 PK WND 09027/1633 SFC VIS 6 SLP023 P0008 T01500150=
25/05/2017 15:51->METAR KJFK 251551Z 09017G24KT 2 1/2SM -RA BR OVC007 14/14 A2962 RMK AO2 SFC VIS 3 SLP030 P0001 T01440139=
25/05/2017 14:51->METAR KJFK 251451Z 09017G24KT 2SM -RA BR BKN009 OVC018 14/14 A2964 RMK AO2 PK WND 08030/1358 SFC VIS 3 SLP037 CIG 007V011 P0005 60017 T01390139 56019=
25/05/2017 13:51->METAR KJFK 251351Z 07017G21KT 2SM -RA BR OVC008 14/14 A2965 RMK AO2 PK WND 07026/1335 SFC VIS 2 1/2 SLP039 P0007 T01390139=
25/05/2017 12:51->METAR KJFK 251251Z 08011KT 2SM -RA BR OVC008 14/13 A2968 RMK AO2 SFC VIS 3 SLP049 P0005 T01390133=
25/05/2017 11:51->METAR KJFK 251151Z 07009KT 6SM -RA BR BKN007 OVC013 14/13 A2970 RMK AO2 SLP056 P0016 60025 70025 T01390133 10144 20133 56019=
25/05/2017 10:51->METAR KJFK 251051Z 08012KT 7SM -RA BKN008 OVC017 13/13 A2972 RMK AO2 SLP063 P0004 T01330133=
25/05/2017 09:51->METAR KJFK 250951Z 07010G19KT 6SM -RA BR OVC007 14/13 A2972 RMK AO2 SLP065 P0004 T01390133=
25/05/2017 08:51->METAR KJFK 250851Z 09007KT 7SM -RA OVC009 14/14 A2975 RMK AO2 RAB00 SLP075 P0001 60001 T01390139 56018=
25/05/2017 07:51->METAR KJFK 250751Z 08010G21KT 7SM OVC009 13/13 A2975 RMK AO2 RAB31E46 SLP075 P0000 T01330133=
25/05/2017 06:51->METAR KJFK 250651Z 09011KT 10SM OVC013 14/13 A2977 RMK AO2 SLP082 T01440128=
25/05/2017 05:51->METAR KJFK 250551Z 10013KT 10SM BKN014 OVC033 14/12 A2981 RMK AO2 SLP093 T01440122 10161 20139 58008=
25/05/2017 04:51->METAR KJFK 250451Z 09010KT 10SM FEW013 SCT033 OVC220 14/12 A2981 RMK AO2 SLP095 T01440122 402060139=
25/05/2017 03:51->METAR KJFK 250351Z 09011KT 10SM FEW015 OVC240 14/12 A2983 RMK AO2 SLP102 T01440122=
25/05/2017 02:51->METAR KJFK 250251Z 10011KT 10SM FEW013 OVC250 15/12 A2983 RMK AO2 SLP100 T01500122 51004=
25/05/2017 01:51->METAR KJFK 250151Z 09010KT 10SM FEW035 FEW075 OVC250 15/11 A2982 RMK AO2 SLP099 T01500111=
25/05/2017 00:51->METAR KJFK 250051Z 11012KT 10SM FEW035 FEW075 BKN250 15/11 A2983 RMK AO2 SLP099 T01500111=
24/05/2017 23:51->METAR KJFK 242351Z 11008KT 10SM FEW039 FEW075 OVC250 16/12 A2982 RMK AO2 SLP096 T01610117 10206 20161 53005=
24/05/2017 22:51->METAR KJFK 242251Z 11011KT 10SM FEW039 SCT075 BKN250 17/12 A2979 RMK AO2 SLP087 T01670117=
24/05/2017 21:51->METAR KJFK 242151Z 11009KT 10SM FEW039 BKN075 BKN250 18/11 A2978 RMK AO2 SLP084 T01780111=
24/05/2017 20:51->METAR KJFK 242051Z 15011KT 10SM FEW043 BKN075 BKN250 19/14 A2980 RMK AO2 SLP091 T01890139 53016=
24/05/2017 19:51->METAR KJFK 241951Z 19006KT 10SM FEW039 BKN085 BKN250 19/13 A2978 RMK AO2 SLP085 T01890133=
24/05/2017 18:51->METAR KJFK 241851Z 08005KT 10SM SCT034 BKN080 20/11 A2976 RMK AO2 SLP076 T02000111=
24/05/2017 17:51->METAR KJFK 241751Z 04010KT 10SM SCT032 BKN075 20/12 A2975 RMK AO2 SLP075 60000 T02000117 10206 20156 58005=
24/05/2017 16:51->METAR KJFK 241651Z 02012KT 10SM SCT030 BKN080 19/12 A2977 RMK AO2 SLP079 SCT V BKN T01890122=
24/05/2017 15:51->METAR KJFK 241551Z 03011KT 10SM SCT023 BKN070 BKN110 BKN220 19/14 A2976 RMK AO2 RAB38E51 SLP077 P0000 T01890139=
24/05/2017 14:51->METAR KJFK 241451Z 36007KT 10SM BKN018 BKN026 OVC075 17/14 A2977 RMK AO2 SLP080 T01720139 53007=
24/05/2017 13:51->METAR KJFK 241351Z 36008KT 10SM SCT017 OVC070 17/14 A2976 RMK AO2 SLP076 T01670139=
24/05/2017 12:51->METAR KJFK 241251Z 04006KT 10SM BKN015 BKN075 OVC120 16/14 A2975 RMK AO2 SLP074 CIG 013V017 BKN015 V SCT T01560139=
24/05/2017 11:51->METAR KJFK 241151Z 03008KT 10SM FEW014 BKN085 BKN100 BKN330 16/14 A2975 RMK AO2 SLP072 60002 70002 T01560139 10156 20139 53002=
24/05/2017 10:51->METAR KJFK 241051Z 36004KT 10SM FEW011 OVC100 14/14 A2975 RMK AO2 RAB03E44 SLP075 P0000 T01440139=
24/05/2017 09:51->METAR KJFK 240951Z 02004KT 10SM FEW015 OVC090 14/13 A2973 RMK AO2 RAE43 SLP066 P0001 T01390133=
24/05/2017 08:51->METAR KJFK 240851Z 06003KT 10SM -RA FEW060 OVC120 14/13 A2974 RMK AO2 SLP070 P0001 60001 T01390133 58006=
24/05/2017 07:51->METAR KJFK 240751Z 12004KT 10SM -RA SCT060 OVC100 14/12 A2976 RMK AO2 RAB0659 SLP076 P0000 T01440122=
24/05/2017 06:51->METAR KJFK 240651Z 11004KT 10SM OVC110 15/12 A2976 RMK AO2 SLP078 T01500117=
24/05/2017 05:51->METAR KJFK 240551Z 10004KT 10SM OVC130 15/12 A2976 RMK AO2 SLP076 T01500117 10172 20150 56025=
24/05/2017 04:51->METAR KJFK 240451Z 07003KT 10SM OVC150 16/12 A2977 RMK AO2 SLP080 T01560117 402110150=
24/05/2017 03:51->METAR KJFK 240351Z 07003KT 10SM OVC180 15/12 A2979 RMK AO2 SLP089 T01500117=
24/05/2017 02:51->METAR KJFK 240251Z 15003KT 10SM SCT130 OVC180 16/12 A2983 RMK AO2 SLP101 T01560117 58005=
24/05/2017 01:51->METAR KJFK 240151Z 18005KT 10SM FEW140 OVC190 16/12 A2985 RMK AO2 SLP107 T01560117=
24/05/2017 00:51->METAR KJFK 240051Z 18006KT 10SM SCT140 BKN190 BKN250 16/11 A2984 RMK AO2 SLP104 T01560111=
23/05/2017 23:51->METAR KJFK 232351Z 16003KT 10SM BKN130 OVC230 17/12 A2985 RMK AO2 SLP106 T01720117 10211 20172 55008=
23/05/2017 22:51->METAR KJFK 232251Z 18006KT 10SM SCT150 BKN230 18/11 A2984 RMK AO2 SLP105 T01780111=
23/05/2017 21:51->METAR KJFK 232151Z 17005KT 10SM FEW080 SCT130 OVC250 18/11 A2984 RMK AO2 SLP106 T01830106=
23/05/2017 20:51->METAR KJFK 232051Z 19007KT 10SM SCT130 OVC250 18/11 A2987 RMK AO2 SLP114 T01780111 56016=
23/05/2017 19:51->METAR KJFK 231951Z 19005KT 10SM BKN140 OVC250 19/11 A2988 RMK AO2 SLP117 T01890106=
23/05/2017 18:51->METAR KJFK 231851Z 00000KT 10SM BKN160 OVC250 21/09 A2990 RMK AO2 SLP124 T02060094=
23/05/2017 17:51->METAR KJFK 231751Z 36006KT 10SM BKN160 OVC250 20/09 A2992 RMK AO2 SLP130 T02000094 10206 20161 56016=
23/05/2017 16:51->METAR KJFK 231651Z 02005KT 10SM BKN180 OVC250 20/09 A2993 RMK AO2 SLP135 T02000094=
23/05/2017 15:51->METAR KJFK 231551Z 03011KT 10SM BKN170 OVC250 19/10 A2994 RMK AO2 SLP138 T01890100=
23/05/2017 14:51->METAR KJFK 231451Z 03010KT 10SM SCT210 BKN250 18/09 A2996 RMK AO2 SLP146 T01830094 52001=
23/05/2017 13:51->METAR KJFK 231351Z 04008KT 10SM BKN250 17/10 A2996 RMK AO2 SLP145 T01670100 $=
23/05/2017 12:51->METAR KJFK 231251Z 04006KT 10SM FEW025 FEW060 FEW190 BKN260 17/11 A2996 RMK AO2 SLP146 T01670106 $=
23/05/2017 11:51->METAR KJFK 231151Z VRB06KT 10SM FEW018 FEW047 BKN260 16/13 A2996 RMK AO2 SLP145 70064 T01610128 10167 20150 51009 $=
23/05/2017 10:51->METAR KJFK 231051Z 36008KT 10SM FEW015 FEW047 BKN260 16/13 A2996 RMK AO2 SLP145 T01560128 $=
23/05/2017 09:51->METAR KJFK 230951Z 01005KT 10SM FEW012 BKN260 15/14 A2995 RMK AO2 SLP142 T01500139 $=
23/05/2017 08:51->METAR KJFK 230851Z 01010KT 10SM FEW015 FEW047 BKN260 16/14 A2993 RMK AO2 SLP136 T01560144 56005 $=
23/05/2017 07:51->METAR KJFK 230751Z 02005KT 10SM FEW015 BKN049 OVC260 16/15 A2994 RMK AO2 SLP137 T01560150 $=
23/05/2017 06:51->METAR KJFK 230651Z 34008KT 10SM OVC011 16/15 A2993 RMK AO2 SLP135 T01610150 $=
23/05/2017 05:51->METAR KJFK 230551Z 33007KT 8SM OVC012 17/16 A2995 RMK AO2 SLP141 60000 T01670156 10172 20156 58004 $=
23/05/2017 04:51->METAR KJFK 230451Z 31007KT 8SM OVC011 17/16 A2996 RMK AO2 SLP145 T01670161 401720128 $=
23/05/2017 03:51->METAR KJFK 230351Z 29006KT 8SM BKN009 OVC070 17/16 A2996 RMK AO2 SLP144 T01720161 $=
23/05/2017 02:51->METAR KJFK 230251Z 30006KT 8SM FEW008 BKN060 17/16 A2996 RMK AO2 SLP145 60000 T01720161 58005 $=
23/05/2017 01:51->METAR KJFK 230151Z 00000KT 3SM BR BKN007 OVC028 16/16 A2998 RMK AO2 SFC VIS 5 DZE14 SLP151 P0000 T01610161 $=
23/05/2017 00:51->METAR KJFK 230051Z 27003KT 1/2SM -DZ BR FEW000 OVC003 16/16 A2997 RMK AO2 SFC VIS 4 DZB48 SLP149 BR FEW000 P0000 T01560156 $=
22/05/2017 23:51->METAR KJFK 222351Z 22006KT 1/2SM BR OVC004 16/16 A2998 RMK AO2 SFC VIS 4 SLP151 60026 T01560156 10156 20150 55005 $=
22/05/2017 22:51->METAR KJFK 222251Z 18006KT 3SM OVC005 16/16 A2997 RMK AO2 SFC VIS 7 RAE44 SLP149 P0001 T01560156 $=
22/05/2017 21:51->METAR KJFK 222151Z 16008KT 3SM -RA BR BKN005 BKN013 OVC030 16/16 A2998 RMK AO2 SFC VIS 5 SLP152 P0004 T01560156 $=
22/05/2017 20:51->METAR KJFK 222051Z 16010KT 3SM -RA BR BKN004 OVC012 16/16 A2999 RMK AO2 SFC VIS 3 SLP156 P0005 60021 T01560156 56023 $=
22/05/2017 19:51->METAR KJFK 221951Z 15010KT 3SM -RA BR BKN004 OVC017 16/16 A3001 RMK AO2 SFC VIS 5 SLP163 P0014 T01560156 $=
22/05/2017 18:51->METAR KJFK 221851Z 14010KT 3SM RA BR BKN004 OVC022 15/15 A3004 RMK AO2 SFC VIS 4 SLP170 P0002 T01500150 $=
22/05/2017 17:51->METAR KJFK 221751Z 14010KT 2SM -RA BR BKN004 OVC010 15/15 A3006 RMK AO2 SFC VIS 5 SLP179 P0006 60038 T01500150 10150 20128 56026 $=
22/05/2017 16:51->METAR KJFK 221651Z 12010KT 2SM RA BR BKN005 OVC011 14/14 A3008 RMK AO2 SFC VIS 2 1/2 SLP187 P0010 T01390139 $=
22/05/2017 15:51->METAR KJFK 221551Z 11012KT 2SM RA BR BKN005 OVC013 14/14 A3010 RMK AO2 SLP193 P0012 T01390139 $=
22/05/2017 14:51->METAR KJFK 221451Z 10009KT 1 1/2SM RA BR BKN006 BKN012 OVC021 13/13 A3014 RMK AO2 SLP205 P0005 60010 T01330128 56016=
22/05/2017 13:51->METAR KJFK 221351Z 11010KT 2SM -RA BR BKN007 BKN017 OVC026 13/12 A3016 RMK AO2 SFC VIS 2 1/2 SLP212 BKN007 V SCT P0004 T01280122=
22/05/2017 12:51->METAR KJFK 221251Z 12009KT 4SM -RA BR OVC023 13/12 A3018 RMK AO2 RAB21 SLP221 P0001 T01330117=
22/05/2017 11:51->METAR KJFK 221151Z 12008KT 10SM BKN026 OVC035 13/11 A3018 RMK AO2 RAE08 SLP219 P0000 60001 70001 T01330106 10139 20133 56006=
22/05/2017 10:51->METAR KJFK 221051Z 13009KT 10SM -RA OVC035 13/11 A3018 RMK AO2 SLP220 P0000 T01330111=
22/05/2017 09:51->METAR KJFK 220951Z 12009KT 10SM -RA OVC042 13/11 A3018 RMK AO2 SLP220 P0001 T01330106=
22/05/2017 08:51->METAR KJFK 220851Z 13004KT 10SM -RA OVC055 14/10 A3020 RMK AO2 RAB13 SLP225 P0000 60000 T01390100 56010=
22/05/2017 07:51->METAR KJFK 220751Z 13003KT 10SM OVC050 14/10 A3021 RMK AO2 RAB13E30 SLP229 P0000 T01390100=
22/05/2017 06:51->METAR KJFK 220651Z 14005KT 10SM OVC055 14/10 A3021 RMK AO2 RAE40 SLP231 P0000 T01390100=
22/05/2017 05:51->METAR KJFK 220551Z 15005KT 10SM -RA OVC055 14/09 A3023 RMK AO2 RAB48 SLP235 P0000 60000 T01390094 10139 20139 58019=
22/05/2017 04:51->METAR KJFK 220451Z 15009KT 10SM OVC060 14/09 A3025 RMK AO2 SLP243 T01390089 401830094=
22/05/2017 03:51->METAR KJFK 220351Z 16006KT 10SM OVC070 14/08 A3027 RMK AO2 SLP250 T01390083=
22/05/2017 02:51->METAR KJFK 220251Z 15007KT 10SM OVC060 14/07 A3028 RMK AO2 SLP254 T01390072 58004=
22/05/2017 01:51->METAR KJFK 220151Z 14008KT 10SM OVC060 14/07 A3029 RMK AO2 SLP257 T01390067=
22/05/2017 00:51->METAR KJFK 220051Z 14008KT 10SM BKN065 BKN250 14/06 A3029 RMK AO2 SLP257 T01390061=
21/05/2017 23:51->METAR KJFK 212351Z 14009KT 10SM BKN110 BKN250 14/06 A3030 RMK AO2 SLP259 T01390061 10178 20139 58005=
21/05/2017 22:51->METAR KJFK 212251Z 14008KT 10SM BKN140 BKN250 14/06 A3031 RMK AO2 SLP264 T01390061=
21/05/2017 21:51->METAR KJFK 212151Z 14011KT 10SM FEW150 SCT250 16/06 A3031 RMK AO2 SLP263 T01560056=
21/05/2017 20:51->METAR KJFK 212051Z 16012KT 10SM FEW150 BKN250 16/04 A3031 RMK AO2 SLP264 T01610044 58019=
21/05/2017 19:51->METAR KJFK 211951Z 14010KT 10SM BKN250 17/04 A3034 RMK AO2 SLP274 T01670039=
21/05/2017 18:51->METAR KJFK 211851Z 14011KT 10SM FEW150 BKN250 18/03 A3035 RMK AO2 SLP278 T01780033=
21/05/2017 17:51->METAR KJFK 211751Z 15011KT 10SM FEW100 FEW150 BKN250 18/02 A3037 RMK AO2 SLP283 T01780022 10183 20150 58007=
21/05/2017 16:51->METAR KJFK 211651Z 14013KT 10SM FEW150 BKN250 18/03 A3038 RMK AO2 SLP286 T01780028=
21/05/2017 15:51->METAR KJFK 211551Z 13010KT 10SM FEW150 BKN250 18/02 A3040 RMK AO2 SLP292 T01780017=
21/05/2017 14:51->METAR KJFK 211451Z 11012KT 10SM FEW150 BKN250 17/00 A3039 RMK AO2 SLP290 T01720000 50008=
21/05/2017 13:51->METAR KJFK 211351Z 12008KT 10SM FEW150 BKN250 17/01 A3040 RMK AO2 SLP294 T01720011=
21/05/2017 12:51->METAR KJFK 211251Z 11009KT 10SM FEW150 BKN250 16/01 A3039 RMK AO2 SLP289 T01610011=
21/05/2017 11:51->METAR KJFK 211151Z 06005KT 10SM FEW150 BKN250 15/05 A3037 RMK AO2 SLP282 T01500050 10150 20094 50006=
21/05/2017 10:51->METAR KJFK 211051Z 05004KT 10SM FEW150 BKN250 12/09 A3038 RMK AO2 SLP286 T01170094=
21/05/2017 09:51->METAR KJFK 210951Z 01003KT 10SM FEW150 BKN250 10/08 A3037 RMK AO2 SLP283 T01000083=
21/05/2017 08:51->METAR KJFK 210851Z 00000KT 10SM BKN250 10/09 A3035 RMK AO2 SLP276 T01000089 53003=
21/05/2017 07:51->METAR KJFK 210751Z 00000KT 10SM FEW130 FEW250 11/09 A3035 RMK AO2 SLP275 T01060089=
21/05/2017 06:51->METAR KJFK 210651Z 21003KT 10SM FEW130 FEW250 12/08 A3034 RMK AO2 SLP272 T01170078=
21/05/2017 05:51->METAR KJFK 210551Z 16004KT 10SM FEW130 FEW250 12/08 A3034 RMK AO2 SLP273 T01170083 10139 20111 58002=
21/05/2017 04:51->METAR KJFK 210451Z 18005KT 10SM FEW130 FEW250 12/08 A3036 RMK AO2 SLP281 T01170083 401940117=
21/05/2017 03:51->METAR KJFK 210351Z 18006KT 10SM FEW130 FEW250 12/08 A3036 RMK AO2 SLP280 T01220083=
21/05/2017 02:51->METAR KJFK 210251Z 19006KT 10SM FEW130 FEW250 12/08 A3035 RMK AO2 SLP275 T01220078 53008=
21/05/2017 01:51->METAR KJFK 210151Z 19006KT 10SM FEW130 BKN250 13/08 A3034 RMK AO2 SLP273 T01280078=
21/05/2017 00:51->METAR KJFK 210051Z 20008KT 10SM SCT140 BKN250 13/08 A3033 RMK AO2 SLP269 T01280078=
20/05/2017 23:51->METAR KJFK 202351Z 19008KT 10SM FEW085 BKN130 BKN250 14/07 A3032 RMK AO2 SLP267 T01390072 10167 20139 53002=
20/05/2017 22:51->METAR KJFK 202251Z 18006KT 10SM FEW075 BKN130 BKN250 14/07 A3031 RMK AO2 SLP265 T01440072=
20/05/2017 21:51->METAR KJFK 202151Z 15008KT 10SM SCT075 BKN130 BKN250 15/07 A3032 RMK AO2 SLP265 T01500072=
20/05/2017 20:51->METAR KJFK 202051Z 14006KT 10SM BKN070 OVC140 16/06 A3032 RMK AO2 SLP265 T01560061 53003=
20/05/2017 19:51->METAR KJFK 201951Z 14008KT 10SM BKN070 OVC110 17/07 A3031 RMK AO2 SLP264 T01670067=
20/05/2017 18:51->METAR KJFK 201851Z 12008KT 10SM OVC065 16/07 A3031 RMK AO2 SLP263 T01560067=
20/05/2017 17:51->METAR KJFK 201751Z 12008KT 10SM BKN065 OVC075 16/07 A3031 RMK AO2 RAE14 SLP262 P0000 60000 T01560067 10178 20156 51007=
20/05/2017 16:51->METAR KJFK 201651Z 15007KT 10SM -RA OVC070 16/08 A3030 RMK AO2 RAB51 SLP260 P0000 T01560083=
20/05/2017 15:51->METAR KJFK 201551Z 05007KT 10SM OVC080 17/07 A3029 RMK AO2 SLP257 T01720067=
20/05/2017 14:51->METAR KJFK 201451Z 04010KT 10SM BKN070 OVC095 17/07 A3028 RMK AO2 SLP255 T01670067 51020=
20/05/2017 13:51->METAR KJFK 201351Z 07009KT 10SM OVC065 17/07 A3028 RMK AO2 SLP253 T01670067=
20/05/2017 12:51->METAR KJFK 201251Z 05015KT 10SM OVC060 17/06 A3026 RMK AO2 SLP247 T01670061=
20/05/2017 11:51->METAR KJFK 201151Z 05013KT 10SM FEW050 SCT080 BKN160 16/06 A3023 RMK AO2 PK WND 04026/1131 SLP235 60000 T01560056 10189 20150 51031=
20/05/2017 10:51->METAR KJFK 201051Z 04013KT 10SM SCT044 BKN060 OVC120 16/07 A3021 RMK AO2 RAB24E47 SLP231 P0000 T01560067=
20/05/2017 09:51->METAR KJFK 200951Z 04012KT 10SM SCT060 BKN075 BKN150 BKN250 16/06 A3018 RMK AO2 SLP221 VIRGA W T01610061=
20/05/2017 08:51->METAR KJFK 200851Z 04015G21KT 10SM FEW075 SCT095 SCT140 BKN250 17/06 A3013 RMK AO2 SLP204 T01670056 51021=
20/05/2017 07:51->METAR KJFK 200751Z 02013KT 10SM FEW070 BKN095 BKN140 BKN250 17/10 A3011 RMK AO2 SLP196 T01720100=
20/05/2017 06:51->METAR KJFK 200651Z 01014G21KT 10SM BKN080 BKN110 BKN250 18/11 A3010 RMK AO2 SLP191 T01780111=
20/05/2017 05:51->METAR KJFK 200551Z 01009KT 10SM SCT080 SCT120 BKN250 19/11 A3007 RMK AO2 SLP183 T01890111 10317 20189 51024=
20/05/2017 04:51->METAR KJFK 200451Z 01014G21KT 10SM SCT080 BKN250 20/11 A3006 RMK AO2 SLP178 T02000111 403330200=
20/05/2017 03:51->METAR KJFK 200351Z 01015G21KT 10SM BKN250 22/11 A3004 RMK AO2 SLP171 T02170111=
20/05/2017 02:51->METAR KJFK 200251Z 02014G20KT 10SM BKN250 23/12 A3000 RMK AO2 SLP158 T02330122 53024=
20/05/2017 01:51->METAR KJFK 200151Z 02012KT 10SM FEW100 BKN250 26/15 A2997 RMK AO2 SLP147 T02560150=
20/05/2017 00:51->METAR KJFK 200051Z 01015G22KT 10SM FEW065 SCT085 SCT110 BKN250 28/17 A2993 RMK AO2 WSHFT 0032 SLP135 T02780167=
19/05/2017 23:51->METAR KJFK 192351Z 26012KT 10SM SCT065 BKN250 32/16 A2987 RMK AO2 SLP114 T03170156 10333 20294 53010=
19/05/2017 22:51->METAR KJFK 192251Z 26013KT 10SM FEW065 BKN250 32/16 A2986 RMK AO2 SLP110 T03220161=
19/05/2017 21:51->METAR KJFK 192151Z 26012KT 10SM FEW065 FEW100 BKN250 33/16 A2984 RMK AO2 SLP106 CB DSNT S T03280161=
19/05/2017 20:51->METAR KJFK 192051Z 21008KT 10SM FEW060 FEW100 BKN250 29/19 A2984 RMK AO2 SLP103 T02940189 56007=
19/05/2017 19:51->METAR KJFK 191951Z 23014KT 10SM FEW055 FEW075 BKN250 32/18 A2984 RMK AO2 LTG DSNT N SLP104 CB DSNT N T03220183=
19/05/2017 18:51->METAR KJFK 191851Z 24012KT 10SM FEW055 BKN250 32/18 A2985 RMK AO2 SLP106 T03170183=
19/05/2017 17:51->METAR KJFK 191751Z 23016KT 10SM FEW055 SCT250 32/19 A2986 RMK AO2 SLP111 T03170189 10317 20239 58012=
19/05/2017 16:51->METAR KJFK 191651Z 23016KT 10SM FEW050 SCT250 31/19 A2987 RMK AO2 SLP115 T03110194=
19/05/2017 15:51->METAR KJFK 191551Z 23014KT 10SM FEW048 30/19 A2989 RMK AO2 SLP121 T03000194=
19/05/2017 14:51->METAR KJFK 191451Z 25011KT 10SM FEW250 30/19 A2989 RMK AO2 SLP123 T03000189 56003=
19/05/2017 13:51->METAR KJFK 191351Z 25009KT 10SM CLR 29/20 A2990 RMK AO2 SLP123 T02940200=
19/05/2017 12:51->METAR KJFK 191251Z 24010KT 10SM FEW250 28/21 A2990 RMK AO2 SLP126 T02780206=
19/05/2017 11:51->METAR KJFK 191151Z 23010KT 10SM FEW250 24/21 A2991 RMK AO2 SLP126 T02390206 10239 20200 51009=
19/05/2017 10:51->METAR KJFK 191051Z 23008KT 10SM FEW250 23/21 A2990 RMK AO2 SLP125 T02280206=
19/05/2017 09:51->METAR KJFK 190951Z 22010KT 9SM FEW250 21/19 A2989 RMK AO2 SLP120 T02110194=
19/05/2017 08:51->METAR KJFK 190851Z 20008KT 10SM FEW250 20/19 A2988 RMK AO2 SLP118 T02000189 53003=
19/05/2017 07:51->METAR KJFK 190751Z 21007KT 10SM FEW250 21/19 A2987 RMK AO2 SLP115 T02110189=
19/05/2017 06:51->METAR KJFK 190651Z 17004KT 10SM SCT250 21/18 A2987 RMK AO2 SLP113 T02060183=
19/05/2017 05:51->METAR KJFK 190551Z 20007KT 10SM BKN250 22/19 A2987 RMK AO2 SLP115 T02220189 10261 20194 58001=
19/05/2017 04:51->METAR KJFK 190451Z 23004KT 10SM BKN250 23/18 A2988 RMK AO2 SLP118 T02280183 402940183=
19/05/2017 03:51->METAR KJFK 190351Z 22012KT 10SM FEW050 BKN250 25/18 A2988 RMK AO2 SLP117 FRQ LTGIC DSNT N CB DSNT N MOV E T02500183=
19/05/2017 02:51->METAR KJFK 190251Z 22014KT 10SM SCT250 26/19 A2987 RMK AO2 SLP116 T02560189 50007=
19/05/2017 01:51->METAR KJFK 190151Z 21008KT 10SM SCT250 23/18 A2988 RMK AO2 SLP117 T02330178=
19/05/2017 00:51->METAR KJFK 190051Z 18006KT 10SM SCT250 20/17 A2986 RMK AO2 SLP110 T02000167=
18/05/2017 23:51->METAR KJFK 182351Z 18008KT 10SM SCT250 21/17 A2985 RMK AO2 SLP109 T02060167 10294 20206 55004=
18/05/2017 22:51->METAR KJFK 182251Z 18011KT 10SM FEW070 FEW100 FEW250 23/17 A2985 RMK AO2 SLP107 T02280167=
18/05/2017 21:51->METAR KJFK 182151Z 19015KT 10SM FEW070 FEW100 SCT250 24/17 A2985 RMK AO2 SLP109 T02440172=
18/05/2017 20:51->METAR KJFK 182051Z 19017KT 10SM FEW070 SCT250 27/18 A2987 RMK AO2 SLP113 T02720178 56011=
18/05/2017 19:51->METAR KJFK 181951Z 18013KT 10SM FEW065 SCT100 SCT250 28/18 A2987 RMK AO2 SLP114 T02830178=
18/05/2017 18:51->METAR KJFK 181851Z 19014KT 10SM FEW060 FEW100 SCT250 29/18 A2989 RMK AO2 SLP121 T02890183=
18/05/2017 17:51->METAR KJFK 181751Z 19015KT 10SM FEW060 FEW100 FEW250 28/18 A2990 RMK AO2 SLP124 T02830183 10289 20239 58015=
18/05/2017 16:51->METAR KJFK 181651Z 19012KT 10SM FEW060 FEW250 28/19 A2992 RMK AO2 SLP130 T02830189=
18/05/2017 15:51->METAR KJFK 181551Z 21011KT 10SM SCT250 28/19 A2993 RMK AO2 SLP135 T02830194=
18/05/2017 14:51->METAR KJFK 181451Z 22011KT 10SM FEW050 FEW095 SCT250 28/20 A2994 RMK AO2 SLP139 T02830200 58012=
18/05/2017 13:51->METAR KJFK 181351Z 21011KT 10SM FEW095 SCT260 27/19 A2996 RMK AO2 SLP144 T02670194=
18/05/2017 12:51->METAR KJFK 181251Z 23010KT 10SM FEW095 SCT260 25/19 A2997 RMK AO2 SLP148 T02500189=
18/05/2017 11:51->METAR KJFK 181151Z 23008KT 10SM BKN260 24/19 A2998 RMK AO2 SLP151 T02390189 10239 20183 53013=
18/05/2017 10:51->METAR KJFK 181051Z 23008KT 10SM FEW210 BKN260 22/18 A2996 RMK AO2 SLP145 T02220183=
18/05/2017 09:51->METAR KJFK 180951Z 19005KT 10SM BKN240 20/18 A2995 RMK AO2 SLP141 T02000178=
18/05/2017 08:51->METAR KJFK 180851Z 18004KT 10SM BKN250 19/18 A2994 RMK AO2 SLP138 T01940178 53002=
18/05/2017 07:51->METAR KJFK 180751Z 24003KT 10SM BKN250 21/18 A2993 RMK AO2 SLP134 T02060178=
18/05/2017 06:51->METAR KJFK 180651Z 14003KT 10SM BKN250 19/17 A2992 RMK AO2 SLP132 T01890172=
18/05/2017 05:51->METAR KJFK 180551Z 21003KT 10SM BKN250 19/17 A2993 RMK AO2 SLP136 T01890172 10233 20189 58006=
18/05/2017 04:51->METAR KJFK 180451Z 21004KT 10SM BKN250 19/17 A2994 RMK AO2 SLP138 T01890172 402500139=
18/05/2017 03:51->METAR KJFK 180351Z 21006KT 10SM BKN250 20/18 A2995 RMK AO2 SLP140 T02000178=
18/05/2017 02:51->METAR KJFK 180251Z 22008KT 10SM BKN250 23/18 A2995 RMK AO2 SLP142 T02280183 52009=
18/05/2017 01:51->METAR KJFK 180151Z 22008KT 10SM BKN250 23/19 A2995 RMK AO2 SLP141 T02330189=
18/05/2017 00:51->METAR KJFK 180051Z 16004KT 10SM FEW150 BKN250 21/17 A2993 RMK AO2 SLP135 T02060172=
17/05/2017 23:51->METAR KJFK 172351Z 22004KT 10SM FEW140 SCT250 20/17 A2993 RMK AO2 SLP133 T02000172 10250 20200 53000=
17/05/2017 22:51->METAR KJFK 172251Z 18012KT 10SM FEW250 22/17 A2992 RMK AO2 SLP130 T02220172=
17/05/2017 21:51->METAR KJFK 172151Z 19017KT 10SM SCT250 23/18 A2992 RMK AO2 SLP130 T02330178=
17/05/2017 20:51->METAR KJFK 172051Z 19015KT 10SM SCT250 23/17 A2992 RMK AO2 SLP133 T02330172 56015=
17/05/2017 19:51->METAR KJFK 171951Z 19016KT 10SM FEW050 FEW250 24/17 A2993 RMK AO2 SLP135 T02390172=
17/05/2017 18:51->METAR KJFK 171851Z 18015KT 10SM FEW050 FEW250 24/17 A2995 RMK AO2 SLP143 T02390172=
17/05/2017 17:51->METAR KJFK 171751Z 17011KT 10SM FEW050 25/17 A2997 RMK AO2 SLP148 T02500172 10250 20178 58016=
17/05/2017 16:51->METAR KJFK 171651Z 17008KT 10SM FEW050 FEW070 FEW250 24/17 A2999 RMK AO2 SLP154 T02440167=
17/05/2017 15:51->METAR KJFK 171551Z 17008KT 10SM FEW045 FEW250 24/16 A3000 RMK AO2 SLP159 T02390156=
17/05/2017 14:51->METAR KJFK 171451Z 19009KT 10SM FEW042 FEW080 FEW250 22/14 A3002 RMK AO2 SLP164 T02170144 58008=
17/05/2017 13:51->METAR KJFK 171351Z 20007KT 10SM FEW260 21/14 A3003 RMK AO2 SLP169 T02060139=
17/05/2017 12:51->METAR KJFK 171251Z 20005KT 10SM FEW260 19/13 A3004 RMK AO2 SLP171 T01940133=
17/05/2017 11:51->METAR KJFK 171151Z 19007KT 10SM SCT260 18/13 A3004 RMK AO2 SLP172 T01780133 10183 20139 53007=
17/05/2017 10:51->METAR KJFK 171051Z 19005KT 10SM FEW260 16/13 A3003 RMK AO2 SLP170 T01610133=
17/05/2017 09:51->METAR KJFK 170951Z 17006KT 10SM SCT260 14/13 A3002 RMK AO2 SLP166 T01440133=
17/05/2017 08:51->METAR KJFK 170851Z 17004KT 10SM BKN260 14/13 A3002 RMK AO2 SLP165 T01390128 53007=
17/05/2017 07:51->METAR KJFK 170751Z 18005KT 10SM BKN260 14/13 A3001 RMK AO2 SLP161 T01440128=
17/05/2017 06:51->METAR KJFK 170651Z 20007KT 10SM SCT250 16/13 A3000 RMK AO2 SLP158 T01560128=
17/05/2017 05:51->METAR KJFK 170551Z 23009KT 10SM FEW200 17/12 A3000 RMK AO2 SLP157 T01720122 10183 20161 50001=
17/05/2017 04:51->METAR KJFK 170451Z 24009KT 10SM SCT200 18/12 A3000 RMK AO2 SLP159 T01780117 402560144=
17/05/2017 03:51->METAR KJFK 170351Z 23007KT 10SM SCT190 17/12 A3000 RMK AO2 SLP158 T01720122=
17/05/2017 02:51->METAR KJFK 170251Z 19007KT 10SM FEW130 SCT250 17/13 A2999 RMK AO2 SLP156 T01670133 51008=
17/05/2017 01:51->METAR KJFK 170151Z 18004KT 10SM FEW130 SCT250 17/13 A2999 RMK AO2 SLP155 T01670133=
17/05/2017 00:51->METAR KJFK 170051Z 19005KT 10SM FEW130 FEW250 16/13 A2997 RMK AO2 SLP149 T01610128=
16/05/2017 23:51->METAR KJFK 162351Z 21004KT 10SM SCT130 SCT250 17/12 A2997 RMK AO2 SLP148 T01720122 10256 20172 53001=
16/05/2017 22:51->METAR KJFK 162251Z 19008KT 10SM BKN130 BKN250 19/12 A2996 RMK AO2 SLP144 T01890117=
16/05/2017 21:51->METAR KJFK 162151Z 19011KT 10SM SCT150 BKN180 BKN250 20/12 A2996 RMK AO2 SLP145 T02000117=
16/05/2017 20:51->METAR KJFK 162051Z 19013KT 10SM FEW100 SCT190 BKN250 22/11 A2997 RMK AO2 SLP147 T02170111 58013=
16/05/2017 19:51->METAR KJFK 161951Z 23014KT 10SM FEW170 FEW210 BKN260 24/10 A2998 RMK AO2 SLP152 T02440100=
16/05/2017 18:51->METAR KJFK 161851Z 23015KT 10SM FEW170 SCT220 BKN260 24/11 A3000 RMK AO2 SLP159 T02390106=
16/05/2017 17:51->METAR KJFK 161751Z 23015KT 10SM FEW150 BKN250 23/11 A3000 RMK AO2 SLP160 T02280106 10239 20172 58008=
16/05/2017 16:51->METAR KJFK 161651Z 23016KT 10SM FEW200 BKN250 22/11 A3002 RMK AO2 SLP164 T02220106=
16/05/2017 15:51->METAR KJFK 161551Z 29014KT 10SM FEW200 BKN250 23/08 A3002 RMK AO2 SLP166 T02280078=
16/05/2017 14:51->METAR KJFK 161451Z 30007KT 10SM FEW180 BKN250 21/08 A3003 RMK AO2 SLP168 T02110083 51005=
16/05/2017 13:51->METAR KJFK 161351Z 31011KT 10SM FEW180 BKN250 20/08 A3003 RMK AO2 SLP168 T02000083=
16/05/2017 12:51->METAR KJFK 161251Z 31012KT 10SM BKN250 19/08 A3002 RMK AO2 SLP166 T01890083=
16/05/2017 11:51->METAR KJFK 161151Z 31009KT 10SM BKN250 17/08 A3002 RMK AO2 SLP163 T01720083 10172 20144 51019=
16/05/2017 10:51->METAR KJFK 161051Z 30007KT 10SM BKN250 16/08 A3000 RMK AO2 SLP159 T01610083=
16/05/2017 09:51->METAR KJFK 160951Z 31010KT 10SM FEW250 15/08 A2997 RMK AO2 SLP150 T01500078=
16/05/2017 08:51->METAR KJFK 160851Z 29007KT 10SM FEW250 15/08 A2996 RMK AO2 SLP145 T01500078 53009=
16/05/2017 07:51->METAR KJFK 160751Z 29008KT 10SM FEW250 15/08 A2995 RMK AO2 SLP142 T01500078=
16/05/2017 06:51->METAR KJFK 160651Z 32013KT 10SM CLR 16/08 A2993 RMK AO2 SLP136 T01560078=
16/05/2017 05:51->METAR KJFK 160551Z 32012G19KT 10SM FEW250 16/07 A2993 RMK AO2 SLP136 T01610072 10194 20161 50009=
16/05/2017 04:51->METAR KJFK 160451Z 32014KT 10SM CLR 17/07 A2993 RMK AO2 SLP136 T01670067 402060122=
16/05/2017 03:51->METAR KJFK 160351Z 31009G20KT 10SM CLR 17/06 A2993 RMK AO2 PK WND 30026/0335 SLP134 T01720061=
16/05/2017 02:51->METAR KJFK 160251Z 31014KT 10SM CLR 18/06 A2991 RMK AO2 SLP126 T01780061 51023=
16/05/2017 01:51->METAR KJFK 160151Z 31016G24KT 10SM FEW250 18/06 A2990 RMK AO2 SLP123 T01830061=
16/05/2017 00:51->METAR KJFK 160051Z 32013G22KT 10SM FEW065 FEW250 19/06 A2988 RMK AO2 PK WND 32027/2354 SLP117 T01890056=
15/05/2017 23:51->METAR KJFK 152351Z 32019G26KT 10SM FEW065 FEW250 19/06 A2984 RMK AO2 PK WND 31034/2311 SLP103 T01940056 10206 20189 53030=
15/05/2017 22:51->METAR KJFK 152251Z 32021G28KT 10SM FEW065 FEW250 21/06 A2980 RMK AO2 PK WND 34032/2205 SLP091 T02060056=
15/05/2017 21:51->METAR KJFK 152151Z 33024G29KT 10SM SCT065 SCT250 21/06 A2977 RMK AO2 PK WND 31033/2123 SLP081 T02060056=
15/05/2017 20:51->METAR KJFK 152051Z 33025G34KT 10SM SCT060 SCT250 21/06 A2975 RMK AO2 PK WND 30035/2010 SLP073 T02060056 53007=
15/05/2017 19:51->METAR KJFK 151951Z 32021G29KT 10SM SCT060 BKN250 20/06 A2974 RMK AO2 PK WND 31033/1919 SLP071 T02000061=
15/05/2017 18:51->METAR KJFK 151851Z 30022G33KT 10SM SCT055 BKN250 20/07 A2973 RMK AO2 PK WND 31037/1816 SLP067 T02000067=
15/05/2017 17:51->METAR KJFK 151751Z 31021G34KT 10SM SCT055 SCT250 19/07 A2973 RMK AO2 PK WND 32035/1707 SLP066 T01940067 10194 20144 53001=
15/05/2017 16:51->METAR KJFK 151651Z 29018G32KT 10SM SCT050 SCT190 SCT250 19/07 A2973 RMK AO2 PK WND 30034/1601 SLP066 T01890067=
15/05/2017 15:51->METAR KJFK 151551Z 31023G33KT 10SM SCT049 SCT190 BKN250 18/06 A2972 RMK AO2 PK WND 31034/1517 SLP063 T01780061=
15/05/2017 14:51->METAR KJFK 151451Z 30025G34KT 10SM SCT047 BKN190 BKN250 17/06 A2973 RMK AO2 PK WND 31034/1451 SLP065 T01670061 52014=
15/05/2017 13:51->METAR KJFK 151351Z 31023G34KT 10SM SCT044 SCT080 BKN180 16/06 A2971 RMK AO2 PK WND 32035/1313 SLP060 T01610061=
15/05/2017 12:51->METAR KJFK 151251Z 32020G30KT 10SM SCT041 SCT085 BKN180 15/07 A2970 RMK AO2 PK WND 32031/1232 SLP057 T01500072=
15/05/2017 11:51->METAR KJFK 151151Z 30015G22KT 10SM SCT055 SCT075 BKN160 14/07 A2968 RMK AO2 PK WND 30029/1111 SLP052 70001 T01440072 10144 20122 53015=
15/05/2017 10:51->METAR KJFK 151051Z 30018G25KT 10SM FEW038 SCT070 BKN170 14/07 A2966 RMK AO2 SLP045 T01390072=
15/05/2017 09:51->METAR KJFK 150951Z 29014G20KT 10SM FEW040 13/07 A2965 RMK AO2 SLP040 T01330072=
15/05/2017 08:51->METAR KJFK 150851Z 29011KT 10SM FEW045 13/07 A2964 RMK AO2 SLP037 T01280067 55000=
15/05/2017 07:51->METAR KJFK 150751Z 29011KT 10SM FEW040 12/07 A2964 RMK AO2 SLP036 T01220067=
15/05/2017 06:51->METAR KJFK 150651Z 29017G24KT 10SM FEW040 13/06 A2964 RMK AO2 SLP035 T01280061=
15/05/2017 05:51->METAR KJFK 150551Z 29014G20KT 10SM FEW040 12/06 A2964 RMK AO2 SLP037 60000 T01220061 10172 20122 51004=
15/05/2017 04:51->METAR KJFK 150451Z 31019G26KT 10SM FEW110 13/06 A2964 RMK AO2 PK WND 30030/0401 SLP036 T01280056 402110083=
15/05/2017 03:51->METAR KJFK 150351Z 31018G27KT 10SM FEW110 14/05 A2964 RMK AO2 PK WND 30029/0312 SLP035 T01390050=
15/05/2017 02:51->METAR KJFK 150251Z 31016G31KT 10SM BKN110 15/04 A2963 RMK AO2 PK WND 30031/0248 SLP034 60000 T01500044 53018=
15/05/2017 01:51->METAR KJFK 150151Z 30020G29KT 10SM SCT050 BKN080 BKN090 16/05 A2961 RMK AO2 PK WND 31029/0143 RAB0056E05 SLP028 P0000 T01610050=
15/05/2017 00:51->METAR KJFK 150051Z 36004KT 10SM FEW050 BKN060 BKN090 16/09 A2959 RMK AO2 RAB07E50 SLP020 P0000 T01560089=
14/05/2017 23:51->METAR KJFK 142351Z 03009KT 10SM FEW050 BKN080 BKN110 16/08 A2958 RMK AO2 SLP015 60001 T01610078 10211 20150 50002=
14/05/2017 22:51->METAR KJFK 142251Z 01011KT 10SM FEW050 SCT070 SCT110 17/08 A2958 RMK AO2 PK WND 31028/2159 LTG DSNT S AND SW SLP017 T01720078=
14/05/2017 21:51->METAR KJFK 142151Z 32013KT 10SM FEW045 SCT060 SCT070 BKN130 18/09 A2959 RMK AO2 PK WND 32039/2115 WSHFT 2105 LTG DSNT SE RAB17E40 SLP019 CB OHD-SW MOV E P0001 T01780094=
14/05/2017 20:51->METAR KJFK 142051Z 23015KT 10SM FEW045 FEW075 SCT100 SCT200 18/13 A2957 RMK AO2 SLP013 60000 T01780128 56017=
14/05/2017 19:51->METAR KJFK 141951Z 25012KT 10SM FEW025 SCT055 BKN100 BKN250 17/12 A2959 RMK AO2 PK WND 24029/1934 RAB25E50 TSE22B25E48 SLP018 CB DSNT SE P0000 T01720122=
14/05/2017 18:51->METAR KJFK 141851Z 28018G23KT 10SM BKN055 BKN075 BKN120 BKN200 21/08 A2960 RMK AO2 SLP023 T02060078=
14/05/2017 17:51->METAR KJFK 141751Z 29010KT 10SM BKN049 BKN055 BKN200 19/09 A2962 RMK AO2 SLP030 T01940089 10206 20106 58023=
14/05/2017 16:51->METAR KJFK 141651Z 32012KT 10SM SCT042 BKN090 BKN200 18/09 A2965 RMK AO2 SLP038 T01780089=
14/05/2017 15:51->METAR KJFK 141551Z 32014G22KT 10SM SCT034 SCT090 BKN200 17/08 A2967 RMK AO2 SLP048 T01720083=
14/05/2017 14:51->METAR KJFK 141451Z 32015G21KT 10SM SCT029 SCT090 BKN200 16/08 A2969 RMK AO2 SLP053 T01560083 58007=
14/05/2017 13:51->METAR KJFK 141351Z 32013KT 10SM FEW025 SCT090 SCT150 14/08 A2970 RMK AO2 SLP056 T01390078=
14/05/2017 12:51->METAR KJFK 141251Z 31013KT 10SM FEW015 SCT090 SCT150 12/07 A2972 RMK AO2 SLP062 T01220072=
14/05/2017 11:51->METAR KJFK 141151Z 33016G21KT 10SM FEW015 FEW100 SCT150 11/07 A2971 RMK AO2 SLP059 60000 70154 T01060067 10106 20083 58000=
14/05/2017 10:51->METAR KJFK 141051Z 32011G21KT 10SM SCT015 BKN090 BKN150 09/07 A2971 RMK AO2 SLP062 T00890067=
14/05/2017 09:51->METAR KJFK 140951Z 33011KT 10SM SCT017 SCT055 BKN080 BKN140 09/07 A2971 RMK AO2 RAB43E51 SLP060 P0000 T00890072=
14/05/2017 08:51->METAR KJFK 140851Z 34015G22KT 10SM BKN013 BKN060 09/07 A2971 RMK AO2 SLP060 T00890067 55002=
14/05/2017 07:51->METAR KJFK 140751Z 35013KT 10SM BKN013 OVC060 08/07 A2970 RMK AO2 SLP057 T00830072=
14/05/2017 06:51->METAR KJFK 140651Z 34015G20KT 10SM BKN012 BKN065 BKN100 09/08 A2970 RMK AO2 SLP058 T00890078=
14/05/2017 05:51->METAR KJFK 140551Z 36016G22KT 10SM BKN010 OVC100 09/08 A2971 RMK AO2 RAE48 SLP061 P0000 60020 T00890078 10089 20083 56022=
14/05/2017 04:51->METAR KJFK 140451Z 02013KT 8SM -RA SCT020 OVC060 09/08 A2972 RMK AO2 PK WND 04030/0407 SLP065 P0005 T00890078 401170083=
14/05/2017 03:51->METAR KJFK 140351Z 04022G30KT 7SM -RA FEW011 BKN042 OVC060 08/07 A2976 RMK AO2 PK WND 03032/0325 SLP076 P0000 T00830072=
14/05/2017 02:51->METAR KJFK 140251Z 03017G22KT 8SM -RA BKN011 OVC042 08/08 A2978 RMK AO2 SLP083 P0003 60015 T00830078 58004=
14/05/2017 01:51->METAR KJFK 140151Z 02016KT 3SM +RA BR SCT008 BKN013 OVC025 08/08 A2979 RMK AO2 SLP088 P0007 T00830078=
14/05/2017 00:51->METAR KJFK 140051Z 02016KT 3SM -RA BR SCT007 BKN011 OVC015 08/08 A2979 RMK AO2 PK WND 04026/2356 SLP087 P0005 T00830078=
13/05/2017 23:51->METAR KJFK 132351Z 03017G26KT 2SM RA BR SCT007 BKN010 OVC025 09/08 A2979 RMK AO2 PK WND 02026/2259 SLP088 P0007 60086 T00890083 10106 20089 55006=
13/05/2017 22:51->METAR KJFK 132251Z 03020G26KT 2SM -RA BR FEW008 BKN012 OVC018 09/08 A2979 RMK AO2 PK WND 03026/2243 SLP087 P0012 T00890083=
13/05/2017 21:51->METAR KJFK 132151Z 02017G23KT 2SM RA BR SCT008 BKN013 OVC034 09/09 A2980 RMK AO2 SLP091 P0015 T00940089=
13/05/2017 20:51->METAR KJFK 132051Z 05016KT 2SM RA BR BKN011 BKN019 OVC032 10/09 A2981 RMK AO2 SLP094 P0017 60052 T01000094 56017=
13/05/2017 19:51->METAR KJFK 131951Z 05014KT 2SM RA BR FEW008 BKN012 OVC018 11/10 A2982 RMK AO2 SLP099 P0018 T01060100=
13/05/2017 18:51->METAR KJFK 131851Z 06011KT 3SM RA BR BKN011 OVC016 11/10 A2984 RMK AO2 SLP105 P0017 T01060100=
13/05/2017 17:51->METAR KJFK 131751Z 07013G21KT 4SM +RA BR OVC008 11/10 A2986 RMK AO2 SLP111 P0013 60048 T01060100 10111 20100 58020=
13/05/2017 16:51->METAR KJFK 131651Z 08014G23KT 4SM RA BR OVC008 11/10 A2988 RMK AO2 SLP118 P0009 T01110100=
13/05/2017 15:51->METAR KJFK 131551Z 08015G20KT 3SM RA BR OVC008 11/11 A2990 RMK AO2 SLP126 P0006 T01110106=
13/05/2017 14:51->METAR KJFK 131451Z 08012KT 8SM -RA OVC009 11/11 A2992 RMK AO2 SLP131 P0004 60020 T01110106 58006=
13/05/2017 13:51->METAR KJFK 131351Z 09009KT 6SM -RA BR OVC009 11/11 A2993 RMK AO2 SLP136 P0010 T01110106=
13/05/2017 12:51->METAR KJFK 131251Z 09007KT 5SM -RA BR OVC008 11/10 A2994 RMK AO2 SLP137 P0006 T01060100=
13/05/2017 11:51->METAR KJFK 131151Z 08006KT 7SM -RA BKN009 BKN013 OVC019 11/10 A2994 RMK AO2 SLP137 P0003 60011 70011 T01060100 10111 20100 56009=
13/05/2017 10:51->METAR KJFK 131051Z 09008KT 6SM -RA BR FEW016 BKN075 OVC100 10/09 A2994 RMK AO2 SLP139 P0005 T01000094=
13/05/2017 09:51->METAR KJFK 130951Z 09008KT 9SM -RA FEW026 SCT055 OVC080 10/09 A2995 RMK AO2 SLP142 P0002 T01000094=
13/05/2017 08:51->METAR KJFK 130851Z 09008KT 10SM -RA BKN023 BKN055 OVC070 11/09 A2996 RMK AO2 SLP146 P0001 60001 T01060089 58012=
13/05/2017 07:51->METAR KJFK 130751Z 11010KT 10SM -RA BKN025 BKN055 OVC085 11/08 A2998 RMK AO2 RAB43 SLP150 P0000 T01110083=
13/05/2017 06:51->METAR KJFK 130651Z 11010KT 10SM SCT018 OVC025 11/08 A2999 RMK AO2 SLP155 T01110078=
13/05/2017 05:51->METAR KJFK 130551Z 11008KT 10SM SCT014 BKN018 OVC025 11/08 A3000 RMK AO2 SLP158 T01110083 10117 20111 58014=
13/05/2017 04:51->METAR KJFK 130451Z 10008KT 10SM SCT014 OVC019 12/08 A3001 RMK AO2 SLP163 T01170083 401610083=
13/05/2017 03:51->METAR KJFK 130351Z 12005KT 10SM BKN019 OVC170 12/09 A3003 RMK AO2 SLP169 T01170089=
13/05/2017 02:51->METAR KJFK 130251Z 16007KT 10SM BKN020 OVC200 12/08 A3004 RMK AO2 SLP172 T01170083 55004=
13/05/2017 01:51->METAR KJFK 130151Z 14007KT 10SM SCT020 BKN200 OVC250 12/08 A3004 RMK AO2 SLP171 T01170078=
13/05/2017 00:51->METAR KJFK 130051Z 14006KT 10SM FEW040 FEW100 BKN200 BKN250 12/07 A3004 RMK AO2 SLP171 T01170072=
12/05/2017 23:51->METAR KJFK 122351Z 18006KT 10SM FEW047 FEW100 BKN220 BKN250 12/07 A3005 RMK AO2 SLP175 T01170072 10144 20117 55000=
12/05/2017 22:51->METAR KJFK 122251Z 15007KT 10SM FEW047 FEW100 BKN240 12/07 A3005 RMK AO2 SLP175 T01220067=
12/05/2017 21:51->METAR KJFK 122151Z 16007KT 10SM FEW047 FEW100 BKN250 13/06 A3005 RMK AO2 SLP174 T01280061=
12/05/2017 20:51->METAR KJFK 122051Z 20010KT 10SM FEW048 FEW100 FEW210 BKN250 13/06 A3005 RMK AO2 SLP175 T01330061 58005=
12/05/2017 19:51->METAR KJFK 121951Z 17012KT 10SM FEW048 BKN250 14/06 A3006 RMK AO2 SLP177 T01390061=
12/05/2017 18:51->METAR KJFK 121851Z 15014G20KT 10SM SCT046 BKN250 14/06 A3006 RMK AO2 SLP179 T01390061=
12/05/2017 17:51->METAR KJFK 121751Z 16015KT 10SM SCT046 BKN250 14/07 A3006 RMK AO2 SLP180 T01440067 10161 20117 58001=
12/05/2017 16:51->METAR KJFK 121651Z 14012G17KT 10SM SCT046 SCT140 BKN250 14/07 A3007 RMK AO2 SLP181 T01440067=
12/05/2017 15:51->METAR KJFK 121551Z 15011KT 10SM BKN041 BKN250 14/08 A3007 RMK AO2 SLP183 T01440078=
12/05/2017 14:51->METAR KJFK 121451Z 02010KT 10SM BKN037 BKN250 15/07 A3007 RMK AO2 SLP182 T01500067 58004=
12/05/2017 13:51->METAR KJFK 121351Z 08007KT 10SM SCT028 BKN036 BKN260 14/07 A3008 RMK AO2 SLP186 T01390072=
12/05/2017 12:51->METAR KJFK 121251Z 06005KT 10SM BKN028 BKN260 13/07 A3008 RMK AO2 SLP187 BKN028 V SCT T01280072=
12/05/2017 11:51->METAR KJFK 121151Z 05006KT 10SM FEW022 SCT170 BKN270 12/08 A3008 RMK AO2 SLP186 T01170078 10122 20083 50012=
12/05/2017 10:51->METAR KJFK 121051Z 02003KT 10SM FEW018 FEW050 SCT160 BKN250 11/08 A3008 RMK AO2 SLP187 T01060078=
12/05/2017 09:51->METAR KJFK 120951Z 35004KT 10SM FEW015 SCT050 SCT250 09/07 A3006 RMK AO2 SLP180 T00890067=
12/05/2017 08:51->METAR KJFK 120851Z 04005KT 10SM FEW018 SCT050 BKN260 08/07 A3005 RMK AO2 SLP174 T00830067 58002=
12/05/2017 07:51->METAR KJFK 120751Z 05005KT 10SM BKN260 08/07 A3005 RMK AO2 SLP177 T00830072=
12/05/2017 06:51->METAR KJFK 120651Z 08003KT 10SM BKN260 09/08 A3006 RMK AO2 SLP179 T00940078=
12/05/2017 05:51->METAR KJFK 120551Z 09005KT 10SM BKN260 09/07 A3005 RMK AO2 SLP176 T00940072 10117 20089 51009=
12/05/2017 04:51->METAR KJFK 120451Z 00000KT 10SM FEW120 BKN260 09/08 A3005 RMK AO2 SLP176 T00940078 401610089=
12/05/2017 03:51->METAR KJFK 120351Z 00000KT 10SM BKN260 11/07 A3004 RMK AO2 SLP173 T01060067=
12/05/2017 02:51->METAR KJFK 120251Z 13004KT 10SM FEW120 BKN250 11/07 A3003 RMK AO2 SLP168 T01060067 51006=
12/05/2017 01:51->METAR KJFK 120151Z 16003KT 10SM FEW210 BKN250 11/07 A3002 RMK AO2 SLP166 T01060067=
12/05/2017 00:51->METAR KJFK 120051Z 16003KT 10SM FEW140 SCT210 BKN250 11/07 A3002 RMK AO2 SLP165 T01110067=
11/05/2017 23:51->METAR KJFK 112351Z 14007KT 10SM FEW140 SCT210 BKN250 12/07 A3001 RMK AO2 SLP162 T01170067 10156 20117 53012=
11/05/2017 22:51->METAR KJFK 112251Z 11006KT 10SM FEW150 SCT220 BKN250 13/06 A3000 RMK AO2 SLP157 T01280056=
11/05/2017 21:51->METAR KJFK 112151Z 11007KT 10SM FEW055 BKN220 BKN250 14/04 A2998 RMK AO2 SLP153 T01390044=
11/05/2017 20:51->METAR KJFK 112051Z 12008KT 10SM FEW055 BKN220 BKN250 14/06 A2998 RMK AO2 SLP150 T01390061 55002=
11/05/2017 19:51->METAR KJFK 111951Z 13010KT 10SM FEW055 SCT220 BKN250 14/05 A2997 RMK AO2 SLP149 T01440050=
11/05/2017 18:51->METAR KJFK 111851Z 18007KT 10SM SCT055 SCT210 OVC250 15/04 A2997 RMK AO2 SLP150 T01500044=
11/05/2017 17:51->METAR KJFK 111751Z 14009KT 10SM SCT055 SCT140 BKN250 16/06 A2998 RMK AO2 SLP152 T01560056 10161 20128 56009=
11/05/2017 16:51->METAR KJFK 111651Z 17008KT 10SM FEW055 BKN250 15/04 A2999 RMK AO2 SLP155 T01500039=
11/05/2017 15:51->METAR KJFK 111551Z VRB04KT 10SM SCT055 BKN260 15/04 A3000 RMK AO2 SLP157 T01500044=
11/05/2017 14:51->METAR KJFK 111451Z VRB03KT 10SM FEW050 BKN260 16/02 A3001 RMK AO2 SLP161 T01560022 55004=
11/05/2017 13:51->METAR KJFK 111351Z 36005KT 10SM FEW048 FEW180 BKN240 14/02 A3000 RMK AO2 SLP160 T01440022=
11/05/2017 12:51->METAR KJFK 111251Z 04009KT 10SM FEW060 BKN270 14/03 A3002 RMK AO2 SLP164 T01390033=
11/05/2017 11:51->METAR KJFK 111151Z 04006KT 10SM SCT055 SCT210 BKN270 13/03 A3002 RMK AO2 SLP165 T01280033 10128 20089 58002=
11/05/2017 10:51->METAR KJFK 111051Z 02008KT 10SM BKN055 BKN250 11/04 A3003 RMK AO2 SLP170 T01060039=
11/05/2017 09:51->METAR KJFK 110951Z 01007KT 10SM BKN055 BKN250 09/03 A3004 RMK AO2 SLP172 T00940033=
11/05/2017 08:51->METAR KJFK 110851Z 01007KT 10SM BKN250 09/04 A3003 RMK AO2 SLP167 T00940044 55007=
11/05/2017 07:51->METAR KJFK 110751Z 36003KT 10SM BKN250 10/06 A3002 RMK AO2 SLP167 T01000056=
11/05/2017 06:51->METAR KJFK 110651Z 33004KT 10SM BKN250 11/07 A3002 RMK AO2 SLP166 T01060072=
11/05/2017 05:51->METAR KJFK 110551Z 28003KT 10SM BKN250 11/06 A3005 RMK AO2 SLP174 T01060061 10117 20100 58008=
11/05/2017 04:51->METAR KJFK 110451Z 00000KT 10SM SCT250 11/07 A3006 RMK AO2 SLP178 T01110072 401560100=
11/05/2017 03:51->METAR KJFK 110351Z 00000KT 10SM FEW021 BKN250 11/07 A3007 RMK AO2 SLP181 T01110072=
11/05/2017 02:51->METAR KJFK 110251Z 19004KT 10SM FEW050 BKN250 11/07 A3007 RMK AO2 SLP182 T01060072 51014=
11/05/2017 01:51->METAR KJFK 110151Z 18005KT 10SM FEW065 SCT250 11/07 A3007 RMK AO2 SLP182 T01060072=
11/05/2017 00:51->METAR KJFK 110051Z 18003KT 10SM FEW065 BKN250 11/07 A3005 RMK AO2 SLP175 T01110072=
10/05/2017 23:51->METAR KJFK 102351Z 17006KT 10SM FEW065 BKN250 12/06 A3003 RMK AO2 SLP168 T01170061 10156 20117 51004=
10/05/2017 22:51->METAR KJFK 102251Z 16008KT 10SM FEW065 BKN250 13/05 A3003 RMK AO2 SLP168 T01330050=
10/05/2017 21:51->METAR KJFK 102151Z 17010KT 10SM SCT065 BKN250 13/06 A3002 RMK AO2 SLP166 T01330061=
10/05/2017 20:51->METAR KJFK 102051Z 17010KT 10SM SCT065 BKN250 14/06 A3002 RMK AO2 SLP165 T01440061 53000=
10/05/2017 19:51->METAR KJFK 101951Z 16007KT 10SM SCT060 BKN250 16/06 A3001 RMK AO2 SLP163 T01560061=
10/05/2017 18:51->METAR KJFK 101851Z 15009KT 10SM SCT060 SCT210 BKN250 14/06 A3001 RMK AO2 SLP162 T01440061=
10/05/2017 17:51->METAR KJFK 101751Z 20008KT 10SM BKN060 BKN250 14/06 A3002 RMK AO2 SLP165 T01440061 10156 20111 55003=
10/05/2017 16:51->METAR KJFK 101651Z 20008KT 10SM BKN049 BKN250 14/06 A3002 RMK AO2 SLP164 T01440061=
10/05/2017 15:51->METAR KJFK 101551Z 19007KT 10SM SCT047 SCT090 SCT250 15/07 A3002 RMK AO2 SLP167 T01500067=
10/05/2017 14:51->METAR KJFK 101451Z VRB04KT 10SM FEW038 SCT090 14/04 A3003 RMK AO2 SLP168 T01440039 58003=
10/05/2017 13:51->METAR KJFK 101351Z 00000KT 10SM FEW035 SCT090 14/04 A3004 RMK AO2 SLP172 T01440044=
10/05/2017 12:51->METAR KJFK 101251Z 00000KT 10SM FEW032 BKN100 BKN330 12/03 A3005 RMK AO2 SLP174 T01220033=
10/05/2017 11:51->METAR KJFK 101151Z 05006KT 10SM FEW026 BKN110 11/03 A3004 RMK AO2 SLP172 T01110033 10111 20106 51013=
10/05/2017 10:51->METAR KJFK 101051Z 03004KT 10SM FEW017 BKN100 11/07 A3003 RMK AO2 SLP169 T01060072=
10/05/2017 09:51->METAR KJFK 100951Z 05005KT 10SM BKN100 11/08 A3001 RMK AO2 SLP162 T01060083=
10/05/2017 08:51->METAR KJFK 100851Z 05004KT 10SM OVC095 11/08 A3000 RMK AO2 SLP159 T01060078 58001=
10/05/2017 07:51->METAR KJFK 100751Z 03003KT 10SM OVC090 11/08 A3000 RMK AO2 SLP160 T01060078=
10/05/2017 06:51->METAR KJFK 100651Z 04003KT 10SM BKN085 OVC160 11/08 A3000 RMK AO2 SLP159 T01060078=
10/05/2017 05:51->METAR KJFK 100551Z 04004KT 10SM FEW021 BKN160 10/07 A3000 RMK AO2 SLP160 T01000067 10117 20100 53001=
10/05/2017 04:51->METAR KJFK 100451Z 07004KT 10SM OVC170 11/07 A3000 RMK AO2 SLP158 T01060072 401720083=
10/05/2017 03:51->METAR KJFK 100351Z 08004KT 10SM BKN160 11/07 A3000 RMK AO2 SLP158 T01110072=
10/05/2017 02:51->METAR KJFK 100251Z 09004KT 10SM OVC170 11/08 A3000 RMK AO2 SLP158 T01110078 50003=
10/05/2017 01:51->METAR KJFK 100151Z 07005KT 10SM FEW100 BKN180 OVC250 11/08 A3001 RMK AO2 SLP162 T01110078=
10/05/2017 00:51->METAR KJFK 100051Z 14003KT 10SM FEW045 SCT100 BKN190 BKN250 12/07 A3001 RMK AO2 SLP160 T01170072=
09/05/2017 23:51->METAR KJFK 092351Z 16006KT 10SM FEW045 SCT085 BKN250 12/07 A2999 RMK AO2 SLP156 T01170072 10172 20117 51018=
09/05/2017 22:51->METAR KJFK 092251Z 15009KT 10SM FEW055 BKN080 BKN250 12/07 A2998 RMK AO2 SLP152 T01220072=
09/05/2017 21:51->METAR KJFK 092151Z 13009KT 10SM FEW055 BKN080 BKN250 13/07 A2996 RMK AO2 SLP144 T01280067=
09/05/2017 20:51->METAR KJFK 092051Z 13009KT 10SM FEW055 BKN080 BKN250 16/M01 A2994 RMK AO2 SLP137 T01561006 56011 $=
09/05/2017 19:51->METAR KJFK 091951Z 20010KT 10SM OVC080 16/M01 A2994 RMK AO2 SLP138 T01561011 $=
09/05/2017 18:51->METAR KJFK 091851Z 19012KT 10SM SCT065 BKN250 17/01 A2995 RMK AO2 SLP143 T01670006 $=
09/05/2017 17:51->METAR KJFK 091751Z VRB06KT 10SM SCT060 BKN250 14/00 A2997 RMK AO2 SLP148 T01440000 10161 20100 55005=
09/05/2017 16:51->METAR KJFK 091651Z 21006KT 10SM SCT050 BKN250 15/00 A2997 RMK AO2 SLP148 T01500000=
09/05/2017 15:51->METAR KJFK 091551Z 21008KT 10SM BKN042 BKN250 13/04 A2998 RMK AO2 SLP151 T01280039=
09/05/2017 14:51->METAR KJFK 091451Z VRB03KT 10SM SCT039 BKN250 13/03 A2999 RMK AO2 SLP153 SCT V BKN T01280033 50005=
09/05/2017 13:51->METAR KJFK 091351Z 29004KT 10SM FEW030 SCT110 BKN250 13/05 A2999 RMK AO2 SLP156 T01280050=
09/05/2017 12:51->METAR KJFK 091251Z 34005KT 10SM SCT100 BKN250 12/04 A2998 RMK AO2 SLP153 T01170039=
09/05/2017 11:51->METAR KJFK 091151Z 05005KT 10SM FEW022 BKN100 BKN250 10/04 A2997 RMK AO2 SLP148 T01000039 10111 20083 53014=
09/05/2017 10:51->METAR KJFK 091051Z 03010KT 10SM FEW022 BKN130 BKN180 BKN250 09/04 A2995 RMK AO2 SLP142 T00890044=
09/05/2017 09:51->METAR KJFK 090951Z 02009KT 10SM SCT020 BKN140 BKN250 08/04 A2994 RMK AO2 SLP138 T00830044=
09/05/2017 08:51->METAR KJFK 090851Z 01008KT 10SM FEW100 BKN190 08/04 A2993 RMK AO2 SLP134 T00830044 53005=
09/05/2017 07:51->METAR KJFK 090751Z 03011KT 10SM FEW110 SCT250 09/03 A2992 RMK AO2 SLP130 T00940028=
09/05/2017 06:51->METAR KJFK 090651Z 03007KT 10SM SCT110 SCT250 10/04 A2991 RMK AO2 SLP129 T01000044=
09/05/2017 05:51->METAR KJFK 090551Z 06008KT 10SM BKN100 11/05 A2992 RMK AO2 SLP130 T01110050 10139 20111 58003=
09/05/2017 04:51->METAR KJFK 090451Z 10003KT 10SM BKN110 12/03 A2992 RMK AO2 SLP133 T01170033 401610056=
09/05/2017 03:51->METAR KJFK 090351Z 14004KT 10SM BKN100 12/04 A2992 RMK AO2 SLP133 T01170044=
09/05/2017 02:51->METAR KJFK 090251Z 08005KT 10SM OVC080 12/03 A2993 RMK AO2 SLP133 T01220028 51006=
09/05/2017 01:51->METAR KJFK 090151Z 09004KT 10SM BKN080 13/00 A2992 RMK AO2 SLP132 T01280000=
09/05/2017 00:51->METAR KJFK 090051Z 27004KT 10SM BKN080 BKN095 BKN250 13/M01 A2991 RMK AO2 SLP128 T01331011=
08/05/2017 23:51->METAR KJFK 082351Z 29009KT 10SM SCT080 BKN250 14/M02 A2991 RMK AO2 SLP127 T01391017 10161 20133 53010=
08/05/2017 22:51->METAR KJFK 082251Z 27010KT 10SM SCT070 BKN095 BKN250 15/M02 A2989 RMK AO2 SLP122 T01501017=
08/05/2017 21:51->METAR KJFK 082151Z 28012G17KT 10SM FEW060 BKN080 BKN250 15/M02 A2988 RMK AO2 SLP119 T01501017=
08/05/2017 20:51->METAR KJFK 082051Z 31012KT 10SM BKN080 BKN250 14/M02 A2988 RMK AO2 SLP117 T01441022 53003=
08/05/2017 19:51->METAR KJFK 081951Z 28013KT 10SM BKN070 BKN250 15/M03 A2986 RMK AO2 PK WND 27029/1926 SLP112 T01501028=
08/05/2017 18:51->METAR KJFK 081851Z 32013G22KT 10SM BKN065 BKN250 14/M02 A2987 RMK AO2 SLP113 T01441017=
08/05/2017 17:51->METAR KJFK 081751Z 30013G23KT 10SM SCT060 SCT100 BKN220 14/M01 A2987 RMK AO2 SLP113 T01441011 10144 20100 58006=
08/05/2017 16:51->METAR KJFK 081651Z 31015G22KT 10SM FEW055 SCT095 BKN140 13/M01 A2988 RMK AO2 PK WND 29028/1631 SLP118 T01281006=
08/05/2017 15:51->METAR KJFK 081551Z 30017G24KT 10SM FEW050 BKN085 BKN140 13/00 A2989 RMK AO2 PK WND 33026/1503 SLP122 T01280000=
08/05/2017 14:51->METAR KJFK 081451Z 28017G24KT 10SM FEW060 FEW140 FEW200 13/M01 A2989 RMK AO2 PK WND 30026/1433 SLP120 T01281011 53001=
08/05/2017 13:51->METAR KJFK 081351Z 32018G23KT 10SM FEW060 FEW140 12/M01 A2988 RMK AO2 SLP118 T01221011=
08/05/2017 12:51->METAR KJFK 081251Z 27012KT 10SM FEW060 FEW100 FEW140 11/01 A2988 RMK AO2 SLP119 T01060011=
08/05/2017 11:51->METAR KJFK 081151Z 28009KT 10SM FEW060 FEW095 FEW170 10/02 A2988 RMK AO2 SLP118 T01000022 10100 20056 51016=
08/05/2017 10:51->METAR KJFK 081051Z 29009KT 10SM FEW040 FEW095 08/02 A2988 RMK AO2 SLP116 T00830017=
08/05/2017 09:51->METAR KJFK 080951Z 31007KT 10SM FEW040 FEW095 08/01 A2985 RMK AO2 SLP108 T00780011=
08/05/2017 08:51->METAR KJFK 080851Z 31009KT 10SM BKN095 08/02 A2983 RMK AO2 SLP102 T00830022 50006=
08/05/2017 07:51->METAR KJFK 080751Z 31009KT 10SM SCT095 08/02 A2984 RMK AO2 SLP103 T00830022=
08/05/2017 06:51->METAR KJFK 080651Z 28013KT 10SM FEW040 SCT120 09/03 A2983 RMK AO2 SLP099 T00890028=
08/05/2017 05:51->METAR KJFK 080551Z 30012KT 10SM BKN110 09/03 A2982 RMK AO2 SLP096 T00940028 10117 20094 53004=
08/05/2017 04:51->METAR KJFK 080451Z 30010KT 10SM FEW090 SCT170 SCT250 09/03 A2981 RMK AO2 SLP093 T00940028 401390094=
08/05/2017 03:51->METAR KJFK 080351Z 30009KT 10SM FEW040 SCT080 BKN140 OVC250 10/03 A2980 RMK AO2 SLP090 T01000028=
08/05/2017 02:51->METAR KJFK 080251Z 29012G16KT 10SM FEW039 OVC080 11/04 A2980 RMK AO2 SLP092 T01060039 51021=
08/05/2017 01:51->METAR KJFK 080151Z 29013KT 10SM FEW040 BKN085 BKN160 BKN250 11/04 A2980 RMK AO2 SLP091 T01060039=
08/05/2017 00:51->METAR KJFK 080051Z 28013G20KT 10SM FEW034 SCT046 BKN150 BKN250 11/04 A2978 RMK AO2 SLP083 T01110039=
07/05/2017 23:51->METAR KJFK 072351Z 30011KT 10SM FEW030 SCT060 BKN170 BKN250 11/04 A2974 RMK AO2 SLP071 60000 T01110039 10139 20111 51022=
07/05/2017 22:51->METAR KJFK 072251Z 28012KT 10SM SCT030 BKN065 BKN090 BKN250 12/04 A2972 RMK AO2 SLP063 VIRGA ALQDS T01170039=
07/05/2017 21:51->METAR KJFK 072151Z 29016G22KT 10SM SCT028 BKN037 BKN090 12/06 A2970 RMK AO2 RAE45 SLP058 P0000 T01170056=
07/05/2017 20:51->METAR KJFK 072051Z 29010KT 10SM -RA FEW040 SCT055 OVC080 12/06 A2968 RMK AO2 RAB46 SLP049 P0000 60000 T01220056 53005=
07/05/2017 19:51->METAR KJFK 071951Z 26019G25KT 10SM SCT040 BKN048 OVC065 12/06 A2967 RMK AO2 SLP046 VCSH S T01220056=
07/05/2017 18:51->METAR KJFK 071851Z 23014KT 10SM FEW047 OVC070 13/06 A2967 RMK AO2 SLP045 VCSH S-W T01280061=
07/05/2017 17:51->METAR KJFK 071751Z 24011KT 10SM OVC065 13/06 A2966 RMK AO2 SLP043 VCSH SE-SW AND NW T01330056 10139 20111 58005=
07/05/2017 16:51->METAR KJFK 071651Z 23010KT 10SM BKN049 BKN055 OVC250 12/06 A2967 RMK AO2 SLP046 VIRGA SW VCSH W T01220056=
07/05/2017 15:51->METAR KJFK 071551Z 24012KT 10SM FEW040 BKN050 OVC250 12/06 A2967 RMK AO2 SLP048 T01220061=
07/05/2017 14:51->METAR KJFK 071451Z 23012KT 10SM FEW040 BKN055 BKN250 13/06 A2968 RMK AO2 SLP049 T01280056 53011=
07/05/2017 13:51->METAR KJFK 071351Z 21016KT 10SM SCT037 BKN049 BKN250 13/06 A2966 RMK AO2 SLP045 T01280061=
07/05/2017 12:51->METAR KJFK 071251Z 23015KT 10SM FEW029 SCT040 BKN250 13/07 A2965 RMK AO2 SLP041 T01280067=
07/05/2017 11:51->METAR KJFK 071151Z 24015KT 10SM SCT034 SCT045 BKN250 12/06 A2964 RMK AO2 SLP038 70005 T01170061 10122 20111 51024=
07/05/2017 10:51->METAR KJFK 071051Z 24016KT 10SM FEW029 SCT036 SCT250 11/06 A2963 RMK AO2 SLP031 T01110061=
07/05/2017 09:51->METAR KJFK 070951Z 24017KT 10SM FEW027 SCT055 11/07 A2959 RMK AO2 SLP020 T01110067=
07/05/2017 08:51->METAR KJFK 070851Z 23013KT 10SM FEW027 BKN055 12/08 A2957 RMK AO2 SLP013 T01170083 51012=
07/05/2017 07:51->METAR KJFK 070751Z 22016KT 10SM SCT027 BKN055 12/08 A2956 RMK AO2 SLP010 T01170083=
07/05/2017 06:51->METAR KJFK 070651Z 23015KT 10SM SCT026 BKN060 OVC270 12/08 A2955 RMK AO2 SLP006 T01170083=
07/05/2017 05:51->METAR KJFK 070551Z 23017KT 10SM SCT023 BKN049 BKN270 12/08 A2954 RMK AO2 SLP002 60005 T01170083 10144 20117 53016=
07/05/2017 04:51->METAR KJFK 070451Z 24017KT 10SM SCT023 BKN047 BKN095 BKN270 12/08 A2952 RMK AO2 SLP996 T01220083 401670122=
07/05/2017 03:51->METAR KJFK 070351Z 25015G23KT 10SM FEW028 BKN046 BKN090 BKN260 13/09 A2950 RMK AO2 PK WND 24026/0252 SLP990 T01280089=
07/05/2017 02:51->METAR KJFK 070251Z 23020G24KT 10SM FEW025 BKN037 BKN090 BKN250 14/10 A2949 RMK AO2 SLP986 60005 T01390100 51029=
07/05/2017 01:51->METAR KJFK 070151Z 23016KT 10SM FEW031 SCT075 BKN090 BKN250 14/11 A2948 RMK AO2 SLP982 T01390106=
07/05/2017 00:51->METAR KJFK 070051Z 22013KT 10SM FEW028 BKN065 OVC080 14/13 A2944 RMK AO2 PK WND 20026/0007 RAB2359E38 SLP970 P0005 T01440133=
06/05/2017 23:51->METAR KJFK 062351Z 17017KT 10SM SCT037 BKN045 BKN090 OVC250 14/13 A2941 RMK AO2 LTG DSNT N AND NW SLP957 T01390128 10161 20139 55002=
06/05/2017 22:51->METAR KJFK 062251Z 17018KT 10SM FEW039 BKN060 BKN090 BKN250 14/13 A2939 RMK AO2 SLP951 T01440128=
06/05/2017 21:51->METAR KJFK 062151Z 18014KT 10SM FEW041 SCT070 BKN250 15/13 A2938 RMK AO2 PK WND 16026/2116 SLP950 T01500128=
06/05/2017 20:51->METAR KJFK 062051Z 16016KT 10SM FEW048 BKN065 BKN250 15/12 A2941 RMK AO2 PK WND 17028/1957 SLP959 T01500122 55007=
06/05/2017 19:51->METAR KJFK 061951Z 17019G27KT 10SM FEW025 BKN070 BKN250 16/13 A2940 RMK AO2 PK WND 17027/1950 SLP957 T01560128=
06/05/2017 18:51->METAR KJFK 061851Z 17021G29KT 10SM FEW025 FEW045 SCT060 SCT250 16/12 A2942 RMK AO2 PK WND 16030/1815 SLP963 T01560122=
06/05/2017 17:51->METAR KJFK 061751Z 15017G28KT 10SM FEW030 FEW050 SCT250 16/13 A2943 RMK AO2 PK WND 16031/1723 SLP966 T01560128 10167 20139 56004=
06/05/2017 16:51->METAR KJFK 061651Z 17022G29KT 10SM FEW045 FEW060 SCT250 17/13 A2943 RMK AO2 PK WND 17029/1556 SLP967 T01670128=
06/05/2017 15:51->METAR KJFK 061551Z 16021G29KT 10SM FEW044 BKN060 BKN250 16/12 A2944 RMK AO2 PK WND 17030/1515 SLP968 T01610122=
06/05/2017 14:51->METAR KJFK 061451Z 17018G24KT 10SM SCT050 BKN250 16/12 A2944 RMK AO2 PK WND 15026/1424 SLP970 T01560122 53004=
06/05/2017 13:51->METAR KJFK 061351Z 16019G22KT 10SM SCT050 BKN250 14/12 A2944 RMK AO2 SLP968 T01440122=
06/05/2017 12:51->METAR KJFK 061251Z 15013KT 6SM BR FEW011 BKN045 BKN220 14/12 A2943 RMK AO2 SLP964 T01440122=
06/05/2017 11:51->METAR KJFK 061151Z 16013KT 4SM BR FEW008 SCT011 OVC050 14/12 A2943 RMK AO2 SLP966 60000 70177 T01390122 10150 20139 53005=
06/05/2017 10:51->METAR KJFK 061051Z 16016KT 3SM HZ BKN008 OVC016 14/M01 A2942 RMK AO2 SFC VIS 5 SLP964 T01391006=
06/05/2017 09:51->METAR KJFK 060951Z 15013G23KT 3/4SM R04R/6000VP6000FT HZ VV002 14/M01 A2941 RMK AO2 SLP959 T01391006=
06/05/2017 08:51->METAR KJFK 060851Z 15015KT 3/4SM R04R/4000V5500FT HZ OVC002 14/10 A2942 RMK AO2 SLP961 60000 T01440100 56022=
06/05/2017 07:51->METAR KJFK 060751Z 14017G23KT 8SM FEW002 BKN006 BKN015 15/14 A2944 RMK AO2 PK WND 15028/0654 RAB0652E03 SLP968 P0000 T01500144=
06/05/2017 06:51->METAR KJFK 060651Z 14019KT 1/4SM R04R/3000V3500FT BR OVC002 14/14 A2945 RMK AO2 PK WND 14029/0628 SFC VIS 3/4 RAE50 SLP971 P0000 T01440139=
06/05/2017 05:51->METAR KJFK 060551Z 14014KT 1/4SM R04R/5500VP6000FT -RA BR OVC002 14/13 A2948 RMK AO2 SFC VIS 3/4 RAB47 SLP983 P0000 60000 T01390133 10150 20133 58020=
06/05/2017 04:51->METAR KJFK 060451Z 15013KT 1/4SM R04R/P6000FT BR OVC002 14/13 A2952 RMK AO2 SFC VIS 3/4 SLP996 T01390133 401610106=
06/05/2017 03:51->METAR KJFK 060351Z 13014KT 3/4SM R04R/4000V5000FT BR OVC002 14/13 A2953 RMK AO2 SLP998 T01390133=
06/05/2017 02:51->METAR KJFK 060251Z 13014G22KT 1SM R04R/P6000FT BR BKN004 OVC013 14/13 A2954 RMK AO2 SFC VIS 5 SLP002 T01440133 57017=
06/05/2017 01:51->METAR KJFK 060151Z 11010KT 8SM OVC004 14/13 A2956 RMK AO2 SLP010 T01440133=
06/05/2017 00:51->METAR KJFK 060051Z 12007KT 10SM BKN009 BKN029 OVC060 14/13 A2957 RMK AO2 SLP013 T01440133=
05/05/2017 23:51->METAR KJFK 052351Z 10006KT 7SM BKN009 OVC029 15/13 A2959 RMK AO2 SLP020 60049 T01500133 10161 20144 58003=
05/05/2017 22:51->METAR KJFK 052251Z 16008KT 6SM BR FEW006 SCT029 SCT110 BKN140 OVC200 16/14 A2960 RMK AO2 SLP023 T01560139=
05/05/2017 21:51->METAR KJFK 052151Z 14006KT 1 1/2SM BR BKN005 OVC014 15/14 A2960 RMK AO2 SFC VIS 5 SLP022 T01500139=
05/05/2017 20:51->METAR KJFK 052051Z 14006KT 1 1/2SM BR OVC004 16/15 A2961 RMK AO2 SFC VIS 4 SLP026 VIS SE-E 2 60049 T01560150 56030=
05/05/2017 19:51->METAR KJFK 051951Z 12006KT 7SM BKN006 OVC025 16/15 A2963 RMK AO2 RAE41 SLP033 P0002 T01610150=
05/05/2017 18:51->METAR KJFK 051851Z 07012KT 3SM R04R/5500VP6000FT -RA BR FEW005 BKN034 OVC050 15/14 A2962 RMK AO2 WSHFT 1739 SFC VIS 4 TSE03 SLP029 VIS E-S 2 1/2 P0047 T01500144=
05/05/2017 18:00->METAR KJFK NIL=
05/05/2017 16:51->METAR KJFK 051651Z 10022G29KT 5SM -DZ BR OVC004 14/13 A2966 RMK AO2 PK WND 11033/1631 RAE38DZB47 SLP043 P0015 T01390128=
05/05/2017 15:51->METAR KJFK 051551Z 09020G33KT 2 1/2SM R04R/4000VP6000FT +RA BR BKN007 BKN014 OVC037 13/12 A2972 RMK AO2 PK WND 09033/1453 LTG DSNT E SLP063 P0051 T01280117=
05/05/2017 14:51->METAR KJFK 051451Z 09021G31KT 4SM RA BR BKN008 OVC021 13/11 A2977 RMK AO2 PK WND 08033/1425 SLP082 P0008 60010 T01280111 58048=
05/05/2017 13:51->METAR KJFK 051351Z 09020G29KT 7SM -RA BKN010 BKN028 OVC080 13/11 A2982 RMK AO2 PK WND 10030/1340 SLP099 BKN010 V SCT P0002 T01280111=
05/05/2017 12:51->METAR KJFK 051251Z 09022G26KT 10SM -RA BKN010 BKN032 OVC049 13/11 A2987 RMK AO2 PK WND 09028/1230 RAE08B51 SLP116 CIG 008V012 BKN010 V SCT P0000 T01280106=
05/05/2017 11:51->METAR KJFK 051151Z 09020G25KT 10SM -RA FEW011 BKN026 BKN055 OVC140 12/10 A2992 RMK AO2 PK WND 09028/1132 SLP130 BKN026 V SCT P0001 60001 70001 T01220100 10122 20106 56027=
05/05/2017 10:51->METAR KJFK 051051Z 08017G22KT 9SM -RA FEW013 BKN028 OVC090 12/09 A2994 RMK AO2 RAE0958B25 SLP137 P0000 T01170094=
05/05/2017 09:51->METAR KJFK 050951Z 09014KT 10SM -RA FEW013 BKN037 OVC065 12/09 A2996 RMK AO2 PK WND 10026/0924 RAB49 SLP144 P0000 T01170089=
05/05/2017 08:51->METAR KJFK 050851Z 10018G25KT 10SM FEW013 BKN042 OVC100 12/09 A2999 RMK AO2 RAB17E25 SLP156 P0000 60000 T01170089 56034=
05/05/2017 07:51->METAR KJFK 050751Z 08012KT 10SM SCT013 BKN050 OVC100 11/09 A3002 RMK AO2 RAB19E41 SLP165 P0000 T01110089=
05/05/2017 06:51->METAR KJFK 050651Z 09013KT 10SM SCT015 OVC100 11/08 A3005 RMK AO2 RAB0558E36 SLP175 P0000 T01060083=
05/05/2017 05:51->METAR KJFK 050551Z 08013KT 10SM BKN033 OVC150 11/07 A3010 RMK AO2 SLP191 T01110072 10117 20111 58016=
05/05/2017 04:51->METAR KJFK 050451Z 10011KT 10SM FEW027 OVC160 11/07 A3011 RMK AO2 SLP197 T01110072 401610067=
05/05/2017 03:51->METAR KJFK 050351Z 10009KT 10SM FEW030 OVC160 11/07 A3013 RMK AO2 SLP202 T01110067=
05/05/2017 02:51->METAR KJFK 050251Z 10009KT 10SM FEW032 OVC190 11/07 A3014 RMK AO2 SLP206 T01110067 58018=
05/05/2017 01:51->METAR KJFK 050151Z 11009KT 10SM FEW075 BKN160 OVC250 11/06 A3018 RMK AO2 SLP218 T01110061=
05/05/2017 00:51->METAR KJFK 050051Z 12012KT 10SM FEW025 OVC140 12/06 A3018 RMK AO2 SLP219 T01170061=
04/05/2017 23:51->METAR KJFK 042351Z 11010KT 10SM FEW025 BKN150 OVC250 12/06 A3019 RMK AO2 SLP224 T01170056 10150 20117 56011=
04/05/2017 22:51->METAR KJFK 042251Z 12010KT 10SM BKN170 BKN200 OVC250 12/06 A3020 RMK AO2 SLP227 T01170056=
04/05/2017 21:51->METAR KJFK 042151Z 13010KT 10SM SCT170 OVC230 12/06 A3022 RMK AO2 SLP232 T01220056=
04/05/2017 20:51->METAR KJFK 042051Z 14012KT 10SM SCT150 BKN250 13/04 A3023 RMK AO2 SLP235 T01330044 56013=
04/05/2017 19:51->METAR KJFK 041951Z 15015KT 10SM FEW170 BKN250 14/03 A3024 RMK AO2 SLP239 T01390028=
04/05/2017 18:51->METAR KJFK 041851Z 15015KT 10SM FEW170 BKN250 14/01 A3025 RMK AO2 SLP243 T01440006=
04/05/2017 17:51->METAR KJFK 041751Z 12015KT 10SM FEW130 BKN250 15/01 A3027 RMK AO2 SLP249 T01500006 10161 20117 58007=
04/05/2017 16:51->METAR KJFK 041651Z 14014KT 10SM FEW130 FEW210 BKN250 15/M01 A3028 RMK AO2 SLP253 T01501011=
04/05/2017 15:51->METAR KJFK 041551Z 13013KT 10SM FEW100 FEW130 BKN250 16/M02 A3030 RMK AO2 SLP259 T01561017=
04/05/2017 14:51->METAR KJFK 041451Z 12015KT 10SM FEW095 FEW130 BKN270 16/00 A3029 RMK AO2 SLP256 T01560000 50002=
04/05/2017 13:51->METAR KJFK 041351Z 09016G21KT 10SM FEW130 SCT270 15/M02 A3030 RMK AO2 SLP259 T01501022=
04/05/2017 12:51->METAR KJFK 041251Z 07009KT 10SM FEW140 SCT300 14/01 A3030 RMK AO2 SLP259 T01390006=
04/05/2017 11:51->METAR KJFK 041151Z 06007KT 10SM FEW140 BKN300 12/02 A3028 RMK AO2 SLP254 T01170017 10117 20067 53014=
04/05/2017 10:51->METAR KJFK 041051Z 04006KT 10SM FEW140 SCT320 09/02 A3026 RMK AO2 SLP247 T00940022=
04/05/2017 09:51->METAR KJFK 040951Z 04005KT 10SM FEW250 07/04 A3025 RMK AO2 SLP243 T00720039=
04/05/2017 08:51->METAR KJFK 040851Z 00000KT 10SM FEW250 08/02 A3024 RMK AO2 SLP240 T00830022 51008=
04/05/2017 07:51->METAR KJFK 040751Z 00000KT 10SM FEW250 09/02 A3024 RMK AO2 SLP240 T00890017=
04/05/2017 06:51->METAR KJFK 040651Z 02004KT 10SM FEW250 10/01 A3024 RMK AO2 SLP238 T01000011=
04/05/2017 05:51->METAR KJFK 040551Z 01006KT 10SM FEW250 11/00 A3022 RMK AO2 SLP232 T01060000 10156 20106 51005=
04/05/2017 04:51->METAR KJFK 040451Z 35008KT 10SM FEW250 12/M01 A3022 RMK AO2 SLP231 T01171006 402000117=
04/05/2017 03:51->METAR KJFK 040351Z 35011KT 10SM SCT250 13/M01 A3021 RMK AO2 SLP230 T01281006=
04/05/2017 02:51->METAR KJFK 040251Z 35011KT 10SM CLR 13/00 A3020 RMK AO2 SLP228 T01330000 51062=
04/05/2017 01:51->METAR KJFK 040151Z 33012KT 10SM CLR 14/M01 A3017 RMK AO2 SLP216 T01441011=
04/05/2017 00:51->METAR KJFK 040051Z 33016G23KT 10SM FEW250 15/M02 A3012 RMK AO2 SLP200 T01501017=
03/05/2017 23:51->METAR KJFK 032351Z 34015G20KT 10SM FEW250 16/M01 A3002 RMK AO2 PK WND 33028/2328 SLP165 T01561011 10200 20156 51019=
03/05/2017 22:51->METAR KJFK 032251Z 32020G27KT 10SM FEW250 17/M01 A3000 RMK AO2 PK WND 33027/2244 SLP159 T01721011=
03/05/2017 21:51->METAR KJFK 032151Z 34018G25KT 10SM FEW070 FEW250 18/00 A2999 RMK AO2 PK WND 31032/2102 SLP153 T01830000=
03/05/2017 20:51->METAR KJFK 032051Z 32021G31KT 10SM FEW070 FEW250 19/01 A2996 RMK AO2 PK WND 33032/2035 SLP146 T01890011 53010=
03/05/2017 19:51->METAR KJFK 031951Z 30016G23KT 10SM SCT070 19/02 A2995 RMK AO2 PK WND 28026/1901 SLP140 T01940017=
03/05/2017 18:51->METAR KJFK 031851Z 28019G26KT 10SM BKN065 19/02 A2994 RMK AO2 PK WND 28026/1842 SLP139 T01890022=
03/05/2017 17:51->METAR KJFK 031751Z 30012G23KT 10SM BKN065 18/02 A2993 RMK AO2 PK WND 26027/1700 SLP135 T01780017 10189 20167 53013=
03/05/2017 16:51->METAR KJFK 031651Z 26018G24KT 10SM BKN065 17/02 A2992 RMK AO2 PK WND 28027/1638 SLP132 T01720022=
03/05/2017 15:51->METAR KJFK 031551Z 29015G22KT 10SM BKN060 17/02 A2990 RMK AO2 SLP125 T01720022=
03/05/2017 14:51->METAR KJFK 031451Z 28017G26KT 10SM SCT060 BKN095 18/02 A2989 RMK AO2 PK WND 26032/1441 SLP122 T01780022 53015=
03/05/2017 13:51->METAR KJFK 031351Z 28018G26KT 10SM FEW060 FEW100 18/03 A2988 RMK AO2 PK WND 28028/1322 SLP118 T01780033=
03/05/2017 12:51->METAR KJFK 031251Z 29021G29KT 10SM FEW050 FEW100 17/02 A2986 RMK AO2 PK WND 27029/1230 SLP111 T01720022=
03/05/2017 11:51->METAR KJFK 031151Z 28017G27KT 10SM FEW080 FEW110 17/02 A2985 RMK AO2 PK WND 29029/1105 SLP107 T01670022 10172 20161 53011=
03/05/2017 10:51->METAR KJFK 031051Z 29019G30KT 10SM SCT080 16/03 A2984 RMK AO2 PK WND 29030/1048 SLP103 T01610028=
03/05/2017 09:51->METAR KJFK 030951Z 28013KT 10SM BKN095 16/03 A2982 RMK AO2 SLP099 T01610033=
03/05/2017 08:51->METAR KJFK 030851Z 28014G20KT 10SM OVC090 17/03 A2982 RMK AO2 SLP096 T01670033 53008=
03/05/2017 07:51->METAR KJFK 030751Z 27012KT 10SM OVC100 17/04 A2981 RMK AO2 SLP093 T01670039=
03/05/2017 06:51->METAR KJFK 030651Z 27007KT 10SM BKN110 16/03 A2979 RMK AO2 SLP089 T01610033=
03/05/2017 05:51->METAR KJFK 030551Z 29014KT 10SM OVC110 17/02 A2979 RMK AO2 SLP088 T01720022 10211 20172 53006=
03/05/2017 04:51->METAR KJFK 030451Z 28014G20KT 10SM OVC100 18/02 A2979 RMK AO2 SLP088 T01830017 402500150=
03/05/2017 03:51->METAR KJFK 030351Z 30013G23KT 10SM OVC110 18/02 A2978 RMK AO2 SLP082 T01830017=
03/05/2017 02:51->METAR KJFK 030251Z 30011G23KT 10SM BKN120 19/02 A2977 RMK AO2 SLP082 T01940017 51029=
03/05/2017 01:51->METAR KJFK 030151Z 29020G26KT 10SM BKN120 21/02 A2975 RMK AO2 PK WND 29026/0150 SLP075 T02060017=
03/05/2017 00:51->METAR KJFK 030051Z 27011KT 10SM SCT120 21/04 A2972 RMK AO2 PK WND 27026/0012 SLP064 T02060039=
02/05/2017 23:51->METAR KJFK 022351Z 26015KT 10SM SCT080 21/04 A2969 RMK AO2 PK WND 26027/2305 SLP053 T02110039 10250 20211 51027=
02/05/2017 22:51->METAR KJFK 022251Z 26017G25KT 10SM FEW080 22/03 A2967 RMK AO2 PK WND 27036/2155 SLP047 T02170033=
02/05/2017 21:51->METAR KJFK 022151Z 27021G37KT 10SM FEW070 23/02 A2966 RMK AO2 PK WND 24041/2111 SLP043 T02280022=
02/05/2017 20:51->METAR KJFK 022051Z 25024G30KT 10SM FEW065 24/05 A2961 RMK AO2 PK WND 24033/2031 SLP026 T02390050 53007=
02/05/2017 19:51->METAR KJFK 021951Z 25019G30KT 10SM SCT060 24/08 A2959 RMK AO2 PK WND 25032/1900 SLP020 T02390083=
02/05/2017 18:51->METAR KJFK 021851Z 25021G27KT 10SM SCT055 SCT075 24/11 A2959 RMK AO2 PK WND 26028/1830 SLP019 T02390111=
02/05/2017 17:51->METAR KJFK 021751Z 25018G23KT 10SM SCT055 SCT075 24/12 A2959 RMK AO2 PK WND 25027/1702 SLP019 T02440117 10250 20156 53004=
02/05/2017 16:51->METAR KJFK 021651Z 26017G25KT 10SM SCT055 BKN080 BKN350 24/12 A2958 RMK AO2 PK WND 25026/1645 SLP018 T02440117=
02/05/2017 15:51->METAR KJFK 021551Z 27014KT 10SM SCT049 SCT350 24/12 A2957 RMK AO2 SLP014 T02440122=
02/05/2017 14:51->METAR KJFK 021451Z 22007KT 10SM SCT037 SCT350 23/17 A2957 RMK AO2 SLP014 T02280167 58008=
02/05/2017 13:51->METAR KJFK 021351Z 17008KT 10SM FEW037 FEW085 SCT350 17/15 A2958 RMK AO2 SLP017 TCU DSNT S T01720150=
02/05/2017 12:51->METAR KJFK 021251Z 21012KT 7SM FEW006 BKN024 BKN060 BKN350 18/16 A2960 RMK AO2 SLP021 FROPA T01780161=
02/05/2017 11:51->METAR KJFK 021151Z 19017KT 1/8SM R04R/P6000FT BR SCT003 BKN018 BKN065 BKN340 16/15 A2960 RMK AO2 SFC VIS 3 SLP023 VIS E-SW 1 1/2 VCSH W-NW 60002 70002 T01560150 10167 20150 58005=
02/05/2017 10:51->METAR KJFK 021051Z 18017KT 1SM R04R/P6000FT BR SCT002 SCT009 BKN022 BKN320 16/14 A2961 RMK AO2 SFC VIS 2 1/2 SLP026 VIS E-S 3/4 SCT009 V BKN T01560144=
02/05/2017 09:51->METAR KJFK 020951Z 19016KT 8SM SCT019 OVC040 16/14 A2962 RMK AO2 PK WND 18027/0901 SLP029 T01560144=
02/05/2017 08:51->METAR KJFK 020851Z 19019G23KT 5SM BR SCT004 BKN025 OVC080 15/14 A2961 RMK AO2 RAE44 SLP028 SCT004 V BKN P0002 60002 T01500144 56010=
02/05/2017 07:51->METAR KJFK 020751Z 18017KT 9SM -RA FEW035 OVC100 16/15 A2961 RMK AO2 RAB36 SLP028 P0000 T01610150=
02/05/2017 06:51->METAR KJFK 020651Z 19017G22KT 8SM FEW006 FEW040 BKN120 OVC190 16/14 A2963 RMK AO2 PK WND 19026/0605 LTG DSNT S SLP033 OCNL LTGIC DSNT S CB DSNT S MOV NE T01610144=
02/05/2017 05:51->METAR KJFK 020551Z 19019G26KT 8SM FEW006 BKN100 OVC190 16/14 A2965 RMK AO2 PK WND 18032/0522 SLP038 T01560144 10167 20150 56019=
02/05/2017 04:51->METAR KJFK 020451Z 19020G25KT 8SM FEW006 BKN140 BKN250 16/14 A2966 RMK AO2 PK WND 18028/0435 SLP044 T01610144 401940100=
02/05/2017 03:51->METAR KJFK 020351Z 18021G27KT 8SM FEW005 BKN150 BKN250 16/14 A2968 RMK AO2 PK WND 18029/0320 SLP049 T01560144=
02/05/2017 02:51->METAR KJFK 020251Z 18020KT 8SM FEW005 SCT150 BKN250 15/14 A2970 RMK AO2 PK WND 18030/0213 SLP057 T01500139 58015=
02/05/2017 01:51->METAR KJFK 020151Z 18019KT 9SM SCT150 SCT250 16/14 A2974 RMK AO2 PK WND 18026/0122 SLP070 T01560139=
02/05/2017 00:51->METAR KJFK 020051Z 17020KT 10SM BKN250 16/14 A2975 RMK AO2 PK WND 18028/2358 SLP073 T01560139=
01/05/2017 23:51->METAR KJFK 012351Z 18021G29KT 10SM FEW030 BKN250 17/14 A2975 RMK AO2 PK WND 18029/2350 SLP073 T01670139 10194 20167 55018=
01/05/2017 22:51->METAR KJFK 012251Z 18021G28KT 10SM FEW025 FEW055 BKN250 17/14 A2973 RMK AO2 PK WND 17028/2222 SLP068 T01720144=
01/05/2017 21:51->METAR KJFK 012151Z 18018KT 10SM SCT055 SCT250 18/14 A2978 RMK AO2 SLP082 T01780144=
01/05/2017 20:51->METAR KJFK 012051Z 19014KT 10SM FEW018 FEW060 BKN250 19/15 A2980 RMK AO2 SLP091 T01890150 58039=
01/05/2017 19:51->METAR KJFK 011951Z 16008KT 10SM BKN009 BKN050 BKN220 18/15 A2984 RMK AO2 PRESFR SLP104 BKN009 V SCT T01830150=
01/05/2017 18:51->METAR KJFK 011851Z 13010KT 10SM SCT006 SCT027 SCT220 18/15 A2988 RMK AO2 SLP118 T01830150=
01/05/2017 17:51->METAR KJFK 011751Z 13008KT 8SM BKN008 18/14 A2991 RMK AO2 SLP129 T01780139 10178 20111 58028=
01/05/2017 16:51->METAR KJFK 011651Z 14006KT 8SM FEW003 BKN008 16/13 A2995 RMK AO2 SLP141 T01610128=
01/05/2017 15:51->METAR KJFK 011551Z 10005KT 6SM BR OVC006 15/13 A2997 RMK AO2 SLP149 T01500128=
01/05/2017 14:51->METAR KJFK 011451Z VRB03KT 2SM BR OVC005 13/12 A3000 RMK AO2 SFC VIS 3 SLP157 T01330122 58006=
01/05/2017 13:51->METAR KJFK 011351Z 00000KT 1 1/2SM BR OVC004 12/12 A3001 RMK AO2 SFC VIS 2 1/2 SLP161 T01220117=
01/05/2017 12:51->METAR KJFK 011251Z 00000KT 3/4SM R04R/P6000FT BR OVC003 12/11 A3002 RMK AO2 SFC VIS 2 SLP166 T01170111 $=
01/05/2017 11:51->METAR KJFK 011151Z 05006KT 1/2SM R04R/3500V5500FT BR OVC002 11/11 A3002 RMK AO2 SFC VIS 1 1/2 DZE49 SLP163 P0000 60000 T01110106 10111 20100 56009 $=
01/05/2017 10:51->METAR KJFK 011051Z 03007KT 1/2SM R04R/4500V6000FT -DZ BR OVC003 11/10 A3002 RMK AO2 SFC VIS 1 SLP165 P0000 T01060100 $=
01/05/2017 09:51->METAR KJFK 010951Z 05008KT 1/2SM R04R/P6000FT -DZ BR OVC003 10/10 A3003 RMK AO2 SFC VIS 2 SLP167 P0000 T01000100 $=
01/05/2017 08:51->METAR KJFK 010851Z 05008KT 1SM R04R/P6000FT -DZ BR OVC004 10/10 A3004 RMK AO2 SFC VIS 2 SLP173 P0000 60000 T01000100 56026 $=
01/05/2017 07:51->METAR KJFK 010751Z 06008KT 3SM -DZ BR OVC004 11/10 A3006 RMK AO2 SLP179 P0000 T01060100 $=
01/05/2017 06:51->METAR KJFK 010651Z 06007KT 3SM -DZ BR OVC004 11/10 A3009 RMK AO2 SLP190 P0000 T01060100 $=
01/05/2017 05:51->METAR KJFK 010551Z 09010KT 3SM -DZ BR OVC005 11/10 A3012 RMK AO2 SFC VIS 4 SLP199 P0000 60000 T01060100 10111 20106 58017 $=
01/05/2017 04:51->METAR KJFK 010451Z 06008KT 4SM -DZ BR OVC005 11/10 A3015 RMK AO2 DZB28 SLP210 P0000 T01060100 402110106 $=
01/05/2017 03:51->METAR KJFK 010351Z 08009KT 6SM BR OVC009 11/09 A3017 RMK AO2 SLP216 T01060089 $=
01/05/2017 02:51->METAR KJFK 010251Z 09010KT 10SM OVC016 11/07 A3017 RMK AO2 SLP215 60000 T01060072 58012 $=
01/05/2017 01:51->METAR KJFK 010151Z 09008KT 10SM OVC019 11/07 A3021 RMK AO2 RAB30E40 SLP228 P0000 T01060067 $=
01/05/2017 00:51->METAR KJFK 010051Z 09011G18KT 10SM OVC021 11/06 A3019 RMK AO2 SLP224 T01060061 $=
30/04/2017 23:51->METAR KJFK 302351Z 10015KT 10SM OVC024 11/05 A3020 RMK AO2 PRESFR SLP227 T01060050 10133 20106 58009 $=
30/04/2017 22:51->METAR KJFK 302251Z 10015KT 10SM OVC027 12/05 A3024 RMK AO2 SLP238 T01170050 $=
30/04/2017 21:51->METAR KJFK 302151Z 08012G18KT 10SM OVC034 12/06 A3024 RMK AO2 SLP240 T01170056 $=
30/04/2017 20:51->METAR KJFK 302051Z 10018KT 10SM OVC039 12/05 A3023 RMK AO2 SLP236 T01220050 56010 $=
30/04/2017 19:51->METAR KJFK 301951Z 11017G21KT 10SM OVC041 12/05 A3023 RMK AO2 SLP237 T01220050 $=
30/04/2017 18:51->METAR KJFK 301851Z 10016KT 10SM OVC041 13/05 A3025 RMK AO2 SLP243 T01280050 $=
30/04/2017 17:51->METAR KJFK 301751Z 10015KT 10SM OVC043 13/06 A3026 RMK AO2 SLP246 T01330056 10178 20128 50005 $=
30/04/2017 16:51->METAR KJFK 301651Z 11018G24KT 10SM OVC045 13/06 A3027 RMK AO2 PK WND 11028/1559 SLP250 T01330061 $=
30/04/2017 15:51->METAR KJFK 301551Z 10021G29KT 10SM BKN045 BKN055 BKN250 17/06 A3024 RMK AO2 PK WND 10029/1551 SLP241 T01720056 $=
30/04/2017 14:51->METAR KJFK 301451Z 10010KT 10SM OVC045 17/06 A3024 RMK AO2 SLP241 T01720056 50004 $=
30/04/2017 13:51->METAR KJFK 301351Z 07010KT 10SM BKN044 OVC065 17/04 A3025 RMK AO2 SLP243 T01720044 $=
30/04/2017 12:51->METAR KJFK 301251Z 07009KT 10SM FEW048 BKN060 BKN250 17/04 A3025 RMK AO2 SLP243 T01670044 $=
30/04/2017 11:51->METAR KJFK 301151Z 03012KT 10SM BKN050 16/04 A3023 RMK AO2 SLP237 T01560039 10200 20156 52024 $=
30/04/2017 10:51->METAR KJFK 301051Z 04011KT 10SM BKN050 BKN250 16/04 A3021 RMK AO2 SLP229 T01560039 $=
30/04/2017 09:51->METAR KJFK 300951Z 04014KT 10SM BKN060 BKN250 16/06 A3018 RMK AO2 SLP220 T01610061 $=
30/04/2017 08:51->METAR KJFK 300851Z 01006KT 10SM SCT060 BKN250 18/09 A3016 RMK AO2 SLP212 T01780089 51012 $=
30/04/2017 07:51->METAR KJFK 300751Z 02005KT 10SM SCT060 BKN250 18/08 A3015 RMK AO2 SLP208 T01830083 $=
30/04/2017 06:51->METAR KJFK 300651Z 34009KT 10SM SCT065 BKN250 19/09 A3014 RMK AO2 SLP206 T01890089 $=
30/04/2017 05:51->METAR KJFK 300551Z 33010KT 10SM FEW060 SCT250 20/11 A3012 RMK AO2 SLP200 T02000106 10267 20200 51012 $=
30/04/2017 04:51->METAR KJFK 300451Z 34013KT 10SM BKN060 BKN250 21/12 A3012 RMK AO2 SLP200 T02110122 402940156 $=
30/04/2017 03:51->METAR KJFK 300351Z 34013KT 10SM BKN065 BKN250 22/13 A3011 RMK AO2 SLP196 T02220133 $=
30/04/2017 02:51->METAR KJFK 300251Z 34009KT 10SM FEW060 BKN070 BKN250 24/14 A3009 RMK AO2 SLP188 T02390139 51025 $=
30/04/2017 01:51->METAR KJFK 300151Z 34013KT 10SM SCT045 SCT200 SCT250 26/14 A3008 RMK AO2 SLP184 T02560144 $=
30/04/2017 00:51->METAR KJFK 300051Z 27017G21KT 10SM SCT200 BKN250 27/14 A3005 RMK AO2 SLP174 T02670144 $=
29/04/2017 23:51->METAR KJFK 292351Z 26013KT 10SM FEW055 BKN200 BKN250 27/15 A3001 RMK AO2 SLP163 T02670150 10294 20261 53009 $=
29/04/2017 22:51->METAR KJFK 292251Z 27014G20KT 10SM FEW055 BKN200 BKN250 28/15 A2998 RMK AO2 PK WND 29028/2212 SLP152 T02830150 $=
29/04/2017 21:51->METAR KJFK 292151Z 29020G31KT 10SM FEW055 SCT200 BKN250 28/15 A2999 RMK AO2 PK WND 29034/2136 SLP154 T02830150 $=
29/04/2017 20:51->METAR KJFK 292051Z 28021G27KT 10SM FEW050 SCT200 BKN250 29/16 A2999 RMK AO2 PK WND 27027/2040 SLP154 T02940156 53010 $=
29/04/2017 19:51->METAR KJFK 291951Z 27019G23KT 10SM FEW050 SCT200 BKN250 28/17 A2997 RMK AO2 SLP148 T02830172 $=
29/04/2017 18:51->METAR KJFK 291851Z 23017KT 10SM FEW050 SCT200 BKN250 27/18 A2997 RMK AO2 SLP148 T02670183 $=
29/04/2017 17:51->METAR KJFK 291751Z 23019G23KT 10SM FEW050 FEW080 BKN200 BKN250 26/18 A2996 RMK AO2 SLP144 T02610183 10272 20156 56018 $=
29/04/2017 16:51->METAR KJFK 291651Z 24016KT 10SM FEW050 FEW080 SCT200 BKN250 25/19 A2997 RMK AO2 SLP148 T02500189 $=
29/04/2017 15:51->METAR KJFK 291551Z 21013KT 10SM FEW025 SCT050 BKN200 BKN250 23/19 A3000 RMK AO2 SLP157 T02280189 $=
29/04/2017 14:51->METAR KJFK 291451Z 23009KT 10SM FEW010 SCT080 SCT150 BKN250 23/20 A3001 RMK AO2 SLP162 T02280200 50008 $=
29/04/2017 13:51->METAR KJFK 291351Z 22010KT 10SM SCT002 SCT200 BKN250 20/17 A3005 RMK AO2 SLP174 T02000172 $=
29/04/2017 12:51->METAR KJFK 291251Z 20008KT 3SM BR BKN002 BKN250 16/16 A3003 RMK AO2 SFC VIS 6 SLP170 T01610156 $=
29/04/2017 11:51->METAR KJFK 291151Z 00000KT 2SM BR BKN002 BKN006 BKN250 17/17 A2999 RMK AO2 SFC VIS 3 SLP154 60016 70016 T01720167 10183 20156 58005 $=
29/04/2017 10:51->METAR KJFK 291051Z 00000KT 4SM BR FEW003 FEW020 SCT050 BKN160 BKN250 16/16 A2998 RMK AO2 VIS 2 1/2 W LTG DSNT E AND SE RAE18 TSE19 SLP153 VIRGA N P0005 T01610161 $=
29/04/2017 09:51->METAR KJFK 290951Z 23011G23KT 2SM +TSRA BR BKN060CB BKN085 OVC110 16/15 A3001 RMK AO2 LTG DSNT ALQDS RAB0855 TSB23 SLP162 FRQ LTGICCCCG OHD TS OHD MOV E P0011 T01560150=
29/04/2017 08:51->METAR KJFK 290851Z 13005KT 10SM FEW055 FEW075 SCT120 BKN160 OVC250 17/15 A3000 RMK AO2 LTG DSNT SE-W RAB14E26 SLP159 P0000 60000 T01720150 58012=
29/04/2017 07:51->METAR KJFK 290751Z 00000KT 10SM FEW055 SCT100 BKN130 OVC160 17/14 A3003 RMK AO2 SLP170 T01720139=
29/04/2017 06:51->METAR KJFK 290651Z 19003KT 10SM FEW100 SCT130 BKN160 OVC200 18/13 A3003 RMK AO2 SLP168 T01780133=
29/04/2017 05:51->METAR KJFK 290551Z 20005KT 10SM FEW150 BKN240 18/13 A3004 RMK AO2 SLP171 T01780133 10183 20150 58003=
29/04/2017 04:51->METAR KJFK 290451Z 21003KT 10SM FEW190 BKN250 17/13 A3007 RMK AO2 SLP181 T01720128 402330128=
29/04/2017 03:51->METAR KJFK 290351Z 23003KT 10SM BKN250 16/13 A3005 RMK AO2 SLP176 T01610128=
29/04/2017 02:51->METAR KJFK 290251Z 00000KT 10SM BKN250 16/13 A3005 RMK AO2 SLP174 T01560128 50010=
29/04/2017 01:51->METAR KJFK 290151Z 00000KT 10SM BKN250 16/12 A3005 RMK AO2 SLP177 T01560122=
29/04/2017 00:51->METAR KJFK 290051Z 17003KT 10SM BKN250 16/12 A3004 RMK AO2 SLP172 T01610122=
28/04/2017 23:51->METAR KJFK 282351Z 19012KT 10SM BKN250 17/13 A3002 RMK AO2 SLP164 T01720128 10233 20172 53009=
28/04/2017 22:51->METAR KJFK 282251Z 18015KT 10SM CLR 21/14 A2999 RMK AO2 SLP157 T02060139=
28/04/2017 21:51->METAR KJFK 282151Z 18017KT 10SM BKN250 22/14 A2999 RMK AO2 SLP154 T02220144=
28/04/2017 20:51->METAR KJFK 282051Z 18014KT 10SM FEW050 SCT250 23/16 A2999 RMK AO2 SLP155 T02330161 58006=
28/04/2017 19:51->METAR KJFK 281951Z 18013KT 10SM FEW050 SCT250 21/16 A3001 RMK AO2 SLP161 T02110161=
28/04/2017 18:51->METAR KJFK 281851Z 16010KT 9SM FEW050 SCT250 22/17 A3000 RMK AO2 SLP158 T02220167=
28/04/2017 17:51->METAR KJFK 281751Z 17007KT 8SM FEW045 FEW250 23/16 A3001 RMK AO2 SLP160 T02280156 10233 20144 50001=
28/04/2017 16:51->METAR KJFK 281651Z 20007KT 7SM FEW250 22/17 A3001 RMK AO2 SLP163 T02170167=
28/04/2017 15:51->METAR KJFK 281551Z 18007KT 6SM HZ FEW170 FEW250 21/17 A3001 RMK AO2 SLP161 T02110167=
28/04/2017 14:51->METAR KJFK 281451Z 20006KT 4SM HZ FEW065 SCT170 SCT230 20/16 A3000 RMK AO2 SLP160 T02000161 53011=
28/04/2017 13:51->METAR KJFK 281351Z 00000KT 4SM HZ FEW010 BKN065 BKN150 19/16 A2999 RMK AO2 SLP155 T01940156=
28/04/2017 12:51->METAR KJFK 281251Z 00000KT 2 1/2SM BR FEW005 FEW060 SCT150 SCT230 17/15 A2998 RMK AO2 SFC VIS 4 SLP151 T01720150=
28/04/2017 11:51->METAR KJFK 281151Z 00000KT 2SM BR FEW003 BKN065 BKN130 14/14 A2997 RMK AO2 SFC VIS 3 SLP149 60000 T01440144 10144 20128 53022=
28/04/2017 10:51->METAR KJFK 281051Z 01004KT 2SM BR FEW003 SCT065 BKN120 14/14 A2992 RMK AO2 SFC VIS 3 RAB02E35 SLP132 CB DSNT S P0000 T01390139=
28/04/2017 09:51->METAR KJFK 280951Z 00000KT 3/4SM R04R/P6000FT BR SCT002 OVC100 13/13 A2992 RMK AO2 SFC VIS 3 SLP132 T01330133=
28/04/2017 08:51->METAR KJFK 280851Z 00000KT 2SM BR BKN003 OVC100 13/13 A2991 RMK AO2 SFC VIS 4 RAB10E21 SLP127 P0000 60000 T01330133 53012=
28/04/2017 07:51->METAR KJFK 280751Z 14004KT 1/4SM R04R/2600V3000FT FG VV002 13/13 A2988 RMK AO2 SFC VIS 1/2 LTG DSNT SE AND S SLP118 T01280128=
28/04/2017 06:51->METAR KJFK 280651Z 14005KT 1/4SM R04R/2200V2400FT FG VV002 13/13 A2987 RMK AO2 SLP116 T01330133=
28/04/2017 05:51->METAR KJFK 280551Z 13006KT 1/4SM R04R/1400V1600FT FG VV002 13/13 A2989 RMK AO2 SLP120 60000 T01330133 10150 20133 55007=
28/04/2017 04:51->METAR KJFK 280451Z 12007KT 1/4SM R04R/3500V4000FT FG VV002 13/13 A2988 RMK AO2 SFC VIS 1/2 SLP119 T01330133 401830133=
28/04/2017 03:51->METAR KJFK 280351Z 11005KT 3/4SM R04R/P6000FT BR OVC003 13/13 A2990 RMK AO2 SFC VIS 1 1/2 SLP125 T01330133=
28/04/2017 02:51->METAR KJFK 280251Z 11006KT 3/4SM R04R/2600V3000FT BR OVC002 13/13 A2991 RMK AO2 SLP127 60000 T01330133 50003=
28/04/2017 01:51->METAR KJFK 280151Z 13006KT 3/4SM R04R/2400V3500FT BR OVC002 13/13 A2992 RMK AO2 SFC VIS 1 SLP130 T01330133=
28/04/2017 00:51->METAR KJFK 280051Z 12008G16KT 3/4SM R04R/3500V4000FT BR OVC002 13/13 A2990 RMK AO2 DZE48 SLP125 P0000 T01330133=
27/04/2017 23:51->METAR KJFK 272351Z 11010KT 3/4SM R04R/P6000FT -DZ BR OVC003 15/15 A2990 RMK AO2 SFC VIS 2 DZB01 SLP124 P0000 60000 T01500150 10183 20150 50000=
27/04/2017 22:51->METAR KJFK 272251Z 13010KT 10SM FEW006 OVC013 15/14 A2990 RMK AO2 SLP125 T01500139=
27/04/2017 21:51->METAR KJFK 272151Z 13009KT 10SM SCT005 OVC015 15/14 A2990 RMK AO2 SLP125 T01500139=
27/04/2017 20:51->METAR KJFK 272051Z 15012KT 7SM SCT004 BKN022 BKN055 OVC250 16/14 A2990 RMK AO2 SLP124 T01610144 56010=
27/04/2017 19:51->METAR KJFK 271951Z 15012KT 10SM FEW013 FEW025 SCT055 BKN250 17/15 A2990 RMK AO2 SLP126 T01720150=
27/04/2017 18:51->METAR KJFK 271851Z 15012KT 10SM FEW010 BKN026 OVC060 17/15 A2992 RMK AO2 SLP130 BKN V SCT T01720150=
27/04/2017 17:51->METAR KJFK 271751Z 17009KT 10SM FEW010 OVC027 17/15 A2993 RMK AO2 SLP133 60000 T01720150 10178 20133 58002=
27/04/2017 16:51->METAR KJFK 271651Z 19008KT 8SM FEW010 FEW022 OVC039 17/14 A2993 RMK AO2 SLP134 T01720144=
27/04/2017 15:51->METAR KJFK 271551Z 19008KT 8SM SCT020 BKN250 18/15 A2993 RMK AO2 SLP136 T01780150=
27/04/2017 14:51->METAR KJFK 271451Z 18005KT 4SM BR SCT010 BKN021 17/15 A2993 RMK AO2 SLP135 60000 T01670150 50002=
27/04/2017 13:51->METAR KJFK 271351Z 19006KT 2SM BR FEW002 OVC021 15/15 A2994 RMK AO2 DZE32 SLP138 P0000 T01500150=
27/04/2017 12:51->METAR KJFK 271251Z 20004KT 1/2SM R04R/5000VP6000FT -DZ BR BKN002 BKN011 OVC022 14/14 A2994 RMK AO2 SFC VIS 1 1/2 DZB49 SLP137 P0000 T01390139=
27/04/2017 11:51->METAR KJFK 271151Z 18006KT 1/2SM R04R/3000V5000FT FG BKN002 OVC020 14/14 A2993 RMK AO2 SLP133 60001 70015 T01390139 10144 20139 53019=
27/04/2017 10:51->METAR KJFK 271051Z 17004KT 1 1/2SM BR SCT004 SCT014 OVC020 14/14 A2990 RMK AO2 SLP125 T01440144=
27/04/2017 09:51->METAR KJFK 270951Z 20003KT 1SM R04R/2000V2400FT BR SCT004 OVC022 14/14 A2988 RMK AO2 DZE42 SLP118 P0000 T01440144=
27/04/2017 08:51->METAR KJFK 270851Z 22003KT 3/4SM R04R/5500VP6000FT -DZ BR OVC003 14/14 A2987 RMK AO2 SFC VIS 1 1/2 SLP114 P0000 60001 T01440144 53004=
27/04/2017 07:51->METAR KJFK 270751Z 00000KT 3/4SM R04R/3500V4500FT -DZ BR OVC003 14/14 A2986 RMK AO2 SFC VIS 1 1/2 SLP112 P0001 T01390139=
27/04/2017 06:51->METAR KJFK 270651Z 24003KT 3/4SM R04R/5000V5500FT -DZ BR OVC003 14/14 A2986 RMK AO2 SFC VIS 1 SLP111 P0000 T01440144=
27/04/2017 05:51->METAR KJFK 270551Z 25004KT 2SM R04R/3000V3500FT -DZ BR OVC003 14/14 A2986 RMK AO2 SLP110 P0000 60000 T01440144 10161 20139 50002=
27/04/2017 04:51->METAR KJFK 270451Z 00000KT 2SM -DZ BR OVC004 14/14 A2986 RMK AO2 TWR VIS 3 SLP110 P0000 T01440144 401670122=
27/04/2017 03:51->METAR KJFK 270351Z 16003KT 4SM -DZ BR OVC009 14/14 A2985 RMK AO2 DZB42 SLP109 P0000 T01390139=
27/04/2017 02:51->METAR KJFK 270251Z 00000KT 10SM OVC013 16/14 A2985 RMK AO2 SLP108 T01560144 53014=
27/04/2017 01:51->METAR KJFK 270151Z 02003KT 10SM OVC014 16/14 A2984 RMK AO2 SLP104 T01560139=
27/04/2017 00:51->METAR KJFK 270051Z 36004KT 10SM OVC013 16/14 A2982 RMK AO2 SLP096 T01560144=
26/04/2017 23:51->METAR KJFK 262351Z 35006KT 10SM OVC013 16/14 A2981 RMK AO2 SLP094 60000 T01610139 10167 20156 51015=
26/04/2017 22:51->METAR KJFK 262251Z 02006KT 10SM OVC015 17/14 A2980 RMK AO2 SLP091 T01670139=
26/04/2017 21:51->METAR KJFK 262151Z 04007KT 10SM BKN011 OVC019 16/14 A2978 RMK AO2 SLP083 T01610139=
26/04/2017 20:51->METAR KJFK 262051Z 03008KT 10SM OVC009 16/14 A2977 RMK AO2 RAE09 SLP079 P0000 60000 T01560139 56005=
26/04/2017 19:51->METAR KJFK 261951Z 01008KT 7SM -RA OVC010 16/14 A2977 RMK AO2 RAB31 SLP080 P0000 T01560139=
26/04/2017 18:51->METAR KJFK 261851Z 36007KT 10SM OVC010 16/14 A2978 RMK AO2 SLP084 T01610139=
26/04/2017 17:51->METAR KJFK 261751Z 36005KT 10SM OVC008 16/14 A2978 RMK AO2 RAE05 SLP083 P0000 60014 T01560139 10156 20122 53003=
26/04/2017 16:51->METAR KJFK 261651Z 02008KT 6SM +RA BR OVC008 15/14 A2977 RMK AO2 RAB43 SLP081 P0004 T01500139=
26/04/2017 15:51->METAR KJFK 261551Z 04008KT 10SM OVC008 14/13 A2977 RMK AO2 RAE21 SLP080 P0001 T01440133=
26/04/2017 14:51->METAR KJFK 261451Z 03012KT 4SM -RA BR OVC008 14/13 A2977 RMK AO2 RAB07 SLP080 P0002 60009 T01390128 53006=
26/04/2017 13:51->METAR KJFK 261351Z 04015KT 10SM BKN007 OVC027 14/13 A2975 RMK AO2 RAE1252 SLP073 P0000 T01390128=
26/04/2017 12:51->METAR KJFK 261251Z 04013KT 7SM -RA BKN008 OVC013 13/12 A2975 RMK AO2 SLP075 P0007 T01280122=
26/04/2017 11:51->METAR KJFK 261151Z 02013KT 10SM -RA OVC007 12/12 A2975 RMK AO2 SLP074 P0008 60034 70114 T01220117 10128 20122 53000=
26/04/2017 10:51->METAR KJFK 261051Z 02011KT 2SM R04R/6000VP6000FT +RA BR BKN005 OVC023 12/12 A2975 RMK AO2 RAB14 SLP074 VIS SE-SW 1 1/4 P0016 T01220117=
26/04/2017 09:51->METAR KJFK 260951Z 02011KT 10SM OVC006 13/12 A2974 RMK AO2 RAE03 SLP071 P0000 T01280122=
26/04/2017 08:51->METAR KJFK 260851Z 03009KT 5SM +RA BR OVC005 13/12 A2975 RMK AO2 SLP074 P0008 60010 T01280122 56016=
26/04/2017 07:51->METAR KJFK 260751Z 02010KT 2SM -RA BR OVC004 13/12 A2976 RMK AO2 SFC VIS 5 DZE46RAB46 SLP076 P0002 T01280122=
26/04/2017 06:51->METAR KJFK 260651Z 03010KT 2SM -DZ BR OVC004 13/12 A2978 RMK AO2 SFC VIS 6 DZB43 SLP084 P0000 T01280122=
26/04/2017 05:51->METAR KJFK 260551Z 02006KT 10SM OVC005 13/12 A2980 RMK AO2 RAB14E44 SLP090 P0000 60033 T01280122 10150 20117 56027=
26/04/2017 04:51->METAR KJFK 260451Z 03013KT 10SM OVC005 13/13 A2980 RMK AO2 RAE0354 SLP091 P0000 T01330128 401500106=
26/04/2017 03:51->METAR KJFK 260351Z 08015G23KT 10SM -RA OVC006 14/13 A2985 RMK AO2 SLP106 P0004 T01390133=
26/04/2017 02:51->METAR KJFK 260251Z 08013KT 8SM -RA OVC007 14/13 A2988 RMK AO2 PK WND 06031/0212 SLP117 P0003 60029 T01440133 57003=
26/04/2017 01:51->METAR KJFK 260151Z 04012KT 10SM -RA OVC009 13/13 A2987 RMK AO2 SLP116 P0017 T01330128=
26/04/2017 00:51->METAR KJFK 260051Z 04014KT 3SM RA BR BKN008 OVC016 12/12 A2989 RMK AO2 SFC VIS 4 VIS 2 W SLP121 P0009 T01220117=
25/04/2017 23:51->METAR KJFK 252351Z 06019G27KT 3SM -RA BR BKN008 OVC017 12/11 A2989 RMK AO2 PK WND 05027/2342 SFC VIS 6 SLP120 P0012 60047 T01220111 10139 20122 55011=
25/04/2017 22:51->METAR KJFK 252251Z 05017KT 2 1/2SM R04R/5000V6000FT +RA BR BKN008 OVC014 12/12 A2990 RMK AO2 TWR VIS 3 SLP125 P0018 T01220117=
25/04/2017 21:51->METAR KJFK 252151Z 05018KT 3SM R04R/5000VP6000FT RA BR BKN008 OVC016 13/12 A2992 RMK AO2 SLP131 P0008 T01280122=
25/04/2017 20:51->METAR KJFK 252051Z 06018KT 3SM R04R/5500VP6000FT RA BR BKN007 BKN011 OVC017 13/12 A2994 RMK AO2 SFC VIS 4 SLP140 P0007 60009 T01280122 57023=
25/04/2017 19:51->METAR KJFK 251951Z 05016G23KT 5SM -RA BR BKN008 OVC012 14/13 A2996 RMK AO2 SLP146 P0002 T01390128=
25/04/2017 18:51->METAR KJFK 251851Z 05018KT 10SM -RA OVC009 14/12 A2999 RMK AO2 SLP156 P0000 T01390122=
25/04/2017 17:51->METAR KJFK 251751Z 05014KT 10SM -RA OVC010 14/12 A3001 RMK AO2 RAE13B41 SLP163 CIG 008V012 P0000 60000 T01390122 10139 20111 58025=
25/04/2017 16:51->METAR KJFK 251651Z 06014KT 8SM -RA OVC008 13/12 A3005 RMK AO2 RAB1556E08B41 SLP177 P0000 T01330122=
25/04/2017 15:51->METAR KJFK 251551Z 07018KT 10SM OVC009 13/12 A3007 RMK AO2 RAE05 SLP182 P0000 T01330117=
25/04/2017 14:51->METAR KJFK 251451Z 05017KT 5SM -RA BR OVC008 13/12 A3009 RMK AO2 RAB00E17B46 SLP188 P0000 60000 T01280117 50000=
25/04/2017 13:51->METAR KJFK 251351Z 07013G20KT 8SM OVC009 12/11 A3009 RMK AO2 DZE42RAB42E43 SLP190 CIG 007V011 P0000 T01220111=
25/04/2017 12:51->METAR KJFK 251251Z 05014KT 3SM -DZ BR OVC007 12/11 A3009 RMK AO2 DZB23 SLP188 P0000 T01170106=
25/04/2017 11:51->METAR KJFK 251151Z 05018KT 10SM FEW007 OVC012 11/10 A3009 RMK AO2 RAE38 SLP188 P0005 60018 70019 T01110100 10122 20106 53004=
25/04/2017 10:51->METAR KJFK 251051Z 05014KT 2 1/2SM RA BR OVC006 11/10 A3008 RMK AO2 RAE01B27 SLP187 P0005 T01060100=
25/04/2017 09:51->METAR KJFK 250951Z 04014KT 5SM -RA BR OVC009 11/09 A3006 RMK AO2 SLP180 P0008 T01060094=
25/04/2017 08:51->METAR KJFK 250851Z 05014G20KT 10SM -RA FEW015 OVC024 11/09 A3008 RMK AO2 SLP184 P0000 60000 T01110094 56009=
25/04/2017 07:51->METAR KJFK 250751Z 05010KT 10SM -RA FEW013 OVC027 12/10 A3008 RMK AO2 RAB06 SLP184 P0000 T01170100=
25/04/2017 06:51->METAR KJFK 250651Z 06011KT 10SM SCT012 OVC039 12/10 A3009 RMK AO2 RAB29E43 SLP187 P0000 T01170100=
25/04/2017 05:51->METAR KJFK 250551Z 07010KT 10SM BKN012 OVC055 12/10 A3010 RMK AO2 RAE41 SLP193 P0000 60000 T01170100 10128 20117 58013=
25/04/2017 04:51->METAR KJFK 250451Z 07011KT 10SM -RA SCT012 OVC060 12/10 A3013 RMK AO2 RAB51 SLP201 P0000 T01170100 401390067=
25/04/2017 03:51->METAR KJFK 250351Z 06007KT 10SM FEW012 OVC060 12/09 A3014 RMK AO2 RAE39 SLP204 P0000 T01170094=
25/04/2017 02:51->METAR KJFK 250251Z 08011KT 10SM -RA OVC070 12/08 A3014 RMK AO2 RAB50 SLP206 P0000 60000 T01220078 53001=
25/04/2017 01:51->METAR KJFK 250151Z 08007KT 10SM BKN070 OVC110 12/07 A3014 RMK AO2 SLP206 T01220067=
25/04/2017 00:51->METAR KJFK 250051Z 07007KT 10SM FEW065 BKN080 BKN100 OVC150 12/04 A3014 RMK AO2 RAE01 SLP204 P0000 T01220044=
24/04/2017 23:51->METAR KJFK 242351Z 08009KT 10SM -RA FEW055 BKN080 BKN110 OVC130 12/06 A3014 RMK AO2 RAB43 SLP205 P0000 60001 T01220056 10133 20122 58007=
24/04/2017 22:51->METAR KJFK 242251Z 09008KT 10SM FEW070 BKN085 OVC110 12/08 A3015 RMK AO2 RAE36 SLP209 P0001 T01220078=
24/04/2017 21:51->METAR KJFK 242151Z 10008KT 10SM -RA SCT070 OVC090 13/06 A3015 RMK AO2 RAB49 SLP210 P0000 T01280061 $=
24/04/2017 20:51->METAR KJFK 242051Z 11008KT 10SM OVC090 12/05 A3016 RMK AO2 SLP212 T01220050 55000 $=
24/04/2017 19:51->METAR KJFK 241951Z 08008KT 10SM FEW050 OVC090 12/05 A3015 RMK AO2 SLP208 T01220050 $=
24/04/2017 18:51->METAR KJFK 241851Z 14010KT 10SM FEW085 BKN100 OVC120 13/06 A3017 RMK AO2 SLP215 T01280061 $=
24/04/2017 17:51->METAR KJFK 241751Z 12007KT 10SM BKN110 OVC170 13/07 A3016 RMK AO2 SLP212 T01330072 10139 20100 58010=
24/04/2017 16:51->METAR KJFK 241651Z 12009KT 10SM BKN120 OVC200 13/07 A3017 RMK AO2 SLP217 T01280067=
24/04/2017 15:51->METAR KJFK 241551Z 12007KT 10SM BKN120 OVC220 13/06 A3018 RMK AO2 SLP220 T01330056=
24/04/2017 14:51->METAR KJFK 241451Z 13006KT 10SM BKN130 OVC250 13/06 A3019 RMK AO2 SLP223 T01280056 51003=
24/04/2017 13:51->METAR KJFK 241351Z 08004KT 10SM BKN130 OVC250 12/07 A3019 RMK AO2 SLP222 T01170067=
24/04/2017 12:51->METAR KJFK 241251Z 11006KT 10SM BKN150 BKN250 11/08 A3019 RMK AO2 SLP222 T01060078=
24/04/2017 11:51->METAR KJFK 241151Z 11006KT 10SM BKN150 BKN250 10/09 A3018 RMK AO2 SLP220 T01000089 10100 20067 53015=
24/04/2017 10:51->METAR KJFK 241051Z 10003KT 9SM FEW012 FEW130 BKN190 BKN250 09/08 A3016 RMK AO2 SLP213 T00890083=
24/04/2017 09:51->METAR KJFK 240951Z 08004KT 10SM SCT180 08/07 A3014 RMK AO2 SLP206 T00780072=
24/04/2017 08:51->METAR KJFK 240851Z 00000KT 10SM SCT250 07/06 A3014 RMK AO2 SLP205 T00670061 55001=
24/04/2017 07:51->METAR KJFK 240751Z 08003KT 10SM SCT250 07/06 A3012 RMK AO2 SLP200 T00670061=
24/04/2017 06:51->METAR KJFK 240651Z 14003KT 9SM BKN250 08/07 A3012 RMK AO2 SLP199 T00780072=
24/04/2017 05:51->METAR KJFK 240551Z 22003KT 10SM BKN250 09/08 A3014 RMK AO2 SLP206 T00890078 10100 20083 58004=
24/04/2017 04:51->METAR KJFK 240451Z 19006KT 10SM BKN250 09/08 A3015 RMK AO2 SLP209 T00940083 401610083=
24/04/2017 03:51->METAR KJFK 240351Z 19009KT 10SM BKN250 09/08 A3015 RMK AO2 SLP208 T00940083=
24/04/2017 02:51->METAR KJFK 240251Z 19008KT 10SM BKN250 10/08 A3015 RMK AO2 SLP210 T01000083 51009=
24/04/2017 01:51->METAR KJFK 240151Z 18008KT 10SM BKN250 10/08 A3015 RMK AO2 SLP209 T01000083=
24/04/2017 00:51->METAR KJFK 240051Z 17008KT 10SM BKN250 10/07 A3013 RMK AO2 SLP204 T01000072=
23/04/2017 23:51->METAR KJFK 232351Z 17011KT 10SM SCT200 BKN250 10/06 A3012 RMK AO2 SLP200 T01000061 10144 20100 53010=
23/04/2017 22:51->METAR KJFK 232251Z 16010KT 10SM SCT200 BKN250 11/07 A3011 RMK AO2 SLP195 T01060067=
23/04/2017 21:51->METAR KJFK 232151Z 17014KT 10SM SCT200 BKN250 12/06 A3011 RMK AO2 SLP195 T01170061=
23/04/2017 20:51->METAR KJFK 232051Z 17012KT 10SM SCT190 BKN250 12/06 A3010 RMK AO2 SLP190 T01220056 55007=
23/04/2017 19:51->METAR KJFK 231951Z 17009KT 10SM FEW200 BKN250 13/06 A3009 RMK AO2 SLP189 T01280056=
23/04/2017 18:51->METAR KJFK 231851Z 17011KT 10SM SCT200 BKN250 14/06 A3011 RMK AO2 SLP194 T01390056=
23/04/2017 17:51->METAR KJFK 231751Z 18012KT 10SM FEW200 BKN250 14/05 A3012 RMK AO2 WSHFT 1643 SLP197 T01390050 10161 20100 58008=
23/04/2017 16:51->METAR KJFK 231651Z 18014KT 10SM FEW200 SCT250 15/06 A3014 RMK AO2 SLP204 T01500056=
23/04/2017 15:51->METAR KJFK 231551Z VRB04KT 10SM FEW200 SCT250 14/02 A3014 RMK AO2 SLP205 T01440017=
23/04/2017 14:51->METAR KJFK 231451Z 02008KT 10SM FEW200 SCT250 14/02 A3014 RMK AO2 SLP205 T01390022 51004=
23/04/2017 13:51->METAR KJFK 231351Z 01010KT 10SM FEW200 BKN250 13/02 A3014 RMK AO2 SLP204 T01280022=
23/04/2017 12:51->METAR KJFK 231251Z 01010KT 10SM FEW200 BKN250 12/03 A3014 RMK AO2 SLP205 T01170033=
23/04/2017 11:51->METAR KJFK 231151Z 01008KT 10SM FEW210 SCT260 11/03 A3013 RMK AO2 SLP201 70011 T01060033 10106 20083 53025=
23/04/2017 10:51->METAR KJFK 231051Z 36007KT 10SM FEW210 SCT260 08/03 A3010 RMK AO2 SLP192 T00830028=
23/04/2017 09:51->METAR KJFK 230951Z 36009KT 10SM BKN250 09/03 A3007 RMK AO2 SLP183 T00890028=
23/04/2017 08:51->METAR KJFK 230851Z 36012KT 10SM BKN220 09/03 A3005 RMK AO2 SLP175 T00890028 53008=
23/04/2017 07:51->METAR KJFK 230751Z 36009KT 10SM FEW049 FEW150 SCT250 09/03 A3003 RMK AO2 SLP170 T00890033=
23/04/2017 06:51->METAR KJFK 230651Z 36009KT 10SM FEW049 FEW150 BKN250 09/03 A3004 RMK AO2 SLP171 T00940033=
23/04/2017 05:51->METAR KJFK 230551Z 36013KT 10SM SCT049 SCT150 BKN250 10/04 A3003 RMK AO2 SLP167 T01000039 10122 20100 50011=
23/04/2017 04:51->METAR KJFK 230451Z 35013KT 10SM BKN049 11/04 A3003 RMK AO2 SLP168 T01110039 401440100=
23/04/2017 03:51->METAR KJFK 230351Z 34010KT 10SM OVC046 12/05 A3001 RMK AO2 SLP163 T01170050=
23/04/2017 02:51->METAR KJFK 230251Z 01010KT 10SM OVC039 12/05 A2999 RMK AO2 SLP156 T01170050 53008=
23/04/2017 01:51->METAR KJFK 230151Z 36006KT 10SM SCT038 BKN046 BKN120 OVC160 12/09 A2999 RMK AO2 CIG 034 W SLP154 T01220094=
23/04/2017 00:51->METAR KJFK 230051Z 00000KT 9SM FEW045 OVC110 12/11 A2998 RMK AO2 SLP150 T01170106=
22/04/2017 23:51->METAR KJFK 222351Z VRB03KT 10SM BKN045 OVC100 12/11 A2997 RMK AO2 RAE2252 SLP149 P0000 60010 T01220106 10133 20111 53007=
22/04/2017 22:51->METAR KJFK 222251Z 00000KT 9SM -RA FEW016 BKN030 OVC036 12/11 A2995 RMK AO2 SLP142 P0001 T01170106=
22/04/2017 21:51->METAR KJFK 222151Z 14005KT 6SM -RA BR SCT010 OVC015 12/11 A2995 RMK AO2 SLP143 P0003 T01170106=
22/04/2017 20:51->METAR KJFK 222051Z 23007KT 7SM -RA FEW008 BKN014 OVC022 12/11 A2995 RMK AO2 RAB1952 SLP141 P0000 60006 T01170106 53006=
22/04/2017 19:51->METAR KJFK 221951Z 01003KT 10SM FEW036 FEW060 OVC080 13/10 A2993 RMK AO2 RAE45 SLP135 P0002 T01280100=
22/04/2017 18:51->METAR KJFK 221851Z 34006KT 10SM -RA FEW017 SCT024 OVC070 13/10 A2994 RMK AO2 SLP136 P0004 T01280100=
22/04/2017 17:51->METAR KJFK 221751Z 00000KT 10SM -RA FEW020 OVC065 13/10 A2993 RMK AO2 RAB1658 SLP135 P0001 60001 T01280100 10144 20117 56006=
22/04/2017 16:51->METAR KJFK 221651Z 34012KT 10SM SCT022 OVC070 14/09 A2994 RMK AO2 SLP137 T01440094=
22/04/2017 15:51->METAR KJFK 221551Z 01010KT 10SM SCT021 SCT038 OVC075 14/09 A2994 RMK AO2 SLP138 T01390089=
22/04/2017 14:51->METAR KJFK 221451Z 03006KT 10SM BKN015 BKN038 OVC080 13/09 A2995 RMK AO2 SLP141 BKN015 V SCT 60000 T01280094 51011=
22/04/2017 13:51->METAR KJFK 221351Z 04007KT 10SM SCT013 SCT036 OVC080 12/09 A2995 RMK AO2 RAE49 SLP140 P0000 T01170094=
22/04/2017 12:51->METAR KJFK 221251Z 01007KT 10SM -RA BKN014 OVC085 12/09 A2994 RMK AO2 RAB32 SLP140 P0000 T01170094=
22/04/2017 11:51->METAR KJFK 221151Z 02009KT 10SM BKN011 BKN060 BKN090 12/09 A2992 RMK AO2 SLP130 70002 T01170089 10117 20100 51004=
22/04/2017 10:51->METAR KJFK 221051Z 02010KT 10SM BKN009 BKN130 11/09 A2991 RMK AO2 SLP127 T01110094=
22/04/2017 09:51->METAR KJFK 220951Z 02008KT 8SM OVC006 11/09 A2992 RMK AO2 SLP131 T01060094=
22/04/2017 08:51->METAR KJFK 220851Z 01007KT 10SM BKN007 OVC013 10/09 A2990 RMK AO2 SLP125 T01000094 57008=
22/04/2017 07:51->METAR KJFK 220751Z 03011KT 10SM BKN007 OVC014 10/09 A2989 RMK AO2 SLP123 T01000089=
22/04/2017 06:51->METAR KJFK 220651Z 35007KT 10SM BKN007 OVC014 10/09 A2994 RMK AO2 SLP136 T01000089=
22/04/2017 05:51->METAR KJFK 220551Z 02006KT 9SM BKN007 BKN012 OVC022 11/09 A2993 RMK AO2 DZE46 SLP134 P0000 60000 T01060089 10117 20100 50001=
22/04/2017 04:51->METAR KJFK 220451Z 03007KT 6SM -DZ BR BKN006 OVC013 10/09 A2994 RMK AO2 SLP138 P0000 T01000094 401440094=
22/04/2017 03:51->METAR KJFK 220351Z 36009KT 6SM -DZ BR BKN007 OVC014 11/09 A2994 RMK AO2 DZB47 SLP138 P0000 T01060094=
22/04/2017 02:51->METAR KJFK 220251Z 02007KT 10SM OVC014 11/09 A2993 RMK AO2 SLP133 T01060094 50006=
22/04/2017 01:51->METAR KJFK 220151Z 02007KT 10SM OVC013 11/09 A2993 RMK AO2 SLP135 T01110094=
22/04/2017 00:51->METAR KJFK 220051Z 36008KT 10SM BKN008 BKN015 OVC038 11/10 A2992 RMK AO2 SLP132 T01110100=
21/04/2017 23:51->METAR KJFK 212351Z 02009KT 10SM OVC009 12/10 A2991 RMK AO2 SLP127 T01170100 10144 20117 53004=
21/04/2017 22:51->METAR KJFK 212251Z 02009KT 10SM OVC013 13/11 A2989 RMK AO2 SLP121 T01280106=
21/04/2017 21:51->METAR KJFK 212151Z 04006KT 10SM OVC013 14/11 A2989 RMK AO2 SLP123 T01440111=
21/04/2017 20:51->METAR KJFK 212051Z 09005KT 10SM OVC014 13/11 A2989 RMK AO2 SLP122 T01330111 56014=
21/04/2017 19:51->METAR KJFK 211951Z 14006KT 10SM OVC011 13/11 A2990 RMK AO2 SLP125 T01330111=
21/04/2017 18:51->METAR KJFK 211851Z 08005KT 8SM OVC010 13/11 A2992 RMK AO2 SLP130 T01330111=
21/04/2017 17:51->METAR KJFK 211751Z 04005KT 7SM OVC008 13/11 A2993 RMK AO2 SLP136 60002 T01280106 10128 20100 56006=
21/04/2017 16:51->METAR KJFK 211651Z 03008KT 7SM OVC007 12/11 A2994 RMK AO2 SLP137 T01220106=
21/04/2017 15:51->METAR KJFK 211551Z 06007KT 6SM BR OVC008 12/11 A2994 RMK AO2 DZE19 SLP138 P0000 T01170106=
21/04/2017 14:51->METAR KJFK 211451Z 06009KT 2 1/2SM -DZ BR OVC005 11/11 A2995 RMK AO2 SFC VIS 3 SLP142 P0000 60002 T01110106 56020=
21/04/2017 13:51->METAR KJFK 211351Z 07008KT 6SM -DZ BR BKN008 OVC013 11/10 A2997 RMK AO2 RAE23DZB49 SLP148 P0000 T01110100=
21/04/2017 12:51->METAR KJFK 211251Z 07004KT 5SM -RA BR BKN006 OVC014 11/10 A2998 RMK AO2 RAE09B39DZB09E39 SLP152 P0002 T01060100=
21/04/2017 11:51->METAR KJFK 211151Z 07005KT 4SM -RA BR BKN007 OVC018 10/09 A3001 RMK AO2 RAB03 SLP162 P0000 60001 70007 T01000094 10100 20094 50011=
21/04/2017 10:51->METAR KJFK 211051Z 04007KT 8SM BKN006 OVC022 10/09 A3002 RMK AO2 SLP166 VCSH NW-N T01000089=
21/04/2017 09:51->METAR KJFK 210951Z 09010KT 10SM OVC005 09/09 A2999 RMK AO2 SLP155 T00940089=
21/04/2017 08:51->METAR KJFK 210851Z 09014G21KT 10SM OVC005 09/09 A2998 RMK AO2 RAE01 SLP151 P0000 60001 T00940089 56019=
21/04/2017 07:51->METAR KJFK 210751Z 10017G20KT 10SM -RA OVC006 09/09 A2999 RMK AO2 RAE01B37 SLP155 P0000 T00940089=
21/04/2017 06:51->METAR KJFK 210651Z 09010KT 10SM -RA OVC006 10/09 A3000 RMK AO2 SLP160 P0001 T01000089=
21/04/2017 05:51->METAR KJFK 210551Z 09011KT 10SM -RA OVC008 10/09 A3003 RMK AO2 RAB03 PRESFR SLP170 P0000 60000 T01000089 10128 20100 58008=
21/04/2017 04:51->METAR KJFK 210451Z 10012KT 10SM OVC008 11/09 A3005 RMK AO2 SLP174 T01060094 401780100=
21/04/2017 03:51->METAR KJFK 210351Z 10012KT 10SM SCT007 OVC045 11/10 A3006 RMK AO2 SLP178 T01060100=
21/04/2017 02:51->METAR KJFK 210251Z 10009KT 10SM FEW011 OVC047 12/10 A3006 RMK AO2 SLP178 T01170100 58001=
21/04/2017 01:51->METAR KJFK 210151Z 11012KT 10SM BKN049 BKN065 BKN120 OVC230 12/10 A3008 RMK AO2 SLP185 T01170100=
21/04/2017 00:51->METAR KJFK 210051Z 12008KT 10SM FEW038 SCT050 BKN070 OVC240 12/10 A3007 RMK AO2 SLP183 T01220100=
20/04/2017 23:51->METAR KJFK 202351Z 10006KT 10SM FEW031 OVC250 13/11 A3006 RMK AO2 SLP179 T01280106 10178 20128 53005=
20/04/2017 22:51->METAR KJFK 202251Z 14005KT 10SM BKN032 OVC250 13/11 A3005 RMK AO2 SLP177 T01330111=
20/04/2017 21:51->METAR KJFK 202151Z 15009KT 10SM SCT033 BKN250 15/12 A3004 RMK AO2 SLP172 T01500117=
20/04/2017 20:51->METAR KJFK 202051Z 15008KT 10SM SCT030 BKN250 16/12 A3005 RMK AO2 SLP174 T01610117 56013=
20/04/2017 19:51->METAR KJFK 201951Z 18007KT 10SM SCT029 SCT060 BKN250 16/12 A3006 RMK AO2 SLP178 T01610117=
20/04/2017 18:51->METAR KJFK 201851Z 20009KT 10SM SCT025 BKN075 BKN250 17/12 A3006 RMK AO2 SLP180 SCT V BKN T01670122=
20/04/2017 17:51->METAR KJFK 201751Z 03006KT 10SM SCT022 BKN031 BKN075 17/12 A3008 RMK AO2 SLP187 SCT V BKN 60006 T01720117 10172 20106 56016=
20/04/2017 16:51->METAR KJFK 201651Z 02007KT 340V070 10SM FEW018 BKN032 BKN080 16/11 A3010 RMK AO2 SLP191 T01610111=
20/04/2017 15:51->METAR KJFK 201551Z 01006KT 7SM BKN013 OVC030 14/11 A3012 RMK AO2 SLP198 T01440111=
20/04/2017 14:51->METAR KJFK 201451Z 00000KT 6SM BR OVC009 13/11 A3013 RMK AO2 SLP203 CIG 007V011 60006 T01330111 56006=
20/04/2017 13:51->METAR KJFK 201351Z 00000KT 6SM BR BKN007 BKN035 OVC080 12/11 A3014 RMK AO2 RAE10 SLP205 P0000 T01220106=
20/04/2017 12:51->METAR KJFK 201251Z 11003KT 4SM RA BR BKN006 BKN022 OVC080 11/10 A3013 RMK AO2 SLP203 BKN006 V SCT P0006 T01060100=
20/04/2017 11:51->METAR KJFK 201151Z 00000KT 7SM -RA BKN009 OVC018 11/09 A3015 RMK AO2 RAB1057 SLP210 P0002 60011 70011 T01060094 10106 20100 53008=
20/04/2017 10:51->METAR KJFK 201051Z 00000KT 10SM FEW007 BKN019 OVC044 11/09 A3013 RMK AO2 RAE12 SLP202 P0000 T01060094=
20/04/2017 09:51->METAR KJFK 200951Z 12006KT 9SM -RA BKN020 OVC044 11/09 A3011 RMK AO2 RAB06 SLP195 P0009 T01060094=
20/04/2017 08:51->METAR KJFK 200851Z 10004KT 10SM OVC023 11/08 A3013 RMK AO2 RAB23E32 SLP202 P0000 60000 T01060083 57023=
20/04/2017 07:51->METAR KJFK 200751Z 08003KT 10SM OVC027 11/08 A3015 RMK AO2 SLP210 T01060083=
20/04/2017 06:51->METAR KJFK 200651Z 00000KT 10SM OVC030 11/08 A3017 RMK AO2 SLP216 T01060083=
20/04/2017 05:51->METAR KJFK 200551Z 17004KT 10SM OVC033 11/08 A3020 RMK AO2 SLP225 60000 T01060083 10106 20094 58021=
20/04/2017 04:51->METAR KJFK 200451Z 18004KT 10SM OVC034 10/08 A3022 RMK AO2 SLP234 T01000083 401110072=
20/04/2017 03:51->METAR KJFK 200351Z 15005KT 10SM OVC039 10/08 A3024 RMK AO2 SLP240 T01000083=
20/04/2017 02:51->METAR KJFK 200251Z 16007KT 10SM FEW013 FEW025 OVC042 10/08 A3026 RMK AO2 RAE36 SLP245 P0000 60000 T01000083 55016=
20/04/2017 01:51->METAR KJFK 200151Z 14009KT 10SM -RA FEW013 OVC029 09/08 A3029 RMK AO2 RAB50 SLP258 P0000 T00940078=
20/04/2017 00:51->METAR KJFK 200051Z 14008KT 10SM FEW013 OVC042 09/07 A3031 RMK AO2 RAB13E32 SLP262 P0000 T00940072=
19/04/2017 23:51->METAR KJFK 192351Z 14010KT 10SM FEW016 FEW040 OVC048 09/07 A3033 RMK AO2 SLP268 60000 T00940067 10111 20089 58016=
19/04/2017 22:51->METAR KJFK 192251Z 13012KT 10SM FEW016 OVC060 09/06 A3034 RMK AO2 RAB00E15 SLP273 P0000 T00890061=
19/04/2017 21:51->METAR KJFK 192151Z 12010KT 10SM FEW016 OVC060 09/06 A3037 RMK AO2 SLP284 T00890061=
19/04/2017 20:51->METAR KJFK 192051Z 13013KT 10SM FEW017 BKN065 OVC095 09/06 A3037 RMK AO2 RAB27E50 SLP284 P0000 60000 T00890061 56024=
19/04/2017 19:51->METAR KJFK 191951Z 13014KT 10SM FEW018 BKN110 OVC130 10/05 A3039 RMK AO2 SLP291 T01000050=
19/04/2017 18:51->METAR KJFK 191851Z 13015KT 9SM FEW018 SCT110 BKN130 BKN260 11/05 A3042 RMK AO2 SLP299 T01110050=
19/04/2017 17:51->METAR KJFK 191751Z 12017KT 10SM FEW020 SCT027 BKN070 BKN130 11/05 A3044 RMK AO2 SLP309 SCT V BKN T01060050 10106 20078 58023=
19/04/2017 16:51->METAR KJFK 191651Z 12016KT 10SM FEW021 SCT027 BKN070 BKN270 10/04 A3047 RMK AO2 SLP318 T01000044=
19/04/2017 15:51->METAR KJFK 191551Z 13012KT 10SM FEW021 BKN070 10/04 A3051 RMK AO2 SLP329 T01000039=
19/04/2017 14:51->METAR KJFK 191451Z 12012KT 10SM BKN018 BKN075 BKN280 08/04 A3051 RMK AO2 SLP332 T00830039 58013=
19/04/2017 13:51->METAR KJFK 191351Z 13014KT 10SM BKN019 08/04 A3053 RMK AO2 SLP339 T00830039=
19/04/2017 12:51->METAR KJFK 191251Z 11011KT 10SM BKN019 BKN260 08/04 A3054 RMK AO2 SLP339 T00830039=
19/04/2017 11:51->METAR KJFK 191151Z 13011KT 10SM BKN020 BKN260 08/04 A3055 RMK AO2 SLP344 T00780039 10083 20072 53003=
19/04/2017 10:51->METAR KJFK 191051Z 12010KT 10SM SCT021 BKN260 07/03 A3053 RMK AO2 SLP339 T00720033=
19/04/2017 09:51->METAR KJFK 190951Z 10010KT 10SM SCT020 OVC260 07/03 A3054 RMK AO2 SLP340 T00720033=
19/04/2017 08:51->METAR KJFK 190851Z 11008KT 10SM SCT018 BKN250 07/04 A3054 RMK AO2 SLP341 T00720039 53002=
19/04/2017 07:51->METAR KJFK 190751Z 11010KT 10SM BKN017 BKN250 08/04 A3053 RMK AO2 SLP338 T00780039=
19/04/2017 06:51->METAR KJFK 190651Z 11013KT 10SM BKN017 BKN250 08/05 A3053 RMK AO2 SLP336 T00780050=
19/04/2017 05:51->METAR KJFK 190551Z 11011KT 10SM FEW015 SCT250 08/05 A3053 RMK AO2 SLP339 T00830050 10100 20078 53004=
19/04/2017 04:51->METAR KJFK 190451Z 10010KT 10SM SCT015 08/06 A3054 RMK AO2 SLP339 T00830056 401670083=
19/04/2017 03:51->METAR KJFK 190351Z 10015KT 10SM BKN017 BKN250 08/06 A3052 RMK AO2 SLP333 T00830056=
19/04/2017 02:51->METAR KJFK 190251Z 11011KT 10SM FEW015 FEW250 09/06 A3052 RMK AO2 SLP334 T00890061 51020=
19/04/2017 01:51->METAR KJFK 190151Z 11011KT 10SM FEW250 09/05 A3051 RMK AO2 SLP332 T00940050=
19/04/2017 00:51->METAR KJFK 190051Z 13009KT 10SM FEW250 09/06 A3049 RMK AO2 SLP324 T00940056=
18/04/2017 23:51->METAR KJFK 182351Z 15008KT 10SM FEW250 10/06 A3046 RMK AO2 SLP315 T01000056 10144 20100 53018=
18/04/2017 22:51->METAR KJFK 182251Z 15010KT 10SM SCT250 11/05 A3044 RMK AO2 SLP307 T01060050=
18/04/2017 21:51->METAR KJFK 182151Z 15016KT 10SM FEW065 SCT250 12/04 A3042 RMK AO2 SLP300 T01170044=
18/04/2017 20:51->METAR KJFK 182051Z 14014KT 10SM FEW065 SCT250 13/04 A3041 RMK AO2 SLP297 T01280044 53004=
18/04/2017 19:51->METAR KJFK 181951Z 14014KT 10SM FEW065 SCT250 13/03 A3039 RMK AO2 SLP291 T01330033=
18/04/2017 18:51->METAR KJFK 181851Z 16016KT 10SM FEW065 SCT250 14/03 A3039 RMK AO2 SLP291 T01390033=
18/04/2017 17:51->METAR KJFK 181751Z 17013KT 10SM FEW065 14/05 A3040 RMK AO2 SLP293 T01440050 10167 20117 53004=
18/04/2017 16:51->METAR KJFK 181651Z 18011KT 10SM FEW065 15/03 A3039 RMK AO2 SLP290 T01500033=
18/04/2017 15:51->METAR KJFK 181551Z 02007KT 340V060 10SM FEW060 16/02 A3039 RMK AO2 SLP290 T01610017=
18/04/2017 14:51->METAR KJFK 181451Z 04005G16KT 10SM FEW060 16/01 A3039 RMK AO2 SLP289 T01560011 51019=
18/04/2017 13:51->METAR KJFK 181351Z 01009KT 10SM FEW060 FEW250 14/02 A3038 RMK AO2 SLP285 T01440022=
18/04/2017 12:51->METAR KJFK 181251Z 02010KT 10SM FEW060 FEW250 13/02 A3035 RMK AO2 SLP277 T01330017=
18/04/2017 11:51->METAR KJFK 181151Z 02010KT 10SM FEW060 FEW110 FEW250 12/02 A3033 RMK AO2 SLP271 T01170022 10144 20100 51032=
18/04/2017 10:51->METAR KJFK 181051Z 36007KT 10SM FEW110 FEW250 10/02 A3032 RMK AO2 SLP265 T01000022=
18/04/2017 09:51->METAR KJFK 180951Z 01010KT 10SM FEW250 11/00 A3028 RMK AO2 SLP252 T01110000=
18/04/2017 08:51->METAR KJFK 180851Z 36014KT 10SM SCT260 12/M01 A3024 RMK AO2 SLP238 T01171006 53023=
18/04/2017 07:51->METAR KJFK 180751Z 36009KT 10SM BKN260 12/00 A3022 RMK AO2 SLP232 T01220000=
18/04/2017 06:51->METAR KJFK 180651Z 35014KT 10SM BKN260 13/M01 A3018 RMK AO2 SLP221 T01331011=
18/04/2017 05:51->METAR KJFK 180551Z 35013KT 10SM BKN260 14/M02 A3017 RMK AO2 SLP216 T01441022 10194 20144 51015=
18/04/2017 04:51->METAR KJFK 180451Z 36010KT 10SM BKN250 15/M02 A3016 RMK AO2 SLP213 T01501022 402440150=
18/04/2017 03:51->METAR KJFK 180351Z 35019KT 10SM BKN250 16/M03 A3015 RMK AO2 PK WND 35029/0304 SLP210 T01611028=
18/04/2017 02:51->METAR KJFK 180251Z 35024G29KT 10SM BKN240 17/M03 A3012 RMK AO2 PK WND 34029/0251 SLP200 T01721033 51024=
18/04/2017 01:51->METAR KJFK 180151Z 34015G21KT 10SM SCT220 BKN250 18/M02 A3011 RMK AO2 SLP196 T01781022=
18/04/2017 00:51->METAR KJFK 180051Z 35014KT 10SM BKN230 19/M02 A3009 RMK AO2 SLP188 T01891022=
17/04/2017 23:51->METAR KJFK 172351Z 34017G26KT 10SM FEW170 BKN240 19/M02 A3005 RMK AO2 PK WND 36026/2349 SLP176 T01941022 10244 20194 53027=
17/04/2017 22:51->METAR KJFK 172251Z 33017G23KT 10SM FEW170 BKN250 21/M01 A3001 RMK AO2 SLP162 T02111011=
17/04/2017 21:51->METAR KJFK 172151Z 32013G19KT 10SM SCT170 SCT250 22/M01 A2999 RMK AO2 PK WND 34026/2114 SLP154 T02221006=
17/04/2017 20:51->METAR KJFK 172051Z 33018G24KT 10SM SCT180 BKN250 23/00 A2997 RMK AO2 SLP148 T02280000 53005=
17/04/2017 19:51->METAR KJFK 171951Z 32013G22KT 10SM SCT160 SCT190 BKN250 23/01 A2996 RMK AO2 SLP144 T02330006=
17/04/2017 18:51->METAR KJFK 171851Z 32011G20KT 10SM SCT140 BKN250 23/04 A2995 RMK AO2 SLP143 T02280044=
17/04/2017 17:51->METAR KJFK 171751Z 31014KT 10SM BKN130 BKN180 BKN250 22/04 A2996 RMK AO2 SLP143 60000 T02170044 10233 20200 58005=
17/04/2017 16:51->METAR KJFK 171651Z 30014G21KT 10SM FEW110 BKN160 BKN250 23/04 A2996 RMK AO2 SLP144 T02330044=
17/04/2017 15:51->METAR KJFK 171551Z 31014KT 10SM BKN120 BKN200 21/06 A2998 RMK AO2 RAB06E27 SLP150 VCSH E-S P0000 T02060056=
17/04/2017 14:51->METAR KJFK 171451Z 33013KT 10SM FEW060 BKN110 OVC200 21/06 A2997 RMK AO2 SLP149 VIRGA NW-NE VCSH S 60000 T02060056 53016=
17/04/2017 13:51->METAR KJFK 171351Z 30014KT 10SM FEW055 BKN090 OVC200 21/07 A2995 RMK AO2 RAB37E46 SLP142 P0000 T02060072=
17/04/2017 12:51->METAR KJFK 171251Z 31010KT 10SM FEW080 BKN130 BKN220 21/12 A2994 RMK AO2 SLP137 T02060117=
17/04/2017 11:51->METAR KJFK 171151Z 31010KT 10SM FEW085 FEW120 BKN220 21/15 A2993 RMK AO2 SLP133 70001 T02060150 10211 20183 51020=
17/04/2017 10:51->METAR KJFK 171051Z 27008KT 10SM FEW120 BKN210 19/16 A2992 RMK AO2 SLP131 T01890156=
17/04/2017 09:51->METAR KJFK 170951Z 27010KT 10SM FEW120 BKN220 18/16 A2989 RMK AO2 SLP121 T01830156=
17/04/2017 08:51->METAR KJFK 170851Z 28010KT 10SM CLR 19/16 A2987 RMK AO2 SLP114 T01940156 55000=
17/04/2017 07:51->METAR KJFK 170751Z 27011KT 10SM FEW120 19/16 A2986 RMK AO2 SLP110 T01940156=
17/04/2017 06:51->METAR KJFK 170651Z 26007KT 10SM SCT120 19/15 A2986 RMK AO2 SLP111 T01940150=
17/04/2017 05:51->METAR KJFK 170551Z 25007KT 10SM BKN120 18/14 A2987 RMK AO2 SLP114 T01780144 10256 20178 53001=
17/04/2017 04:51->METAR KJFK 170451Z 27011KT 10SM FEW100 BKN140 21/15 A2987 RMK AO2 SLP114 T02110150 402830106=
17/04/2017 03:51->METAR KJFK 170351Z 27015KT 10SM BKN110 22/14 A2986 RMK AO2 SLP110 T02170139=
17/04/2017 02:51->METAR KJFK 170251Z 28014G22KT 10SM FEW075 OVC110 23/14 A2987 RMK AO2 PK WND 31030/0205 SLP113 T02280139 50025=
17/04/2017 01:51->METAR KJFK 170151Z 32020G31KT 10SM FEW040 BKN080 BKN090 23/16 A2987 RMK AO2 PK WND 33031/0133 WSHFT 0116 SLP116 T02330156=
17/04/2017 00:51->METAR KJFK 170051Z 24015KT 10SM SCT120 SCT250 23/13 A2982 RMK AO2 SLP098 T02330128=
16/04/2017 23:51->METAR KJFK 162351Z 22013KT 10SM SCT090 SCT250 24/13 A2979 RMK AO2 SLP089 60001 T02390128 10283 20233 55014=
16/04/2017 22:51->METAR KJFK 162251Z 23016KT 10SM FEW045 FEW080 SCT140 SCT250 24/14 A2978 RMK AO2 SLP085 T02390139=
16/04/2017 21:51->METAR KJFK 162151Z 24009KT 10SM SCT080 SCT130 26/16 A2979 RMK AO2 PK WND 27041/2053 WSHFT 2046 RAE08 SLP088 VCSH S P0001 T02610156=
16/04/2017 20:51->METAR KJFK 162051Z 25016KT 10SM -RA FEW050 BKN090 BKN110 BKN250 25/12 A2984 RMK AO2 RAB49 PRESRR SLP103 P0000 60000 T02500122 55014=
16/04/2017 19:51->METAR KJFK 161951Z 23016KT 10SM FEW040 SCT080 SCT120 BKN250 27/13 A2982 RMK AO2 SLP097 T02670128=
16/04/2017 18:51->METAR KJFK 161851Z 20013KT 10SM SCT050 SCT100 BKN250 24/13 A2986 RMK AO2 SLP110 T02440128=
16/04/2017 17:51->METAR KJFK 161751Z 19013KT 10SM FEW070 SCT250 25/14 A2988 RMK AO2 SLP117 T02500139 10283 20150 58031=
16/04/2017 16:51->METAR KJFK 161651Z 23015KT 10SM FEW060 FEW140 SCT250 28/14 A2991 RMK AO2 SLP129 T02780144=
16/04/2017 15:51->METAR KJFK 161551Z 23012KT 10SM FEW095 SCT140 BKN250 26/15 A2995 RMK AO2 SLP141 T02560150=
16/04/2017 14:51->METAR KJFK 161451Z 24009KT 10SM SCT095 SCT140 BKN250 21/15 A2997 RMK AO2 SLP148 T02060150 58014=
16/04/2017 13:51->METAR KJFK 161351Z 23012KT 10SM FEW090 SCT140 BKN250 19/15 A2999 RMK AO2 SLP155 T01940150=
16/04/2017 12:51->METAR KJFK 161251Z 23010KT 9SM FEW100 FEW140 SCT250 18/15 A3000 RMK AO2 SLP158 T01780150=
16/04/2017 11:51->METAR KJFK 161151Z 22009KT 6SM BR FEW100 BKN150 BKN250 16/14 A3001 RMK AO2 SLP162 T01560144 10156 20106 56001=
16/04/2017 10:51->METAR KJFK 161051Z 24007KT 5SM BR FEW100 BKN140 BKN250 13/13 A3001 RMK AO2 SLP162 T01330133=
16/04/2017 09:51->METAR KJFK 160951Z 22006KT 7SM BKN095 BKN130 BKN250 14/13 A3001 RMK AO2 SLP161 T01390133=
16/04/2017 08:51->METAR KJFK 160851Z 22009KT 8SM SCT130 SCT250 13/13 A3001 RMK AO2 SLP162 T01330128 56017=
16/04/2017 07:51->METAR KJFK 160751Z 16003KT 6SM BR SCT140 BKN250 11/11 A3002 RMK AO2 SLP165 T01110111=
16/04/2017 06:51->METAR KJFK 160651Z 18004KT 6SM BR SCT140 BKN250 11/11 A3004 RMK AO2 SLP171 T01110106=
16/04/2017 05:51->METAR KJFK 160551Z 19008KT 7SM BKN140 11/11 A3006 RMK AO2 SLP179 60000 T01110111 10128 20111 56026=
16/04/2017 04:51->METAR KJFK 160451Z 19007KT 8SM FEW033 FEW060 BKN120 BKN150 12/11 A3008 RMK AO2 RAE20 SLP186 P0000 T01170111 401440067=
16/04/2017 03:51->METAR KJFK 160351Z 19008KT 7SM -RA SCT033 SCT070 BKN110 BKN170 12/11 A3011 RMK AO2 RAB46 SLP195 P0000 T01170111=
16/04/2017 02:51->METAR KJFK 160251Z 18011KT 10SM FEW033 BKN120 BKN200 12/11 A3014 RMK AO2 SLP205 T01220111 58017=
16/04/2017 01:51->METAR KJFK 160151Z 19014KT 10SM FEW038 SCT130 OVC170 12/11 A3016 RMK AO2 SLP212 T01220111=
16/04/2017 00:51->METAR KJFK 160051Z 18014KT 10SM BKN038 BKN110 OVC170 13/11 A3017 RMK AO2 SLP216 T01280111=
15/04/2017 23:51->METAR KJFK 152351Z 18015KT 10SM SCT022 OVC042 13/11 A3019 RMK AO2 SLP221 T01280106 10144 20122 56014=
15/04/2017 22:51->METAR KJFK 152251Z 17012KT 10SM OVC022 12/10 A3020 RMK AO2 SLP226 T01220100=
15/04/2017 21:51->METAR KJFK 152151Z 18014KT 10SM OVC023 13/09 A3021 RMK AO2 SLP229 T01280094=
15/04/2017 20:51->METAR KJFK 152051Z 17016G23KT 10SM BKN034 BKN042 OVC055 13/08 A3023 RMK AO2 SLP235 T01280083 56030=
15/04/2017 19:51->METAR KJFK 151951Z AUTO 17017KT 10SM BKN048 OVC060 13/08 A3025 RMK AO2 SLP242 T01280078=
15/04/2017 18:51->METAR KJFK 151851Z 17016KT 10SM BKN055 BKN065 OVC080 14/07 A3029 RMK AO2 SLP255 T01390067=
15/04/2017 17:51->METAR KJFK 151751Z 17016KT 10SM OVC055 12/06 A3032 RMK AO2 SLP265 T01220061 10139 20100 58026=
15/04/2017 16:51->METAR KJFK 151651Z 17014KT 10SM OVC060 12/06 A3035 RMK AO2 SLP276 T01220061=
15/04/2017 15:51->METAR KJFK 151551Z 16011G19KT 10SM BKN065 BKN085 OVC250 14/06 A3037 RMK AO2 SLP282 T01390061=
15/04/2017 14:51->METAR KJFK 151451Z 18010KT 10SM BKN080 BKN250 13/06 A3039 RMK AO2 SLP291 T01330061 58006=
15/04/2017 13:51->METAR KJFK 151351Z 16006KT 10SM BKN080 BKN250 12/08 A3041 RMK AO2 SLP296 T01220078=
15/04/2017 12:51->METAR KJFK 151251Z 15005KT 10SM SCT085 SCT250 11/07 A3041 RMK AO2 SLP298 T01110067=
15/04/2017 11:51->METAR KJFK 151151Z 18004KT 10SM FEW090 FEW250 10/06 A3041 RMK AO2 SLP298 T01000061 10100 20067 53004=
15/04/2017 10:51->METAR KJFK 151051Z 18005KT 10SM FEW250 07/06 A3040 RMK AO2 SLP293 T00720056=
15/04/2017 09:51->METAR KJFK 150951Z 14004KT 10SM FEW250 07/04 A3040 RMK AO2 SLP292 T00670044=
15/04/2017 08:51->METAR KJFK 150851Z 00000KT 10SM FEW250 07/04 A3040 RMK AO2 SLP293 T00670044 58004=
15/04/2017 07:51->METAR KJFK 150751Z 20003KT 10SM FEW250 08/06 A3041 RMK AO2 SLP296 T00830056=
15/04/2017 06:51->METAR KJFK 150651Z 22005KT 10SM FEW250 08/06 A3041 RMK AO2 SLP297 T00780056=
15/04/2017 05:51->METAR KJFK 150551Z 21004KT 10SM FEW250 08/06 A3041 RMK AO2 SLP297 T00780061 10106 20078 58000=
15/04/2017 04:51->METAR KJFK 150451Z 17003KT 10SM SCT250 08/07 A3042 RMK AO2 SLP299 T00830067 401560083=
15/04/2017 03:51->METAR KJFK 150351Z 18004KT 10SM SCT250 09/07 A3041 RMK AO2 SLP298 T00890067=
15/04/2017 02:51->METAR KJFK 150251Z 20007KT 10SM FEW250 09/06 A3041 RMK AO2 SLP297 T00940061 51014=
15/04/2017 01:51->METAR KJFK 150151Z 20008KT 10SM FEW250 10/06 A3041 RMK AO2 SLP295 T01000061=
15/04/2017 00:51->METAR KJFK 150051Z 20010KT 10SM FEW250 10/04 A3039 RMK AO2 SLP292 T01000044=
14/04/2017 23:51->METAR KJFK 142351Z 18009KT 10SM FEW250 11/04 A3037 RMK AO2 SLP283 T01060044 10156 20106 53003=
14/04/2017 22:51->METAR KJFK 142251Z 18011KT 10SM FEW250 12/04 A3037 RMK AO2 SLP282 T01170044=
14/04/2017 21:51->METAR KJFK 142151Z 17010KT 10SM FEW050 FEW250 14/02 A3036 RMK AO2 SLP280 T01390017=
14/04/2017 20:51->METAR KJFK 142051Z 17010KT 10SM FEW050 FEW250 14/03 A3036 RMK AO2 SLP280 T01390028 56012=
14/04/2017 19:51->METAR KJFK 141951Z 18009KT 10SM FEW050 FEW095 SCT250 14/02 A3037 RMK AO2 SLP283 T01440017=
14/04/2017 18:51->METAR KJFK 141851Z 18010KT 10SM FEW050 FEW095 FEW110 BKN250 15/02 A3038 RMK AO2 SLP288 T01500017=
14/04/2017 17:51->METAR KJFK 141751Z 17009KT 10SM FEW095 SCT110 SCT250 16/01 A3040 RMK AO2 SLP292 T01560011 10156 20106 56010=
14/04/2017 16:51->METAR KJFK 141651Z 17007KT 150V210 10SM SCT095 SCT140 15/01 A3041 RMK AO2 SLP295 T01500011=
14/04/2017 15:51->METAR KJFK 141551Z 20005KT 10SM BKN090 BKN140 BKN250 14/01 A3042 RMK AO2 SLP299 T01440006=
14/04/2017 14:51->METAR KJFK 141451Z 00000KT 10SM BKN090 BKN140 14/M01 A3043 RMK AO2 SLP302 T01441006 51007=
14/04/2017 13:51->METAR KJFK 141351Z 03003KT 10SM BKN090 BKN140 BKN250 13/M01 A3042 RMK AO2 SLP302 T01281006=
14/04/2017 12:51->METAR KJFK 141251Z 04005KT 10SM BKN100 BKN140 BKN250 12/M01 A3041 RMK AO2 SLP297 T01171011=
14/04/2017 11:51->METAR KJFK 141151Z 02008KT 10SM FEW110 BKN140 11/M02 A3041 RMK AO2 SLP296 T01061017 10106 20083 53010=
14/04/2017 10:51->METAR KJFK 141051Z 36006KT 10SM FEW110 BKN140 BKN250 09/M01 A3040 RMK AO2 SLP292 VIRGA N AND W-NW T00941011=
14/04/2017 09:51->METAR KJFK 140951Z 36008KT 10SM BKN140 BKN250 09/M01 A3038 RMK AO2 SLP289 T00941011=
14/04/2017 08:51->METAR KJFK 140851Z 36007KT 10SM FEW250 08/M01 A3038 RMK AO2 SLP286 T00831011 53005=
14/04/2017 07:51->METAR KJFK 140751Z 36005KT 10SM FEW250 09/01 A3037 RMK AO2 SLP284 T00890006=
14/04/2017 06:51->METAR KJFK 140651Z 35003KT 10SM FEW250 11/00 A3037 RMK AO2 SLP283 T01060000=
14/04/2017 05:51->METAR KJFK 140551Z 00000KT 10SM FEW250 10/01 A3036 RMK AO2 SLP281 T01000011 10161 20100 50001=
14/04/2017 04:51->METAR KJFK 140451Z 05003KT 10SM FEW250 11/00 A3036 RMK AO2 SLP282 T01110000 401890094=
14/04/2017 03:51->METAR KJFK 140351Z 01005KT 10SM SCT250 12/M01 A3037 RMK AO2 SLP284 T01221006=
14/04/2017 02:51->METAR KJFK 140251Z 01008KT 10SM FEW110 SCT170 BKN260 14/M02 A3036 RMK AO2 SLP281 T01391022 53012=
14/04/2017 01:51->METAR KJFK 140151Z 01007KT 10SM FEW110 SCT180 BKN250 14/M02 A3035 RMK AO2 SLP275 T01441017=
14/04/2017 00:51->METAR KJFK 140051Z 33012KT 10SM SCT110 BKN150 OVC250 16/M02 A3034 RMK AO2 SLP274 T01611017=
13/04/2017 23:51->METAR KJFK 132351Z 16004KT 10SM BKN170 OVC250 13/04 A3033 RMK AO2 SLP269 T01280044 10189 20128 53010=
13/04/2017 22:51->METAR KJFK 132251Z 20007KT 10SM FEW150 BKN210 BKN250 15/03 A3031 RMK AO2 SLP263 T01500028=
13/04/2017 21:51->METAR KJFK 132151Z 04010KT 10SM FEW014 SCT210 BKN250 17/M01 A3030 RMK AO2 SLP260 T01721006=
13/04/2017 20:51->METAR KJFK 132051Z 34011KT 10SM BKN250 18/00 A3030 RMK AO2 SLP259 T01830000 56012=
13/04/2017 19:51->METAR KJFK 131951Z 10SM BKN250 17/00 A3030 RMK AO2 SLP260 T01720000=
13/04/2017 18:51->METAR KJFK 131851Z 34012G19KT 10SM SCT250 17/00 A3032 RMK AO2 SLP267 T01720000=
13/04/2017 17:51->METAR KJFK 131751Z 33013KT 10SM SCT250 17/00 A3033 RMK AO2 SLP271 T01670000 10167 20100 56010=
13/04/2017 16:51->METAR KJFK 131651Z 33012G19KT 10SM SCT250 15/00 A3034 RMK AO2 SLP273 T01500000=
13/04/2017 15:51->METAR KJFK 131551Z 34012G21KT 10SM FEW180 BKN260 14/00 A3036 RMK AO2 SLP279 T01390000=
13/04/2017 14:51->METAR KJFK 131451Z 33013KT 10SM SCT180 BKN260 12/00 A3036 RMK AO2 PK WND 32026/1409 SLP282 T01220000 50003=
13/04/2017 13:51->METAR KJFK 131351Z 33019KT 10SM SCT230 BKN280 12/01 A3037 RMK AO2 SLP284 T01170006=
13/04/2017 12:51->METAR KJFK 131251Z 34015KT 10SM BKN280 11/01 A3036 RMK AO2 SLP279 T01060006=
13/04/2017 11:51->METAR KJFK 131151Z 33019G24KT 10SM BKN250 11/01 A3035 RMK AO2 SLP278 70005 T01060011 10133 20094 53013=
13/04/2017 10:51->METAR KJFK 131051Z 33013KT 10SM SCT250 10/01 A3034 RMK AO2 SLP274 T01000011=
13/04/2017 09:51->METAR KJFK 130951Z 32016KT 10SM SCT250 09/01 A3032 RMK AO2 SLP267 T00940006=
13/04/2017 08:51->METAR KJFK 130851Z 32012KT 10SM FEW250 10/01 A3032 RMK AO2 SLP266 T01000011 53014=
13/04/2017 07:51->METAR KJFK 130751Z 33009KT 10SM FEW250 11/03 A3030 RMK AO2 SLP260 T01110028=
13/04/2017 06:51->METAR KJFK 130651Z 35007KT 10SM FEW250 12/06 A3029 RMK AO2 SLP257 T01170056=
13/04/2017 05:51->METAR KJFK 130551Z 36012KT 10SM FEW250 13/06 A3028 RMK AO2 SLP252 T01330061 10161 20128 51018=
13/04/2017 04:51->METAR KJFK 130451Z 34013KT 10SM CLR 15/09 A3027 RMK AO2 SLP249 T01500089 402280111=
13/04/2017 03:51->METAR KJFK 130351Z 33009KT 10SM CLR 14/11 A3024 RMK AO2 SLP240 T01390106=
13/04/2017 02:51->METAR KJFK 130251Z 03005KT 10SM FEW050 FEW250 14/11 A3022 RMK AO2 SLP234 T01390111 51021=
13/04/2017 01:51->METAR KJFK 130151Z 00000KT 10SM CLR 13/11 A3022 RMK AO2 SLP231 T01330106=
13/04/2017 00:51->METAR KJFK 130051Z 21007KT 10SM FEW250 14/11 A3021 RMK AO2 SLP229 T01390111=
12/04/2017 23:51->METAR KJFK 122351Z 19012KT 9SM FEW050 SCT250 13/12 A3016 RMK AO2 SLP213 T01330117 10228 20133 53012=
12/04/2017 22:51->METAR KJFK 122251Z 17009KT 10SM FEW050 BKN250 19/12 A3013 RMK AO2 SLP204 T01940122=
12/04/2017 21:51->METAR KJFK 122151Z 20006KT 10SM FEW050 BKN250 22/12 A3013 RMK AO2 SLP202 T02220117=
12/04/2017 20:51->METAR KJFK 122051Z 20009KT 10SM FEW045 FEW070 BKN250 22/13 A3012 RMK AO2 SLP200 T02220128 56007=
12/04/2017 19:51->METAR KJFK 121951Z 28012KT 10SM FEW040 FEW070 BKN250 22/12 A3013 RMK AO2 SLP202 T02220117=
12/04/2017 18:51->METAR KJFK 121851Z 31007KT 10SM FEW040 SCT075 BKN250 22/13 A3013 RMK AO2 SLP203 T02220133=
12/04/2017 17:51->METAR KJFK 121751Z 36007KT 10SM FEW040 BKN070 BKN250 19/15 A3015 RMK AO2 RAB21E43 SLP208 VCSH NE P0000 60005 T01890150 10228 20133 58005=
12/04/2017 16:51->METAR KJFK 121651Z 34008KT 10SM FEW040 BKN060 OVC110 18/15 A3019 RMK AO2 RAB14E42 SLP222 VCSH NE AND SW-NW P0005 T01830150=
12/04/2017 15:51->METAR KJFK 121551Z 32012G22KT 10SM FEW042 BKN060 BKN095 OVC260 22/12 A3018 RMK AO2 SLP218 APRNT FROPA VCSH W-NW T02220122=
12/04/2017 14:51->METAR KJFK 121451Z 25005KT 9SM SCT060 BKN090 OVC260 19/12 A3016 RMK AO2 SLP213 T01940122 53012=
12/04/2017 13:51->METAR KJFK 121351Z 25005KT 9SM SCT060 SCT090 OVC260 18/12 A3015 RMK AO2 SLP208 T01780117=
12/04/2017 12:51->METAR KJFK 121251Z 21003KT 8SM FEW060 BKN260 15/11 A3014 RMK AO2 SLP204 T01500111=
12/04/2017 11:51->METAR KJFK 121151Z 00000KT 9SM FEW095 FEW140 BKN260 13/11 A3013 RMK AO2 SLP202 T01330111 10133 20111 51012=
12/04/2017 10:51->METAR KJFK 121051Z 06003KT 8SM FEW140 BKN260 12/10 A3012 RMK AO2 SLP197 T01170100=
12/04/2017 09:51->METAR KJFK 120951Z 00000KT 10SM BKN260 11/10 A3011 RMK AO2 SLP197 T01110100=
12/04/2017 08:51->METAR KJFK 120851Z 07003KT 10SM SCT240 11/10 A3009 RMK AO2 SLP190 T01110100 56005=
12/04/2017 07:51->METAR KJFK 120751Z 11004KT 10SM SCT240 11/10 A3009 RMK AO2 SLP190 T01110100=
12/04/2017 06:51->METAR KJFK 120651Z 02004KT 10SM BKN250 12/10 A3010 RMK AO2 SLP191 T01170100=
12/04/2017 05:51->METAR KJFK 120551Z 00000KT 10SM SCT250 12/10 A3011 RMK AO2 SLP195 T01170100 10133 20106 50000=
12/04/2017 04:51->METAR KJFK 120451Z 12005KT 10SM SCT250 11/10 A3012 RMK AO2 SLP199 T01110100 401890083=
12/04/2017 03:51->METAR KJFK 120351Z 00000KT 10SM FEW250 11/10 A3013 RMK AO2 SLP201 T01110100=
12/04/2017 02:51->METAR KJFK 120251Z 16004KT 10SM SCT250 11/10 A3011 RMK AO2 SLP195 T01110100 51008=
12/04/2017 01:51->METAR KJFK 120151Z 18009KT 10SM FEW220 BKN260 12/10 A3011 RMK AO2 SLP194 T01170100=
12/04/2017 00:51->METAR KJFK 120051Z 18005KT 10SM SCT220 BKN260 12/10 A3010 RMK AO2 SLP193 T01220100=
11/04/2017 23:51->METAR KJFK 112351Z 19004KT 10SM SCT220 BKN260 13/11 A3008 RMK AO2 SLP187 T01330106 10183 20133 57004=
11/04/2017 22:51->METAR KJFK 112251Z VRB03KT 10SM FEW200 BKN250 14/11 A3009 RMK AO2 SLP187 T01440111=
11/04/2017 21:51->METAR KJFK 112151Z 17011KT 10SM BKN250 17/11 A3009 RMK AO2 SLP190 T01670111=
11/04/2017 20:51->METAR KJFK 112051Z 16008KT 10SM BKN250 17/12 A3010 RMK AO2 SLP191 T01720117 58013=
11/04/2017 19:51->METAR KJFK 111951Z 19005KT 10SM BKN250 17/11 A3011 RMK AO2 SLP197 T01670111=
11/04/2017 18:51->METAR KJFK 111851Z 17009KT 10SM BKN250 18/12 A3012 RMK AO2 SLP198 T01780117=
11/04/2017 17:51->METAR KJFK 111751Z 18010KT 10SM BKN250 18/12 A3013 RMK AO2 SLP204 T01830117 10189 20117 58011=
11/04/2017 16:51->METAR KJFK 111651Z 17008KT 10SM BKN250 18/12 A3015 RMK AO2 SLP209 T01830117=
11/04/2017 15:51->METAR KJFK 111551Z 17007KT 10SM BKN250 17/11 A3016 RMK AO2 SLP211 T01720111=
11/04/2017 14:51->METAR KJFK 111451Z 16007KT 10SM BKN250 16/11 A3017 RMK AO2 SLP215 T01610106 50001=
11/04/2017 13:51->METAR KJFK 111351Z 17007KT 10SM BKN250 15/11 A3017 RMK AO2 SLP216 T01500106=
11/04/2017 12:51->METAR KJFK 111251Z 17005KT 10SM BKN250 13/10 A3017 RMK AO2 SLP215 T01330100=
11/04/2017 11:51->METAR KJFK 111151Z 17006KT 8SM BKN250 12/09 A3017 RMK AO2 SLP214 T01170094 10117 20083 51014=
11/04/2017 10:51->METAR KJFK 111051Z 17005KT 10SM SCT250 09/08 A3015 RMK AO2 SLP207 T00890083=
11/04/2017 09:51->METAR KJFK 110951Z 18003KT 10SM SCT250 09/08 A3014 RMK AO2 SLP207 T00890078=
11/04/2017 08:51->METAR KJFK 110851Z 16003KT 10SM BKN250 09/08 A3012 RMK AO2 SLP200 T00890078 56006=
11/04/2017 07:51->METAR KJFK 110751Z 19005KT 10SM SCT250 09/08 A3012 RMK AO2 SLP200 T00890078=
11/04/2017 06:51->METAR KJFK 110651Z 17006KT 10SM SCT250 10/08 A3013 RMK AO2 SLP202 T01000083=
11/04/2017 05:51->METAR KJFK 110551Z 17007KT 10SM BKN250 10/08 A3014 RMK AO2 SLP206 T01000083 10128 20100 58005=
11/04/2017 04:51->METAR KJFK 110451Z 18006KT 10SM BKN250 11/08 A3015 RMK AO2 SLP210 T01060083 401670061=
11/04/2017 03:51->METAR KJFK 110351Z 16005KT 10SM BKN250 11/08 A3016 RMK AO2 SLP211 T01060083=
11/04/2017 02:51->METAR KJFK 110251Z 18009KT 10SM FEW180 BKN250 12/08 A3016 RMK AO2 SLP212 T01170083 51018=
11/04/2017 01:51->METAR KJFK 110151Z 19012KT 10SM SCT170 BKN250 12/08 A3016 RMK AO2 SLP212 T01220083=
11/04/2017 00:51->METAR KJFK 110051Z 19017KT 10SM BKN250 13/08 A3013 RMK AO2 SLP203 T01280083=
10/04/2017 23:51->METAR KJFK 102351Z 19018KT 10SM BKN250 13/08 A3011 RMK AO2 SLP194 T01330083 10167 20133 55002=
10/04/2017 22:51->METAR KJFK 102251Z 19017KT 10SM BKN250 14/08 A3010 RMK AO2 PK WND 19029/2156 SLP192 T01390083=
10/04/2017 21:51->METAR KJFK 102151Z 19023G28KT 10SM BKN250 16/08 A3010 RMK AO2 PK WND 20028/2149 SLP192 T01560083=
10/04/2017 20:51->METAR KJFK 102051Z 19020G28KT 10SM BKN250 16/08 A3011 RMK AO2 PK WND 18028/2051 SLP197 T01560083 56019=
10/04/2017 19:51->METAR KJFK 101951Z 17017KT 10SM BKN250 16/09 A3013 RMK AO2 SLP201 T01610089=
10/04/2017 18:51->METAR KJFK 101851Z 17009KT 10SM BKN250 16/08 A3015 RMK AO2 SLP208 T01560083=
10/04/2017 17:51->METAR KJFK 101751Z 17008KT 10SM FEW150 BKN250 16/09 A3017 RMK AO2 SLP216 T01610089 10161 20100 58017=
10/04/2017 16:51->METAR KJFK 101651Z 18008KT 10SM FEW150 BKN250 16/08 A3020 RMK AO2 SLP225 T01560078=
10/04/2017 15:51->METAR KJFK 101551Z 14007KT 10SM BKN250 14/07 A3021 RMK AO2 SLP231 T01440067=
10/04/2017 14:51->METAR KJFK 101451Z 16006KT 10SM BKN250 14/05 A3022 RMK AO2 SLP232 T01440050 58005=
10/04/2017 13:51->METAR KJFK 101351Z 18006KT 10SM SCT250 12/04 A3023 RMK AO2 SLP237 T01220044=
10/04/2017 12:51->METAR KJFK 101251Z 19006KT 10SM BKN260 11/06 A3023 RMK AO2 SLP236 T01110056=
10/04/2017 11:51->METAR KJFK 101151Z 17005KT 10SM BKN260 10/06 A3023 RMK AO2 SLP237 T01000056 10100 20061 51008=
10/04/2017 10:51->METAR KJFK 101051Z 17005KT 10SM FEW170 BKN260 08/05 A3023 RMK AO2 SLP237 T00780050=
10/04/2017 09:51->METAR KJFK 100951Z 16004KT 10SM BKN250 07/05 A3022 RMK AO2 SLP233 T00670050=
10/04/2017 08:51->METAR KJFK 100851Z 17006KT 10SM BKN250 07/05 A3021 RMK AO2 SLP230 T00670050 53004=
10/04/2017 07:51->METAR KJFK 100751Z 18006KT 10SM SCT250 07/05 A3020 RMK AO2 SLP227 T00670050=
10/04/2017 06:51->METAR KJFK 100651Z 19008KT 10SM SCT250 07/05 A3020 RMK AO2 SLP225 T00720050=
10/04/2017 05:51->METAR KJFK 100551Z 19007KT 10SM SCT250 08/04 A3020 RMK AO2 SLP226 T00780044 10106 20072 53004=
10/04/2017 04:51->METAR KJFK 100451Z 15004KT 10SM FEW120 BKN250 08/04 A3020 RMK AO2 SLP225 T00830039 401610044=
10/04/2017 03:51->METAR KJFK 100351Z 18006KT 10SM BKN250 09/03 A3019 RMK AO2 SLP221 T00890033=
10/04/2017 02:51->METAR KJFK 100251Z 20005KT 10SM BKN250 11/02 A3019 RMK AO2 SLP222 T01060022 51015=
10/04/2017 01:51->METAR KJFK 100151Z 20006KT 10SM BKN250 09/05 A3018 RMK AO2 SLP220 T00940050=
10/04/2017 00:51->METAR KJFK 100051Z 19014KT 10SM BKN250 09/04 A3017 RMK AO2 SLP217 T00940044=
09/04/2017 23:51->METAR KJFK 092351Z 18018KT 10SM BKN250 09/03 A3014 RMK AO2 PK WND 18027/2258 SLP206 T00940033 10150 20094 57001=
09/04/2017 22:51->METAR KJFK 092251Z 18018G26KT 10SM BKN250 10/02 A3014 RMK AO2 PK WND 18026/2248 SLP206 T01000022=
09/04/2017 21:51->METAR KJFK 092151Z 17017KT 10SM BKN250 12/02 A3014 RMK AO2 PK WND 17026/2132 SLP207 T01170017=
09/04/2017 20:51->METAR KJFK 092051Z 18017KT 10SM BKN250 13/01 A3014 RMK AO2 SLP207 T01280006 58010=
09/04/2017 19:51->METAR KJFK 091951Z 18016KT 10SM BKN250 14/01 A3016 RMK AO2 SLP213 T01390011=
09/04/2017 18:51->METAR KJFK 091851Z 18014KT 10SM BKN250 14/01 A3016 RMK AO2 SLP214 T01390011=
09/04/2017 17:51->METAR KJFK 091751Z 18011KT 10SM FEW250 15/M01 A3017 RMK AO2 SLP217 T01501011 10161 20094 58004=
09/04/2017 16:51->METAR KJFK 091651Z 21011KT 10SM FEW250 16/M02 A3018 RMK AO2 SLP219 T01561017=
09/04/2017 15:51->METAR KJFK 091551Z 23015KT 10SM FEW150 SCT250 14/M01 A3018 RMK AO2 SLP221 T01441011=
09/04/2017 14:51->METAR KJFK 091451Z 23011KT 10SM FEW150 SCT250 14/M02 A3019 RMK AO2 SLP221 T01391017 53007=
09/04/2017 13:51->METAR KJFK 091351Z 20006KT 10SM FEW150 SCT250 11/02 A3018 RMK AO2 SLP220 T01110017=
09/04/2017 12:51->METAR KJFK 091251Z 23006KT 10SM SCT250 10/M03 A3017 RMK AO2 SLP214 T01001028=
09/04/2017 11:51->METAR KJFK 091151Z VRB03KT 10SM FEW250 09/M01 A3016 RMK AO2 SLP213 T00941011 10094 20044 53022=
09/04/2017 10:51->METAR KJFK 091051Z 00000KT 10SM FEW250 05/M02 A3015 RMK AO2 SLP207 T00501022=
09/04/2017 09:51->METAR KJFK 090951Z 00000KT 10SM FEW250 06/M03 A3011 RMK AO2 SLP197 T00611028=
09/04/2017 08:51->METAR KJFK 090851Z 00000KT 10SM CLR 07/M06 A3010 RMK AO2 SLP192 T00671061 53012=
09/04/2017 07:51->METAR KJFK 090751Z 30005KT 10SM CLR 07/M06 A3008 RMK AO2 SLP185 T00721061=
09/04/2017 06:51->METAR KJFK 090651Z 30009KT 10SM CLR 08/M06 A3007 RMK AO2 SLP183 T00831061=
09/04/2017 05:51->METAR KJFK 090551Z 32004KT 10SM CLR 08/M06 A3006 RMK AO2 SLP180 T00781061 10122 20078 51020=
09/04/2017 04:51->METAR KJFK 090451Z 34008KT 10SM CLR 08/M06 A3005 RMK AO2 SLP175 T00831061 401440050=
09/04/2017 03:51->METAR KJFK 090351Z 33013KT 10SM CLR 09/M06 A3003 RMK AO2 SLP168 T00891061=
09/04/2017 02:51->METAR KJFK 090251Z 32010KT 10SM FEW250 10/M06 A3000 RMK AO2 SLP160 T01001061 51036=
09/04/2017 01:51->METAR KJFK 090151Z 35008KT 10SM FEW250 11/M06 A2998 RMK AO2 SLP150 T01061061=
09/04/2017 00:51->METAR KJFK 090051Z 32011KT 10SM FEW250 11/M07 A2995 RMK AO2 SLP140 T01111067=
08/04/2017 23:51->METAR KJFK 082351Z 34012G22KT 10SM FEW250 12/M06 A2990 RMK AO2 SLP124 T01221061 10144 20122 53027=
08/04/2017 22:51->METAR KJFK 082251Z 31015KT 10SM FEW250 13/M06 A2986 RMK AO2 PK WND 31028/2227 SLP112 T01331061=
08/04/2017 21:51->METAR KJFK 082151Z 29015G27KT 10SM FEW060 SCT250 14/M06 A2983 RMK AO2 PK WND 30027/2142 SLP102 T01441056=
08/04/2017 20:51->METAR KJFK 082051Z 30014G22KT 10SM FEW060 SCT250 14/M05 A2982 RMK AO2 PK WND 28027/2016 SLP097 T01441050 55002=
08/04/2017 19:51->METAR KJFK 081951Z 32017G27KT 10SM FEW050 SCT250 14/M05 A2981 RMK AO2 PK WND 32029/1935 SLP095 T01441050=
08/04/2017 18:51->METAR KJFK 081851Z 29020G29KT 10SM FEW050 FEW250 13/M05 A2982 RMK AO2 PK WND 29029/1850 SLP096 T01331050=
08/04/2017 17:51->METAR KJFK 081751Z 30013G25KT 10SM FEW060 12/M04 A2983 RMK AO2 PK WND 31029/1655 SLP099 T01221044 10122 20056 58003=
08/04/2017 16:51->METAR KJFK 081651Z 31017G26KT 10SM R04R/6000VP6000FT SCT060 11/M05 A2983 RMK AO2 PK WND 31026/1650 SLP100 T01111050=
08/04/2017 15:51->METAR KJFK 081551Z 30018G23KT 10SM SCT060 11/M04 A2984 RMK AO2 PK WND 33027/1507 SLP103 T01061044=
08/04/2017 14:51->METAR KJFK 081451Z 32021G32KT 10SM R04R/6000VP6000FT SCT048 SCT250 09/M06 A2984 RMK AO2 PK WND 31032/1449 SLP103 T00891056 53012=
08/04/2017 13:51->METAR KJFK 081351Z 30016G24KT 10SM R04R/4500VP6000FT SCT048 BKN250 07/M05 A2982 RMK AO2 SLP099 T00721050=
08/04/2017 12:51->METAR KJFK 081251Z 30016G22KT 10SM SCT050 BKN250 06/M05 A2981 RMK AO2 SLP093 T00611050=
08/04/2017 11:51->METAR KJFK 081151Z 29014G25KT 10SM BKN050 BKN250 06/M05 A2980 RMK AO2 SLP091 T00611050 10061 20050 53025=
08/04/2017 10:51->METAR KJFK 081051Z 28012G26KT 10SM BKN050 BKN250 05/M06 A2977 RMK AO2 PK WND 28026/1048 SLP082 T00501061=
08/04/2017 09:51->METAR KJFK 080951Z 30014G23KT 10SM BKN050 06/M05 A2974 RMK AO2 PK WND 32029/0937 SLP071 T00561050=
08/04/2017 08:51->METAR KJFK 080851Z 29017G24KT 10SM BKN043 06/M04 A2973 RMK AO2 PK WND 30026/0825 SLP066 T00561039 53010=
08/04/2017 07:51->METAR KJFK 080751Z 28017G24KT 10SM SCT035 BKN045 05/M03 A2972 RMK AO2 PK WND 27027/0718 SLP064 T00501033=
08/04/2017 06:51->METAR KJFK 080651Z 29017G27KT 10SM BKN035 BKN055 05/M03 A2970 RMK AO2 PK WND 30028/0638 SLP058 T00501028=
08/04/2017 05:51->METAR KJFK 080551Z 28017G33KT 10SM BKN034 BKN055 05/M03 A2970 RMK AO2 PK WND 27033/0547 SLP056 60000 T00501028 10072 20050 51013=
08/04/2017 04:51->METAR KJFK 080451Z 28019G24KT 10SM BKN043 BKN070 06/M03 A2970 RMK AO2 PK WND 29031/0410 SLP055 T00561028 401110050=
08/04/2017 03:51->METAR KJFK 080351Z 29015G26KT 10SM BKN044 BKN120 06/M03 A2968 RMK AO2 PK WND 29034/0253 SLP048 T00561033=
08/04/2017 02:51->METAR KJFK 080251Z 29023G30KT 10SM BKN045 BKN080 06/M03 A2966 RMK AO2 PK WND 29030/0250 SLP044 60000 T00561033 51036=
08/04/2017 01:51->METAR KJFK 080151Z 29023G30KT 10SM BKN046 BKN095 06/M03 A2965 RMK AO2 PK WND 29033/0058 SLP038 T00611028=
08/04/2017 00:51->METAR KJFK 080051Z 30020G29KT 10SM BKN047 BKN100 07/M02 A2960 RMK AO2 PK WND 30029/0045 RAE2358 SLP024 P0000 T00671022=
07/04/2017 23:51->METAR KJFK 072351Z 29016G30KT 10SM -RA FEW041 SCT049 BKN085 07/00 A2956 RMK AO2 PK WND 29030/2339 RAB46 SLP008 P0000 60000 T00670000 10100 20067 53042=
07/04/2017 22:51->METAR KJFK 072251Z 30022G31KT 10SM FEW038 BKN060 BKN085 09/M02 A2951 RMK AO2 PK WND 30031/2251 SLP993 VIRGA NW-N T00891017=
07/04/2017 21:51->METAR KJFK 072151Z 28019G27KT 10SM FEW032 SCT047 BKN070 09/01 A2947 RMK AO2 PK WND 27029/2053 SLP980 T00940011=
07/04/2017 20:51->METAR KJFK 072051Z 27019G26KT 10SM FEW035 BKN060 OVC085 09/01 A2943 RMK AO2 PK WND 27029/2011 SLP966 VIRGA S 60000 T00940011 53010=
07/04/2017 19:51->METAR KJFK 071951Z 27022G27KT 10SM FEW038 BKN055 09/01 A2941 RMK AO2 PK WND 27027/1949 RAB08E34 SLP958 P0000 T00940011=
07/04/2017 18:51->METAR KJFK 071851Z 25017KT 10SM FEW030 BKN037 BKN060 09/02 A2940 RMK AO2 SLP957 T00890022=
07/04/2017 17:51->METAR KJFK 071751Z 27016KT 10SM FEW027 BKN049 OVC060 08/01 A2940 RMK AO2 PK WND 26026/1657 RAE40 SLP956 P0000 60000 T00830011 10094 20072 53005=
07/04/2017 16:51->METAR KJFK 071651Z 25019KT 10SM -RA SCT027 BKN030 OVC040 08/02 A2939 RMK AO2 RAB50 SLP953 P0000 T00780022=
07/04/2017 15:51->METAR KJFK 071551Z 24015KT 10SM SCT027 BKN034 OVC060 08/03 A2939 RMK AO2 SLP953 T00780028=
07/04/2017 14:51->METAR KJFK 071451Z 25018KT 10SM SCT030 BKN049 OVC060 08/03 A2939 RMK AO2 PK WND 23026/1402 SLP951 T00830028 51012=
07/04/2017 13:51->METAR KJFK 071351Z 24019KT 10SM BKN048 08/02 A2938 RMK AO2 SLP947 T00830017=
07/04/2017 12:51->METAR KJFK 071251Z 23020G25KT 10SM SCT048 BKN060 08/02 A2937 RMK AO2 PK WND 25026/1200 SLP944 T00830022=
07/04/2017 11:51->METAR KJFK 071151Z 24019KT 10SM BKN055 09/03 A2935 RMK AO2 SLP939 70083 T00890028 10106 20072 53009=
07/04/2017 10:51->METAR KJFK 071051Z 22014KT 10SM BKN055 07/03 A2934 RMK AO2 SLP935 T00720028=
07/04/2017 09:51->METAR KJFK 070951Z 23014KT 10SM SCT080 08/02 A2933 RMK AO2 SLP930 T00780022=
07/04/2017 08:51->METAR KJFK 070851Z 24016KT 10SM SCT080 08/03 A2933 RMK AO2 SLP930 T00830033 50001=
07/04/2017 07:51->METAR KJFK 070751Z 25013KT 10SM FEW025 BKN070 09/04 A2933 RMK AO2 SLP931 T00890044=
07/04/2017 06:51->METAR KJFK 070651Z 24016KT 10SM FEW025 FEW085 09/03 A2933 RMK AO2 SLP931 T00940033=
07/04/2017 05:51->METAR KJFK 070551Z 22012KT 10SM FEW025 BKN075 10/08 A2932 RMK AO2 SLP929 T01000078 10111 20094 53008=
07/04/2017 04:51->METAR KJFK 070451Z 23016KT 10SM FEW040 10/07 A2931 RMK AO2 SLP926 T01000072 401220056=
07/04/2017 03:51->METAR KJFK 070351Z 24011KT 10SM FEW030 10/07 A2931 RMK AO2 SLP923 T01000072=
07/04/2017 02:51->METAR KJFK 070251Z 22013KT 10SM FEW030 FEW050 10/07 A2930 RMK AO2 SLP922 T01000072 51022=
07/04/2017 01:51->METAR KJFK 070151Z 22014KT 10SM FEW030 FEW050 11/07 A2930 RMK AO2 SLP922 T01060072=
07/04/2017 00:51->METAR KJFK 070051Z 23013KT 10SM FEW028 FEW044 10/09 A2927 RMK AO2 SLP910 T01000089=
06/04/2017 23:51->METAR KJFK 062351Z 18016KT 1/4SM R04R/5000VP6000FT FG BKN002 10/10 A2924 RMK AO2 SFC VIS 1/2 SLP900 60073 T01000100 10122 20083 52004=
06/04/2017 22:51->METAR KJFK 062251Z 16007KT 7SM FEW009 FEW021 FEW075 11/10 A2922 RMK AO2 RAB2152E02 SLP894 P0000 T01110100=
06/04/2017 21:51->METAR KJFK 062151Z 18005KT 7SM FEW009 FEW041 BKN060 BKN150 11/11 A2924 RMK AO2 RAE36 SLP901 P0025 T01110111=
06/04/2017 20:51->METAR KJFK 062051Z VRB05G21KT 1/2SM R04R/2600V6000FT +TSRA FG BKN008 OVC012CB 11/11 A2922 RMK AO2 LTG DSNT ALQDS TSE20B22 SLP896 FRQ LTGICCG OHD TS OHD MOV NE P0043 60048 T01110106 56089=
06/04/2017 19:51->METAR KJFK 061951Z 06014KT 1/2SM R04R/P6000FT TSRA BR BKN003 OVC010CB 11/11 A2927 RMK AO2 SFC VIS 1 1/2 LTG DSNT SW-N RAE1856B32 TSE1852B35 PRESFR SLP911 OCNL LTGICCG ALQDS TS N MOV N P0005 T01060106=
06/04/2017 18:51->METAR KJFK 061851Z 05013KT 1/4SM R04R/P6000FT -TSRA BR OVC002 10/09 A2939 RMK AO2 SFC VIS 1 LTG DSNT E AND W AND NW RAB39 TSB37 PRESFR SLP951 P0000 T01000094=
06/04/2017 17:51->METAR KJFK 061751Z 07015G23KT 1/2SM R04R/4500VP6000FT BR OVC002 08/08 A2949 RMK AO2 PK WND 07026/1736 SFC VIS 1 1/2 RAE1656 PRESFR SLP985 P0000 60010 T00830083 10083 20056 58066=
06/04/2017 16:51->METAR KJFK 061651Z 07015G21KT 1 1/2SM R04R/6000VP6000FT -RA BR OVC004 07/07 A2956 RMK AO2 PK WND 08026/1612 SFC VIS 2 PRESFR SLP008 P0001 T00720072=
06/04/2017 15:51->METAR KJFK 061551Z 08016G28KT 2SM R04R/6000VP6000FT -RA BR OVC006 07/06 A2963 RMK AO2 PK WND 09028/1544 PRESFR SLP034 P0003 T00670061=
06/04/2017 14:51->METAR KJFK 061451Z 08017G28KT 2SM R04R/6000VP6000FT -RA BR OVC007 07/06 A2968 RMK AO2 PK WND 08030/1419 SLP051 P0001 60006 T00670056 56041=
06/04/2017 13:51->METAR KJFK 061351Z 09021G29KT 3SM -RA BR OVC008 06/05 A2972 RMK AO2 PK WND 10034/1327 SFC VIS 4 SLP062 CIG 006V010 P0002 T00610050=
06/04/2017 12:51->METAR KJFK 061251Z 08018G26KT 3SM -RA BR BKN008 OVC017 06/05 A2976 RMK AO2 PK WND 09026/1244 SFC VIS 5 SLP078 P0003 T00560050=
06/04/2017 11:51->METAR KJFK 061151Z 06014KT 4SM -RA BR OVC008 06/04 A2980 RMK AO2 SLP091 P0003 60013 70013 T00560044 10072 20056 56044=
06/04/2017 10:51->METAR KJFK 061051Z 06015KT 9SM -RA BKN009 BKN023 OVC048 06/04 A2983 RMK AO2 PK WND 07026/1020 SLP102 P0007 T00560044=
06/04/2017 09:51->METAR KJFK 060951Z 08015G21KT 6SM RA BR BKN009 OVC050 06/05 A2986 RMK AO2 PRESFR SLP112 P0002 T00560050=
06/04/2017 08:51->METAR KJFK 060851Z 10014G22KT 8SM -RA BKN012 OVC046 06/05 A2993 RMK AO2 PK WND 10027/0752 RAB23 SLP135 P0001 60001 T00610050 56014=
06/04/2017 07:51->METAR KJFK 060751Z 10018G25KT 10SM BKN012 OVC045 07/04 A2993 RMK AO2 SLP136 T00670044=
06/04/2017 06:51->METAR KJFK 060651Z 10016G22KT 10SM SCT008 OVC090 07/05 A2997 RMK AO2 SLP147 T00720050=
06/04/2017 05:51->METAR KJFK 060551Z 10014G20KT 10SM OVC007 07/06 A2997 RMK AO2 SLP149 T00720061 10083 20067 58002=
06/04/2017 04:51->METAR KJFK 060451Z 10008KT 10SM OVC006 07/06 A3001 RMK AO2 SLP160 T00720061 401560067=
06/04/2017 03:51->METAR KJFK 060351Z 12013KT 10SM OVC005 07/06 A3001 RMK AO2 SLP162 T00670061=
06/04/2017 02:51->METAR KJFK 060251Z 11014KT 10SM SCT006 OVC250 07/06 A2998 RMK AO2 SLP150 SCT006 V BKN T00670061 58002=
06/04/2017 01:51->METAR KJFK 060151Z 10009KT 10SM SCT006 BKN250 08/07 A3000 RMK AO2 SLP159 T00830072=
06/04/2017 00:51->METAR KJFK 060051Z 13008KT 5SM BR OVC004 07/07 A3000 RMK AO2 SLP157 T00720067=
05/04/2017 23:51->METAR KJFK 052351Z 14006KT 1 1/2SM BR OVC002 07/07 A2998 RMK AO2 SFC VIS 2 SLP152 T00670067 10156 20067 50017=
05/04/2017 22:51->METAR KJFK 052251Z 15009KT 3SM BR BKN004 BKN250 07/07 A2999 RMK AO2 SLP156 T00720067=
05/04/2017 21:51->METAR KJFK 052151Z 14009KT 10SM FEW010 FEW045 BKN250 11/08 A2997 RMK AO2 SLP148 T01060078=
05/04/2017 20:51->METAR KJFK 052051Z 16007KT 10SM FEW045 BKN250 13/08 A2993 RMK AO2 SLP135 T01330083 55008=
05/04/2017 19:51->METAR KJFK 051951Z 17007KT 9SM SCT042 SCT250 14/09 A2993 RMK AO2 SLP134 T01390089=
05/04/2017 18:51->METAR KJFK 051851Z 00000KT 10SM BKN034 BKN250 15/08 A2994 RMK AO2 SLP137 T01500078=
05/04/2017 17:51->METAR KJFK 051751Z 20005KT 7SM FEW013 BKN039 BKN250 12/09 A2996 RMK AO2 SLP143 60000 T01220089 10122 20072 54000=
05/04/2017 16:51->METAR KJFK 051651Z 20008KT 6SM BR FEW011 BKN039 10/08 A2996 RMK AO2 SLP144 T01000083=
05/04/2017 15:51->METAR KJFK 051551Z 19007KT 3SM BR FEW008 BKN032 10/08 A2995 RMK AO2 SFC VIS 6 SLP142 T01000083=
05/04/2017 14:51->METAR KJFK 051451Z 22005KT 3SM BR FEW004 BKN008 BKN038 11/09 A2995 RMK AO2 SFC VIS 6 SLP143 BKN008 V SCT 60000 T01060089 51019=
05/04/2017 13:51->METAR KJFK 051351Z 18006KT 1 1/2SM BR BKN005 BKN014 08/08 A2994 RMK AO2 SFC VIS 3 SLP139 CIG 003V007 T00830083=
05/04/2017 12:51->METAR KJFK 051251Z 19007KT 1/2SM R04R/P6000FT BR FEW000 OVC003 08/08 A2993 RMK AO2 SFC VIS 2 DZE02 SLP135 BR FEW000 P0000 T00780078=
05/04/2017 11:51->METAR KJFK 051151Z 15004KT 1/2SM R04R/3500V4000FT -DZ FG VV002 07/07 A2990 RMK AO2 SLP124 P0000 60000 70005 T00720072 10078 20067 53031=
05/04/2017 10:51->METAR KJFK 051051Z 00000KT 1/2SM R04R/4500V5500FT -DZ BR VV002 07/07 A2987 RMK AO2 SFC VIS 3/4 DZB48 SLP115 P0000 T00720072=
05/04/2017 09:51->METAR KJFK 050951Z 14005KT 1/2SM R04R/6000VP6000FT BR OVC002 07/07 A2983 RMK AO2 SFC VIS 1 SLP099 T00670067=
05/04/2017 08:51->METAR KJFK 050851Z 14006KT 1/2SM R04R/5500FT FG OVC002 07/07 A2981 RMK AO2 SLP092 T00720072 53015=
05/04/2017 07:51->METAR KJFK 050751Z 13004KT 1/2SM R04R/5500VP6000FT BR OVC002 08/08 A2979 RMK AO2 SFC VIS 3/4 SLP087 T00780078=
05/04/2017 06:51->METAR KJFK 050651Z 05004KT 3/4SM R04R/P6000FT BR OVC003 08/08 A2977 RMK AO2 SFC VIS 1 1/2 SLP080 T00780078=
05/04/2017 05:51->METAR KJFK 050551Z 03005KT 1 1/2SM BR OVC003 08/08 A2976 RMK AO2 SFC VIS 3 SLP077 60000 T00780078 10100 20078 51006=
05/04/2017 04:51->METAR KJFK 050451Z 10004KT 1 1/2SM BR OVC004 08/08 A2976 RMK AO2 SFC VIS 2 SLP077 T00780078 401220078=
05/04/2017 03:51->METAR KJFK 050351Z 07003KT 1 1/2SM BR OVC005 08/08 A2975 RMK AO2 SFC VIS 4 DZE26 SLP075 P0000 T00830078=
05/04/2017 02:51->METAR KJFK 050251Z 04007KT 2SM -DZ BR OVC004 08/08 A2974 RMK AO2 SFC VIS 2 1/2 DZB45 SLP071 P0000 60000 T00830083 51032=
05/04/2017 01:51->METAR KJFK 050151Z 09005KT 5SM BR OVC006 09/08 A2973 RMK AO2 SLP066 T00890083=
05/04/2017 00:51->METAR KJFK 050051Z 03006KT 9SM OVC008 09/08 A2971 RMK AO2 LTG DSNT NE SLP059 T00940083=
04/04/2017 23:51->METAR KJFK 042351Z 06009KT 10SM OVC009 10/08 A2965 RMK AO2 SLP039 60004 T01000083 10117 20094 53001=
04/04/2017 22:51->METAR KJFK 042251Z 04008KT 10SM FEW009 OVC012 11/09 A2964 RMK AO2 SLP038 T01060089=
04/04/2017 21:51->METAR KJFK 042151Z 06009KT 10SM SCT009 OVC015 11/09 A2963 RMK AO2 SLP032 T01060094=
04/04/2017 20:51->METAR KJFK 042051Z 04009KT 10SM BKN008 OVC016 11/09 A2961 RMK AO2 RAE04 SLP026 P0001 60004 T01060094 53005=
04/04/2017 19:51->METAR KJFK 041951Z 03009KT 7SM -RA BKN012 BKN028 BKN050 09/08 A2959 RMK AO2 RAB21 SLP021 P0003 T00940083=
04/04/2017 18:51->METAR KJFK 041851Z 02010KT 10SM BKN010 OVC016 11/09 A2960 RMK AO2 SLP021 T01060089=
04/04/2017 17:51->METAR KJFK 041751Z 01007KT 7SM OVC007 12/11 A2959 RMK AO2 DZE05 SLP019 P0000 60001 T01170106 10122 20094 55002=
04/04/2017 16:51->METAR KJFK 041651Z 04008KT 2 1/2SM -DZ BR OVC004 12/12 A2956 RMK AO2 SFC VIS 4 SLP011 P0000 T01170117=
04/04/2017 15:51->METAR KJFK 041551Z 36008KT 1/2SM R04R/P6000FT -DZ BR OVC003 11/11 A2957 RMK AO2 SFC VIS 2 1/2 RAE45DZB45 SLP014 P0000 T01110111=
04/04/2017 14:51->METAR KJFK 041451Z 00000KT 1/2SM R04R/2200V3500FT -RA BR FEW000 OVC003 11/11 A2959 RMK AO2 SFC VIS 1 1/2 DZE21RAB21 SLP021 BR FEW000 P0001 60001 T01060106 56009=
04/04/2017 13:51->METAR KJFK 041351Z 00000KT 1/8SM R04R/2000V2400FT -DZ FG VV002 10/10 A2960 RMK AO2 SFC VIS 1/4 SLP022 P0000 T01000100=
04/04/2017 12:51->METAR KJFK 041251Z 17011KT 1/8SM R04R/3000V3500FT -DZ FG VV002 10/10 A2961 RMK AO2 SFC VIS 1/2 SLP028 P0000 T01000100=
04/04/2017 11:51->METAR KJFK 041151Z 17013KT 1/8SM R04R/3500V4000FT -DZ FG VV002 10/10 A2962 RMK AO2 SFC VIS 1/2 DZE04B48 SLP030 P0000 60091 70103 T01000100 10106 20089 56020=
04/04/2017 10:51->METAR KJFK 041051Z 18014G23KT 1/8SM R04R/5500VP6000FT -DZ BR SCT000 OVC002 11/11 A2963 RMK AO2 SFC VIS 1 DZB17 SLP032 BR SCT000 P0000 T01060106=
04/04/2017 09:51->METAR KJFK 040951Z 16013KT 1 1/2SM BR OVC004 10/10 A2964 RMK AO2 WSHFT 0839 SFC VIS 5 RAE27 SLP038 P0003 T01000100=
04/04/2017 08:51->METAR KJFK 040851Z 16012KT 2SM -RA BR OVC005 09/09 A2968 RMK AO2 PK WND 12028/0822 WSHFT 0822 SFC VIS 4 SLP050 P0037 60088 T00940094 56017=
04/04/2017 07:51->METAR KJFK 040751Z 12018G25KT 2SM RA BR OVC006 10/09 A2969 RMK AO2 PK WND 13032/0729 SFC VIS 3 SLP052 P0029 T01000094=
04/04/2017 06:51->METAR KJFK 040651Z 13020G30KT 2 1/2SM +RA BR BKN012 OVC032 09/09 A2973 RMK AO2 PK WND 12034/0611 PRESFR SLP067 P0022 T00890089=
04/04/2017 05:51->METAR KJFK 040551Z 12015G26KT 5SM RA BR FEW015 OVC035 09/08 A2978 RMK AO2 PK WND 11026/0542 SLP085 P0010 60012 T00890078 10100 20089 58052=
04/04/2017 04:51->METAR KJFK 040451Z 12017G23KT 9SM -RA FEW018 BKN047 OVC090 09/07 A2983 RMK AO2 SLP102 P0001 T00940067 401500056=
04/04/2017 03:51->METAR KJFK 040351Z 12010G15KT 8SM -RA OVC045 10/05 A2990 RMK AO2 RAB13 SLP123 P0001 T01000050=
04/04/2017 02:51->METAR KJFK 040251Z 10005KT 10SM FEW030 OVC055 09/03 A2994 RMK AO2 SLP137 T00940033 58016=
04/04/2017 01:51->METAR KJFK 040151Z 16009KT 10SM OVC055 09/03 A2996 RMK AO2 SLP146 T00940033=
04/04/2017 00:51->METAR KJFK 040051Z 16011KT 10SM BKN060 OVC130 09/04 A2997 RMK AO2 SLP149 T00890039=
03/04/2017 23:51->METAR KJFK 032351Z 15011KT 10SM BKN060 OVC130 09/04 A2998 RMK AO2 SLP153 T00940039 10144 20094 58008=
03/04/2017 22:51->METAR KJFK 032251Z 13008KT 10SM SCT070 BKN140 OVC240 09/04 A3000 RMK AO2 SLP157 T00940044=
03/04/2017 21:51->METAR KJFK 032151Z 15010KT 10SM FEW100 SCT170 BKN240 11/04 A3001 RMK AO2 SLP162 T01060039=
03/04/2017 20:51->METAR KJFK 032051Z 14008KT 10SM BKN210 BKN250 12/04 A3001 RMK AO2 SLP162 T01170044 58025=
03/04/2017 19:51->METAR KJFK 031951Z 14014KT 10SM FEW055 SCT210 BKN250 12/02 A3004 RMK AO2 SLP171 T01220022=
03/04/2017 18:51->METAR KJFK 031851Z 15014KT 10SM FEW055 SCT200 BKN250 14/01 A3006 RMK AO2 SLP179 T01390011=
03/04/2017 17:51->METAR KJFK 031751Z 17014KT 10SM FEW055 FEW170 BKN240 13/01 A3009 RMK AO2 SLP187 T01330006 10150 20083 56016=
03/04/2017 16:51->METAR KJFK 031651Z 16011KT 10SM FEW110 FEW170 BKN260 14/01 A3010 RMK AO2 SLP192 T01440011=
03/04/2017 15:51->METAR KJFK 031551Z 18010KT 10SM SCT130 BKN260 14/01 A3012 RMK AO2 SLP198 T01440006=
03/04/2017 14:51->METAR KJFK 031451Z 17007KT 10SM FEW100 SCT130 BKN260 13/01 A3013 RMK AO2 SLP203 T01330006 56003=
03/04/2017 13:51->METAR KJFK 031351Z 19004KT 10SM BKN120 BKN260 13/01 A3013 RMK AO2 SLP203 T01280011=
03/04/2017 12:51->METAR KJFK 031251Z 00000KT 10SM SCT140 BKN260 12/02 A3014 RMK AO2 SLP204 T01220022=
03/04/2017 11:51->METAR KJFK 031151Z 00000KT 9SM FEW130 BKN260 08/05 A3014 RMK AO2 SLP206 T00780050 10111 20056 53017=
03/04/2017 10:51->METAR KJFK 031051Z 21003KT 10SM FEW150 BKN260 07/04 A3012 RMK AO2 SLP199 T00670044=
03/04/2017 09:51->METAR KJFK 030951Z 00000KT 10SM BKN260 08/02 A3010 RMK AO2 SLP191 T00830017=
03/04/2017 08:51->METAR KJFK 030851Z 22006KT 10SM BKN260 06/02 A3009 RMK AO2 SLP189 T00610022 58001=
03/04/2017 07:51->METAR KJFK 030751Z 00000KT 10SM BKN260 08/01 A3009 RMK AO2 SLP189 T00830006=
03/04/2017 06:51->METAR KJFK 030651Z 31005KT 10SM BKN260 11/00 A3011 RMK AO2 SLP194 T01060000=
03/04/2017 05:51->METAR KJFK 030551Z 01005KT 10SM SCT250 11/M01 A3009 RMK AO2 SLP190 T01111006 10150 20106 58000=
03/04/2017 04:51->METAR KJFK 030451Z 35007KT 10SM SCT250 11/M01 A3010 RMK AO2 SLP192 T01111006 401830044=
03/04/2017 03:51->METAR KJFK 030351Z 33009KT 10SM BKN250 12/00 A3010 RMK AO2 SLP193 T01220000=
03/04/2017 02:51->METAR KJFK 030251Z 33010KT 10SM SCT250 13/M01 A3010 RMK AO2 SLP191 T01331006 50015=
03/04/2017 01:51->METAR KJFK 030151Z 31005KT 10SM FEW090 FEW250 13/00 A3010 RMK AO2 SLP191 T01280000=
03/04/2017 00:51->METAR KJFK 030051Z 34006KT 10SM FEW090 FEW250 13/M01 A3007 RMK AO2 SLP182 T01331011=
02/04/2017 23:51->METAR KJFK 022351Z 33007KT 10SM FEW085 SCT250 14/M02 A3005 RMK AO2 SLP175 T01391017 10183 20139 53002=
02/04/2017 22:51->METAR KJFK 022251Z 33014KT 10SM FEW085 SCT250 16/M02 A3004 RMK AO2 PK WND 32028/2212 SLP173 T01561022=
02/04/2017 21:51->METAR KJFK 022151Z 32019KT 10SM SCT085 SCT250 17/M03 A3004 RMK AO2 SLP173 T01671028=
02/04/2017 20:51->METAR KJFK 022051Z 31014KT 10SM SCT085 SCT250 17/M03 A3004 RMK AO2 SLP174 T01721033 55014=
02/04/2017 19:51->METAR KJFK 021951Z 31017G23KT 270V340 10SM SCT085 SCT250 18/M02 A3004 RMK AO2 SLP172 T01831022=
02/04/2017 18:51->METAR KJFK 021851Z 28007KT 240V320 10SM SCT090 SCT250 16/M02 A3006 RMK AO2 SLP178 T01611017=
02/04/2017 17:51->METAR KJFK 021751Z 31010G20KT 10SM FEW065 SCT250 16/M01 A3009 RMK AO2 SLP188 T01611011 10161 20061 57022=
02/04/2017 16:51->METAR KJFK 021651Z 33011G20KT 10SM FEW060 FEW250 14/M03 A3011 RMK AO2 SLP195 T01441028=
02/04/2017 15:51->METAR KJFK 021551Z 33010KT 10SM CLR 13/M01 A3013 RMK AO2 SLP203 T01331006=
02/04/2017 14:51->METAR KJFK 021451Z 31009KT 10SM FEW035 11/01 A3015 RMK AO2 SLP210 T01110006 51005=
02/04/2017 13:51->METAR KJFK 021351Z 34013KT 10SM FEW035 09/01 A3015 RMK AO2 SLP207 T00940006=
02/04/2017 12:51->METAR KJFK 021251Z 33015KT 10SM FEW035 08/01 A3015 RMK AO2 SLP208 T00780006=
02/04/2017 11:51->METAR KJFK 021151Z 33014KT 10SM FEW035 06/00 A3014 RMK AO2 SLP205 T00610000 10072 20044 51022=
02/04/2017 10:51->METAR KJFK 021051Z 33010KT 10SM FEW035 05/00 A3012 RMK AO2 SLP200 T00500000=
02/04/2017 09:51->METAR KJFK 020951Z 32009KT 10SM FEW035 05/00 A3010 RMK AO2 SLP192 T00500000=
02/04/2017 08:51->METAR KJFK 020851Z 32016KT 10SM SCT036 06/00 A3007 RMK AO2 SLP183 T00560000 53006=
02/04/2017 07:51->METAR KJFK 020751Z 31012KT 10SM BKN032 06/01 A3006 RMK AO2 SLP178 T00610006=
02/04/2017 06:51->METAR KJFK 020651Z 31010KT 10SM FEW027 BKN032 07/02 A3006 RMK AO2 SLP178 T00720017=
02/04/2017 05:51->METAR KJFK 020551Z 33009KT 10SM BKN032 07/02 A3005 RMK AO2 SLP177 T00720017 10072 20061 51006=
02/04/2017 04:51->METAR KJFK 020451Z 35008KT 10SM BKN035 BKN090 07/01 A3005 RMK AO2 SLP176 T00720011 400830033=
02/04/2017 03:51->METAR KJFK 020351Z 35008KT 10SM SCT035 BKN043 OVC090 07/01 A3005 RMK AO2 SLP175 T00670011=
02/04/2017 02:51->METAR KJFK 020251Z 35006KT 10SM BKN040 BKN090 07/02 A3004 RMK AO2 SLP171 T00670017 51015=
02/04/2017 01:51->METAR KJFK 020151Z 35005KT 10SM SCT050 BKN080 07/02 A3003 RMK AO2 SLP168 T00720017=
02/04/2017 00:51->METAR KJFK 020051Z 01007KT 10SM SCT050 BKN080 07/02 A3001 RMK AO2 SLP160 T00720017=
01/04/2017 23:51->METAR KJFK 012351Z 36009KT 10SM FEW022 BKN050 BKN080 07/02 A2999 RMK AO2 SLP156 60000 T00720022 10078 20067 53028=
01/04/2017 22:51->METAR KJFK 012251Z 02009KT 10SM BKN045 BKN050 BKN070 BKN250 07/03 A2996 RMK AO2 SLP144 T00720033=
01/04/2017 21:51->METAR KJFK 012151Z 01010KT 10SM FEW015 BKN042 07/04 A2994 RMK AO2 RAE14 SLP136 P0000 T00670039=
01/04/2017 20:51->METAR KJFK 012051Z 35017G22KT 7SM -RA SCT013 BKN037 BKN048 07/04 A2991 RMK AO2 PK WND 33027/2011 RAB33 SLP128 P0000 60000 T00670044 53026=
01/04/2017 19:51->METAR KJFK 011951Z 35015G23KT 10SM BKN026 08/02 A2987 RMK AO2 SLP115 T00780017=
01/04/2017 18:51->METAR KJFK 011851Z 34018KT 10SM OVC024 07/02 A2985 RMK AO2 SLP109 T00720017=
01/04/2017 17:51->METAR KJFK 011751Z 35017G24KT 10SM BKN024 OVC130 07/02 A2983 RMK AO2 PK WND 34026/1730 SLP102 T00720022 10083 20033 51010=
01/04/2017 16:51->METAR KJFK 011651Z 35017G26KT 10SM OVC024 07/02 A2983 RMK AO2 PK WND 34028/1605 SLP100 T00720017=
01/04/2017 15:51->METAR KJFK 011551Z 35017G24KT 10SM OVC021 07/02 A2981 RMK AO2 PK WND 35027/1520 SLP095 T00670022=
01/04/2017 14:51->METAR KJFK 011451Z 35020G26KT 10SM BKN018 OVC025 06/02 A2980 RMK AO2 PK WND 35027/1447 SLP091 T00560022 51017=
01/04/2017 13:51->METAR KJFK 011351Z 35016KT 9SM OVC016 05/03 A2979 RMK AO2 SLP086 T00500028 $=
01/04/2017 12:51->METAR KJFK 011251Z 35019G25KT 10SM OVC016 04/02 A2975 RMK AO2 SLP074 T00390022 $=
01/04/2017 11:51->METAR KJFK 011151Z 35018KT 10SM OVC015 03/02 A2972 RMK AO2 PK WND 36026/1124 SLP064 60001 70153 T00330022 10044 20033 53023 $=
01/04/2017 10:51->METAR KJFK 011051Z 35017G24KT 6SM BR OVC010 03/02 A2970 RMK AO2 PK WND 35026/1009 RAE30 CIG 007V014 SLP057 P0000 T00330022 $=
01/04/2017 09:51->METAR KJFK 010951Z 36015KT 3SM -RA BR OVC010 03/03 A2967 RMK AO2 PK WND 02027/0911 RAE09B30SNB09E30 SLP047 P0001 T00330028 $=
01/04/2017 08:51->METAR KJFK 010851Z 02018G24KT 3SM -RA BR OVC010 04/03 A2966 RMK AO2 PK WND 03026/0752 SLP042 P0000 60000 T00390028 53002 $=
01/04/2017 07:51->METAR KJFK 010751Z 03020G26KT 3SM -RA BR OVC010 04/03 A2962 RMK AO2 PK WND 02027/0729 DZB10E46RAB46 SLP031 P0000 T00390028 $=
01/04/2017 06:51->METAR KJFK 010651Z 02018G23KT 9SM OVC010 04/03 A2964 RMK AO2 PK WND 03029/0612 DZE37 SLP038 P0000 T00440028 $=
01/04/2017 05:51->METAR KJFK 010551Z 04019G26KT 5SM -DZ BR OVC010 04/03 A2965 RMK AO2 PK WND 05026/0543 DZB0452 SLP040 P0000 60058 T00440033 10056 20044 56027 $=
01/04/2017 04:51->METAR KJFK 010451Z 05017G26KT 5SM BR BKN010 OVC015 04/04 A2967 RMK AO2 PK WND 05027/0403 DZE37RAB37E46 SLP047 P0000 T00440039 400560039 $=
01/04/2017 03:51->METAR KJFK 010351Z 05020G25KT 5SM -DZ BR BKN010 OVC015 05/04 A2969 RMK AO2 PK WND 06026/0326 RAE43DZB50 SLP054 P0002 T00500039 $=
01/04/2017 02:51->METAR KJFK 010251Z 06014KT 3SM -RA BR BKN010 OVC015 05/04 A2973 RMK AO2 SLP067 P0015 60056 T00500044 58008 $=
01/04/2017 01:51->METAR KJFK 010151Z 04015G21KT 3SM +RA BR BKN010 OVC025 05/04 A2976 RMK AO2 PK WND 07032/0059 SFC VIS 4 SLP079 P0021 T00500044 $=
01/04/2017 00:51->METAR KJFK 010051Z 07023G29KT 5SM +RA BR BKN010 OVC024 05/04 A2975 RMK AO2 PK WND 07033/0028 SLP075 P0020 T00500039 $=
31/03/2017 23:51->METAR KJFK 312351Z 07023G32KT 5SM RA BR OVC009 05/04 A2977 RMK AO2 PK WND 07037/2336 CIG 007V012 SLP079 P0014 60062 T00500044 10050 20044 58029 $=
31/03/2017 22:51->METAR KJFK 312251Z 08021G35KT 5SM RA BR BKN009 OVC016 05/04 A2981 RMK AO2 PK WND 09035/2251 SLP094 P0009 T00500039 $=
31/03/2017 21:51->METAR KJFK 312151Z 08022G32KT 4SM RA BR BKN009 OVC015 05/04 A2981 RMK AO2 PK WND 09034/2137 SLP095 P0009 T00500039 $=
31/03/2017 20:51->METAR KJFK 312051Z 09022G30KT 5SM RA BR BKN010 OVC020 05/04 A2985 RMK AO2 PK WND 09032/2030 SLP109 P0009 60030 T00500039 58029 $=
31/03/2017 19:51->METAR KJFK 311951Z 08019G27KT 5SM RA BR BKN010 OVC022 05/04 A2990 RMK AO2 PK WND 08032/1859 SLP123 P0011 T00500039 $=
31/03/2017 18:51->METAR KJFK 311851Z 09021G30KT 5SM RA BR BKN009 OVC024 04/03 A2994 RMK AO2 PK WND 07032/1818 SLP138 P0010 T00440033 $=
31/03/2017 17:51->METAR KJFK 311751Z 09019G29KT 3SM R04R/6000VP6000FT RA BR BKN009 OVC019 05/04 A2996 RMK AO2 PK WND 09031/1654 SLP146 P0009 60032 T00500039 10050 20039 $=
31/03/2017 16:51->METAR KJFK 311651Z 09018G28KT 4SM -RA BR BKN009 OVC020 05/04 A3000 RMK AO2 PK WND 09029/1619 SLP157 P0006 T00500039 $=
31/03/2017 15:51->METAR KJFK 311551Z 09017G24KT 3SM RA BR BKN007 BKN014 OVC021 05/04 A3002 RMK AO2 RAB45 SLP164 P0006 T00500039 VISNO W $=
31/03/2017 14:51->METAR KJFK 311451Z 10014G22KT 2 1/2SM R04R/6000VP6000FT -RA BR BKN006 OVC015 05/04 A3004 RMK AO2 SLP173 P0005 60011 T00500039 58015=
31/03/2017 13:51->METAR KJFK 311351Z 11011KT 2 1/2SM R04R/6000VP6000FT -RA BR SCT007 BKN015 OVC022 05/04 A3006 RMK AO2 SLP179 P0003 T00500039=
31/03/2017 12:51->METAR KJFK 311251Z 09009KT 3SM -RA BR BKN006 BKN013 OVC018 05/04 A3008 RMK AO2 SLP185 P0003 T00500044=
31/03/2017 11:51->METAR KJFK 311151Z 10009KT 3SM -RA BR BKN008 BKN012 OVC027 04/03 A3009 RMK AO2 SLP188 P0004 60050 70056 T00440033 10050 20039 56017=
31/03/2017 10:51->METAR KJFK 311051Z 11008KT 4SM -RA BR BKN006 BKN013 OVC023 04/03 A3010 RMK AO2 SLP192 P0001 T00390033=
31/03/2017 09:51->METAR KJFK 310951Z 12008KT 10SM -RA BKN009 OVC034 04/03 A3012 RMK AO2 SLP198 P0003 T00390028=
31/03/2017 08:51->METAR KJFK 310851Z 14007KT 6SM -RA BR BKN008 OVC040 04/03 A3014 RMK AO2 SLP205 P0008 60042 T00390028 56011=
31/03/2017 07:51->METAR KJFK 310751Z 13005KT 6SM RA BR BKN008 BKN021 OVC060 04/03 A3015 RMK AO2 SLP209 P0017 T00390028=
31/03/2017 06:51->METAR KJFK 310651Z 15006KT 6SM -RA BR FEW013 OVC046 04/03 A3015 RMK AO2 SLP208 P0017 T00390028=
31/03/2017 05:51->METAR KJFK 310551Z 19007KT 10SM -RA OVC047 05/03 A3017 RMK AO2 SLP216 P0006 60006 T00500033 10061 20050 51010=
31/03/2017 04:51->METAR KJFK 310451Z 17007KT 10SM -RA OVC050 06/03 A3016 RMK AO2 RAB25 SLP212 P0000 T00610028 401000028=
31/03/2017 03:51->METAR KJFK 310351Z 00000KT 10SM OVC060 06/01 A3017 RMK AO2 SLP214 T00610011=
31/03/2017 02:51->METAR KJFK 310251Z 19007KT 10SM OVC070 06/00 A3014 RMK AO2 RAB04E19 PRESFR SLP206 P0000 60000 T00610000 58009=
31/03/2017 01:51->METAR KJFK 310151Z 21008KT 10SM OVC070 06/01 A3016 RMK AO2 SLP212 T00610011=
31/03/2017 00:51->METAR KJFK 310051Z 21012KT 10SM OVC075 06/M01 A3017 RMK AO2 RAE2357 SLP216 P0000 T00611006=
30/03/2017 23:51->METAR KJFK 302351Z 21014KT 10SM -RA OVC080 06/M01 A3017 RMK AO2 RAB35 SLP216 P0000 60000 T00611006 10089 20061 53002=
30/03/2017 22:51->METAR KJFK 302251Z 19010KT 10SM FEW075 OVC090 06/00 A3016 RMK AO2 SLP213 T00610000=
30/03/2017 21:51->METAR KJFK 302151Z 20013KT 10SM FEW085 OVC100 06/M01 A3017 RMK AO2 SLP216 T00611006 $=
30/03/2017 20:51->METAR KJFK 302051Z 18009KT 10SM FEW085 FEW100 BKN120 OVC150 07/M01 A3016 RMK AO2 SLP213 T00671011 58019 $=
30/03/2017 19:51->METAR KJFK 301951Z 19010KT 10SM SCT110 BKN150 BKN250 07/M01 A3019 RMK AO2 SLP222 T00721011 $=
30/03/2017 18:51->METAR KJFK 301851Z 20008KT 10SM SCT110 BKN160 BKN250 08/M03 A3021 RMK AO2 SLP231 T00831028 $=
30/03/2017 17:51->METAR KJFK 301751Z 20010KT 10SM SCT140 BKN230 08/M02 A3022 RMK AO2 SLP232 T00831022 10100 20044 56018 $=
30/03/2017 16:51->METAR KJFK 301651Z 10SM BKN130 BKN250 09/M06 A3023 RMK AO2 SLP236 T00941056 $=
30/03/2017 15:51->METAR KJFK 301551Z VRB03KT 10SM BKN160 07/M06 A3023 RMK AO2 SLP235 T00721056 $=
30/03/2017 14:51->METAR KJFK 301451Z 35011KT 10SM BKN150 BKN270 07/M06 A3027 RMK AO2 SLP250 T00671056 50000 $=
30/03/2017 13:51->METAR KJFK 301351Z 04013KT 10SM SCT160 BKN300 06/M06 A3028 RMK AO2 SLP253 T00611056 $=
30/03/2017 12:51->METAR KJFK 301251Z 02012KT 10SM CLR 06/M06 A3027 RMK AO2 SLP250 T00611056 $=
30/03/2017 11:51->METAR KJFK 301151Z 03008KT 10SM FEW170 SCT320 04/M05 A3027 RMK AO2 SLP250 T00441050 10050 20028 51012 $=
30/03/2017 10:51->METAR KJFK 301051Z 01006KT 10SM FEW170 FEW320 03/M04 A3027 RMK AO2 SLP249 T00281044 $=
30/03/2017 09:51->METAR KJFK 300951Z 36007KT 10SM FEW130 03/M06 A3025 RMK AO2 SLP243 T00281056 $=
30/03/2017 08:51->METAR KJFK 300851Z 35005KT 10SM FEW250 03/M05 A3024 RMK AO2 SLP239 T00331050 $=
30/03/2017 07:51->METAR KJFK 300751Z 35008KT 10SM FEW250 03/M06 A3023 RMK AO2 SLP235 T00331056 $=
30/03/2017 06:51->METAR KJFK 300651Z 36007KT 10SM FEW250 04/M05 A3022 RMK AO2 SLP234 T00391050 CHINO W $=
30/03/2017 05:51->METAR KJFK 300551Z 01005KT 10SM CLR 04/M05 A3023 RMK AO2 SLP235 T00441050 10106 20044 58002=
30/03/2017 04:51->METAR KJFK 300451Z 01013G21KT 10SM FEW140 06/M06 A3023 RMK AO2 SLP237 T00561056 401610056=
30/03/2017 03:51->METAR KJFK 300351Z 01014G22KT 10SM CLR 06/M06 A3024 RMK AO2 SLP240 T00611056=
30/03/2017 02:51->METAR KJFK 300251Z 01017G23KT 10SM FEW250 07/M06 A3023 RMK AO2 SLP237 T00721056 51030=
30/03/2017 01:51->METAR KJFK 300151Z 02016G21KT 10SM FEW055 08/M04 A3021 RMK AO2 SLP229 T00831044=
30/03/2017 00:51->METAR KJFK 300051Z 36009KT 10SM CLR 09/M03 A3018 RMK AO2 SLP219 T00941028=
29/03/2017 23:51->METAR KJFK 292351Z 36013KT 10SM FEW055 11/M04 A3014 RMK AO2 SLP207 T01061039 10161 20106 51035=
29/03/2017 22:51->METAR KJFK 292251Z 33020G27KT 10SM FEW055 12/M04 A3012 RMK AO2 PK WND 33027/2232 SLP198 T01171039=
29/03/2017 21:51->METAR KJFK 292151Z 33016G23KT 10SM FEW055 14/M02 A3008 RMK AO2 SLP184 T01441022=
29/03/2017 20:51->METAR KJFK 292051Z 32018G22KT 10SM FEW055 16/M01 A3004 RMK AO2 PK WND 33026/2037 SLP172 T01561011 55004=
29/03/2017 19:51->METAR KJFK 291951Z 33016G23KT 10SM FEW055 16/M01 A3003 RMK AO2 SLP170 T01561011=
29/03/2017 18:51->METAR KJFK 291851Z 34014G22KT 10SM FEW050 16/01 A3003 RMK AO2 SLP170 T01560006=
29/03/2017 17:51->METAR KJFK 291751Z 32019G23KT 10SM FEW043 15/02 A3006 RMK AO2 SLP177 T01500017 10150 20072 58010=
29/03/2017 16:51->METAR KJFK 291651Z 35017KT 10SM FEW035 13/02 A3006 RMK AO2 SLP180 T01280022=
29/03/2017 15:51->METAR KJFK 291551Z 33014KT 10SM SCT033 12/03 A3008 RMK AO2 SLP185 T01170028=
29/03/2017 14:51->METAR KJFK 291451Z 36020G26KT 10SM BKN028 10/03 A3008 RMK AO2 PK WND 36026/1451 SLP187 T01000028 53015=
29/03/2017 13:51->METAR KJFK 291351Z 35016G23KT 10SM BKN025 09/03 A3006 RMK AO2 SLP180 T00890028=
29/03/2017 12:51->METAR KJFK 291251Z 35015KT 10SM FEW019 BKN028 08/04 A3006 RMK AO2 SLP178 T00780039=
29/03/2017 11:51->METAR KJFK 291151Z 35014KT 10SM FEW021 BKN028 08/04 A3004 RMK AO2 SLP172 70080 T00780039 10083 20072 51017=
29/03/2017 10:51->METAR KJFK 291051Z 35014KT 10SM FEW015 BKN022 BKN050 08/04 A3002 RMK AO2 SLP167 T00780044=
29/03/2017 09:51->METAR KJFK 290951Z 35012KT 10SM OVC022 08/05 A3001 RMK AO2 SLP160 T00780050=
29/03/2017 08:51->METAR KJFK 290851Z 34012KT 10SM SCT017 OVC028 08/06 A2999 RMK AO2 SLP155 T00830061 53019=
29/03/2017 07:51->METAR KJFK 290751Z 35011KT 10SM OVC015 08/07 A2996 RMK AO2 SLP146 T00830067=
29/03/2017 06:51->METAR KJFK 290651Z 35006KT 10SM OVC015 08/06 A2996 RMK AO2 SLP143 T00780061=
29/03/2017 05:51->METAR KJFK 290551Z 35005KT 10SM FEW007 OVC022 07/06 A2993 RMK AO2 SLP136 60010 T00720061 10072 20056 58002=
29/03/2017 04:51->METAR KJFK 290451Z 34006KT 10SM SCT007 BKN031 OVC100 07/06 A2994 RMK AO2 RAE17 SLP137 P0000 T00670061 400940056=
29/03/2017 03:51->METAR KJFK 290351Z 36006KT 10SM -RA FEW008 OVC033 07/06 A2994 RMK AO2 SLP138 P0000 T00720061=
29/03/2017 02:51->METAR KJFK 290251Z 01005KT 10SM -RA BKN008 OVC039 07/06 A2994 RMK AO2 SLP137 BKN008 V SCT P0001 60010 T00670056 50009=
29/03/2017 01:51->METAR KJFK 290151Z 02012KT 10SM -RA BKN008 OVC022 07/06 A2994 RMK AO2 SLP139 BKN008 V SCT P0000 T00670056=
29/03/2017 00:51->METAR KJFK 290051Z 35008KT 7SM -RA BKN005 BKN020 OVC025 06/06 A2993 RMK AO2 SLP135 BKN005 V SCT P0009 T00610056=
28/03/2017 23:51->METAR KJFK 282351Z 02010KT 1/2SM R04R/P6000FT -RA BR OVC004 06/06 A2991 RMK AO2 SFC VIS 3 SLP128 P0003 60010 T00610056 10094 20061 53008=
28/03/2017 22:51->METAR KJFK 282251Z 35008KT 1/2SM R04R/P6000FT -RA BR OVC003 06/06 A2990 RMK AO2 SFC VIS 2 1/2 RAB37 SLP125 P0000 T00610056=
28/03/2017 21:51->METAR KJFK 282151Z 36006KT 3SM BR OVC005 08/07 A2989 RMK AO2 SFC VIS 6 SLP120 T00830072=
28/03/2017 20:51->METAR KJFK 282051Z 02007KT 10SM OVC005 08/07 A2989 RMK AO2 SLP120 60007 T00830072 55021=
28/03/2017 19:51->METAR KJFK 281951Z 03009KT 10SM OVC005 09/08 A2988 RMK AO2 RAE31 SLP117 P0000 T00890078=
28/03/2017 18:51->METAR KJFK 281851Z 07006KT 10SM -RA BKN008 OVC017 09/08 A2991 RMK AO2 SLP128 P0007 T00890083=
28/03/2017 17:51->METAR KJFK 281751Z 06003KT 6SM RA BR BKN008 OVC050 08/08 A2995 RMK AO2 LTG DSNT S SLP140 P0010 60060 T00830078 10083 20072 55017=
28/03/2017 16:51->METAR KJFK 281651Z 07010KT 8SM -RA BKN006 BKN065 OVC080 08/08 A2993 RMK AO2 PRESRR SLP134 P0004 T00830078=
28/03/2017 15:51->METAR KJFK 281551Z 08016KT 3SM -RA BR BKN005 BKN070 OVC090 08/07 A2992 RMK AO2 SFC VIS 5 SLP133 BKN005 V SCT TSE08 P0046 T00780072=
28/03/2017 14:51->METAR KJFK 281451Z VRB03KT 6SM -TSRA BR BKN007 OVC027CB 08/07 A3000 RMK AO2 LTG DSNT NE RAB15E32B48 TSB24 SLP158 OCNL LTGICCG OHD AND SW-W TS OHD AND SW-W MOV NE P0000 60000 T00830072 53008=
28/03/2017 13:51->METAR KJFK 281351Z 07006KT 10SM OVC007 08/07 A2997 RMK AO2 SLP148 T00830072=
28/03/2017 12:51->METAR KJFK 281251Z 06009KT 8SM OVC006 08/07 A2995 RMK AO2 SLP143 T00830072=
28/03/2017 11:51->METAR KJFK 281151Z 08008KT 6SM BR OVC005 07/07 A2997 RMK AO2 LTG DSNT S SLP149 CIG 004V007 60013 70030 T00720067 10089 20067 51005=
28/03/2017 10:51->METAR KJFK 281051Z 10005KT 3SM BR OVC004 07/07 A2997 RMK AO2 SFC VIS 5 SLP148 T00720067=
28/03/2017 09:51->METAR KJFK 280951Z 09006KT 7SM OVC006 07/06 A2996 RMK AO2 LTG DSNT SW RAE39 SLP145 P0002 T00670061=
28/03/2017 08:51->METAR KJFK 280851Z 10008KT 5SM VCTS RA BR SCT008 OVC036 07/07 A2995 RMK AO2 LTG DSNT S AND SW RAB10 TSE38 SLP141 OCNL LTGIC DSNT SW CB DSNT SW MOV NE P0011 60011 T00720067 56013=
28/03/2017 07:51->METAR KJFK 280751Z 15004KT 6SM BR SCT007 OVC036 08/07 A2996 RMK AO2 LTG DSNT SW SLP146 T00780067=
28/03/2017 06:51->METAR KJFK 280651Z 03007KT 6SM BR FEW007 BKN033 OVC090 09/07 A2997 RMK AO2 RAB04E13 SLP147 P0000 T00890072=
28/03/2017 05:51->METAR KJFK 280551Z 05006KT 6SM BR SCT049 OVC090 09/08 A2999 RMK AO2 SLP154 T00890078 10100 20078 58010=
28/03/2017 04:51->METAR KJFK 280451Z 08004KT 7SM OVC060 09/08 A3000 RMK AO2 SLP159 T00940083 401440044=
28/03/2017 03:51->METAR KJFK 280351Z 09005KT 7SM BKN070 OVC090 09/08 A3002 RMK AO2 SLP164 T00890083=
28/03/2017 02:51->METAR KJFK 280251Z 08003KT 7SM OVC085 08/08 A3002 RMK AO2 SLP164 T00830078 50007=
28/03/2017 01:51->METAR KJFK 280151Z 07004KT 9SM FEW085 BKN250 08/07 A3002 RMK AO2 SLP165 T00830072=
28/03/2017 00:51->METAR KJFK 280051Z 03004KT 9SM FEW017 FEW095 BKN250 10/08 A3001 RMK AO2 SLP162 T01000083=
27/03/2017 23:51->METAR KJFK 272351Z 13003KT 9SM FEW017 FEW095 BKN250 09/08 A3000 RMK AO2 SLP157 T00940078 10144 20094 56001=
27/03/2017 22:51->METAR KJFK 272251Z 24008KT 10SM FEW019 SCT095 BKN250 13/10 A3000 RMK AO2 SLP158 T01280100=
27/03/2017 21:51->METAR KJFK 272151Z 22007KT 10SM FEW020 BKN090 BKN250 13/10 A2999 RMK AO2 SLP155 T01280100=
27/03/2017 20:51->METAR KJFK 272051Z VRB06KT 9SM BKN019 BKN120 BKN250 14/09 A3000 RMK AO2 SLP157 BKN019 V SCT T01390094 56016=
27/03/2017 19:51->METAR KJFK 271951Z 27010KT 8SM BKN016 BKN023 BKN110 BKN220 14/10 A3001 RMK AO2 SLP161 BKN016 V SCT T01390100=
27/03/2017 18:51->METAR KJFK 271851Z 27007KT 8SM BKN012 BKN028 OVC080 12/09 A3002 RMK AO2 SLP167 T01220094=
27/03/2017 17:51->METAR KJFK 271751Z 25005KT 7SM BKN011 OVC017 11/08 A3005 RMK AO2 SLP174 CIG 009V013 60017 T01060083 10106 20061 56018=
27/03/2017 16:51->METAR KJFK 271651Z 00000KT 7SM BKN009 OVC017 09/08 A3006 RMK AO2 RAE05 SLP178 CIG 007V011 P0000 T00940083=
27/03/2017 15:51->METAR KJFK 271551Z 35003KT 6SM -RA BR BKN005 OVC013 07/07 A3008 RMK AO2 SLP184 P0005 T00720067=
27/03/2017 14:51->METAR KJFK 271451Z 00000KT 1SM R04R/2000VP6000FT RA BR BKN006 OVC013 08/08 A3010 RMK AO2 SFC VIS 2 1/2 SLP192 VIS SE-S 1 1/2 P0012 60012 T00780078 56011=
27/03/2017 13:51->METAR KJFK 271351Z 08003KT 0SM R04R/1000V1200FT -RA FG VV002 07/07 A3011 RMK AO2 SFC VIS 1/2 DZE00RAB00 SLP196 P0000 T00720072=
27/03/2017 12:51->METAR KJFK 271251Z 10006KT 0SM R04R/1600V1800FT -DZ FG VV002 07/07 A3011 RMK AO2 SFC VIS 1/4 SLP196 P0000 T00670067=
27/03/2017 11:51->METAR KJFK 271151Z 08008KT 0SM R04R/1800V2200FT -DZ FG VV002 06/06 A3013 RMK AO2 SFC VIS 1/2 DZE22B44RAB22E44 SLP203 P0000 60001 70004 T00610061 10061 20044 56019=
27/03/2017 10:51->METAR KJFK 271051Z 08006KT 1/2SM R04R/3500V4000FT -DZ BR VV002 06/06 A3015 RMK AO2 SFC VIS 3/4 SLP208 P0001 T00560056=
27/03/2017 09:51->METAR KJFK 270951Z 07005KT 1/2SM R04R/5500VP6000FT -DZ BR OVC003 06/05 A3017 RMK AO2 SFC VIS 1 1/2 SLP214 P0000 T00560050=
27/03/2017 08:51->METAR KJFK 270851Z 06006KT 2SM -DZ BR OVC004 05/04 A3019 RMK AO2 SLP221 P0000 60000 T00500044 56028=
27/03/2017 07:51->METAR KJFK 270751Z 07007KT 3SM -DZ BR OVC005 04/04 A3020 RMK AO2 SLP226 P0000 T00440044=
27/03/2017 06:51->METAR KJFK 270651Z 07008KT 3SM -DZ BR OVC005 04/04 A3024 RMK AO2 SLP239 P0000 T00440039=
27/03/2017 05:51->METAR KJFK 270551Z 05007KT 3SM -DZ BR OVC005 04/04 A3027 RMK AO2 SFC VIS 4 SLP250 P0001 60003 T00440039 10044 20044 58026=
27/03/2017 04:51->METAR KJFK 270451Z 05008KT 2 1/2SM -DZ BR OVC005 04/04 A3030 RMK AO2 SLP260 P0001 T00440039 400610039=
27/03/2017 03:51->METAR KJFK 270351Z 06009KT 4SM -DZ BR OVC006 04/04 A3033 RMK AO2 SLP270 P0000 T00440039=
27/03/2017 02:51->METAR KJFK 270251Z 08012KT 4SM -DZ BR OVC006 04/04 A3035 RMK AO2 DZB03 SLP276 P0000 60001 T00440039 58012=
27/03/2017 01:51->METAR KJFK 270151Z 07010KT 3SM BR OVC006 04/04 A3035 RMK AO2 SLP278 P0001 T00440039=
27/03/2017 00:51->METAR KJFK 270051Z 06009KT 3SM BR BKN007 OVC011 04/04 A3038 RMK AO2 RAB04E26 SLP287 P0000 T00440039=
26/03/2017 23:51->METAR KJFK 262351Z 09007KT 3SM BR OVC006 04/04 A3038 RMK AO2 SLP288 T00440039 10061 20044 56009=
26/03/2017 22:51->METAR KJFK 262251Z 08011KT 4SM BR OVC009 05/03 A3039 RMK AO2 SLP291 T00500033=
26/03/2017 21:51->METAR KJFK 262151Z 08014KT 10SM OVC017 05/02 A3040 RMK AO2 SLP294 T00500022=
26/03/2017 20:51->METAR KJFK 262051Z 09013KT 10SM SCT021 OVC027 06/02 A3041 RMK AO2 SLP297 T00610017 56016=
26/03/2017 19:51->METAR KJFK 261951Z 08010KT 10SM SCT019 OVC032 06/02 A3041 RMK AO2 SLP298 T00610022=
26/03/2017 18:51->METAR KJFK 261851Z 08012KT 10SM SCT017 OVC035 06/02 A3043 RMK AO2 SLP305 T00610022=
26/03/2017 17:51->METAR KJFK 261751Z 09014KT 10SM FEW021 OVC033 06/02 A3046 RMK AO2 RAB35E51 SLP313 P0000 60000 T00560017 10061 20039 58008=
26/03/2017 16:51->METAR KJFK 261651Z 09015KT 10SM BKN019 OVC033 06/02 A3048 RMK AO2 SLP319 T00560017=
26/03/2017 15:51->METAR KJFK 261551Z 08013KT 10SM OVC017 06/02 A3049 RMK AO2 SLP324 T00560022=
26/03/2017 14:51->METAR KJFK 261451Z 07010KT 10SM OVC015 05/02 A3048 RMK AO2 SLP321 T00500022 53009=
26/03/2017 13:51->METAR KJFK 261351Z 06010KT 10SM OVC016 04/02 A3047 RMK AO2 SLP318 T00440017=
26/03/2017 12:51->METAR KJFK 261251Z 04010KT 10SM SCT015 OVC035 04/02 A3046 RMK AO2 SLP314 T00390017=
26/03/2017 11:51->METAR KJFK 261151Z 05010KT 10SM FEW010 FEW025 OVC043 04/02 A3045 RMK AO2 SLP312 60012 70013 T00390017 10061 20039 53013=
26/03/2017 10:51->METAR KJFK 261051Z 04010KT 10SM FEW010 FEW023 OVC044 04/02 A3043 RMK AO2 SLP305 T00390017=
26/03/2017 09:51->METAR KJFK 260951Z 03009KT 10SM FEW010 FEW025 OVC046 04/03 A3042 RMK AO2 RAE45 SLP302 P0003 T00390028=
26/03/2017 08:51->METAR KJFK 260851Z 04010KT 6SM -RA BR FEW010 SCT025 OVC047 04/03 A3042 RMK AO2 SLP299 P0007 60009 T00440033 50002=
26/03/2017 07:51->METAR KJFK 260751Z 05008KT 7SM -RA OVC015 05/03 A3042 RMK AO2 SLP301 P0001 T00500033=
26/03/2017 06:51->METAR KJFK 260651Z 05007KT 10SM -RA OVC015 06/03 A3043 RMK AO2 RAB18 SLP302 P0001 T00560028=
26/03/2017 05:51->METAR KJFK 260551Z 05011KT 10SM BKN018 OVC050 06/02 A3041 RMK AO2 SLP297 T00610022 10078 20061 50005=
26/03/2017 04:51->METAR KJFK 260451Z 05008KT 10SM BKN015 OVC050 06/03 A3041 RMK AO2 SLP298 T00610033 401670056=
26/03/2017 03:51->METAR KJFK 260351Z 05010KT 10SM SCT015 OVC028 07/04 A3040 RMK AO2 SLP294 T00670039=
26/03/2017 02:51->METAR KJFK 260251Z 05011KT 10SM OVC015 07/04 A3039 RMK AO2 SLP291 T00720044 51022=
26/03/2017 01:51->METAR KJFK 260151Z 07007KT 10SM BKN029 OVC060 07/04 A3037 RMK AO2 SLP285 T00720044=
26/03/2017 00:51->METAR KJFK 260051Z 04008KT 10SM BKN016 OVC024 08/04 A3038 RMK AO2 SLP286 T00780044=
25/03/2017 23:51->METAR KJFK 252351Z 10009KT 10SM OVC049 07/05 A3033 RMK AO2 PRESRR SLP270 60001 T00720050 10161 20072 53017=
25/03/2017 22:51->METAR KJFK 252251Z 12008KT 10SM BKN046 BKN095 BKN130 OVC250 10/05 A3029 RMK AO2 SLP255 T01000050=
25/03/2017 21:51->METAR KJFK 252151Z 06014KT 10SM SCT049 SCT100 OVC250 11/05 A3028 RMK AO2 WSHFT 2129 SLP252 T01110050=
25/03/2017 20:51->METAR KJFK 252051Z 09006KT 10SM FEW043 SCT085 BKN110 OVC250 10/07 A3026 RMK AO2 RAE35 SLP247 P0000 60001 T01000072 53024=
25/03/2017 19:51->METAR KJFK 251951Z 12009KT 10SM -RA FEW037 SCT049 BKN080 OVC130 13/08 A3022 RMK AO2 RAE06B48 SLP233 P0001 T01280078=
25/03/2017 18:51->METAR KJFK 251851Z 36008KT 7SM -RA FEW045 BKN090 OVC120 14/08 A3019 RMK AO2 RAB09 SLP223 P0000 T01440083=
25/03/2017 17:51->METAR KJFK 251751Z 36008KT 10SM FEW037 SCT070 BKN120 OVC250 16/04 A3019 RMK AO2 RAB26E37 SLP223 P0000 60000 T01610044 10167 20117 52011=
25/03/2017 16:51->METAR KJFK 251651Z 17005KT 10SM BKN110 OVC250 14/06 A3018 RMK AO2 SLP219 T01440056=
25/03/2017 15:51->METAR KJFK 251551Z VRB05KT 10SM SCT150 BKN250 15/06 A3017 RMK AO2 SLP216 T01500056=
25/03/2017 14:51->METAR KJFK 251451Z 00000KT 10SM BKN120 OVC250 14/06 A3016 RMK AO2 SLP212 T01390056 50003=
25/03/2017 13:51->METAR KJFK 251351Z 21003KT 10SM BKN120 OVC250 13/06 A3017 RMK AO2 SLP217 T01280056=
25/03/2017 12:51->METAR KJFK 251251Z 34004KT 10SM BKN120 BKN150 OVC250 13/06 A3017 RMK AO2 SLP214 T01330056=
25/03/2017 11:51->METAR KJFK 251151Z 27005KT 10SM BKN150 BKN250 13/05 A3015 RMK AO2 SLP210 T01280050 10128 20056 53021=
25/03/2017 10:51->METAR KJFK 251051Z 27007KT 10SM BKN150 BKN250 12/05 A3012 RMK AO2 SLP199 T01170050=
25/03/2017 09:51->METAR KJFK 250951Z 25013KT 10SM SCT170 BKN200 11/04 A3010 RMK AO2 SLP192 T01060044=
25/03/2017 08:51->METAR KJFK 250851Z 25012KT 10SM SCT200 BKN250 09/04 A3009 RMK AO2 SLP189 T00890039 55005=
25/03/2017 07:51->METAR KJFK 250751Z 19004KT 10SM BKN200 06/04 A3009 RMK AO2 SLP188 T00610039=
25/03/2017 06:51->METAR KJFK 250651Z 20008KT 10SM BKN250 06/04 A3009 RMK AO2 SLP189 T00610044=
25/03/2017 05:51->METAR KJFK 250551Z 19011KT 10SM FEW170 OVC250 07/04 A3011 RMK AO2 SLP194 T00720044 10083 20061 58017=
25/03/2017 04:51->METAR KJFK 250451Z 18008KT 10SM FEW170 BKN250 07/04 A3013 RMK AO2 SLP203 T00670044 400940000=
25/03/2017 03:51->METAR KJFK 250351Z 20007KT 10SM SCT170 BKN250 07/04 A3015 RMK AO2 SLP208 T00670039=
25/03/2017 02:51->METAR KJFK 250251Z 20006KT 10SM SCT250 08/03 A3016 RMK AO2 SLP212 T00780033 50008=
25/03/2017 01:51->METAR KJFK 250151Z 21008KT 10SM BKN250 07/04 A3017 RMK AO2 SLP217 T00720039=
25/03/2017 00:51->METAR KJFK 250051Z 19008KT 10SM FEW080 BKN250 07/04 A3016 RMK AO2 SLP213 T00670039=
24/03/2017 23:51->METAR KJFK 242351Z 19011KT 10SM FEW070 BKN250 07/04 A3013 RMK AO2 SLP203 60000 T00720039 10094 20067 56011=
24/03/2017 22:51->METAR KJFK 242251Z 18011KT 10SM SCT065 SCT085 BKN250 08/04 A3013 RMK AO2 SLP204 T00780039=
24/03/2017 21:51->METAR KJFK 242151Z 19011KT 10SM BKN070 BKN085 BKN250 08/03 A3015 RMK AO2 SLP208 T00830033=
24/03/2017 20:51->METAR KJFK 242051Z 19016KT 10SM FEW070 SCT095 BKN250 09/03 A3017 RMK AO2 SLP215 60000 T00940033 56048=
24/03/2017 19:51->METAR KJFK 241951Z 19016KT 10SM SCT070 BKN095 BKN250 09/03 A3020 RMK AO2 SLP225 T00890033=
24/03/2017 18:51->METAR KJFK 241851Z 18020G26KT 10SM SCT043 OVC070 07/02 A3025 RMK AO2 PK WND 19026/1850 RAE1754 SLP242 P0000 T00670017=
24/03/2017 17:51->METAR KJFK 241751Z 19017KT 10SM -RA BKN050 OVC130 07/02 A3031 RMK AO2 RAB12E21B43 SLP262 P0000 60000 T00670017 10078 20033 58044=
24/03/2017 16:51->METAR KJFK 241651Z 19019KT 10SM BKN070 OVC160 07/02 A3034 RMK AO2 PRESFR SLP275 T00720017=
24/03/2017 15:51->METAR KJFK 241551Z 18015KT 10SM BKN085 BKN160 OVC250 07/01 A3041 RMK AO2 SLP296 T00670011=
24/03/2017 14:51->METAR KJFK 241451Z 19018KT 10SM SCT110 BKN160 BKN250 07/M01 A3044 RMK AO2 SLP307 T00671006 58021=
24/03/2017 13:51->METAR KJFK 241351Z 20017KT 10SM BKN110 BKN250 06/M01 A3047 RMK AO2 SLP319 T00611006=
24/03/2017 12:51->METAR KJFK 241251Z 20013KT 10SM BKN110 BKN190 BKN250 04/01 A3049 RMK AO2 SLP323 T00440006=
24/03/2017 11:51->METAR KJFK 241151Z 21012KT 10SM BKN110 BKN220 03/M01 A3050 RMK AO2 SLP327 T00331006 10033 20000 58002=
24/03/2017 10:51->METAR KJFK 241051Z 21013KT 10SM SCT110 BKN220 02/M02 A3050 RMK AO2 SLP329 T00221022=
24/03/2017 09:51->METAR KJFK 240951Z 21012KT 10SM SCT140 OVC220 02/M03 A3051 RMK AO2 SLP331 T00221033=
24/03/2017 08:51->METAR KJFK 240851Z 22009KT 10SM FEW150 BKN250 01/M04 A3051 RMK AO2 SLP330 T00061044 58009=
24/03/2017 07:51->METAR KJFK 240751Z 20009KT 10SM FEW150 BKN250 01/M05 A3050 RMK AO2 SLP329 T00111050=
24/03/2017 06:51->METAR KJFK 240651Z 23004KT 10SM SCT150 02/M04 A3054 RMK AO2 SLP342 T00171044=
24/03/2017 05:51->METAR KJFK 240551Z 21008KT 10SM FEW150 FEW250 01/M04 A3054 RMK AO2 SLP339 T00111044 10028 20011 56013=
24/03/2017 04:51->METAR KJFK 240451Z 21006KT 10SM FEW150 FEW250 02/M03 A3055 RMK AO2 SLP343 T00171033 400671050=
24/03/2017 03:51->METAR KJFK 240351Z 19009KT 10SM FEW250 03/M03 A3055 RMK AO2 SLP343 T00281028=
24/03/2017 02:51->METAR KJFK 240251Z 19006KT 10SM FEW250 03/M03 A3057 RMK AO2 SLP352 T00281028 50013=
24/03/2017 01:51->METAR KJFK 240151Z 19009KT 10SM FEW250 02/M03 A3058 RMK AO2 SLP355 T00221033=
24/03/2017 00:51->METAR KJFK 240051Z 20011KT 10SM FEW250 03/M04 A3055 RMK AO2 SLP344 T00281039=
23/03/2017 23:51->METAR KJFK 232351Z 20014KT 10SM FEW250 02/M05 A3053 RMK AO2 SLP339 T00221050 10067 20022 53006=
23/03/2017 22:51->METAR KJFK 232251Z 26009KT 10SM FEW250 06/M18 A3052 RMK AO2 SLP335 T00561178=
23/03/2017 21:51->METAR KJFK 232151Z 30010KT 10SM FEW250 06/M18 A3051 RMK AO2 SLP331 T00611183=
23/03/2017 20:51->METAR KJFK 232051Z 28012KT 10SM R04R/4500VP6000FT FEW250 06/M18 A3052 RMK AO2 SLP333 T00611178 56017=
23/03/2017 19:51->METAR KJFK 231951Z 31010G17KT 10SM FEW250 06/M17 A3053 RMK AO2 SLP337 T00611172=
23/03/2017 18:51->METAR KJFK 231851Z 29008G16KT 230V320 10SM FEW250 05/M18 A3054 RMK AO2 SLP341 T00501178=
23/03/2017 17:51->METAR KJFK 231751Z 32015KT 10SM R04R/4500VP6000FT FEW250 05/M18 A3057 RMK AO2 SLP350 T00501178 10050 21033 58017=
23/03/2017 16:51->METAR KJFK 231651Z 30011G15KT 10SM FEW250 03/M18 A3059 RMK AO2 SLP357 T00331183=
23/03/2017 15:51->METAR KJFK 231551Z 30006KT 10SM CLR 02/M18 A3061 RMK AO2 SLP363 T00171178=
23/03/2017 14:51->METAR KJFK 231451Z 30012KT 10SM CLR 01/M17 A3062 RMK AO2 SLP367 T00061172 51008=
23/03/2017 13:51->METAR KJFK 231351Z 32010KT 10SM FEW250 M01/M18 A3062 RMK AO2 SLP367 T10111178=
23/03/2017 12:51->METAR KJFK 231251Z 32011KT 10SM FEW250 M02/M16 A3061 RMK AO2 SLP364 T10221161=
23/03/2017 11:51->METAR KJFK 231151Z 34008KT 10SM CLR M03/M15 A3059 RMK AO2 SLP358 T10281150 11028 21050 51026=
23/03/2017 10:51->METAR KJFK 231051Z 31009KT 10SM CLR M04/M15 A3057 RMK AO2 SLP350 T10441150=
23/03/2017 09:51->METAR KJFK 230951Z 31007KT 10SM CLR M04/M16 A3054 RMK AO2 SLP341 T10441156=
23/03/2017 08:51->METAR KJFK 230851Z 32009KT 10SM CLR M04/M16 A3051 RMK AO2 SLP332 T10441156 53010=
23/03/2017 07:51->METAR KJFK 230751Z 33012KT 10SM CLR M04/M16 A3049 RMK AO2 SLP325 T10441156=
23/03/2017 06:51->METAR KJFK 230651Z 33014KT 10SM CLR M04/M16 A3049 RMK AO2 SLP324 T10441161=
23/03/2017 05:51->METAR KJFK 230551Z 33014KT 10SM CLR M04/M18 A3048 RMK AO2 SLP321 T10441178 11011 21044 51015=
23/03/2017 04:51->METAR KJFK 230451Z 33015G24KT 10SM CLR M04/M19 A3047 RMK AO2 PK WND 34029/0437 SLP319 T10441189 401001044=
23/03/2017 03:51->METAR KJFK 230351Z 32016G24KT 10SM CLR M04/M19 A3046 RMK AO2 PK WND 32028/0322 SLP313 T10391194=
23/03/2017 02:51->METAR KJFK 230251Z 33019KT 10SM CLR M03/M21 A3044 RMK AO2 PK WND 34030/0156 SLP306 T10331211 51031=
23/03/2017 01:51->METAR KJFK 230151Z 33024G30KT 10SM CLR M03/M22 A3042 RMK AO2 PK WND 33034/0055 SLP299 T10281217=
23/03/2017 00:51->METAR KJFK 230051Z 32021G29KT 10SM CLR M02/M21 A3039 RMK AO2 PK WND 33030/0012 SLP291 T10171211=
22/03/2017 23:51->METAR KJFK 222351Z 34018G27KT 10SM CLR M01/M22 A3034 RMK AO2 PK WND 32036/2331 SLP275 T10111222 10028 21011 52040=
22/03/2017 22:51->METAR KJFK 222251Z 34022G33KT 10SM CLR 00/M20 A3030 RMK AO2 PK WND 33033/2246 SLP261 T00001200=
22/03/2017 21:51->METAR KJFK 222151Z 31024G31KT 10SM CLR 01/M20 A3027 RMK AO2 PK WND 34037/2108 SLP249 T00061200=
22/03/2017 20:51->METAR KJFK 222051Z 33022G32KT 10SM CLR 02/M19 A3023 RMK AO2 PK WND 33039/2025 SLP235 T00171194 53018=
22/03/2017 19:51->METAR KJFK 221951Z 31023G31KT 10SM CLR 03/M20 A3020 RMK AO2 PK WND 31036/1908 SLP227 T00281200=
22/03/2017 18:51->METAR KJFK 221851Z 32025G38KT 10SM CLR 03/M20 A3018 RMK AO2 PK WND 31039/1803 SLP219 T00281200=
22/03/2017 17:51->METAR KJFK 221751Z 31023G31KT 10SM FEW060 02/M18 A3017 RMK AO2 PK WND 32039/1736 SLP217 T00221183 10044 20017 51026=
22/03/2017 16:51->METAR KJFK 221651Z 33027G36KT 10SM FEW060 02/M17 A3017 RMK AO2 PK WND 32040/1632 SLP216 T00221172=
22/03/2017 15:51->METAR KJFK 221551Z 32025G32KT 10SM FEW055 03/M14 A3014 RMK AO2 PK WND 32040/1524 SLP204 T00281139=
22/03/2017 14:51->METAR KJFK 221451Z 32024G31KT 10SM SCT055 04/M10 A3010 RMK AO2 PK WND 32036/1354 SLP191 T00391100 53035=
22/03/2017 13:51->METAR KJFK 221351Z 30028G36KT 10SM FEW060 FEW250 03/M12 A3006 RMK AO2 PK WND 30046/1319 SLP178 T00331117=
22/03/2017 12:51->METAR KJFK 221251Z 30025G37KT 10SM FEW060 FEW250 04/M12 A3001 RMK AO2 PK WND 32041/1241 SLP163 T00391122=
22/03/2017 11:51->METAR KJFK 221151Z 30020G31KT 10SM SCT055 SCT250 04/M08 A2999 RMK AO2 PK WND 30031/1151 SLP156 T00391083 10094 20039 51034=
22/03/2017 10:51->METAR KJFK 221051Z 31022G29KT 10SM FEW055 FEW250 04/M08 A2997 RMK AO2 PK WND 32033/0954 SLP147 T00441083=
22/03/2017 09:51->METAR KJFK 220951Z 32025G35KT 10SM FEW250 06/M07 A2993 RMK AO2 PK WND 32035/0950 SLP135 T00561067=
22/03/2017 08:51->METAR KJFK 220851Z 31017G21KT 10SM FEW220 07/M04 A2989 RMK AO2 SLP122 T00671044 53006=
22/03/2017 07:51->METAR KJFK 220751Z 32016KT 10SM FEW220 09/M08 A2988 RMK AO2 SLP116 T00891078=
22/03/2017 06:51->METAR KJFK 220651Z 31005KT 10SM FEW060 FEW220 08/M09 A2987 RMK AO2 SLP114 T00831089=
22/03/2017 05:51->METAR KJFK 220551Z 34004KT 10SM SCT060 OVC200 09/M09 A2987 RMK AO2 SLP116 T00941089 10128 20078 53001=
22/03/2017 04:51->METAR KJFK 220451Z 36008KT 10SM BKN060 OVC170 10/M08 A2987 RMK AO2 SLP116 T01001078 401390056=
22/03/2017 03:51->METAR KJFK 220351Z 01010KT 10SM BKN060 OVC170 12/M03 A2987 RMK AO2 SLP113 T01171033=
22/03/2017 02:51->METAR KJFK 220251Z 26008KT 10SM BKN065 OVC220 12/02 A2987 RMK AO2 SLP115 T01220022 50004=
22/03/2017 01:51->METAR KJFK 220151Z 28006KT 10SM BKN060 OVC220 13/02 A2988 RMK AO2 SLP118 T01280017=
22/03/2017 00:51->METAR KJFK 220051Z 26009KT 10SM SCT075 BKN230 12/00 A2988 RMK AO2 SLP117 T01220000=
21/03/2017 23:51->METAR KJFK 212351Z 21008KT 10SM FEW065 BKN250 08/04 A2986 RMK AO2 SLP111 T00830039 10139 20078 53009=
21/03/2017 22:51->METAR KJFK 212251Z 19012KT 10SM FEW065 BKN260 09/02 A2985 RMK AO2 SLP107 T00890022=
21/03/2017 21:51->METAR KJFK 212151Z 19010KT 10SM FEW065 BKN260 11/02 A2984 RMK AO2 SLP103 T01110017=
21/03/2017 20:51->METAR KJFK 212051Z 20011KT 10SM FEW065 SCT270 13/01 A2983 RMK AO2 SLP102 T01330011 58021=
21/03/2017 19:51->METAR KJFK 211951Z 22013KT 10SM FEW065 SCT270 13/M01 A2986 RMK AO2 SLP111 T01331006=
21/03/2017 18:51->METAR KJFK 211851Z 23011KT 10SM FEW065 BKN270 13/M01 A2988 RMK AO2 SLP117 T01281011=
21/03/2017 17:51->METAR KJFK 211751Z 23011KT 10SM FEW065 BKN300 12/M01 A2990 RMK AO2 SLP124 T01221011 10128 20056 58014=
21/03/2017 16:51->METAR KJFK 211651Z 22009KT 10SM BKN065 12/M01 A2992 RMK AO2 SLP130 T01171011=
21/03/2017 15:51->METAR KJFK 211551Z 24008KT 10SM BKN070 BKN320 11/M03 A2993 RMK AO2 SLP135 T01111033=
21/03/2017 14:51->METAR KJFK 211451Z 25005KT 10SM BKN070 BKN320 10/M04 A2994 RMK AO2 SLP137 T01001044 58001=
21/03/2017 13:51->METAR KJFK 211351Z 25007KT 10SM BKN065 BKN120 BKN320 09/M04 A2994 RMK AO2 SLP137 T00891039=
21/03/2017 12:51->METAR KJFK 211251Z 25005KT 10SM BKN060 BKN140 07/M02 A2994 RMK AO2 SLP139 T00721017=
21/03/2017 11:51->METAR KJFK 211151Z 19005KT 10SM OVC065 06/M01 A2994 RMK AO2 SLP138 T00611006 10083 20061 53002=
21/03/2017 10:51->METAR KJFK 211051Z 35007KT 10SM BKN070 OVC150 07/M04 A2993 RMK AO2 SLP134 T00671039=
21/03/2017 09:51->METAR KJFK 210951Z 34005KT 10SM OVC070 07/M04 A2993 RMK AO2 SLP134 T00671044=
21/03/2017 08:51->METAR KJFK 210851Z 33006KT 10SM OVC070 07/M04 A2994 RMK AO2 SLP136 T00671044 56012=
21/03/2017 07:51->METAR KJFK 210751Z 30005KT 10SM BKN070 BKN250 07/M04 A2994 RMK AO2 SLP138 T00721044=
21/03/2017 06:51->METAR KJFK 210651Z 31007KT 10SM BKN090 BKN250 07/M05 A2995 RMK AO2 SLP141 T00721050=
21/03/2017 05:51->METAR KJFK 210551Z 31006KT 10SM OVC090 08/M05 A2997 RMK AO2 SLP149 T00781050 10100 20078 58013=
21/03/2017 04:51->METAR KJFK 210451Z 30007KT 10SM OVC090 08/M05 A2999 RMK AO2 SLP153 T00831050 401280017=
21/03/2017 03:51->METAR KJFK 210351Z 28008KT 10SM FEW070 OVC090 09/M06 A3000 RMK AO2 SLP158 T00891056=
21/03/2017 02:51->METAR KJFK 210251Z 30007KT 10SM OVC085 09/M06 A3001 RMK AO2 SLP161 T00891056 50005=
21/03/2017 01:51->METAR KJFK 210151Z 28009KT 10SM BKN085 BKN110 BKN250 10/M06 A3001 RMK AO2 SLP163 T01001061=
21/03/2017 00:51->METAR KJFK 210051Z 24011KT 10SM SCT110 SCT250 09/M04 A3000 RMK AO2 SLP158 T00891044=
20/03/2017 23:51->METAR KJFK 202351Z 23008KT 10SM BKN120 BKN250 09/M04 A2999 RMK AO2 SLP156 T00891044 10128 20089 55008=
20/03/2017 22:51->METAR KJFK 202251Z 31004KT 10SM BKN120 BKN250 11/M12 A2999 RMK AO2 SLP155 T01061117=
20/03/2017 21:51->METAR KJFK 202151Z 36007KT 10SM FEW130 BKN150 BKN260 12/M12 A3000 RMK AO2 SLP159 T01221117=
20/03/2017 20:51->METAR KJFK 202051Z 34013KT 10SM SCT130 BKN190 BKN260 11/M12 A3002 RMK AO2 SLP165 T01111117 58021=
20/03/2017 19:51->METAR KJFK 201951Z 30010G18KT 10SM FEW150 BKN260 12/M11 A3004 RMK AO2 SLP172 T01171106=
20/03/2017 18:51->METAR KJFK 201851Z 33012G19KT 10SM FEW150 BKN270 11/M09 A3007 RMK AO2 SLP181 T01111094=
20/03/2017 17:51->METAR KJFK 201751Z 32010G21KT 10SM BKN270 10/M09 A3008 RMK AO2 SLP185 T01001089 10100 20028 56018=
20/03/2017 16:51->METAR KJFK 201651Z 36012G18KT 10SM BKN270 09/M09 A3009 RMK AO2 SLP190 T00891094=
20/03/2017 15:51->METAR KJFK 201551Z 36015KT 10SM BKN270 07/M09 A3011 RMK AO2 SLP194 T00721089=
20/03/2017 14:51->METAR KJFK 201451Z 35014KT 10SM SCT300 06/M09 A3013 RMK AO2 SLP203 T00611089 58007=
20/03/2017 13:51->METAR KJFK 201351Z 35013KT 10SM SCT300 05/M08 A3015 RMK AO2 SLP209 T00501083=
20/03/2017 12:51->METAR KJFK 201251Z 35013KT 10SM FEW270 04/M09 A3016 RMK AO2 SLP211 T00391089=
20/03/2017 11:51->METAR KJFK 201151Z 34014KT 10SM FEW270 03/M09 A3015 RMK AO2 SLP210 T00281094 10033 20017 53010=
20/03/2017 10:51->METAR KJFK 201051Z 34012KT 10SM CLR 02/M09 A3014 RMK AO2 SLP205 T00171094=
20/03/2017 09:51->METAR KJFK 200951Z 35015KT 10SM CLR 02/M09 A3013 RMK AO2 SLP201 T00221094=
20/03/2017 08:51->METAR KJFK 200851Z 34013KT 10SM CLR 03/M09 A3012 RMK AO2 SLP200 T00281094 55004=
20/03/2017 07:51->METAR KJFK 200751Z 34011KT 10SM CLR 03/M10 A3012 RMK AO2 SLP198 T00281100=
20/03/2017 06:51->METAR KJFK 200651Z 34012KT 10SM CLR 03/M09 A3013 RMK AO2 SLP201 T00331094=
20/03/2017 05:51->METAR KJFK 200551Z 33011KT 10SM CLR 03/M09 A3013 RMK AO2 SLP203 T00331089 10067 20033 56009=
20/03/2017 04:51->METAR KJFK 200451Z 33009KT 10SM CLR 04/M08 A3014 RMK AO2 SLP206 T00391083 400890017=
20/03/2017 03:51->METAR KJFK 200351Z 33009KT 10SM CLR 04/M08 A3015 RMK AO2 SLP208 T00391078=
20/03/2017 02:51->METAR KJFK 200251Z 34005KT 10SM CLR 04/M07 A3016 RMK AO2 SLP212 T00441072 50004=
20/03/2017 01:51->METAR KJFK 200151Z 04004KT 10SM CLR 04/M06 A3017 RMK AO2 SLP215 T00441061=
20/03/2017 00:51->METAR KJFK 200051Z 01007KT 10SM CLR 06/M08 A3016 RMK AO2 SLP214 T00561078=
19/03/2017 23:51->METAR KJFK 192351Z 35012KT 10SM CLR 06/M08 A3015 RMK AO2 SLP208 T00611083 10089 20061 53009=
19/03/2017 22:51->METAR KJFK 192251Z 34012KT 10SM FEW250 07/M09 A3013 RMK AO2 SLP201 T00721094=
19/03/2017 21:51->METAR KJFK 192151Z 32014KT 10SM FEW250 08/M09 A3012 RMK AO2 SLP197 T00831094=
19/03/2017 20:51->METAR KJFK 192051Z 35011KT 10SM FEW250 09/M07 A3012 RMK AO2 SLP198 T00891072 56016=
19/03/2017 19:51->METAR KJFK 191951Z 33016KT 10SM FEW070 FEW200 09/M06 A3013 RMK AO2 SLP202 T00891061=
19/03/2017 18:51->METAR KJFK 191851Z 01013KT 10SM FEW047 FEW070 SCT200 08/M05 A3014 RMK AO2 SLP207 T00831050=
19/03/2017 17:51->METAR KJFK 191751Z 35015G21KT 10SM FEW037 SCT070 SCT200 BKN250 08/M04 A3017 RMK AO2 SLP214 4/001 T00781039 10078 20017 58013=
19/03/2017 16:51->METAR KJFK 191651Z 03017G23KT 10SM SCT037 SCT070 BKN200 BKN250 07/M03 A3019 RMK AO2 SLP222 T00671033=
19/03/2017 15:51->METAR KJFK 191551Z 01014KT 10SM SCT031 SCT065 BKN200 BKN250 06/M03 A3020 RMK AO2 SLP227 T00561033=
19/03/2017 14:51->METAR KJFK 191451Z 02015G25KT 10SM SCT029 BKN065 BKN200 BKN250 05/M03 A3020 RMK AO2 SLP227 T00501028 53011=
19/03/2017 13:51->METAR KJFK 191351Z 02018G24KT 10SM BKN065 BKN200 BKN250 04/M03 A3019 RMK AO2 SLP223 T00391033=
19/03/2017 12:51->METAR KJFK 191251Z 02016G25KT 10SM FEW025 SCT065 BKN200 BKN250 03/M03 A3017 RMK AO2 SLP217 T00281033=
19/03/2017 11:51->METAR KJFK 191151Z 02015KT 10SM FEW025 BKN045 BKN070 02/M04 A3017 RMK AO2 SLP216 4/001 70007 T00171039 10022 20017 51006=
19/03/2017 10:51->METAR KJFK 191051Z 02013G21KT 10SM OVC041 02/M03 A3017 RMK AO2 SLP216 T00171033=
19/03/2017 09:51->METAR KJFK 190951Z 03012KT 10SM SCT033 BKN043 BKN070 BKN140 02/M03 A3016 RMK AO2 SLP213 T00171033=
19/03/2017 08:51->METAR KJFK 190851Z 02015KT 10SM OVC043 02/M03 A3015 RMK AO2 SLP210 T00221028 55001=
19/03/2017 07:51->METAR KJFK 190751Z 03014KT 10SM OVC043 02/M03 A3015 RMK AO2 SLP209 T00221028=
19/03/2017 06:51->METAR KJFK 190651Z 03013KT 10SM FEW035 OVC042 02/M02 A3015 RMK AO2 SLP207 T00171022=
19/03/2017 05:51->METAR KJFK 190551Z 04013KT 10SM OVC035 02/M02 A3016 RMK AO2 PK WND 03026/0513 SLP211 931000 4/001 60000 T00171022 10028 20017 58004=
19/03/2017 04:51->METAR KJFK 190451Z 04016KT 10SM BKN035 OVC060 02/M02 A3015 RMK AO2 SLP208 T00221022 400441022=
19/03/2017 03:51->METAR KJFK 190351Z 05015KT 10SM BKN038 OVC060 03/M02 A3018 RMK AO2 SLP217 T00281017=
19/03/2017 02:51->METAR KJFK 190251Z 05012KT 10SM BKN055 BKN140 03/M01 A3017 RMK AO2 SLP215 60000 T00281006 55000=
19/03/2017 01:51->METAR KJFK 190151Z 04010KT 10SM FEW040 BKN055 OVC140 02/M01 A3016 RMK AO2 SLP211 T00221006=
19/03/2017 00:51->METAR KJFK 190051Z 04010KT 10SM FEW011 SCT039 OVC055 02/00 A3017 RMK AO2 RAE2358SNE2358 SLP217 P0000 T00220000=
18/03/2017 23:51->METAR KJFK 182351Z 04010KT 6SM -RASN BR BKN007 OVC011 02/01 A3017 RMK AO2 RAE2252B38UPB35E38SNB2252E35B38 SLP215 931000 4/002 P0002 60007 T00170006 10044 20011 50007=
18/03/2017 22:51->METAR KJFK 182251Z 05011KT 2 1/2SM -RA BR OVC010 02/01 A3018 RMK AO2 RAB10 SLP217 P0003 T00170006=
18/03/2017 21:51->METAR KJFK 182151Z 05011KT 4SM BR OVC011 02/01 A3017 RMK AO2 RAE24 SLP215 P0000 T00220011=
18/03/2017 20:51->METAR KJFK 182051Z 06013KT 3SM -RA BR OVC012 03/01 A3015 RMK AO2 SLP207 P0002 60002 T00280011 58005=
18/03/2017 19:51->METAR KJFK 181951Z 07011KT 6SM R04R/6000VP6000FT -RA BR BKN017 OVC025 03/01 A3016 RMK AO2 RAB46 SLP211 P0000 T00330011=
18/03/2017 18:51->METAR KJFK 181851Z 07013KT 9SM OVC032 04/00 A3016 RMK AO2 SLP211 T00390000=
18/03/2017 17:51->METAR KJFK 181751Z 07013KT 10SM OVC035 04/M01 A3016 RMK AO2 RAE13 SLP212 931000 4/002 933008 P0000 60000 T00391011 10044 20017 58018=
18/03/2017 16:51->METAR KJFK 181651Z 09013KT 10SM -RA BKN036 OVC045 04/M01 A3018 RMK AO2 RAB47SNB06E29 SLP221 P0000 T00441011=
18/03/2017 15:51->METAR KJFK 181551Z 07009KT 10SM BKN040 BKN050 OVC060 04/M04 A3019 RMK AO2 SLP224 T00441044=
18/03/2017 14:51->METAR KJFK 181451Z 06011KT 10SM BKN041 OVC055 04/M06 A3021 RMK AO2 SLP230 60000 T00391061 58006=
18/03/2017 13:51->METAR KJFK 181351Z 07011KT 10SM BKN070 BKN080 BKN110 03/M07 A3022 RMK AO2 SLP234 T00331072=
18/03/2017 12:51->METAR KJFK 181251Z 06009KT 10SM BKN060 OVC080 02/M07 A3023 RMK AO2 SNE24 SLP235 P0000 T00221072=
18/03/2017 11:51->METAR KJFK 181151Z 07007KT 10SM -SN BKN050 BKN060 BKN100 02/M07 A3023 RMK AO2 SNB45 SLP236 931000 4/002 P0000 60000 T00171067 10022 21022 53005=
18/03/2017 10:51->METAR KJFK 181051Z 06006KT 10SM SCT060 BKN100 BKN250 01/M07 A3022 RMK AO2 SLP232 T00111067=
18/03/2017 09:51->METAR KJFK 180951Z 05009KT 10SM FEW080 BKN130 BKN250 M01/M04 A3021 RMK AO2 SLP230 T10061044=
18/03/2017 08:51->METAR KJFK 180851Z 13003KT 10SM FEW080 SCT200 SCT250 M02/M05 A3022 RMK AO2 SLP231 T10171050 58009=
18/03/2017 07:51->METAR KJFK 180751Z 00000KT 10SM FEW200 SCT250 M02/M05 A3022 RMK AO2 SLP234 T10171050=
18/03/2017 06:51->METAR KJFK 180651Z 23005KT 10SM FEW170 FEW200 SCT250 01/M04 A3024 RMK AO2 SLP238 T00111039=
18/03/2017 05:51->METAR KJFK 180551Z 00000KT 10SM FEW170 FEW210 SCT250 01/M07 A3024 RMK AO2 SLP240 4/002 T00111072 10044 20000 58002=
18/03/2017 04:51->METAR KJFK 180451Z 26003KT 10SM SCT200 BKN250 02/M07 A3025 RMK AO2 SLP241 T00171067 400721011=
18/03/2017 03:51->METAR KJFK 180351Z 25007KT 10SM FEW170 SCT230 02/M04 A3026 RMK AO2 SLP247 T00221044=
18/03/2017 02:51->METAR KJFK 180251Z 26008KT 10SM BKN230 03/M06 A3025 RMK AO2 SLP242 T00331056 51012=
18/03/2017 01:51->METAR KJFK 180151Z 24011KT 10SM BKN240 04/M04 A3024 RMK AO2 SLP241 T00391039=
18/03/2017 00:51->METAR KJFK 180051Z 23010KT 10SM BKN250 03/M03 A3023 RMK AO2 SLP236 T00331033=
17/03/2017 23:51->METAR KJFK 172351Z 23013KT 10SM SCT250 04/M03 A3021 RMK AO2 SLP230 4/002 T00441033 10072 20044 53009=
17/03/2017 22:51->METAR KJFK 172251Z 24013KT 10SM SCT250 05/M06 A3020 RMK AO2 SLP226 T00501056=
17/03/2017 21:51->METAR KJFK 172151Z 23018KT 10SM FEW250 06/M06 A3019 RMK AO2 SLP221 T00561056=
17/03/2017 20:51->METAR KJFK 172051Z 23014KT 10SM FEW250 06/M06 A3018 RMK AO2 SLP221 T00611056 56015=
17/03/2017 19:51->METAR KJFK 171951Z 24012KT 10SM FEW250 07/M09 A3019 RMK AO2 SLP223 T00671089=
17/03/2017 18:51->METAR KJFK 171851Z 29010G18KT 10SM FEW250 07/M09 A3020 RMK AO2 SLP226 T00671094=
17/03/2017 17:51->METAR KJFK 171751Z 29013KT 10SM FEW250 06/M09 A3023 RMK AO2 SLP236 4/003 933012 T00561094 10056 21006 58020=
17/03/2017 16:51->METAR KJFK 171651Z 30011G19KT 10SM CLR 04/M08 A3026 RMK AO2 SLP245 T00441083=
17/03/2017 15:51->METAR KJFK 171551Z 27012G20KT 10SM CLR 03/M08 A3027 RMK AO2 SLP251 T00331083=
17/03/2017 14:51->METAR KJFK 171451Z 28013KT 10SM FEW160 02/M08 A3029 RMK AO2 SLP256 T00171078 50005=
17/03/2017 13:51->METAR KJFK 171351Z 27013KT 10SM FEW160 01/M09 A3030 RMK AO2 SLP260 T00111089=
17/03/2017 12:51->METAR KJFK 171251Z 27018KT 10SM FEW035 FEW160 00/M08 A3029 RMK AO2 SLP257 T00001083=
17/03/2017 11:51->METAR KJFK 171151Z 27012KT 10SM FEW032 FEW250 00/M08 A3027 RMK AO2 SLP250 4/003 T00001083 10011 21011 53024=
17/03/2017 10:51->METAR KJFK 171051Z 27009KT 10SM FEW032 M01/M08 A3024 RMK AO2 SLP241 T10061083=
17/03/2017 09:51->METAR KJFK 170951Z 29010KT 10SM FEW250 M01/M09 A3022 RMK AO2 SLP232 T10061089=
17/03/2017 08:51->METAR KJFK 170851Z 29013KT 10SM FEW250 00/M09 A3020 RMK AO2 SLP226 T00001094 53013=
17/03/2017 07:51->METAR KJFK 170751Z 28012KT 10SM FEW250 00/M09 A3018 RMK AO2 SLP218 T00001089=
17/03/2017 06:51->METAR KJFK 170651Z 28008KT 10SM FEW060 SCT250 01/M09 A3017 RMK AO2 SLP217 T00061094=
17/03/2017 05:51->METAR KJFK 170551Z 30012KT 10SM FEW060 SCT250 01/M09 A3016 RMK AO2 SLP213 4/003 T00111094 10039 20006 52015=
17/03/2017 04:51->METAR KJFK 170451Z 30013KT 10SM FEW060 BKN250 01/M11 A3015 RMK AO2 SLP208 T00111106 400441039=
17/03/2017 03:51->METAR KJFK 170351Z 32018G22KT 10SM SCT060 BKN250 01/M11 A3014 RMK AO2 SLP205 T00111111=
17/03/2017 02:51->METAR KJFK 170251Z 34010KT 10SM SCT250 01/M12 A3012 RMK AO2 PK WND 32026/0214 SLP199 T00111117 53036=
17/03/2017 01:51->METAR KJFK 170151Z 31014G23KT 10SM SCT250 03/M13 A3008 RMK AO2 SLP185 T00281128=
17/03/2017 00:51->METAR KJFK 170051Z 30013KT 10SM BKN250 03/M12 A3005 RMK AO2 SLP175 T00331117=
16/03/2017 23:51->METAR KJFK 162351Z 30013KT 10SM SCT250 03/M12 A3001 RMK AO2 SLP163 4/003 T00331122 10044 20017 53022=
16/03/2017 22:51->METAR KJFK 162251Z 30013G21KT 10SM SCT250 04/M12 A2998 RMK AO2 PK WND 29028/2216 SLP151 T00391117=
16/03/2017 21:51->METAR KJFK 162151Z 30019G28KT 10SM FEW060 FEW250 04/M12 A2996 RMK AO2 PK WND 31028/2139 SLP143 T00441122=
16/03/2017 20:51->METAR KJFK 162051Z 30016G27KT 10SM FEW060 FEW250 04/M13 A2995 RMK AO2 PK WND 29028/2023 SLP141 T00441128 56006=
16/03/2017 19:51->METAR KJFK 161951Z 28018G25KT 10SM FEW060 FEW250 04/M12 A2995 RMK AO2 PK WND 30027/1914 SLP141 T00391117=
16/03/2017 18:51->METAR KJFK 161851Z 28018KT 10SM FEW060 FEW250 03/M11 A2995 RMK AO2 PK WND 29031/1832 SLP142 T00281111=
16/03/2017 17:51->METAR KJFK 161751Z 29015G23KT 10SM SCT055 SCT250 02/M11 A2997 RMK AO2 PK WND 30027/1701 SLP147 4/003 933015 T00171106 10017 21033 58003=
16/03/2017 16:51->METAR KJFK 161651Z 28015G22KT 10SM FEW055 SCT170 BKN250 01/M12 A2997 RMK AO2 PK WND 30026/1630 SLP149 T00111117=
16/03/2017 15:51->METAR KJFK 161551Z 28014G23KT 10SM SCT050 SCT140 BKN250 00/M11 A2998 RMK AO2 SLP150 T00001106=
16/03/2017 14:51->METAR KJFK 161451Z 27013G21KT 10SM FEW047 FEW140 BKN250 M01/M11 A2998 RMK AO2 SLP150 T10111106 50002=
16/03/2017 13:51->METAR KJFK 161351Z 28016G21KT 10SM FEW045 SCT250 M02/M11 A2998 RMK AO2 SLP151 T10221111 $=
16/03/2017 12:51->METAR KJFK 161251Z 28014G23KT 10SM FEW043 FEW250 M03/M11 A2998 RMK AO2 SLP151 T10281111 $=
16/03/2017 11:51->METAR KJFK 161151Z 26015G22KT 10SM FEW040 FEW250 M03/M11 A2997 RMK AO2 SLP148 4/004 T10331111 11028 21039 51018 $=
16/03/2017 10:51->METAR KJFK 161051Z 26014KT 10SM FEW040 FEW250 M04/M11 A2996 RMK AO2 SLP144 T10391111 $=
16/03/2017 09:51->METAR KJFK 160951Z 28014G24KT 10SM FEW250 M03/M12 A2994 RMK AO2 SLP139 T10331122 $=
16/03/2017 08:51->METAR KJFK 160851Z 27016G22KT 10SM FEW250 M03/M13 A2992 RMK AO2 PK WND 27026/0807 SLP130 T10331128 53003 $=
16/03/2017 07:51->METAR KJFK 160751Z 27018KT 10SM FEW045 SCT250 M03/M13 A2991 RMK AO2 PK WND 27028/0655 SLP129 T10281128 $=
16/03/2017 06:51->METAR KJFK 160651Z 28018KT 10SM FEW044 FEW250 M03/M12 A2991 RMK AO2 PK WND 27028/0637 SLP128 T10281122 $=
16/03/2017 05:51->METAR KJFK 160551Z 28015G23KT 10SM FEW044 SCT250 M03/M12 A2991 RMK AO2 PK WND 29028/0518 SLP127 4/004 T10281122 11022 21028 51015 $=
16/03/2017 04:51->METAR KJFK 160451Z 29016G26KT 10SM FEW045 SCT250 M03/M12 A2989 RMK AO2 PK WND 27031/0357 SLP122 T10281117 410221056 $=
16/03/2017 03:51->METAR KJFK 160351Z 29016G26KT 10SM FEW046 SCT250 M03/M11 A2988 RMK AO2 PK WND 29033/0324 SLP119 T10281106 $=
16/03/2017 02:51->METAR KJFK 160251Z 29023G29KT 10SM SCT047 SCT100 BKN250 M03/M11 A2986 RMK AO2 PK WND 28029/0250 SLP112 T10281111 51035 $=
16/03/2017 01:51->METAR KJFK 160151Z 29016G27KT 10SM FEW055 BKN100 BKN250 M02/M12 A2983 RMK AO2 PK WND 29027/0141 SLP102 T10221122 $=
16/03/2017 00:51->METAR KJFK 160051Z 28016G27KT 10SM FEW040 FEW055 SCT070 BKN240 M02/M13 A2980 RMK AO2 PK WND 30032/2354 SLP091 T10221133 $=
15/03/2017 23:51->METAR KJFK 152351Z 30021G37KT 10SM FEW044 BKN060 OVC085 M03/M13 A2976 RMK AO2 PK WND 29037/2343 SNE34 SLP077 931000 4/004 P0000 60000 T10281128 11028 21039 53037=
15/03/2017 22:51->METAR KJFK 152251Z 29022G35KT 10SM -SN FEW044 BKN055 OVC070 M03/M13 A2971 RMK AO2 PK WND 29035/2224 SNB49 SLP061 P0000 T10281128=
15/03/2017 21:51->METAR KJFK 152151Z 28018G29KT 10SM SCT044 OVC060 M03/M12 A2968 RMK AO2 PK WND 27035/2124 SLP049 T10281122=
15/03/2017 20:51->METAR KJFK 152051Z 27022G30KT 10SM FEW037 BKN050 OVC070 M03/M12 A2965 RMK AO2 PK WND 26036/2028 UPB1959E07 SLP041 VCSH E AND SW-W P0000 60000 T10281122 53017=
15/03/2017 19:51->METAR KJFK 151951Z 29018G27KT 10SM FEW028 BKN041 OVC050 M03/M12 A2963 RMK AO2 PK WND 29033/1935 SNE48 SLP033 P0000 T10331122=
15/03/2017 18:51->METAR KJFK 151851Z 27026G29KT 8SM R04R/2800VP6000FT -SN SCT032 BKN047 BKN070 OVC250 M04/M10 A2961 RMK AO2 PK WND 29032/1816 SLP026 P0000 T10391100=
15/03/2017 17:51->METAR KJFK 151751Z 28021G31KT 8SM -SN BKN038 BKN110 M03/M10 A2960 RMK AO2 PK WND 27033/1723 SLP023 931000 4/004 933017 P0000 60000 T10331100 11028 21050 58006=
15/03/2017 16:51->METAR KJFK 151651Z 27021G31KT 9SM R04R/4000VP6000FT -SN SCT034 BKN048 BKN120 M03/M11 A2961 RMK AO2 PK WND 28031/1607 SLP026 SNB14 P0000 T10331111=
15/03/2017 15:51->METAR KJFK 151551Z 28022G29KT 10SM BKN045 OVC120 M04/M12 A2961 RMK AO2 PK WND 27029/1549 SLP028 T10391122=
15/03/2017 14:51->METAR KJFK 151451Z 28017G26KT 10SM BKN048 BKN110 OVC200 M04/M13 A2962 RMK AO2 PK WND 29029/1420 SLP030 T10391128 58000=
15/03/2017 13:51->METAR KJFK 151351Z 28021G30KT 10SM BKN042 BKN090 BKN220 M04/M13 A2962 RMK AO2 PK WND 27031/1302 SLP030 T10441128=
15/03/2017 12:51->METAR KJFK 151251Z 28015G28KT 10SM SCT041 BKN100 BKN220 M04/M12 A2962 RMK AO2 PK WND 27028/1247 SLP031 T10441122=
15/03/2017 11:51->METAR KJFK 151151Z 27016G21KT 10SM SCT044 SCT085 M05/M13 A2962 RMK AO2 SLP030 4/004 70109 T10501133 11050 21056 51010=
15/03/2017 10:51->METAR KJFK 151051Z 28016G22KT 10SM FEW042 SCT080 M06/M13 A2961 RMK AO2 PK WND 31027/0954 SLP027 T10561133=
15/03/2017 09:51->METAR KJFK 150951Z 29016G26KT 10SM FEW040 SCT070 M06/M14 A2961 RMK AO2 PK WND 28027/0903 SLP025 T10561139=
15/03/2017 08:51->METAR KJFK 150851Z 28014G20KT 10SM SCT040 SCT075 M06/M14 A2959 RMK AO2 PK WND 29027/0833 SLP020 T10561139 53010=
15/03/2017 07:51->METAR KJFK 150751Z 29017G24KT 10SM FEW075 M06/M13 A2957 RMK AO2 PK WND 29029/0659 SLP013 T10561133=
15/03/2017 06:51->METAR KJFK 150651Z 29016G26KT 10SM FEW040 FEW070 M06/M13 A2956 RMK AO2 PK WND 31029/0632 SLP008 T10561133=
15/03/2017 05:51->METAR KJFK 150551Z 29016G29KT 10SM FEW039 FEW070 M05/M13 A2956 RMK AO2 PK WND 29030/0525 SLP010 4/004 T10501133 10000 21056 51023=
15/03/2017 04:51->METAR KJFK 150451Z 29022G31KT 10SM FEW075 M05/M13 A2953 RMK AO2 PK WND 28032/0403 SLP999 T10501128 400221050=
15/03/2017 03:51->METAR KJFK 150351Z 30022G29KT 10SM FEW075 M05/M12 A2953 RMK AO2 PK WND 29033/0340 SLP999 T10501122=
15/03/2017 02:51->METAR KJFK 150251Z 29021G32KT 10SM FEW035 SCT070 M04/M11 A2949 RMK AO2 PK WND 31035/0206 SLP987 T10391106 51042=
15/03/2017 01:51->METAR KJFK 150151Z 30017G29KT 10SM SCT033 SCT070 M02/M09 A2946 RMK AO2 PK WND 32035/0122 SLP977 T10221089=
15/03/2017 00:51->METAR KJFK 150051Z 30018G25KT 10SM FEW034 BKN070 M01/M07 A2941 RMK AO2 PK WND 29028/0002 SLP958 T10061067=
14/03/2017 23:51->METAR KJFK 142351Z 29019G24KT 10SM FEW029 FEW038 BKN055 00/M06 A2937 RMK AO2 PK WND 31030/2310 SLP945 931004 4/005 60004 T00001056 10011 21011 53058=
14/03/2017 22:51->METAR KJFK 142251Z 29019G26KT 10SM BKN022 OVC029 00/M04 A2933 RMK AO2 PK WND 30031/2214 SNE39 PRESRR SLP930 P0000 T00001044=
14/03/2017 21:51->METAR KJFK 142151Z 31022G30KT 1 3/4SM R04R/5000VP6000FT -SN BLSN BR FEW000 BKN014 OVC026 M01/M02 A2924 RMK AO2 PK WND 32037/2058 SFC VIS 2 SLP900 SN BLSN FEW000 P0001 T10061022=
14/03/2017 20:51->METAR KJFK 142051Z 32026G37KT 3SM -SN FEW009 BKN017 OVC038 M01/M04 A2920 RMK AO2 PK WND 33040/1958 SFC VIS 5 VIS 2 W PRESRR SLP887 P0000 60003 T10061039 50046=
14/03/2017 19:51->METAR KJFK 141951Z 33029G37KT 2SM R04R/4500VP6000FT -SN BR BKN009 OVC015 M01/M03 A2914 RMK AO2 PK WND 33040/1928 SFC VIS 3 RAE00SNB00 SLP867 P0000 T10111028=
14/03/2017 18:51->METAR KJFK 141851Z 34028G33KT 2SM R04R/4000V6000FT -RA BR OVC009 01/M01 A2906 RMK AO2 PK WND 35038/1824 SLP841 P0003 T00061011=
14/03/2017 17:51->METAR KJFK 141751Z 01021G35KT 2SM R04R/2800V3500FT -RA BR OVC009 01/M01 A2909 RMK AO2 PK WND 01037/1737 PRESFR SLP849 931006 4/005 933021 P0007 60105 T00111006 10022 20006 58108=
14/03/2017 16:51->METAR KJFK 141651Z 02028G35KT 2 1/2SM R04R/3500VP6000FT -RA BR OVC012 02/00 A2921 RMK AO2 PK WND 03038/1603 RAB36PLE36 SLP891 P0013 T00170000=
14/03/2017 15:51->METAR KJFK 141551Z 03030G39KT 3SM R04R/3500V5000FT PL BR OVC014 02/00 A2929 RMK AO2 PK WND 04039/1551 PRESFR SLP919 P0023 T00170000 $=
14/03/2017 14:51->METAR KJFK 141451Z 03029G39KT 2SM R04R/3000VP6000FT PL BR OVC012 01/M01 A2940 RMK AO2 PK WND 03041/1411 PRESFR SLP957 P0013 60062 T00111006 58123 $=
14/03/2017 13:51->METAR KJFK 141351Z 04028G42KT 2SM R04R/4500V6000FT PL BR OVC011 01/M01 A2951 RMK AO2 PK WND 04042/1344 LTG DSNT W RAE13 PRESFR SLP994 P0025 T00061006=
14/03/2017 12:51->METAR KJFK 141251Z 04021G30KT 3SM PLRA BR OVC012 01/M01 A2967 RMK AO2 PK WND 04031/1232 SNB08E48 PRESFR SLP045 P0024 T00061006=
14/03/2017 11:51->METAR KJFK 141151Z 05016G26KT 3SM -PLRA BR OVC012 01/M01 A2977 RMK AO2 PK WND 05030/1113 SFC VIS 4 RAB15SNE15 SLP080 931039 4/004 P0012 60052 70054 T00111006 10011 21017 56074=
14/03/2017 10:51->METAR KJFK 141051Z 05021G29KT 3SM R04R/4000VP6000FT -SNPL BR OVC015 00/M02 A2983 RMK AO2 PK WND 05032/1017 SFC VIS 4 PLB12 PRESFR SLP101 P0006 T00001017=
14/03/2017 09:51->METAR KJFK 140951Z 05018G26KT 1 1/2SM -SN BR OVC012 M01/M02 A2992 RMK AO2 PK WND 04027/0911 SLP130 SNINCR 1/4 PRESENT WX DRSN P0010 T10061022=
14/03/2017 08:51->METAR KJFK 140851Z 04019KT 1/2SM R04R/4000V6000FT -SN BR VV008 M01/M03 A2999 RMK AO2 SFC VIS 3/4 PRESFR SLP154 SNINCR 1/3 P0010 60024 T10111028 58075=
14/03/2017 07:51->METAR KJFK 140751Z 05014KT 1/2SM R04R/2600V3000FT SN FZFG VV006 M02/M03 A3005 RMK AO2 PRESFR SLP177 SNINCR 1/2 P0007 T10171028=
14/03/2017 06:51->METAR KJFK 140651Z 04013G20KT 1SM R04R/4500V5000FT -SN BR VV009 M02/M03 A3014 RMK AO2 PRESFR SLP206 SNINCR 1/1 P0007 T10171028=
14/03/2017 05:51->METAR KJFK 140551Z 06010KT 1SM R04R/5000VP6000FT -SN BR OVC012 M01/M02 A3021 RMK AO2 SFC VIS 1 1/2 SLP228 931002 P0002 60002 T10061022 10011 21006 56020=
14/03/2017 04:51->METAR KJFK 140451Z 08011KT 9SM -SN FEW027 OVC050 01/M05 A3023 RMK AO2 SNE21B46 PRESFR SLP237 P0000 T00111050 400111067=
14/03/2017 03:51->METAR KJFK 140351Z 09012KT 9SM -SN FEW028 BKN065 OVC080 01/M06 A3027 RMK AO2 SNB46 SLP248 P0000 T00111056=
14/03/2017 02:51->METAR KJFK 140251Z 08009KT 10SM FEW032 OVC060 01/M06 A3031 RMK AO2 PRESFR SLP262 T00111056 58021=
14/03/2017 01:51->METAR KJFK 140151Z 09008KT 10SM BKN070 OVC085 01/M07 A3033 RMK AO2 SLP269 T00061067=
14/03/2017 00:51->METAR KJFK 140051Z 13005KT 10SM FEW038 BKN065 OVC080 01/M07 A3037 RMK AO2 SLP284 T00061072=
13/03/2017 23:51->METAR KJFK 132351Z 13008KT 10SM FEW090 BKN250 M01/M08 A3037 RMK AO2 SLP282 T10061083 10006 21011 58009=
13/03/2017 22:51->METAR KJFK 132251Z 12009KT 10SM FEW120 BKN250 M01/M10 A3039 RMK AO2 SLP290 T10111100=
13/03/2017 21:51->METAR KJFK 132151Z 12009KT 10SM FEW120 BKN250 M01/M11 A3039 RMK AO2 SLP289 T10061106=
13/03/2017 20:51->METAR KJFK 132051Z 14009KT 10SM BKN250 01/M12 A3039 RMK AO2 SLP291 T00061122 56030=
13/03/2017 19:51->METAR KJFK 131951Z 18007KT 10SM BKN250 00/M12 A3042 RMK AO2 SLP301 T00001122=
13/03/2017 18:51->METAR KJFK 131851Z 20006KT 10SM BKN250 M01/M13 A3045 RMK AO2 SLP309 T10111128=
13/03/2017 17:51->METAR KJFK 131751Z 18010KT 10SM FEW150 BKN250 M01/M11 A3048 RMK AO2 SLP321 T10061111 10000 21056 58018=
13/03/2017 16:51->METAR KJFK 131651Z 20009KT 10SM FEW150 BKN250 M01/M13 A3050 RMK AO2 SLP327 T10061133=
13/03/2017 15:51->METAR KJFK 131551Z 16004KT 10SM FEW170 BKN260 M02/M15 A3052 RMK AO2 SLP334 T10171150=
13/03/2017 14:51->METAR KJFK 131451Z VRB04KT 10SM FEW170 BKN260 M02/M15 A3053 RMK AO2 SLP339 T10221150 50003=
13/03/2017 13:51->METAR KJFK 131351Z 00000KT 10SM BKN260 M04/M16 A3054 RMK AO2 SLP342 T10391156=
13/03/2017 12:51->METAR KJFK 131251Z 36003KT 10SM SCT260 M04/M16 A3053 RMK AO2 SLP337 T10441156=
13/03/2017 11:51->METAR KJFK 131151Z 34005KT 10SM SCT260 M06/M15 A3052 RMK AO2 SLP335 T10561150 11050 21067 53019=
13/03/2017 10:51->METAR KJFK 131051Z 34008KT 10SM FEW260 M07/M16 A3050 RMK AO2 SLP328 T10671156=
13/03/2017 09:51->METAR KJFK 130951Z 33007KT 10SM SCT260 M06/M16 A3048 RMK AO2 SLP321 T10611156=
13/03/2017 08:51->METAR KJFK 130851Z 33010KT 10SM CLR M06/M16 A3047 RMK AO2 SLP317 T10611161 53003=
13/03/2017 07:51->METAR KJFK 130751Z 33013KT 10SM CLR M06/M16 A3045 RMK AO2 SLP312 T10561161=
13/03/2017 06:51->METAR KJFK 130651Z 33009KT 10SM CLR M06/M17 A3046 RMK AO2 SLP315 T10561167=
13/03/2017 05:51->METAR KJFK 130551Z 32014KT 10SM CLR M05/M17 A3046 RMK AO2 SLP314 T10501167 11017 21050 51018=
13/03/2017 04:51->METAR KJFK 130451Z 32014G21KT 10SM CLR M04/M18 A3045 RMK AO2 SLP310 T10441178 400001067=
13/03/2017 03:51->METAR KJFK 130351Z 33018G27KT 10SM CLR M04/M18 A3043 RMK AO2 PK WND 34027/0346 SLP303 T10441183=
13/03/2017 02:51->METAR KJFK 130251Z 32015KT 10SM CLR M04/M18 A3041 RMK AO2 PK WND 32027/0203 SLP296 T10391178 51021=
13/03/2017 01:51->METAR KJFK 130151Z 32017G24KT 10SM CLR M02/M17 A3040 RMK AO2 SLP292 T10221172=
13/03/2017 00:51->METAR KJFK 130051Z 32015KT 10SM CLR M02/M17 A3038 RMK AO2 PK WND 30026/0001 SLP286 T10171172=
12/03/2017 23:51->METAR KJFK 122351Z 30015G25KT 10SM FEW060 M02/M17 A3035 RMK AO2 SLP276 T10171172 10000 21022 53022=
12/03/2017 22:51->METAR KJFK 122251Z 30013KT 10SM FEW060 M02/M17 A3032 RMK AO2 PK WND 28027/2210 SLP265 T10171167=
12/03/2017 21:51->METAR KJFK 122151Z 30018G25KT 10SM SCT060 M01/M16 A3030 RMK AO2 PK WND 30026/2127 SLP259 T10111161=
12/03/2017 20:51->METAR KJFK 122051Z 30019G27KT 10SM SCT060 SCT250 M01/M15 A3028 RMK AO2 PK WND 30027/2040 SLP254 T10061150 56003=
12/03/2017 19:51->METAR KJFK 121951Z 31018KT 10SM SCT060 OVC250 M01/M14 A3029 RMK AO2 PK WND 27032/1921 SLP255 T10061139=
12/03/2017 18:51->METAR KJFK 121851Z 29021KT 10SM BKN060 BKN250 M01/M14 A3028 RMK AO2 PK WND 27027/1814 SLP253 T10111139=
12/03/2017 17:51->METAR KJFK 121751Z 30014G19KT 10SM BKN050 BKN250 M02/M13 A3029 RMK AO2 SLP257 T10171133 11011 21061 58013=
12/03/2017 16:51->METAR KJFK 121651Z 29015G22KT 10SM BKN050 BKN250 M02/M13 A3033 RMK AO2 SLP268 VIRGA SE-S T10171133=
12/03/2017 15:51->METAR KJFK 121551Z 29013G19KT 10SM SCT050 BKN250 M03/M14 A3033 RMK AO2 SLP270 T10281144=
12/03/2017 14:51->METAR KJFK 121451Z 30016G22KT 10SM SCT048 SCT250 M04/M15 A3033 RMK AO2 PK WND 32028/1424 SLP270 T10391150 50002=
12/03/2017 13:51->METAR KJFK 121351Z 31017G26KT 10SM FEW050 SCT250 M04/M16 A3033 RMK AO2 PK WND 33027/1329 SLP271 T10441156=
12/03/2017 12:51->METAR KJFK 121251Z 32017G28KT 10SM FEW050 FEW250 M06/M16 A3033 RMK AO2 PK WND 31028/1245 SLP269 T10561161=
12/03/2017 11:51->METAR KJFK 121151Z 32013KT 10SM FEW050 SCT250 M06/M17 A3032 RMK AO2 SLP268 4/001 T10611167 11050 21067 53007=
12/03/2017 10:51->METAR KJFK 121051Z 31017G23KT 10SM SCT050 SCT250 M07/M17 A3030 RMK AO2 PK WND 31026/1010 SLP261 T10671167=
12/03/2017 09:51->METAR KJFK 120951Z 30014KT 10SM SCT050 M06/M16 A3030 RMK AO2 PK WND 30028/0926 SLP260 T10611161=
12/03/2017 08:51->METAR KJFK 120851Z 31014KT 10SM SCT050 M06/M16 A3030 RMK AO2 PK WND 29029/0820 SLP261 T10611161 51004=
12/03/2017 07:51->METAR KJFK 120751Z 29018G27KT 10SM SCT050 M06/M17 A3030 RMK AO2 PK WND 29030/0710 SLP258 T10561167=
12/03/2017 06:51->METAR KJFK 120651Z 30017G26KT 10SM SCT055 M05/M16 A3030 RMK AO2 PK WND 30026/0646 SLP260 T10501161=
12/03/2017 05:51->METAR KJFK 120551Z 29013G20KT 10SM SCT055 M05/M16 A3029 RMK AO2 PK WND 30027/0509 SLP257 4/001 T10501156 11033 21050 51009=
12/03/2017 04:51->METAR KJFK 120451Z 31015G24KT 10SM SCT055 M05/M16 A3029 RMK AO2 PK WND 30027/0434 SLP255 T10501156 410171078=
12/03/2017 03:51->METAR KJFK 120351Z 31016G24KT 10SM SCT055 M04/M16 A3028 RMK AO2 PK WND 30026/0331 SLP252 T10441156=
12/03/2017 02:51->METAR KJFK 120251Z 29016G24KT 10SM SCT055 M04/M15 A3026 RMK AO2 PK WND 29030/0156 SLP248 T10441150 51026=
12/03/2017 01:51->METAR KJFK 120151Z 31020G26KT 10SM SCT060 M04/M15 A3024 RMK AO2 PK WND 32027/0137 SLP241 T10391150=
12/03/2017 00:51->METAR KJFK 120051Z 31019G25KT 10SM SCT060 M03/M14 A3022 RMK AO2 SLP232 T10331139=
11/03/2017 23:51->METAR KJFK 112351Z 32016G22KT 10SM R04R/5500VP6000FT BKN070 M03/M13 A3019 RMK AO2 PK WND 29032/2308 SLP222 4/001 T10331133 11017 21039 51018=
11/03/2017 22:51->METAR KJFK 112251Z 30014G23KT 10SM BKN070 M03/M13 A3018 RMK AO2 PK WND 27030/2203 SLP218 VIRGA ALQDS T10281128=
11/03/2017 21:51->METAR KJFK 112151Z 29020G26KT 10SM SCT055 BKN075 M02/M13 A3016 RMK AO2 PK WND 30030/2118 SLP211 VIRGA ALQDS T10221133=
11/03/2017 20:51->METAR KJFK 112051Z 30017G22KT 10SM SCT050 BKN060 BKN080 M02/M14 A3014 RMK AO2 PK WND 27026/2007 SLP204 VIRGA ALQDS T10221139 55008=
11/03/2017 19:51->METAR KJFK 111951Z 31013KT 10SM R04R/6000VP6000FT BKN065 BKN080 M02/M14 A3014 RMK AO2 SLP204 VIRGA ALQDS T10171139=
11/03/2017 18:51->METAR KJFK 111851Z 29017G33KT 10SM FEW050 BKN065 BKN250 M03/M15 A3014 RMK AO2 PK WND 31033/1845 SLP207 T10281150=
11/03/2017 17:51->METAR KJFK 111751Z 31012KT 9SM FEW034 BKN046 BKN055 BKN250 M04/M13 A3016 RMK AO2 PK WND 31027/1718 UPB17E22SNB36E49 SLP212 VIRGA SE-S 931000 4/002 933002 P0000 60000 T10391133 11033 21072 58016=
11/03/2017 16:51->METAR KJFK 111651Z 29015G24KT 10SM BKN055 BKN070 BKN250 M04/M15 A3018 RMK AO2 PK WND 32028/1614 SLP219 T10391150=
11/03/2017 15:51->METAR KJFK 111551Z 29011KT 10SM BKN048 BKN250 M05/M16 A3020 RMK AO2 SLP225 T10501156=
11/03/2017 14:51->METAR KJFK 111451Z 27016G24KT 10SM SCT048 BKN060 BKN250 M05/M17 A3020 RMK AO2 SLP227 T10501167 50005=
11/03/2017 13:51->METAR KJFK 111351Z 26012KT 10SM BKN050 BKN060 BKN250 M06/M17 A3021 RMK AO2 SLP228 T10611167=
11/03/2017 12:51->METAR KJFK 111251Z 29010KT 10SM BKN050 BKN250 M07/M17 A3020 RMK AO2 PK WND 29026/1241 SLP227 T10671167=
11/03/2017 11:51->METAR KJFK 111151Z 31009KT 10SM SCT050 SCT250 M07/M17 A3019 RMK AO2 SLP223 4/002 70026 T10721172 11050 21078 51030=
11/03/2017 10:51->METAR KJFK 111051Z 31018G23KT 10SM SCT050 M08/M18 A3016 RMK AO2 PK WND 30028/1031 SLP212 T10781183=
11/03/2017 09:51->METAR KJFK 110951Z 30014KT 10SM FEW055 M07/M19 A3013 RMK AO2 PK WND 32029/0855 SLP203 T10721189=
11/03/2017 08:51->METAR KJFK 110851Z 30018G28KT 10SM SCT055 M07/M20 A3010 RMK AO2 PK WND 31031/0824 SLP192 T10721200 51018=
11/03/2017 07:51->METAR KJFK 110751Z 31024G35KT 10SM SCT050 M07/M19 A3008 RMK AO2 PK WND 32035/0746 SLP186 T10671189=
11/03/2017 06:51->METAR KJFK 110651Z 32020G27KT 10SM SCT050 M06/M17 A3008 RMK AO2 PK WND 31032/0609 SLP184 T10561167=
11/03/2017 05:51->METAR KJFK 110551Z 32026G33KT 10SM BKN050 M05/M16 A3005 RMK AO2 PK WND 30033/0548 SLP174 4/002 T10501156 10011 21050 51018=
11/03/2017 04:51->METAR KJFK 110451Z 30021G30KT 10SM FEW055 M04/M13 A3004 RMK AO2 PK WND 31034/0403 SLP171 T10441133 400941044=
11/03/2017 03:51->METAR KJFK 110351Z 31021G29KT 10SM SCT055 M03/M14 A3001 RMK AO2 PK WND 30034/0252 SLP161 T10331144=
11/03/2017 02:51->METAR KJFK 110251Z 31027G33KT 10SM FEW055 M02/M14 A2999 RMK AO2 PK WND 30038/0230 SLP156 T10221144 53037=
11/03/2017 01:51->METAR KJFK 110151Z 32020G28KT 10SM FEW065 M01/M13 A2995 RMK AO2 PK WND 31031/0120 SLP140 T10061128=
11/03/2017 00:51->METAR KJFK 110051Z 32016G26KT 10SM FEW050 FEW085 00/M13 A2991 RMK AO2 PK WND 32029/0004 SLP128 T00001128=
10/03/2017 23:51->METAR KJFK 102351Z 32026G31KT 10SM FEW065 SCT085 01/M12 A2988 RMK AO2 PK WND 33031/2350 SLP119 931002 4/002 60002 T00111117 10033 20006 53028=
10/03/2017 22:51->METAR KJFK 102251Z 32017G22KT 10SM SCT055 BKN075 03/M09 A2985 RMK AO2 PK WND 30030/2156 SLP108 VCSH SE-SW T00281094=
10/03/2017 21:51->METAR KJFK 102151Z 32017G26KT 10SM SCT055 SCT075 03/M09 A2982 RMK AO2 PK WND 32030/2128 SLP098 VCSH SE AND SW-W T00281094=
10/03/2017 20:51->METAR KJFK 102051Z 32019G24KT 10SM SCT038 BKN065 03/M06 A2980 RMK AO2 SLP090 VCSH SW-W AND NW 60002 T00281061 55008=
10/03/2017 19:51->METAR KJFK 101951Z 33016G22KT 10SM FEW016 FEW039 BKN065 BKN250 02/M04 A2979 RMK AO2 SNE39 SLP088 P0000 T00221039=
10/03/2017 18:51->METAR KJFK 101851Z 33015KT 4SM -SN FEW009 SCT025 OVC037 01/M02 A2981 RMK AO2 SLP094 SCT V BKN P0002 T00111022=
10/03/2017 17:51->METAR KJFK 101751Z 34013KT 1SM R04R/2800V5000FT -SN BR FEW008 BKN023 OVC032 01/M01 A2982 RMK AO2 SFC VIS 2 SLP099 931022 4/002 933002 P0001 60024 T00061011 10033 20000 58014=
10/03/2017 16:51->METAR KJFK 101651Z 34013KT 1/2SM R04R/2400V3500FT -SN BR SCT000 BKN008 OVC012 01/M01 A2985 RMK AO2 SFC VIS 3/4 SLP108 SN SCT000 P0002 T00061011=
10/03/2017 15:51->METAR KJFK 101551Z 36011KT 1/2SM R04R/1600V4500FT SN FG VV005 00/M01 A2984 RMK AO2 SLP104 SNINCR 1/2 P0006 T00001011=
10/03/2017 14:51->METAR KJFK 101451Z 01011KT 3/4SM R04R/3500V5000FT -SN BR VV007 01/M01 A2986 RMK AO2 SLP112 P0006 60015 T00061006 56015=
10/03/2017 13:51->METAR KJFK 101351Z 04012KT 1SM R04R/2800V3000FT -SN BR SCT000 BKN006 OVC013 01/M01 A2987 RMK AO2 SLP114 SN SCT000 P0006 T00061006=
10/03/2017 12:51->METAR KJFK 101251Z 03011KT 1/2SM R04R/2400V3000FT -SN BR VV008 01/M01 A2989 RMK AO2 SFC VIS 3/4 SNB01 SLP120 P0003 T00061006=
10/03/2017 11:51->METAR KJFK 101151Z 03012KT 10SM BKN048 OVC085 03/M04 A2991 RMK AO2 SLP127 VCSH W-NW T00331044 10089 20033 55000=
10/03/2017 10:51->METAR KJFK 101051Z 04012KT 10SM FEW050 OVC100 06/M07 A2987 RMK AO2 SLP113 T00561067=
10/03/2017 09:51->METAR KJFK 100951Z 04013KT 10SM FEW060 OVC120 06/M07 A2989 RMK AO2 SLP122 T00561067=
10/03/2017 08:51->METAR KJFK 100851Z 05014KT 10SM BKN120 OVC250 07/M07 A2991 RMK AO2 SLP127 T00671072 56016=
10/03/2017 07:51->METAR KJFK 100751Z 03009KT 10SM OVC130 08/M08 A2992 RMK AO2 SLP131 T00781078=
10/03/2017 06:51->METAR KJFK 100651Z 01010KT 10SM OVC130 08/M07 A2993 RMK AO2 SLP134 T00831067=
10/03/2017 05:51->METAR KJFK 100551Z 35009KT 10SM BKN110 OVC250 09/M05 A2995 RMK AO2 SLP143 T00891050 10128 20089 58015=
10/03/2017 04:51->METAR KJFK 100451Z 35011KT 10SM OVC120 09/M06 A2999 RMK AO2 SLP154 T00941061 401780078=
10/03/2017 03:51->METAR KJFK 100351Z 34012KT 10SM OVC110 10/M04 A3000 RMK AO2 SLP157 T01001044=
10/03/2017 02:51->METAR KJFK 100251Z 33013G23KT 10SM FEW095 OVC110 11/M05 A3000 RMK AO2 SLP158 T01061050 51011=
10/03/2017 01:51->METAR KJFK 100151Z 34017G23KT 10SM OVC120 12/M07 A2999 RMK AO2 SLP156 T01171072=
10/03/2017 00:51->METAR KJFK 100051Z 34013G21KT 10SM FEW110 BKN140 BKN250 12/M07 A2998 RMK AO2 SLP153 T01221067=
09/03/2017 23:51->METAR KJFK 092351Z 35012KT 10SM FEW110 SCT130 BKN250 12/M06 A2997 RMK AO2 SLP147 T01221061 10178 20122 53017=
09/03/2017 22:51->METAR KJFK 092251Z 35008KT 10SM SCT100 SCT250 14/M08 A2994 RMK AO2 SLP139 T01391078=
09/03/2017 21:51->METAR KJFK 092151Z 30017G31KT 10SM FEW100 FEW250 17/M08 A2992 RMK AO2 PK WND 26031/2106 SLP130 T01721078=
09/03/2017 20:51->METAR KJFK 092051Z 29019G24KT 10SM FEW095 FEW250 18/M08 A2992 RMK AO2 PK WND 27031/2033 SLP130 T01781083 56005=
09/03/2017 19:51->METAR KJFK 091951Z 27019G26KT 10SM FEW095 FEW120 18/M08 A2992 RMK AO2 PK WND 27033/1925 SLP131 T01781078=
09/03/2017 18:51->METAR KJFK 091851Z 26021G29KT 10SM FEW095 FEW120 17/M08 A2993 RMK AO2 PK WND 26035/1840 SLP134 T01721078=
09/03/2017 17:51->METAR KJFK 091751Z 26022G31KT 10SM FEW095 FEW120 FEW300 17/M08 A2993 RMK AO2 PK WND 30036/1703 SLP136 T01721083 10172 20089 58017=
09/03/2017 16:51->METAR KJFK 091651Z 29023G34KT 10SM FEW090 FEW300 16/M09 A2996 RMK AO2 PK WND 27036/1624 SLP146 T01611089=
09/03/2017 15:51->METAR KJFK 091551Z 29023G34KT 10SM FEW085 FEW300 16/M10 A2998 RMK AO2 PK WND 27036/1538 SLP150 T01561100=
09/03/2017 14:51->METAR KJFK 091451Z 27022G34KT 10SM FEW085 FEW300 15/M09 A2998 RMK AO2 PK WND 29035/1400 SLP153 T01501089 50000=
09/03/2017 13:51->METAR KJFK 091351Z 27023G29KT 10SM FEW090 FEW300 14/M08 A2999 RMK AO2 PK WND 26029/1350 SLP154 T01391078=
09/03/2017 12:51->METAR KJFK 091251Z 25017KT 10SM FEW300 12/M07 A2999 RMK AO2 SLP156 T01221067=
09/03/2017 11:51->METAR KJFK 091151Z 24013KT 10SM FEW300 09/M02 A2998 RMK AO2 SLP152 T00891022 10128 20078 51010=
09/03/2017 10:51->METAR KJFK 091051Z 23014KT 10SM CLR 08/M02 A2998 RMK AO2 SLP151 T00831017=
09/03/2017 09:51->METAR KJFK 090951Z 24013G21KT 10SM CLR 09/M03 A2997 RMK AO2 PK WND 27028/0856 SLP148 T00941033=
09/03/2017 08:51->METAR KJFK 090851Z 25016KT 10SM CLR 11/M06 A2995 RMK AO2 PK WND 27031/0752 SLP143 T01111056 51004=
09/03/2017 07:51->METAR KJFK 090751Z 26023G31KT 10SM CLR 12/M07 A2995 RMK AO2 PK WND 26031/0751 SLP141 T01221072=
09/03/2017 06:51->METAR KJFK 090651Z 26015KT 10SM CLR 12/M07 A2995 RMK AO2 PK WND 25029/0629 SLP142 T01221067=
09/03/2017 05:51->METAR KJFK 090551Z 26018G30KT 10SM CLR 13/M07 A2994 RMK AO2 PK WND 26030/0544 SLP138 T01281072 10128 20078 55001=
09/03/2017 04:51->METAR KJFK 090451Z 25012KT 10SM CLR 09/M01 A2994 RMK AO2 SLP137 T00941011 401610078=
09/03/2017 03:51->METAR KJFK 090351Z 22011KT 10SM CLR 09/M01 A2994 RMK AO2 SLP139 T00941006=
09/03/2017 02:51->METAR KJFK 090251Z 22016KT 10SM FEW050 10/00 A2994 RMK AO2 SLP139 T01000000 53012=
09/03/2017 01:51->METAR KJFK 090151Z 20015KT 10SM FEW250 08/03 A2993 RMK AO2 SLP133 T00830028=
09/03/2017 00:51->METAR KJFK 090051Z 20014KT 10SM FEW250 11/M01 A2991 RMK AO2 SLP128 T01061006=
08/03/2017 23:51->METAR KJFK 082351Z 20014KT 10SM FEW250 12/M01 A2991 RMK AO2 SLP127 T01171011 10161 20106 56008=
08/03/2017 22:51->METAR KJFK 082251Z 23014KT 10SM FEW090 FEW250 12/M02 A2991 RMK AO2 SLP128 T01221022=
08/03/2017 21:51->METAR KJFK 082151Z 22015KT 10SM FEW090 FEW250 14/M03 A2993 RMK AO2 SLP133 T01391028=
08/03/2017 20:51->METAR KJFK 082051Z 24012KT 10SM FEW080 FEW250 15/M03 A2993 RMK AO2 PK WND 29028/1952 SLP136 T01501028 56020=
08/03/2017 19:51->METAR KJFK 081951Z 28019KT 10SM FEW070 FEW250 16/M06 A2995 RMK AO2 PK WND 27027/1927 SLP142 T01611056=
08/03/2017 18:51->METAR KJFK 081851Z 26014KT 10SM FEW070 FEW120 16/M05 A2996 RMK AO2 SLP144 T01611050=
08/03/2017 17:51->METAR KJFK 081751Z 26012G21KT 10SM FEW065 FEW120 14/M04 A2999 RMK AO2 SLP156 60000 T01441039 10150 20089 58012=
08/03/2017 16:51->METAR KJFK 081651Z 27015KT 10SM FEW048 SCT100 14/M02 A3002 RMK AO2 SLP166 T01391017=
08/03/2017 15:51->METAR KJFK 081551Z 30017G25KT 10SM FEW040 BKN100 12/M01 A3003 RMK AO2 PK WND 28028/1456 SLP170 T01221006=
08/03/2017 14:51->METAR KJFK 081451Z 29021G27KT 10SM FEW033 BKN090 11/01 A3003 RMK AO2 PK WND 29028/1440 SLP168 60000 T01060006 50014=
08/03/2017 13:51->METAR KJFK 081351Z 28015G20KT 10SM FEW030 SCT045 BKN075 10/03 A3004 RMK AO2 SLP171 T01000033=
08/03/2017 12:51->METAR KJFK 081251Z 31011KT 10SM SCT028 OVC055 09/04 A2998 RMK AO2 RAE1158 SLP152 P0000 T00940039=
08/03/2017 11:51->METAR KJFK 081151Z 32019G24KT 9SM -RA FEW011 BKN030 OVC044 09/06 A2999 RMK AO2 SLP154 PK WND 33027/1127 WSHFT 1125 FROPA CIG 027V033 P0002 60005 70016 T00890061 10100 20083 53025=
08/03/2017 10:51->METAR KJFK 081051Z 19013KT 8SM -RA OVC028 09/08 A2992 RMK AO2 RAB0952 SLP132 P0002 T00890078=
08/03/2017 09:51->METAR KJFK 080951Z 18013KT 7SM FEW040 BKN080 OVC095 09/07 A2991 RMK AO2 SLP127 T00890072=
08/03/2017 08:51->METAR KJFK 080851Z 18014KT 10SM FEW060 OVC100 09/08 A2991 RMK AO2 RAE0752 SLP129 P0000 60001 T00940078 56030=
08/03/2017 07:51->METAR KJFK 080751Z 18014KT 10SM -RA BKN060 OVC095 09/07 A2994 RMK AO2 RAE26B44 SLP139 P0000 T00940072=
08/03/2017 06:51->METAR KJFK 080651Z 18012KT 10SM -RA OVC080 10/08 A2997 RMK AO2 SLP149 P0001 T01000078=
08/03/2017 05:51->METAR KJFK 080551Z 19014KT 10SM -RA OVC060 10/07 A3000 RMK AO2 SLP160 P0000 60000 T01000072 10106 20089 56028=
08/03/2017 04:51->METAR KJFK 080451Z 18014KT 10SM -RA BKN060 OVC120 09/07 A3003 RMK AO2 RAB43 SLP169 P0000 T00940067 401000056=
08/03/2017 03:51->METAR KJFK 080351Z 18013KT 10SM FEW080 OVC160 09/06 A3006 RMK AO2 SLP177 T00940061=
08/03/2017 02:51->METAR KJFK 080251Z 18015KT 10SM FEW050 OVC075 10/07 A3009 RMK AO2 RAE0155 SLP188 P0000 60000 T01000067 58016=
08/03/2017 01:51->METAR KJFK 080151Z 18015KT 10SM -RA FEW055 OVC090 09/07 A3011 RMK AO2 RAE0059B44 SLP196 P0000 T00940067=
08/03/2017 00:51->METAR KJFK 080051Z 19016KT 10SM -RA SCT055 SCT120 OVC150 09/07 A3013 RMK AO2 RAB40 SLP202 P0000 T00940067=
07/03/2017 23:51->METAR KJFK 072351Z 17010KT 10SM SCT050 SCT140 BKN230 09/07 A3013 RMK AO2 SLP204 60001 T00890067 10094 20083 56015=
07/03/2017 22:51->METAR KJFK 072251Z 15007KT 10SM FEW048 BKN160 BKN250 09/07 A3014 RMK AO2 SLP207 T00890067=
07/03/2017 21:51->METAR KJFK 072151Z VRB03KT 10SM BKN048 OVC150 09/06 A3016 RMK AO2 RAB03E13 SLP213 P0000 T00890061=
07/03/2017 20:51->METAR KJFK 072051Z 17008KT 10SM FEW046 BKN110 OVC150 09/06 A3018 RMK AO2 RAE1954 SLP219 P0000 60001 T00890061 56023=
07/03/2017 19:51->METAR KJFK 071951Z 16008KT 8SM -RA FEW046 OVC110 08/06 A3020 RMK AO2 RAE1855B45 SLP224 P0000 T00830061=
07/03/2017 18:51->METAR KJFK 071851Z 17011KT 9SM -RA FEW018 BKN033 OVC070 08/07 A3022 RMK AO2 RAB1758 SLP231 P0001 T00830067=
07/03/2017 17:51->METAR KJFK 071751Z 19008KT 9SM FEW015 SCT030 OVC055 08/07 A3025 RMK AO2 RAE36 SLP241 P0001 60010 T00830067 10089 20072 58028=
07/03/2017 16:51->METAR KJFK 071651Z 17012KT 6SM -RA BR FEW010 SCT046 OVC065 08/07 A3028 RMK AO2 SLP252 P0003 T00830072=
07/03/2017 15:51->METAR KJFK 071551Z 17011KT 5SM -RA BR BKN040 BKN055 OVC075 08/07 A3030 RMK AO2 SLP260 P0004 T00830067=
07/03/2017 14:51->METAR KJFK 071451Z 16011KT 6SM -RA BR SCT042 OVC055 08/07 A3033 RMK AO2 RAB00 SLP270 P0002 60002 T00830067 58013=
07/03/2017 13:51->METAR KJFK 071351Z 15009KT 10SM OVC065 08/06 A3035 RMK AO2 SLP277 T00830056=
07/03/2017 12:51->METAR KJFK 071251Z 14011KT 9SM SCT047 OVC055 08/05 A3036 RMK AO2 RAB32E44 SLP281 P0000 T00780050=
07/03/2017 11:51->METAR KJFK 071151Z 13011KT 10SM SCT047 OVC055 07/04 A3037 RMK AO2 RAE1056 SLP282 P0000 60000 T00720044 10072 20056 58003=
07/03/2017 10:51->METAR KJFK 071051Z 12008KT 10SM -RA BKN049 OVC055 07/04 A3037 RMK AO2 SLP285 P0000 T00670039=
07/03/2017 09:51->METAR KJFK 070951Z 13009KT 10SM -RA OVC060 07/03 A3038 RMK AO2 RAB34 SLP285 P0000 T00670033=
07/03/2017 08:51->METAR KJFK 070851Z 14011KT 10SM OVC065 07/03 A3038 RMK AO2 SLP286 T00670028 56019=
07/03/2017 07:51->METAR KJFK 070751Z 15009KT 10SM OVC060 06/02 A3039 RMK AO2 SLP291 T00610022=
07/03/2017 06:51->METAR KJFK 070651Z 15008KT 10SM OVC055 06/02 A3041 RMK AO2 SLP298 T00610017=
07/03/2017 05:51->METAR KJFK 070551Z 16008KT 10SM OVC065 06/01 A3043 RMK AO2 SLP305 60000 T00560011 10056 20044 58006=
07/03/2017 04:51->METAR KJFK 070451Z 18009KT 10SM OVC065 06/00 A3044 RMK AO2 SLP306 T00560000 400561056=
07/03/2017 03:51->METAR KJFK 070351Z 19012KT 10SM OVC065 05/M01 A3045 RMK AO2 RAB15E26 SLP311 P0000 T00501011=
07/03/2017 02:51->METAR KJFK 070251Z 19012KT 10SM FEW075 OVC095 05/M02 A3045 RMK AO2 SLP311 T00501022 58003=
07/03/2017 01:51->METAR KJFK 070151Z 18008KT 10SM BKN080 OVC120 05/M02 A3046 RMK AO2 SLP313 T00501022=
07/03/2017 00:51->METAR KJFK 070051Z 19011KT 10SM OVC120 04/M03 A3046 RMK AO2 SLP313 T00441033=
06/03/2017 23:51->METAR KJFK 062351Z 18010KT 10SM OVC110 04/M04 A3046 RMK AO2 SLP314 T00441044 10044 20033 56001=
06/03/2017 22:51->METAR KJFK 062251Z 18009KT 10SM BKN110 BKN250 04/M04 A3046 RMK AO2 SLP314 T00441039=
06/03/2017 21:51->METAR KJFK 062151Z 18010KT 10SM BKN110 BKN260 04/M04 A3046 RMK AO2 SLP314 T00391044=
06/03/2017 20:51->METAR KJFK 062051Z 17010KT 10SM OVC110 04/M06 A3046 RMK AO2 SLP315 T00391061 56015=
06/03/2017 19:51->METAR KJFK 061951Z 17008KT 10SM BKN100 BKN270 03/M08 A3048 RMK AO2 SLP322 T00331083=
06/03/2017 18:51->METAR KJFK 061851Z 18006KT 10SM FEW140 SCT270 04/M11 A3048 RMK AO2 SLP322 T00391111=
06/03/2017 17:51->METAR KJFK 061751Z 19007KT 10SM FEW060 FEW140 SCT270 04/M14 A3051 RMK AO2 SLP330 T00391139 10039 21033 58018=
06/03/2017 16:51->METAR KJFK 061651Z 21009KT 10SM FEW140 SCT300 03/M15 A3054 RMK AO2 SLP340 T00331150=
06/03/2017 15:51->METAR KJFK 061551Z 17004KT 10SM FEW120 SCT300 02/M18 A3055 RMK AO2 SLP344 T00221183=
06/03/2017 14:51->METAR KJFK 061451Z 29003KT 10SM FEW120 FEW300 02/M19 A3056 RMK AO2 SLP348 T00221189 50001=
06/03/2017 13:51->METAR KJFK 061351Z 32004KT 10SM FEW300 00/M17 A3056 RMK AO2 SLP348 T00001172=
06/03/2017 12:51->METAR KJFK 061251Z 02004KT 10SM FEW100 FEW300 M01/M18 A3056 RMK AO2 SLP348 T10111178=
06/03/2017 11:51->METAR KJFK 061151Z 36005KT 10SM FEW100 FEW300 M03/M16 A3056 RMK AO2 SLP347 T10331161 11028 21056 51007=
06/03/2017 10:51->METAR KJFK 061051Z 01005KT 10SM R04R/5000VP6000FT SCT250 M03/M16 A3055 RMK AO2 SLP345 T10331161=
06/03/2017 09:51->METAR KJFK 060951Z 34006KT 10SM FEW250 M04/M16 A3056 RMK AO2 SLP346 T10441156=
06/03/2017 08:51->METAR KJFK 060851Z 35004KT 10SM SCT250 M03/M19 A3054 RMK AO2 SLP340 T10331189 55001=
06/03/2017 07:51->METAR KJFK 060751Z 06005KT 10SM FEW250 M05/M14 A3053 RMK AO2 SLP337 T10501139=
06/03/2017 06:51->METAR KJFK 060651Z 00000KT 10SM FEW250 M03/M17 A3054 RMK AO2 SLP341 T10331172=
06/03/2017 05:51->METAR KJFK 060551Z 02006KT 10SM FEW250 M03/M18 A3054 RMK AO2 SLP342 T10281183 10000 21033 58007=
06/03/2017 04:51->METAR KJFK 060451Z 01007KT 10SM FEW250 M02/M19 A3055 RMK AO2 SLP345 T10171194 400331089=
06/03/2017 03:51->METAR KJFK 060351Z 36005KT 10SM CLR M02/M21 A3056 RMK AO2 SLP348 T10221206=
06/03/2017 02:51->METAR KJFK 060251Z 02006KT 10SM FEW250 M02/M21 A3056 RMK AO2 SLP349 T10171206 51009=
06/03/2017 01:51->METAR KJFK 060151Z 01005KT 10SM FEW250 M01/M19 A3056 RMK AO2 SLP347 T10111194=
06/03/2017 00:51->METAR KJFK 060051Z 03005KT 10SM FEW250 M01/M21 A3055 RMK AO2 SLP343 T10061206=
05/03/2017 23:51->METAR KJFK 052351Z 02007KT 10SM FEW250 00/M21 A3054 RMK AO2 SLP340 T00001211 10033 20000 53006=
05/03/2017 22:51->METAR KJFK 052251Z 01007KT 10SM FEW250 01/M22 A3052 RMK AO2 SLP333 T00061217=
05/03/2017 21:51->METAR KJFK 052151Z 34009KT 10SM FEW250 02/M22 A3051 RMK AO2 SLP331 T00221222=
05/03/2017 20:51->METAR KJFK 052051Z 33009KT 10SM FEW250 03/M23 A3052 RMK AO2 SLP333 T00281233 56023=
05/03/2017 19:51->METAR KJFK 051951Z 33015G23KT 10SM FEW250 02/M23 A3054 RMK AO2 SLP340 T00221233=
05/03/2017 18:51->METAR KJFK 051851Z 35017G23KT 10SM FEW250 02/M24 A3055 RMK AO2 PK WND 33029/1833 SLP346 T00171244=
05/03/2017 17:51->METAR KJFK 051751Z 35018KT 10SM FEW200 01/M24 A3059 RMK AO2 PK WND 34027/1726 SLP356 T00061244 10011 21089 58026=
05/03/2017 16:51->METAR KJFK 051651Z 35016KT 10SM FEW200 M01/M25 A3063 RMK AO2 SLP370 T10061250=
05/03/2017 15:51->METAR KJFK 051551Z 32014KT 10SM FEW200 M02/M24 A3065 RMK AO2 SLP380 T10221239=
05/03/2017 14:51->METAR KJFK 051451Z 33011KT 10SM CLR M04/M24 A3066 RMK AO2 SLP382 T10391244 58004=
05/03/2017 13:51->METAR KJFK 051351Z 33013KT 10SM CLR M06/M24 A3068 RMK AO2 SLP389 T10611239=
05/03/2017 12:51->METAR KJFK 051251Z 34013KT 10SM CLR M07/M23 A3067 RMK AO2 SLP386 T10721233=
05/03/2017 11:51->METAR KJFK 051151Z 31015KT 10SM CLR M09/M23 A3067 RMK AO2 SLP386 T10891233 11083 21089 51016=
05/03/2017 10:51->METAR KJFK 051051Z 32014KT 10SM CLR M09/M23 A3066 RMK AO2 SLP382 T10891233=
05/03/2017 09:51->METAR KJFK 050951Z 31014KT 10SM CLR M09/M23 A3065 RMK AO2 SLP378 T10891233=
05/03/2017 08:51->METAR KJFK 050851Z 33015KT 10SM CLR M09/M23 A3063 RMK AO2 SLP371 T10891233 53004=
05/03/2017 07:51->METAR KJFK 050751Z 34017KT 10SM CLR M09/M23 A3061 RMK AO2 PK WND 34026/0722 SLP364 T10891228=
05/03/2017 06:51->METAR KJFK 050651Z 34013G22KT 10SM CLR M09/M23 A3062 RMK AO2 PK WND 34026/0632 SLP367 T10891233=
05/03/2017 05:51->METAR KJFK 050551Z 33019KT 10SM CLR M08/M23 A3062 RMK AO2 SLP367 T10831233 11033 21083 53007=
05/03/2017 04:51->METAR KJFK 050451Z 32018G23KT 10SM CLR M08/M23 A3061 RMK AO2 SLP364 T10781228 400111078=
05/03/2017 03:51->METAR KJFK 050351Z 32016G22KT 10SM CLR M07/M23 A3060 RMK AO2 PK WND 32028/0314 SLP360 T10721228=
05/03/2017 02:51->METAR KJFK 050251Z 34018G28KT 10SM CLR M07/M23 A3059 RMK AO2 PK WND 33030/0154 SLP359 T10671233 53016=
05/03/2017 01:51->METAR KJFK 050151Z 34020G26KT 10SM CLR M06/M23 A3057 RMK AO2 PK WND 33029/0113 SLP352 T10561228=
05/03/2017 00:51->METAR KJFK 050051Z 32016G25KT 10SM CLR M05/M22 A3056 RMK AO2 PK WND 33029/2352 SLP347 T10501217=
04/03/2017 23:51->METAR KJFK 042351Z 31020G27KT 10SM FEW070 M04/M22 A3055 RMK AO2 PK WND 33030/2258 SLP343 T10391217 10006 21039 53026=
04/03/2017 22:51->METAR KJFK 042251Z 33025G29KT 10SM FEW070 M03/M23 A3053 RMK AO2 PK WND 33029/2154 SLP336 T10281233=
04/03/2017 21:51->METAR KJFK 042151Z 34022G31KT 10SM FEW070 M02/M23 A3049 RMK AO2 PK WND 31034/2112 SLP323 T10171228=
04/03/2017 20:51->METAR KJFK 042051Z 33026G32KT 10SM SCT070 00/M19 A3047 RMK AO2 PK WND 32036/2008 SLP317 VIRGA S-W T00001194 55002=
04/03/2017 19:51->METAR KJFK 041951Z 30021G33KT 10SM BKN070 00/M18 A3046 RMK AO2 PK WND 31038/1859 SLP315 VIRGA ALQDS T00001183=
04/03/2017 18:51->METAR KJFK 041851Z 31023G33KT 10SM SCT050 BKN070 00/M18 A3046 RMK AO2 PK WND 32035/1834 SLP315 VIRGA ALQDS T00001178=
04/03/2017 17:51->METAR KJFK 041751Z 31020G29KT 10SM BKN070 M01/M18 A3047 RMK AO2 PK WND 31032/1717 SLP319 VIRGA ALQDS T10061183 10011 21056 58014=
04/03/2017 16:51->METAR KJFK 041651Z 31021G31KT 10SM BKN060 BKN070 M02/M17 A3049 RMK AO2 PK WND 30031/1646 SLP324 VIRGA ALQDS T10171172=
04/03/2017 15:51->METAR KJFK 041551Z 32016G26KT 10SM BKN055 M02/M16 A3051 RMK AO2 PK WND 31026/1547 SLP331 T10221161=
04/03/2017 14:51->METAR KJFK 041451Z 31013G21KT 10SM SCT050 BKN060 M03/M16 A3051 RMK AO2 SLP332 T10281156 58005=
04/03/2017 13:51->METAR KJFK 041351Z 29013KT 10SM R04R/2600VP6000FT SCT049 BKN055 M03/M16 A3053 RMK AO2 SLP338 T10331156=
04/03/2017 12:51->METAR KJFK 041251Z 29012G18KT 10SM SCT055 M04/M16 A3054 RMK AO2 SLP342 T10441161=
04/03/2017 11:51->METAR KJFK 041151Z 30010G18KT 10SM SCT049 M06/M16 A3053 RMK AO2 SLP337 T10561161 11039 21061 53014=
04/03/2017 10:51->METAR KJFK 041051Z 31011KT 10SM FEW050 M06/M17 A3052 RMK AO2 SLP333 T10611172=
04/03/2017 09:51->METAR KJFK 040951Z 32012KT 10SM FEW050 M06/M17 A3050 RMK AO2 SLP326 T10561172=
04/03/2017 08:51->METAR KJFK 040851Z 31018G24KT 10SM FEW050 M05/M18 A3049 RMK AO2 PK WND 32033/0822 SLP324 T10501183 53006=
04/03/2017 07:51->METAR KJFK 040751Z 30022G33KT 10SM FEW050 M05/M18 A3048 RMK AO2 PK WND 31033/0747 SLP320 T10501183=
04/03/2017 06:51->METAR KJFK 040651Z 31017KT 10SM FEW050 M04/M17 A3048 RMK AO2 PK WND 32035/0554 SLP320 T10441172=
04/03/2017 05:51->METAR KJFK 040551Z 31022G32KT 10SM FEW050 M04/M18 A3047 RMK AO2 PK WND 30032/0545 SLP318 T10391178 10017 21039 51022=
04/03/2017 04:51->METAR KJFK 040451Z 31019G26KT 10SM FEW045 M03/M18 A3045 RMK AO2 PK WND 30038/0400 SLP312 T10331178 400561033=
04/03/2017 03:51->METAR KJFK 040351Z 32026G37KT 10SM FEW042 M03/M18 A3043 RMK AO2 PK WND 31037/0342 SLP303 T10281183=
04/03/2017 02:51->METAR KJFK 040251Z 32021G30KT 10SM FEW042 M02/M16 A3041 RMK AO2 PK WND 32034/0230 SLP295 T10221161 52033=
04/03/2017 01:51->METAR KJFK 040151Z 32025G30KT 10SM FEW042 SCT070 M01/M12 A3038 RMK AO2 PK WND 32030/0150 SLP286 T10061117=
04/03/2017 00:51->METAR KJFK 040051Z 32020G26KT 10SM BKN055 00/M09 A3034 RMK AO2 PK WND 34030/0034 SLP272 VIRGA NE-E AND SW-W T00001094=
03/03/2017 23:51->METAR KJFK 032351Z 30017G22KT 10SM FEW065 FEW100 02/M12 A3031 RMK AO2 PK WND 31031/2312 SLP262 T00171122 10056 20017 53027=
03/03/2017 22:51->METAR KJFK 032251Z 29019G30KT 10SM FEW065 SCT085 03/M14 A3027 RMK AO2 PK WND 31030/2250 SLP251 VIRGA SE-SW AND NW T00331144=
03/03/2017 21:51->METAR KJFK 032151Z 30016G22KT 10SM FEW065 BKN100 BKN130 03/M16 A3024 RMK AO2 SLP239 VIRGA OHD AND N-SW T00331156=
03/03/2017 20:51->METAR KJFK 032051Z 26017G31KT 10SM FEW065 BKN080 BKN095 04/M13 A3023 RMK AO2 PK WND 26031/2044 SLP235 VIRGA ALQDS T00391133 53003=
03/03/2017 19:51->METAR KJFK 031951Z 29018G28KT 10SM FEW065 BKN090 BKN110 06/M17 A3021 RMK AO2 PK WND 32029/1933 SLP230 VIRGA NE-SW AND NW T00561167=
03/03/2017 18:51->METAR KJFK 031851Z 27017G24KT 10SM FEW060 BKN080 05/M16 A3021 RMK AO2 SLP229 VIRGA SE-W T00501156=
03/03/2017 17:51->METAR KJFK 031751Z 30010G25KT 10SM BKN070 04/M14 A3022 RMK AO2 PK WND 26028/1741 SLP232 T00391139 10044 21006 58009=
03/03/2017 16:51->METAR KJFK 031651Z 30013KT 10SM SCT065 03/M13 A3024 RMK AO2 SLP240 T00331133=
03/03/2017 15:51->METAR KJFK 031551Z 27015G18KT 10SM SCT060 03/M13 A3025 RMK AO2 SLP242 T00281133=
03/03/2017 14:51->METAR KJFK 031451Z 30013KT 10SM FEW060 FEW095 FEW250 02/M13 A3025 RMK AO2 SLP242 T00221128 50010=
03/03/2017 13:51->METAR KJFK 031351Z 28013KT 10SM FEW060 FEW140 01/M12 A3025 RMK AO2 SLP243 T00111117 $=
03/03/2017 12:51->METAR KJFK 031251Z 29013KT 10SM FEW055 FEW140 00/M13 A3024 RMK AO2 SLP239 T00001128 $=
03/03/2017 11:51->METAR KJFK 031151Z 29010KT 10SM FEW055 FEW140 M01/M12 A3022 RMK AO2 SLP232 T10061122 10022 21006 51024 $=
03/03/2017 10:51->METAR KJFK 031051Z 30013KT 10SM FEW055 M01/M13 A3020 RMK AO2 SLP226 T10061128 $=
03/03/2017 09:51->METAR KJFK 030951Z 30015KT 10SM CLR 00/M13 A3017 RMK AO2 SLP216 T00001128 $=
03/03/2017 08:51->METAR KJFK 030851Z 32013KT 10SM CLR 00/M14 A3015 RMK AO2 SLP207 T00001144 51008 $=
03/03/2017 07:51->METAR KJFK 030751Z 30017G24KT 10SM CLR 01/M12 A3014 RMK AO2 SLP205 T00111122 $=
03/03/2017 06:51->METAR KJFK 030651Z 32010KT 10SM CLR 02/M12 A3013 RMK AO2 SLP204 T00171122 $=
03/03/2017 05:51->METAR KJFK 030551Z 31013KT 10SM CLR 02/M12 A3012 RMK AO2 SLP199 T00221122 10061 20022 51014 $=
03/03/2017 04:51->METAR KJFK 030451Z 30013KT 10SM CLR 03/M12 A3011 RMK AO2 SLP195 T00281122 401670028 $=
03/03/2017 03:51->METAR KJFK 030351Z 30017G24KT 10SM CLR 04/M13 A3010 RMK AO2 PK WND 29027/0319 SLP191 T00391128 $=
03/03/2017 02:51->METAR KJFK 030251Z 29017KT 10SM FEW050 04/M13 A3008 RMK AO2 PK WND 29026/0241 SLP185 T00441133 51027 $=
03/03/2017 01:51->METAR KJFK 030151Z 30016G25KT 10SM CLR 06/M14 A3006 RMK AO2 PK WND 31029/0136 SLP178 T00561139 $=
03/03/2017 00:51->METAR KJFK 030051Z 30014G24KT 10SM CLR 06/M13 A3003 RMK AO2 PK WND 31028/0035 SLP169 T00561128 $=
02/03/2017 23:51->METAR KJFK 022351Z 30017G24KT 10SM CLR 06/M13 A3000 RMK AO2 PK WND 31030/2310 SLP157 T00611128 10100 20061 53041=
02/03/2017 22:51->METAR KJFK 022251Z 30019G32KT 10SM FEW065 07/M12 A2996 RMK AO2 PK WND 31032/2246 SLP143 T00671117=
02/03/2017 21:51->METAR KJFK 022151Z 29023G32KT 10SM FEW065 07/M11 A2991 RMK AO2 PK WND 29039/2053 SLP129 T00721111=
02/03/2017 20:51->METAR KJFK 022051Z 28027G36KT 10SM FEW070 FEW250 09/M09 A2988 RMK AO2 PK WND 29036/2051 SLP117 T00891094 53035=
02/03/2017 19:51->METAR KJFK 021951Z 29024G34KT 10SM FEW070 09/M09 A2983 RMK AO2 PK WND 30036/1921 SLP101 T00891089=
02/03/2017 18:51->METAR KJFK 021851Z 29026G32KT 10SM FEW070 09/M08 A2980 RMK AO2 PK WND 32036/1841 SLP089 T00941083=
02/03/2017 17:51->METAR KJFK 021751Z 30027G34KT 10SM FEW070 09/M08 A2977 RMK AO2 PK WND 29036/1738 SLP082 T00941083 10094 20083 51025=
02/03/2017 16:51->METAR KJFK 021651Z 29026G35KT 10SM FEW065 FEW250 09/M08 A2975 RMK AO2 PK WND 27039/1605 SLP074 T00941078=
02/03/2017 15:51->METAR KJFK 021551Z 28023G36KT 10SM FEW060 FEW250 09/M07 A2973 RMK AO2 PK WND 30038/1540 SLP068 T00941067=
02/03/2017 14:51->METAR KJFK 021451Z 30029G41KT 10SM FEW060 FEW250 08/M07 A2970 RMK AO2 PK WND 27043/1427 SLP057 T00831067 51045=
02/03/2017 13:51->METAR KJFK 021351Z 29024G42KT 10SM FEW055 FEW250 09/M06 A2965 RMK AO2 PK WND 29047/1331 SLP041 T00891061=
02/03/2017 12:51->METAR KJFK 021251Z 28030G44KT 10SM SCT049 SCT250 08/M02 A2962 RMK AO2 PK WND 28044/1244 SLP031 T00831017=
02/03/2017 11:51->METAR KJFK 021151Z 27020G33KT 10SM FEW047 FEW070 FEW250 09/M02 A2957 RMK AO2 PK WND 27045/1131 SLP011 70001 T00941017 10167 20094 53031=
02/03/2017 10:51->METAR KJFK 021051Z 27025G34KT 10SM FEW070 FEW250 10/M04 A2953 RMK AO2 PK WND 27042/1029 SLP998 T01001044=
02/03/2017 09:51->METAR KJFK 020951Z 27027G38KT 10SM FEW070 11/M03 A2951 RMK AO2 PK WND 26042/0856 SLP993 T01111028=
02/03/2017 08:51->METAR KJFK 020851Z 28027G42KT 10SM SCT075 SCT250 14/01 A2947 RMK AO2 PK WND 26042/0759 SLP980 T01390006 53014=
02/03/2017 07:51->METAR KJFK 020751Z 28025G38KT 10SM BKN060 OVC250 16/06 A2944 RMK AO2 PK WND 28039/0709 SLP968 T01610061=
02/03/2017 06:51->METAR KJFK 020651Z 24018KT 10SM FEW070 OVC250 15/10 A2943 RMK AO2 PK WND 24028/0628 SLP965 T01500100=
02/03/2017 05:51->METAR KJFK 020551Z 23019KT 10SM FEW060 OVC250 15/10 A2943 RMK AO2 SLP967 T01500100 10161 20117 56003=
02/03/2017 04:51->METAR KJFK 020451Z 23015KT 10SM OVC250 14/10 A2943 RMK AO2 SLP967 T01440100 401610089=
02/03/2017 03:51->METAR KJFK 020351Z 23018KT 10SM BKN250 16/10 A2944 RMK AO2 SLP969 T01610100=
02/03/2017 02:51->METAR KJFK 020251Z 24009KT 10SM FEW210 OVC250 14/10 A2944 RMK AO2 SLP969 T01390100 58013=
02/03/2017 01:51->METAR KJFK 020151Z 19010KT 10SM SCT200 OVC250 12/10 A2947 RMK AO2 SLP978 T01220100=
02/03/2017 00:51->METAR KJFK 020051Z 18010KT 10SM BKN180 OVC250 12/09 A2948 RMK AO2 SLP981 T01220094=
01/03/2017 23:51->METAR KJFK 012351Z 19011KT 8SM FEW160 BKN250 12/11 A2948 RMK AO2 SLP982 60000 T01170106 10133 20106 55016=
01/03/2017 22:51->METAR KJFK 012251Z 19018KT 7SM FEW037 FEW160 BKN250 12/11 A2948 RMK AO2 PK WND 19028/2207 SLP982 T01220111=
01/03/2017 21:51->METAR KJFK 012151Z 19018KT 7SM FEW037 BKN160 BKN250 13/12 A2945 RMK AO2 RAB04E16 SLP972 P0000 T01280117=
01/03/2017 20:51->METAR KJFK 012051Z 19014KT 8SM BKN037 BKN050 OVC100 12/11 A2952 RMK AO2 SLP997 VCSH SW T01220111 56034=
01/03/2017 19:51->METAR KJFK 011951Z 21013KT 6SM BR FEW010 FEW034 BKN190 BKN250 13/12 A2955 RMK AO2 SLP004 T01330117=
01/03/2017 18:51->METAR KJFK 011851Z 17010KT 1 3/4SM BR BKN004 BKN035 BKN170 13/12 A2958 RMK AO2 SFC VIS 6 SLP016 BKN004 V SCT T01280117=
01/03/2017 17:51->METAR KJFK 011751Z 15008KT 1SM R04R/P6000FT BR BKN003 OVC025 11/11 A2962 RMK AO2 SFC VIS 4 RAE1655 SLP031 P0000 60001 T01060106 10117 20089 58040=
01/03/2017 16:51->METAR KJFK 011651Z 16003KT 2 1/2SM -RA BR FEW004 OVC019 11/11 A2968 RMK AO2 SFC VIS 3 LTG DSNT NE AND NW RAB12 SLP051 P0001 T01060106=
01/03/2017 15:51->METAR KJFK 011551Z 20008KT 1SM R04R/P6000FT BR SCT003 OVC016 11/10 A2972 RMK AO2 SFC VIS 6 LTG DSNT NE AND W SLP064 T01060100=
01/03/2017 14:51->METAR KJFK 011451Z 18009KT 2SM BR SCT003 OVC013 10/10 A2974 RMK AO2 SFC VIS 6 SLP071 T01000100 56023=
01/03/2017 13:51->METAR KJFK 011351Z 17008KT 1/4SM R04R/P6000FT BR BKN002 OVC013 09/09 A2975 RMK AO2 SFC VIS 4 PRESFR SLP075 T00890089=
01/03/2017 12:51->METAR KJFK 011251Z 17008KT 1/8SM R04R/P6000FT BR FEW000 OVC002 09/09 A2979 RMK AO2 SFC VIS 2 SLP086 BR FEW000 T00890089=
01/03/2017 11:51->METAR KJFK 011151Z 17006KT 1/4SM R04R/P6000FT BR BKN002 OVC008 09/09 A2981 RMK AO2 SFC VIS 2 1/2 SLP094 60000 T00940094 10106 20089 58027=
01/03/2017 10:51->METAR KJFK 011051Z 15004KT 6SM BR BKN002 OVC011 11/11 A2984 RMK AO2 SLP104 T01060106=
01/03/2017 09:51->METAR KJFK 010951Z 00000KT 5SM BR BKN002 OVC011 09/09 A2987 RMK AO2 SLP114 T00940094=
01/03/2017 08:51->METAR KJFK 010851Z 18009KT 1/2SM R04R/2000V2400FT FG VV002 09/09 A2989 RMK AO2 RAE10 SLP121 P0000 60000 T00940094 56036=
01/03/2017 07:51->METAR KJFK 010751Z 18012KT 1/2SM R04R/1800V2000FT -RA FG VV002 09/09 A2990 RMK AO2 RAB43 SLP124 P0000 T00940094=
01/03/2017 06:51->METAR KJFK 010651Z 19013KT 1/2SM R04R/3000V3500FT BR OVC002 10/10 A2996 RMK AO2 SFC VIS 1 1/2 SLP145 T01000100=
01/03/2017 05:51->METAR KJFK 010551Z 19009KT 1/2SM R04R/4000VP6000FT BR OVC002 09/09 A2999 RMK AO2 SFC VIS 2 SLP157 T00940094 10111 20089 56029=
01/03/2017 04:51->METAR KJFK 010451Z 18011KT 10SM FEW005 OVC044 11/10 A3002 RMK AO2 SLP164 T01060100 401440061=
01/03/2017 03:51->METAR KJFK 010351Z 17009KT 10SM OVC050 11/10 A3005 RMK AO2 SLP177 T01110100=
01/03/2017 02:51->METAR KJFK 010251Z 16003KT 10SM OVC070 11/11 A3008 RMK AO2 SLP185 T01060106 58026=
01/03/2017 01:51->METAR KJFK 010151Z 03004KT 1 1/2SM BKN004 OVC070 09/09 A3013 RMK AO2 SFC VIS 7 SLP201 T00890089=
01/03/2017 00:51->METAR KJFK 010051Z 14008KT 1/4SM R04R/6000VP6000FT BR OVC002 10/10 A3015 RMK AO2 SFC VIS 1 SLP210 T01000100=
31/08/2016 23:51->METAR KJFK 312351Z 19014G19KT 10SM FEW040 SCT140 BKN180 BKN260 26/24 A2989 RMK AO2 SLP121 T02610239 55003 $=
31/08/2016 22:51->METAR KJFK 312251Z 19013G20KT 10SM FEW040 FEW130 BKN180 BKN250 27/24 A2988=
31/08/2016 21:51->METAR KJFK 312151Z 19016G22KT 10SM FEW050 BKN180 BKN250 27/24 A2989 RMK AO2 SLP121 T02720239 $=
31/08/2016 20:51->METAR KJFK 312051Z 19014KT 10SM FEW050 BKN190 BKN250 28/24 A2990 RMK AO2 SLP124 T02780239 56015 $=
31/08/2016 19:51->METAR KJFK 311951Z 18015KT 10SM FEW050 BKN180 BKN250 27/24 A2992 RMK AO2 SLP130 T02720239 $=
31/08/2016 18:51->METAR KJFK 311851Z 18012G17KT 10SM FEW040 SCT170 BKN250 29/24 A2993 RMK AO2 SLP134 T02890233 $=
31/08/2016 17:51->METAR KJFK 311751Z 20008G14KT 10SM FEW040 SCT180 BKN250 29/22 A2994 RMK AO2 SLP140 T02940222 56019 $=
31/08/2016 16:51->METAR KJFK 311651Z 20008KT 10SM FEW037 SCT190 BKN250 28/22 A2996 RMK AO2 SLP146 T02830222 $=
31/08/2016 15:51->METAR KJFK 311551Z 20007KT 10SM FEW030 FEW160 BKN260 27/22 A2998 RMK AO2 SLP151 T02670217 $=
31/08/2016 14:51->METAR KJFK 311451Z 21008KT 10SM FEW025 FEW170 BKN260 26/22 A3000 RMK AO2 SLP158 T02610222 58007 $=
31/08/2016 13:51->METAR KJFK 311351Z 23008KT 10SM FEW021 SCT170 BKN260 26/23 A3001 RMK AO2 SLP162 T02560228 $=
31/08/2016 12:51->METAR KJFK 311251Z 23010KT 8SM FEW006 BKN013 BKN250 24/23 A3001 RMK AO2 SLP163 CIG 010V016 T02390228 $=
31/08/2016 11:51->METAR KJFK 311151Z 24009KT 8SM SCT015 BKN250 24/22 A3002 RMK AO2 SLP166 SCT V BKN T02390222 56001 $=
31/08/2016 10:51->METAR KJFK 311051Z 22005KT 9SM SCT013 BKN250 23/22 A3002=
31/08/2016 09:51->METAR KJFK 310951Z 23004KT 10SM FEW008 SCT020 BKN250 23/22 A3002 RMK AO2 SLP164 SCT020 V BKN T02280217 $=
31/08/2016 08:51->METAR KJFK 310851Z 22003KT 10SM SCT008 SCT028 SCT250 23/22 A3002 RMK AO2 SLP166 T02280217 58009 $=
31/08/2016 07:51->METAR KJFK 310751Z 00000KT 10SM FEW008 SCT250 23/22 A3003 RMK AO2 SLP168 T02280217 $=
31/08/2016 06:51->METAR KJFK 310651Z 20008KT 10SM BKN013 BKN250 24/22 A3005 RMK AO2 SLP175 T02330217 $=
31/08/2016 05:51->METAR KJFK 310551Z 19007KT 10SM SCT013 BKN250 24/21 A3005 RMK AO2 SLP176 SCT013 V BKN T02330211 58006 $=
31/08/2016 04:51->METAR KJFK 310451Z 21004KT 10SM SCT013 BKN250 24/22 A3006 RMK AO2 SLP178 SCT013 V BKN T02390222 $=
31/08/2016 03:51->METAR KJFK 310351Z 19007KT 10SM FEW011 FEW045 BKN250 24/22 A3006 RMK AO2 SLP180 T02390217 $=
31/08/2016 02:51->METAR KJFK 310251Z 18007KT 10SM FEW012 FEW050 BKN250 24/22 A3007 RMK AO2 SLP182 T02390222 51005 $=
31/08/2016 01:51->METAR KJFK 310151Z 18008KT 10SM FEW015 BKN250 24/22 A3006 RMK AO2 SLP180 T02440222 $=
31/08/2016 00:51->METAR KJFK 310051Z 17007KT 10SM FEW050 BKN250 25/23 A3006 RMK AO2 SLP179 T02440228 $=
30/08/2016 23:51->METAR KJFK 302351Z 15009KT 10SM FEW050 BKN250 25/22 A3005 RMK AO2 SLP177 T02500222 56006 $=
30/08/2016 22:51->METAR KJFK 302251Z 17012KT 10SM FEW050 BKN250 26/22 A3006 RMK AO2 SLP178 T02560222 $=
30/08/2016 21:51->METAR KJFK 302151Z 15009KT 10SM FEW050 SCT260 26/21 A3007 RMK AO2 SLP181 T02610211 $=
30/08/2016 20:51->METAR KJFK 302051Z COR 17009KT 10SM FEW050 SCT260 26/19 A3007 RMK AO2 SLP183 T02670189 56022 $=
30/08/2016 19:51->METAR KJFK 301951Z 18010KT 10SM FEW050 SCT260 26/18 A3009 RMK AO2 SLP188 T02610178 $=
30/08/2016 18:51->METAR KJFK 301851Z 18006KT 10SM FEW048 SCT260 27/19 A3011 RMK AO2 SLP195 T02720183 $=
30/08/2016 17:51->METAR KJFK 301751Z 21008KT 10SM FEW048 SCT280 28/18 A3014 RMK AO2 SLP204 T02780183 56014 $=
30/08/2016 16:51->METAR KJFK 301651Z 14007KT 10SM FEW046 FEW210 SCT280 28/18 A3015 RMK AO2 SLP208 T02780178 $=
30/08/2016 15:51->METAR KJFK 301551Z 17006KT 10SM FEW044 SCT260 27/18 A3016 RMK AO2 SLP213 T02670178 $=
30/08/2016 14:51->METAR KJFK 301451Z 10003KT 10SM FEW041 BKN260 26/17 A3018 RMK AO2 SLP218 T02610172 50002 $=
30/08/2016 13:51->METAR KJFK 301351Z 12006KT 10SM FEW038 FEW080 BKN260 26/17 A3018 RMK AO2 SLP219 T02560167 $=
30/08/2016 12:51->METAR KJFK 301251Z 07006KT 10SM FEW080 SCT260 24/16 A3018=
30/08/2016 11:51->METAR KJFK 301151Z 07009KT 10SM FEW050 FEW080 SCT260 22/16 A3017 RMK AO2 SLP216 T02220156 50005 $=
30/08/2016 10:51->METAR KJFK 301051Z 07008KT 10SM FEW060 FEW270 22/16 A3017 RMK AO2 SLP216 T02170156 $=
30/08/2016 09:51->METAR KJFK 300951Z 05009KT 10SM FEW060 22/16 A3016 RMK AO2 SLP213 T02220167 $=
30/08/2016 08:51->METAR KJFK 300851Z 04008KT 10SM SCT060 SCT250 22/16 A3015 RMK AO2 SLP211 T02220161 53005 $=
30/08/2016 07:51->METAR KJFK 300751Z 04009KT 10SM FEW250 22/16 A3014 RMK AO2 SLP207 T02220161 CHINO W $=
30/08/2016 06:51->METAR KJFK 300651Z 04008KT 10SM FEW250 23/16 A3014 RMK AO2 SLP206 T02280156 CHINO W $=
30/08/2016 05:51->METAR KJFK 300551Z 03007KT 10SM FEW250 23/16 A3014 RMK AO2 SLP206 T02330156 50005 $=
30/08/2016 04:51->METAR KJFK 300451Z 05006KT 10SM CLR 23/17 A3015 RMK AO2 SLP208 T02280167 $=
30/08/2016 03:51->METAR KJFK 300351Z 03008KT 10SM CLR 24/16 A3013 RMK AO2 SLP203 T02390156 $=
30/08/2016 02:51->METAR KJFK 300251Z 02012KT 10SM FEW250 26/15 A3012 RMK AO2 SLP201 T02560150 50013 CHINO W $=
30/08/2016 01:51->METAR KJFK 300151Z 04008KT 10SM FEW250 27/16 A3013=
30/08/2016 00:51->METAR KJFK 300051Z 01010KT 10SM FEW065 FEW250 28/16 A3011 RMK AO2 SLP195 T02830161 $=
29/08/2016 23:51->METAR KJFK 292351Z 02010G14KT 10SM FEW065 FEW250 29/15 A3009 RMK AO2 SLP188 T02890156 53010 $=
29/08/2016 22:51->METAR KJFK 292251Z 01010KT 10SM FEW065 FEW250 31/15 A3007 RMK AO2 SLP183 T03060144 $=
29/08/2016 21:51->METAR KJFK 292151Z 35012G21KT 10SM FEW065 FEW250 32/15 A3006 RMK AO2 SLP180 T03170150 $=
29/08/2016 20:51->METAR KJFK 292051Z 35012G21KT 10SM FEW065 SCT250 32/15 A3006 RMK AO2 SLP177 T03220150 55007 $=
29/08/2016 19:51->METAR KJFK 291951Z 28008KT 10SM FEW065 SCT250 33/14 A3005 RMK AO2 SLP177 T03280144 $=
29/08/2016 18:51->METAR KJFK 291851Z 35011G20KT 10SM FEW065 SCT250 34/15 A3006 RMK AO2 SLP180 T03440144 $=
29/08/2016 17:51->METAR KJFK 291751Z 35007KT 10SM FEW060 FEW250 32/18 A3008 RMK AO2 SLP184 T03220178 58011 $=
29/08/2016 16:51->METAR KJFK 291651Z 01009G17KT 10SM FEW055 SCT250 31/18 A3010 RMK AO2 SLP191 T03110183 $=
29/08/2016 15:51->METAR KJFK 291551Z 35005KT 10SM FEW047 SCT250 31/19 A3010 RMK AO2 SLP191 T03060194 $=
29/08/2016 14:51->METAR KJFK 291451Z 33011KT 10SM FEW042 FEW080 SCT250 29/20 A3011 RMK AO2 SLP195 T02940200 58006 $=
29/08/2016 13:51->METAR KJFK 291351Z 33006KT 10SM FEW080 FEW150 BKN250 28/20 A3011 RMK AO2 SLP197 T02780200 $=
29/08/2016 12:51->METAR KJFK 291251Z 27009KT 10SM FEW055 FEW080 SCT160 BKN250 26/19 A3012 RMK AO2 SLP200 T02560194 $=
29/08/2016 11:51->METAR KJFK 291151Z 26010KT 10SM FEW050 SCT080 BKN250 24/20 A3013 RMK AO2 SLP201 T02440200 52001 $=
29/08/2016 10:51->METAR KJFK 291051Z 25007KT 10SM FEW050 FEW095 SCT160 BKN250 23/20 A3013=
29/08/2016 09:51->METAR KJFK 290951Z 23006KT 10SM FEW075 SCT250 22/20 A3012 RMK AO2 SLP200 T02220200 $=
29/08/2016 08:51->METAR KJFK 290851Z 24007KT 10SM BKN075 BKN250 23/21 A3012 RMK AO2 SLP200 T02330211 58012 $=
29/08/2016 07:51->METAR KJFK 290751Z 24007KT 10SM BKN065 OVC250 23/21 A3014 RMK AO2 SLP205 T02330211 $=
29/08/2016 06:51->METAR KJFK 290651Z 23009KT 10SM BKN070 BKN250 23/21 A3016 RMK AO2 SLP211 T02330211 $=
29/08/2016 05:51->METAR KJFK 290551Z 23007KT 10SM SCT070 BKN250 23/22 A3016 RMK AO2 SLP212 T02330217 58007 $=
29/08/2016 04:51->METAR KJFK 290451Z 23007KT 10SM BKN250 23/22 A3018 RMK AO2 SLP219 T02330217 CHINO W $=
29/08/2016 03:51->METAR KJFK 290351Z 23009KT 10SM SCT250 24/22 A3019 RMK AO2 SLP223 T02390217 $=
29/08/2016 02:51->METAR KJFK 290251Z 18006KT 10SM FEW250 25/22 A3018 RMK AO2 SLP220 T02440222 53006 CHINO W $=
29/08/2016 01:51->METAR KJFK 290151Z 17007KT 10SM FEW250 26/19 A3017 RMK AO2 SLP215 T02560189 CHINO W $=
29/08/2016 00:51->METAR KJFK 290051Z 16011KT 10SM FEW250 25/19 A3017 RMK AO2 SLP216 T02500183 CHINO W $=
28/08/2016 23:51->METAR KJFK 282351Z 14009KT 10SM FEW060 FEW250 26/17 A3016 RMK AO2 SLP214 T02560172 58010 $=
28/08/2016 22:51->METAR KJFK 282251Z 14009KT 10SM FEW250 27/17 A3018 RMK AO2 SLP218 T02670167 CHINO W $=
28/08/2016 21:51->METAR KJFK 282151Z 15009KT 10SM FEW250 27/16 A3018=
28/08/2016 20:51->METAR KJFK 282051Z 15012KT 10SM FEW060 FEW250 27/15 A3020 RMK AO2 SLP225 T02720150 58020 $=
28/08/2016 19:51->METAR KJFK 281951Z 15010KT 10SM FEW050 FEW250 27/15 A3021 RMK AO2 SLP231 T02720150 $=
28/08/2016 18:51->METAR KJFK 281851Z 17010KT 10SM FEW045 SCT250 27/15 A3024 RMK AO2 SLP239 T02720150 $=
28/08/2016 17:51->METAR KJFK 281751Z 19007KT 10SM FEW040 SCT250 28/16 A3026 RMK AO2 SLP245 T02780156 56008 $=
28/08/2016 16:51->METAR KJFK 281651Z 20005KT 10SM FEW045 SCT250 29/17 A3026 RMK AO2 SLP247 T02830167 $=
28/08/2016 15:51->METAR KJFK 281551Z 19006KT 10SM FEW040 SCT250 28/17 A3027 RMK AO2 SLP250 T02780172 $=
28/08/2016 14:51->METAR KJFK 281451Z 14006KT 10SM FEW030 SCT250 28/19 A3028 RMK AO2 SLP253 T02780194 51003 $=
28/08/2016 13:51->METAR KJFK 281351Z 00000KT 10SM FEW030 FEW250 27/20 A3028 RMK AO2 SLP253 T02670194 $=
28/08/2016 12:51->METAR KJFK 281251Z 00000KT 10SM FEW020 FEW250 25/21 A3028 RMK AO2 SLP252 T02500211 $=
28/08/2016 11:51->METAR KJFK 281151Z 07003KT 10SM FEW025 FEW250 25/21 A3027 RMK AO2 SLP250 T02440206 51014 $=
28/08/2016 10:51->METAR KJFK 281051Z 05005KT 10SM FEW030 FEW250 24/21 A3026=
28/08/2016 09:51->METAR KJFK 280951Z 05005KT 10SM FEW250 23/21 A3025 RMK AO2 SLP243 T02330211 CHINO W $=
28/08/2016 08:51->METAR KJFK 280851Z 08003KT 10SM FEW250 23/20 A3023 RMK AO2 SLP237 T02330194 53002 CHINO W $=
28/08/2016 07:51->METAR KJFK 280751Z COR 10003KT 10SM FEW250 23/19 A3022 RMK AO2 SLP235 T02280189 CHINO W $=
28/08/2016 06:51->METAR KJFK 280651Z 10003KT 10SM FEW250 23/18 A3022 RMK AO2 SLP232 T02330183 CHINO W $=
28/08/2016 05:51->METAR KJFK 280551Z 10003KT 10SM FEW250 24/19 A3022 RMK AO2 SLP234 T02330183 58005 CHINO W $=
28/08/2016 04:51->METAR KJFK 280451Z 00000KT 10SM FEW250 24/18 A3024 RMK AO2 SLP239 T02390183 CHINO W $=
28/08/2016 03:51->METAR KJFK 280351Z 00000KT 10SM SCT250 25/16 A3023=
28/08/2016 02:51->METAR KJFK 280251Z 00000KT 10SM FEW250 26/16 A3024 RMK AO2 SLP239 T02560156 51013 CHINO W $=
28/08/2016 01:51->METAR KJFK 280151Z 12004KT 10SM SCT250 26/15 A3023 RMK AO2 SLP237 T02610150 CHINO W $=
28/08/2016 00:51->METAR KJFK 280051Z 00000KT 10SM SCT250 27/14 A3022 RMK AO2 SLP233 T02670144 CHINO W $=
27/08/2016 23:51->METAR KJFK 272351Z 14004KT 10SM SCT250 27/14 A3020 RMK AO2 SLP227 T02670144 53006 CHINO W $=
27/08/2016 22:51->METAR KJFK 272251Z 15006KT 10SM BKN250 27/15 A3019 RMK AO2 SLP221 T02720150 CHINO W $=
27/08/2016 21:51->METAR KJFK 272151Z 15006KT 10SM BKN250 28/16 A3019 RMK AO2 SLP222 T02780167 CHINO W $=
27/08/2016 20:51->METAR KJFK 272051Z 14009KT 10SM FEW070 BKN250 28/17 A3018 RMK AO2 SLP220 T02780172 56002 $=
27/08/2016 19:51->METAR KJFK 271951Z 13011KT 10SM FEW070 BKN250 29/15 A3018 RMK AO2 SLP220 T02890150 $=
27/08/2016 18:51->METAR KJFK 271851Z 13013G19KT 10SM FEW070 BKN250 29/15 A3019 RMK AO2 SLP221 T02890150 $=
27/08/2016 17:51->METAR KJFK 271751Z 14014G18KT 10SM FEW070 SCT250 31/15 A3019 RMK AO2 SLP222 T03060144 55001 $=
27/08/2016 16:51->METAR KJFK 271651Z 14013G17KT 10SM FEW070 SCT250 31/16 A3018 RMK AO2 SLP221 T03060156 $=
27/08/2016 15:51->METAR KJFK 271551Z 07008KT 10SM FEW070 SCT250 30/15 A3019 RMK AO2 SLP222 T03060156 $=
27/08/2016 14:51->METAR KJFK 271451Z 06007KT 10SM FEW250 29/15 A3019 RMK AO2 SLP223 T02940150 51006 CHINO W $=
27/08/2016 13:51->METAR KJFK 271351Z 05006KT 10SM FEW250 29/17 A3019 RMK AO2 SLP223 T02830167 CHINO W $=
27/08/2016 12:51->METAR KJFK 271251Z 05010KT 10SM FEW250 26/17 A3018=
27/08/2016 11:51->METAR KJFK 271151Z 03011KT 10SM FEW250 24/17 A3017 RMK AO2 SLP217 T02390167 51020 CHINO W $=
27/08/2016 10:51->METAR KJFK 271051Z 02010KT 10SM FEW250 23/17 A3016 RMK AO2 SLP211 T02330167 CHINO W $=
27/08/2016 09:51->METAR KJFK 270951Z 03007KT 10SM FEW250 24/16 A3014 RMK AO2 SLP205 T02390161 CHINO W $=
27/08/2016 08:51->METAR KJFK 270851Z 02007KT 10SM FEW250 24/16 A3011 RMK AO2 SLP197 T02390161 53008 CHINO W $=
27/08/2016 07:51->METAR KJFK 270751Z 05007KT 10SM FEW250 25/16 A3010=
27/08/2016 06:51->METAR KJFK 270651Z 02007KT 10SM FEW250 25/17 A3010=
27/08/2016 05:51->METAR KJFK 270551Z 36009KT 10SM FEW250 26/17 A3009=
27/08/2016 04:51->METAR KJFK 270451Z 36008KT 10SM FEW250 27/18 A3009 RMK AO2 SLP188 T02670178 CHINO W $=
27/08/2016 03:51->METAR KJFK 270351Z 35009KT 10SM FEW250 28/19 A3007 RMK AO2 SLP183 T02780183 CHINO W $=
27/08/2016 02:51->METAR KJFK 270251Z 35010KT 10SM FEW250 28/20 A3006 RMK AO2 SLP178 T02780200 51017 CHINO W $=
27/08/2016 01:51->METAR KJFK 270151Z 34010KT 10SM SCT250 29/20 A3005 RMK AO2 SLP174 T02830206 CHINO W $=
27/08/2016 00:51->METAR KJFK 270051Z 34008KT 10SM SCT250 30/20 A3003 RMK AO2 SLP167 T03000200 CHINO W $=
26/08/2016 23:51->METAR KJFK 262351Z 34011KT 10SM FEW055 SCT250 30/21 A3001 RMK AO2 SLP161 T03000211 53010 $=
26/08/2016 22:51->METAR KJFK 262251Z 36009KT 10SM FEW055 FEW085 SCT250 32/20 A3000 RMK AO2 SLP158 T03170206 $=
26/08/2016 21:51->METAR KJFK 262151Z 01014G20KT 10SM FEW055 FEW085 SCT250 33/21 A2999 RMK AO2 SLP153 T03280211 $=
26/08/2016 20:51->METAR KJFK 262051Z 34014G21KT 10SM FEW055 FEW085 SCT250 33/21 A2998 RMK AO2 SLP151 T03330211 53003 $=
26/08/2016 19:51->METAR KJFK 261951Z 33012G19KT 10SM FEW055 SCT085 SCT250 34/21 A2997 RMK AO2 SLP150 T03330211 $=
26/08/2016 18:51->METAR KJFK 261851Z 36010G16KT 10SM SCT055 SCT085 BKN250 33/21 A2997 RMK AO2 SLP148 T03330211 $=
26/08/2016 17:51->METAR KJFK 261751Z 35014G20KT 10SM SCT055 SCT300 32/20 A2997 RMK AO2 SLP148 T03220200 58006 $=
26/08/2016 16:51->METAR KJFK 261651Z 34015G19KT 10SM SCT045 SCT300 31/22 A2998 RMK AO2 SLP151 FROPA T03110217 $=
26/08/2016 15:51->METAR KJFK 261551Z 24007KT 10SM SCT041 SCT300 30/23 A2998 RMK AO2 SLP153 T03000228 $=
26/08/2016 14:51->METAR KJFK 261451Z 24008KT 10SM FEW037 FEW140 SCT300 29/23 A2999 RMK AO2 SLP154 T02890233 58008 $=
26/08/2016 13:51->METAR KJFK 261351Z 24006KT 10SM FEW035 FEW140 SCT300 27/23 A3000 RMK AO2 SLP157 T02720233 $=
26/08/2016 12:51->METAR KJFK 261251Z 24009KT 10SM FEW022 SCT060 BKN150 BKN290 25/22 A3000=
26/08/2016 11:51->METAR KJFK 261151Z 21007KT 10SM FEW037 SCT050 BKN150 BKN290 24/22 A3001 RMK AO2 SLP162 SCT V BKN CB DSNT S MOV E 7//// T02440217 53007 $=
26/08/2016 10:51->METAR KJFK 261051Z 20007KT 10SM FEW037 FEW070 BKN150 BKN290 24/21 A3000 RMK AO2 SLP159 TCU DSNT SW T02390211 $=
26/08/2016 09:51->METAR KJFK 260951Z 21008KT 10SM SCT070 BKN250 23/21 A3000=
26/08/2016 08:51->METAR KJFK 260851Z 20006KT 10SM FEW070 SCT250 23/21 A2999 RMK AO2 SLP155 T02280206 50000 $=
26/08/2016 07:51->METAR KJFK 260751Z 20007KT 10SM FEW070 SCT250 23/21 A3000 RMK AO2 SLP158 T02330217 $=
26/08/2016 06:51->METAR KJFK 260651Z 19006KT 10SM FEW250 24/22 A3000 RMK AO2 SLP157 T02330217 CHINO W $=
26/08/2016 05:51->METAR KJFK 260551Z 19007KT 10SM FEW250 24/22 A2999 RMK AO2 SLP154 T02390222 58010 CHINO W $=
26/08/2016 04:51->METAR KJFK 260451Z 20006KT 10SM FEW250 24/22 A3001 RMK AO2 SLP160 T02390222 CHINO W $=
26/08/2016 03:51->METAR KJFK 260351Z 20007KT 10SM SCT250 24/22 A3001 RMK AO2 SLP161 T02390222 CHINO W $=
26/08/2016 02:51->METAR KJFK 260251Z 21007KT 10SM SCT250 24/22 A3002 RMK AO2 SLP164 T02440222 50001 $=
26/08/2016 01:51->METAR KJFK 260151Z 21010KT 10SM FEW050 FEW090 BKN250 25/23 A3002 RMK AO2 SLP166 T02440233 $=
26/08/2016 01:00->METAR KJFK NIL=
26/08/2016 00:51->METAR KJFK 260051Z 19014G19KT 10SM SCT050 SCT090 BKN250 25/23 A3002 RMK AO2 SLP165 T02560233 $=
25/08/2016 23:51->METAR KJFK 252351Z 19014G20KT 10SM SCT036 BKN050 BKN095 BKN250 26/23 A3001 RMK AO2 SLP163 6//// T02560233 55004 PNO $=
25/08/2016 22:51->METAR KJFK 252251Z 19017G24KT 10SM BKN042 BKN100 26/23 A3001 RMK AO2 RAB21E42 SLP162 T02560233 PNO $=
25/08/2016 21:51->METAR KJFK 252151Z 18018G24KT 10SM BKN044 BKN180 BKN250 26/23 A3001 RMK AO2 SLP163 T02560228 $=
25/08/2016 20:51->METAR KJFK 252051Z 18019G28KT 10SM SCT047 BKN060 BKN180 BKN250 26/23 A3003 RMK AO2 SLP167 T02560228 56017 $=
25/08/2016 19:51->METAR KJFK 251951Z 17019G26KT 10SM FEW045 SCT100 SCT180 BKN260 26/22 A3004 RMK AO2 SLP170 T02610222 $=
25/08/2016 18:51->METAR KJFK 251851Z 18017G27KT 10SM FEW045 FEW100 FEW140 BKN260 27/21 A3005 RMK AO2 SLP177 T02670217 $=
25/08/2016 17:51->METAR KJFK 251751Z 17017G25KT 10SM FEW045 FEW140 BKN240 BKN310 27/19 A3008 RMK AO2 SLP184 T02720194 58015 $=
25/08/2016 16:51->METAR KJFK 251651Z 18015G22KT 10SM FEW150 SCT240 BKN310 27/19 A3009 RMK AO2 SLP189 T02720189 CHINO W $=
25/08/2016 15:51->METAR KJFK 251551Z 18015G22KT 10SM FEW140 BKN270 27/19 A3011 RMK AO2 SLP197 T02670194 CHINO W $=
25/08/2016 14:51->METAR KJFK 251451Z 19010KT 10SM FEW150 BKN270 26/19 A3012 RMK AO2 SLP199 T02610194 58010 CHINO W $=
25/08/2016 13:51->METAR KJFK 251351Z 17007KT 10SM FEW065 BKN270 25/19 A3013 RMK AO2 SLP202 T02500194 $=
25/08/2016 12:51->METAR KJFK 251251Z 21007KT 10SM FEW065 BKN270 23/19 A3014 RMK AO2 SLP206 T02330189 $=
25/08/2016 11:51->METAR KJFK 251151Z 22009KT 10SM FEW065 FEW170 BKN270 22/19 A3015 RMK AO2 SLP209 T02220194 53004 $=
25/08/2016 10:51->METAR KJFK 251051Z 23007KT 10SM FEW190 BKN270 22/19 A3014 RMK AO2 SLP207 T02170194 CHINO W $=
25/08/2016 09:51->METAR KJFK 250951Z 25010KT 10SM BKN250 21/19 A3014=
25/08/2016 08:51->METAR KJFK 250851Z 25012KT 10SM SCT250 22/19 A3014=
25/08/2016 07:51->METAR KJFK 250751Z 24013G17KT 10SM BKN250 22/19 A3013 RMK AO2 SLP202 T02170194 CHINO W $=
25/08/2016 06:51->METAR KJFK 250651Z 23010KT 10SM BKN250 22/19 A3015 RMK AO2 SLP209 T02170194 CHINO W $=
25/08/2016 05:51->METAR KJFK 250551Z 22012KT 10SM BKN250 22/19 A3016 RMK AO2 SLP212 T02170194 58009 CHINO W $=
25/08/2016 04:51->METAR KJFK 250451Z 22011KT 10SM SCT250 22/20 A3018 RMK AO2 SLP219 T02220194 CHINO W $=
25/08/2016 03:51->METAR KJFK 250351Z 23014G24KT 10SM FEW250 23/20 A3019 RMK AO2 SLP223 T02280200 CHINO W $=
25/08/2016 02:51->METAR KJFK 250251Z 20014G20KT 10SM SCT250 24/21 A3018 RMK AO2 SLP221 T02390206 51002 CHINO W $=
25/08/2016 01:51->METAR KJFK 250151Z 19017G22KT 10SM SCT250 24/22 A3018 RMK AO2 SLP221 T02440217 CHINO W $=
25/08/2016 00:51->METAR KJFK 250051Z 18016G22KT 10SM SCT250 25/21 A3019=
24/08/2016 23:51->METAR KJFK 242351Z 18014G21KT 10SM SCT250 25/21 A3018 RMK AO2 SLP219 T02500217 56005 CHINO W $=
24/08/2016 22:51->METAR KJFK 242251Z 19013G20KT 10SM SCT250 25/20 A3018 RMK AO2 SLP220 T02560206 CHINO W $=
24/08/2016 21:51->METAR KJFK 242151Z 18015KT 10SM SCT250 26/19 A3019 RMK AO2 SLP223 T02610189 CHINO W $=
24/08/2016 20:51->METAR KJFK 242051Z 18017G21KT 10SM FEW050 SCT250 26/19 A3019=
24/08/2016 19:51->METAR KJFK 241951Z 18013KT 10SM FEW050 SCT250 27/19 A3021 RMK AO2 SLP230 T02720183 $=
24/08/2016 18:51->METAR KJFK 241851Z 17013KT 10SM FEW050 SCT250 27/18 A3023 RMK AO2 SLP236 T02670183 $=
24/08/2016 17:51->METAR KJFK 241751Z 18011G16KT 10SM FEW050 FEW250 29/16 A3024 RMK AO2 SLP238 T02940156 58014 $=
24/08/2016 16:51->METAR KJFK 241651Z 21010KT 10SM FEW046 FEW250 28/17 A3026 RMK AO2 SLP245 T02830167 $=
24/08/2016 15:51->METAR KJFK 241551Z 20008KT 10SM FEW040 FEW250 28/18 A3027 RMK AO2 SLP249 T02780178 $=
24/08/2016 14:51->METAR KJFK 241451Z 23005KT 10SM FEW250 27/16 A3028 RMK AO2 SLP252 T02670161 58008 CHINO W $=
24/08/2016 13:51->METAR KJFK 241351Z 27008KT 10SM FEW250 25/17 A3029 RMK AO2 SLP256 T02500167 CHINO W $=
24/08/2016 12:51->METAR KJFK 241251Z 25006KT 10SM FEW250 23/18 A3030=
24/08/2016 11:51->METAR KJFK 241151Z 28005KT 10SM FEW250 21/17 A3030 RMK AO2 SLP260 T02110172 53012 CHINO W $=
24/08/2016 10:51->METAR KJFK 241051Z 26004KT 10SM FEW250 20/17 A3028 RMK AO2 SLP255 T02000172 CHINO W $=
24/08/2016 09:51->METAR KJFK 240951Z 26004KT 10SM CLR 20/17 A3027 RMK AO2 SLP250 T02000172 $=
24/08/2016 08:51->METAR KJFK 240851Z 22003KT 10SM FEW011 19/17 A3027 RMK AO2 SLP249 T01940172 56005 $=
24/08/2016 07:51->METAR KJFK 240751Z 25005KT 10SM CLR 21/18 A3027 RMK AO2 SLP249 T02110178 $=
24/08/2016 06:51->METAR KJFK 240651Z 25004KT 10SM CLR 21/17 A3027 RMK AO2 SLP251 T02110172 $=
24/08/2016 05:51->METAR KJFK 240551Z 23006KT 10SM CLR 21/18 A3028 RMK AO2 SLP253 T02110178 50000 $=
24/08/2016 04:51->METAR KJFK 240451Z 25008KT 10SM CLR 21/17 A3030 RMK AO2 SLP258 T02110172 $=
24/08/2016 03:51->METAR KJFK 240351Z 23009KT 10SM CLR 22/18 A3028 RMK AO2 SLP254 T02170178 $=
24/08/2016 02:51->METAR KJFK 240251Z 22009KT 10SM FEW250 22/18 A3028 RMK AO2 SLP253 T02220178 51009 CHINO W $=
24/08/2016 01:51->METAR KJFK 240151Z COR 21011G16KT 10SM FEW250 23/18 A3027 RMK AO2 SLP251 T02280178 CHINO W $=
24/08/2016 00:51->METAR KJFK 240051Z 20010G17KT 10SM FEW250 23/19 A3026 RMK AO2 SLP247 T02330189 CHINO W $=
23/08/2016 23:51->METAR KJFK 232351Z 20013KT 10SM FEW070 FEW250 23/18 A3025 RMK AO2 SLP244 T02280183 55003 $=
23/08/2016 22:51->METAR KJFK 232251Z 19010KT 10SM FEW070 FEW250 24/16 A3025 RMK AO2 SLP243 T02390161 $=
23/08/2016 21:51->METAR KJFK 232151Z 18011G17KT 10SM FEW070 FEW250 25/14 A3026 RMK AO2 SLP245 T02440144 $=
23/08/2016 20:51->METAR KJFK 232051Z 18011G19KT 10SM FEW070 26/14 A3026 RMK AO2 SLP247 T02560144 56012 $=
23/08/2016 19:51->METAR KJFK 231951Z 19011G18KT 10SM FEW070 26/13 A3027 RMK AO2 SLP248 T02610133 $=
23/08/2016 18:51->METAR KJFK 231851Z 18012G16KT 10SM FEW070 26/13 A3028 RMK AO2 SLP254 T02610128 $=
23/08/2016 17:51->METAR KJFK 231751Z 17013KT 10SM FEW070 26/12 A3030 RMK AO2 SLP259 T02560117 56010 $=
23/08/2016 16:51->METAR KJFK 231651Z 19010KT 10SM FEW070 FEW250 25/09 A3031 RMK AO2 SLP263 T02500089 $=
23/08/2016 15:51->METAR KJFK 231551Z 01007KT 10SM FEW065 FEW250 24/07 A3032 RMK AO2 SLP265 T02440072 $=
23/08/2016 14:51->METAR KJFK 231451Z 35006KT 10SM FEW250 23/07 A3033 RMK AO2 SLP269 T02330072 50005 CHINO W $=
23/08/2016 13:51->METAR KJFK 231351Z 35004KT 10SM FEW250 23/08 A3033 RMK AO2 SLP270 T02280078 CHINO W $=
23/08/2016 12:51->METAR KJFK 231251Z 00000KT 10SM FEW250 21/08 A3032 RMK AO2 SLP267 T02110083 CHINO W $=
23/08/2016 11:51->METAR KJFK 231151Z 00000KT 10SM CLR 19/09 A3031 RMK AO2 SLP264 T01940089 51016 $=
23/08/2016 10:51->METAR KJFK 231051Z 01003KT 10SM CLR 19/10 A3030 RMK AO2 SLP260 T01890100 $=
23/08/2016 09:51->METAR KJFK 230951Z 35005KT 10SM CLR 18/10 A3028 RMK AO2 SLP255 T01830094 $=
23/08/2016 08:51->METAR KJFK 230851Z 35006KT 10SM CLR 18/10 A3027 RMK AO2 SLP249 T01780100 53009 $=
23/08/2016 07:51->METAR KJFK 230751Z COR 01003KT 10SM CLR 19/09 A3025 RMK AO2 SLP244 T01890094 CHINO W $=
23/08/2016 06:51->METAR KJFK 230651Z 00000KT 10SM CLR 19/09 A3025=
23/08/2016 05:51->METAR KJFK 230551Z 02004KT 10SM CLR 18/09 A3024 RMK AO2 SLP239 T01830089 51012 $=
23/08/2016 04:51->METAR KJFK 230451Z 00000KT 10SM CLR 20/08 A3023 RMK AO2 SLP236 T02000078 $=
23/08/2016 03:51->METAR KJFK 230351Z 01006KT 10SM CLR 20/08 A3022 RMK AO2 SLP231 T02060078 $=
23/08/2016 02:51->METAR KJFK 230251Z 01006KT 10SM CLR 21/07 A3020=
23/08/2016 01:51->METAR KJFK 230151Z 10SM CLR 22/08 A3018 RMK AO2 SLP218 T02170078 $=
23/08/2016 00:51->METAR KJFK 230051Z 34016G22KT 10SM CLR 22/08 A3015 RMK AO2 SLP208 T02220078 $=
22/08/2016 23:51->METAR KJFK 222351Z 33016G20KT 10SM FEW060 23/09 A3011 RMK AO2 SLP196 T02330089 53026 $=
22/08/2016 22:51->METAR KJFK 222251Z 31019G27KT 10SM FEW060 24/09 A3008 RMK AO2 SLP184 T02440089 $=
22/08/2016 21:51->METAR KJFK 222151Z 31019G25KT 10SM FEW060 25/10 A3006 RMK AO2 SLP178 T02500100 $=
22/08/2016 20:51->METAR KJFK 222051Z 32014G22KT 10SM FEW060 26/11 A3003 RMK AO2 SLP170 T02610106 53013 $=
22/08/2016 19:51->METAR KJFK 221951Z 33018G25KT 10SM FEW055 27/11 A3001 RMK AO2 SLP161 T02720111 $=
22/08/2016 18:51->METAR KJFK 221851Z 33016G27KT 10SM FEW055 27/11 A3000 RMK AO2 SLP158 T02670111 $=
22/08/2016 17:51->METAR KJFK 221751Z 34019G29KT 10SM FEW055 26/12 A3000 RMK AO2 SLP157 T02560122 53002 $=
22/08/2016 16:51->METAR KJFK 221651Z 33015G27KT 10SM FEW050 25/12 A2999 RMK AO2 SLP155 T02500122 $=
22/08/2016 15:51->METAR KJFK 221551Z 34019G25KT 10SM FEW047 25/13 A2999 RMK AO2 SLP157 T02500128 $=
22/08/2016 14:51->METAR KJFK 221451Z 34016G27KT 10SM FEW040 23/13 A2999 RMK AO2 SLP154 T02330133 51022 $=
22/08/2016 13:51->METAR KJFK 221351Z 34019KT 10SM FEW033 23/15 A2997 RMK AO2 SLP149 T02280150 $=
22/08/2016 12:51->METAR KJFK 221251Z 33020G27KT 10SM FEW030 FEW250 22/16 A2994=
22/08/2016 11:51->METAR KJFK 221151Z 34012KT 10SM FEW027 FEW250 22/16 A2992 RMK AO2 SLP132 7//// T02170161 51025 $=
22/08/2016 10:51->METAR KJFK 221051Z 33012KT 10SM FEW250 21/17 A2990 RMK AO2 SLP125 T02110172 CHINO W $=
22/08/2016 09:51->METAR KJFK 220951Z 32012KT 10SM FEW075 FEW250 22/17 A2987=
22/08/2016 08:51->METAR KJFK 220851Z 32011G19KT 10SM FEW075 22/16 A2985 RMK AO2 SLP108 T02170161 51014 $=
22/08/2016 07:51->METAR KJFK 220751Z 34013G20KT 10SM BKN075 22/17 A2984 RMK AO2 SLP105 T02220172 $=
22/08/2016 06:51->METAR KJFK 220651Z 34012G17KT 10SM FEW110 23/18 A2983=
22/08/2016 05:51->METAR KJFK 220551Z 32012KT 10SM FEW110 24/20 A2981 RMK AO2 SLP094 6//// T02390200 53004 $=
22/08/2016 04:51->METAR KJFK 220451Z 32011KT 10SM BKN110 24/21 A2981=
22/08/2016 03:51->METAR KJFK 220351Z 24013G18KT 10SM FEW010 SCT038 OVC080 25/23 A2980 RMK AO2 RAB32E47 SLP090 T02560233 PNO $=
22/08/2016 02:51->METAR KJFK 220251Z 25010KT 10SM FEW015 SCT038 OVC065 26/23 A2980 RMK AO2 SLP090 6//// T02560228 51004 PNO $=
22/08/2016 01:51->METAR KJFK 220151Z 20009KT 10SM SCT019 BKN030 BKN050 OVC200 26/23 A2980 RMK AO2 RAE45 SLP090 T02560233 PNO $=
22/08/2016 00:51->METAR KJFK 220051Z 20017G23KT 10SM -RA SCT018 BKN037 OVC045 26/23 A2980=
21/08/2016 23:51->METAR KJFK 212351Z 18014G22KT 10SM -RA SCT019 SCT030 OVC047 25/23 A2978 RMK AO2 SLP085 6//// T02560233 58002 PNO $=
21/08/2016 22:51->METAR KJFK 212251Z 17010G16KT 9SM -RA SCT027 BKN085 OVC110 27/23 A2980 RMK AO2 SLP089 T02670233 PNO $=
21/08/2016 21:51->METAR KJFK 212151Z 18013G19KT 10SM -RA FEW020 FEW050 BKN090 BKN130 BKN250 27/23 A2980 RMK AO2 RAB36 SLP090 T02720233 PNO $=
21/08/2016 20:51->METAR KJFK 212051Z 15014G20KT 10SM FEW020 FEW045 SCT100 BKN170 BKN250 27/24 A2979 RMK AO2 SLP087 T02720244 58016 $=
21/08/2016 19:51->METAR KJFK 211951Z 16013G23KT 10SM FEW018 FEW044 SCT100 BKN220 28/25 A2980 RMK AO2 SLP092 T02830250 $=
21/08/2016 18:51->METAR KJFK 211851Z 16016G23KT 10SM FEW015 FEW043 SCT110 SCT200 BKN250 29/24 A2982 RMK AO2 SLP099 T02890239 $=
21/08/2016 17:51->METAR KJFK 211751Z 16014G21KT 10SM FEW016 FEW040 SCT100 SCT200 BKN250 29/25 A2984 RMK AO2 SLP103 T02890250 58017 $=
21/08/2016 16:51->METAR KJFK 211651Z 18013G20KT 10SM FEW020 SCT035 SCT100 BKN200 BKN250 29/24 A2986 RMK AO2 SLP110 T02890244 $=
21/08/2016 15:51->METAR KJFK 211551Z 17008G18KT 10SM FEW020 SCT035 BKN250 29/25 A2987 RMK AO2 SLP116 T02890244 $=
21/08/2016 14:51->METAR KJFK 211451Z 12011G16KT 10SM FEW015 SCT035 SCT090 BKN250 28/24 A2989 RMK AO2 SLP120 TCU DSNT E T02830244 58000 $=
21/08/2016 13:51->METAR KJFK 211351Z 14010KT 10SM FEW015 SCT035TCU SCT090 SCT250 28/24 A2989 RMK AO2 SLP120 TCU OHD-E AND DSNT SE-S T02780239 $=
21/08/2016 12:51->METAR KJFK 211251Z 15011KT 10SM FEW015 FEW035 SCT090 SCT250 27/24 A2989 RMK AO2 SLP121 TCU DSNT SE-SW T02670239 $=
21/08/2016 11:51->METAR KJFK 211151Z 13009KT 10SM FEW022 SCT035 BKN090 BKN250 26/23 A2989 RMK AO2 SLP120 TCU DSNT SE VCSH SW 7//// T02610228 53003 $=
21/08/2016 10:51->METAR KJFK 211051Z 12008KT 10SM FEW020 SCT035 SCT070 BKN250 25/23 A2988=
21/08/2016 09:51->METAR KJFK 210951Z 12008KT 10SM FEW019 SCT035TCU SCT070 SCT250 25/23 A2988=
21/08/2016 08:51->METAR KJFK 210851Z 12008KT 10SM SCT018 SCT033 SCT090 SCT250 25/22 A2988 RMK AO2 SLP117 T02500222 56012 $=
21/08/2016 07:51->METAR KJFK 210751Z 13007KT 10SM SCT018 SCT032 SCT095 SCT250 25/22 A2989=
21/08/2016 06:51->METAR KJFK 210651Z 12007KT 10SM BKN018 BKN032 BKN095 26/22 A2990=
21/08/2016 05:51->METAR KJFK 210551Z 11007KT 10SM SCT022 SCT035 SCT047 26/22 A2991 RMK AO2 SLP129 T02560222 58005 $=
21/08/2016 04:51->METAR KJFK 210451Z 11006KT 10SM FEW022 SCT037 SCT046 25/22 A2993 RMK AO2 SLP133 T02560222 $=
21/08/2016 03:51->METAR KJFK 210351Z 12006KT 10SM SCT026 26/22 A2993=
21/08/2016 02:51->METAR KJFK 210251Z 13007KT 10SM SCT027 26/22 A2993 RMK AO2 SLP135 T02610217 50005 $=
21/08/2016 01:51->METAR KJFK 210151Z 13007KT 10SM FEW026 24/19 A2993=
21/08/2016 00:51->METAR KJFK 210051Z 13008KT 10SM FEW025 SCT060 SCT260 24/19 A2993=
20/08/2016 23:51->METAR KJFK 202351Z 14006KT 10SM FEW065 FEW130 SCT260 24/19 A2991 RMK AO2 SLP129 6//// T02390194 53001 $=
20/08/2016 22:51->METAR KJFK 202251Z 14012KT 10SM FEW065 FEW130 SCT260 23/19 A2991 RMK AO2 SLP128 T02330194 $=
20/08/2016 21:51->METAR KJFK 202151Z 15014KT 10SM FEW026 FEW065 SCT130 SCT220 23/19 A2991 RMK AO2 SLP129 T02330189 PNO $=
20/08/2016 20:51->METAR KJFK 202051Z 14014KT 10SM FEW020 SCT050 SCT130 BKN220 25/21 A2991 RMK AO2 RAE01 SLP129 6//// T02500211 58008 PNO $=
20/08/2016 19:51->METAR KJFK 201951Z 09009KT 10SM -RA FEW016 SCT030 BKN043 BKN130 27/23 A2993 RMK AO2 RAE09B36 SLP134 TCU DSNT W T02670233 PNO $=
20/08/2016 18:51->METAR KJFK 201851Z 03009KT 10SM -RA SCT018 BKN037CB BKN065 26/22 A2994 RMK AO2 RAB49 SLP138 CB N-E MOV NW T02610217 PNO $=
20/08/2016 17:51->METAR KJFK 201751Z 00000KT 10SM FEW030 BKN050CB BKN075 31/24 A2993 RMK AO2 SLP136 CB N-NE MOV SE TCU DSNT SE AND DSNT W T03060239 56005 $=
20/08/2016 16:51->METAR KJFK 201651Z 17009KT 10SM R04R/4000VP6000FT FEW020 BKN050 BKN075 30/24 A2994 RMK AO2 SLP138 OCNL LTGIC DSNT N-NE CB DSNT N-NE TCU DSNT SE T02940233 $=
20/08/2016 15:51->METAR KJFK 201551Z 15011KT 10SM FEW021 BKN045TCU BKN075 30/23 A2994 RMK AO2 SLP139 TCU OHD AND DSNT SE-S T02940233 $=
20/08/2016 14:51->METAR KJFK 201451Z 00000KT 10SM BKN022 BKN045TCU BKN075 28/23 A2995 RMK AO2 SLP142 BKN022 V SCT TCU OHD-S T02780233 53001 $=
20/08/2016 13:51->METAR KJFK 201351Z 11006KT 10SM SCT021 SCT045 BKN075 28/23 A2995=
20/08/2016 12:51->METAR KJFK 201251Z 06006KT 10SM FEW045 FEW075 FEW200 SCT250 26/23 A2994 RMK AO2 SLP139 T02670228 $=
20/08/2016 11:51->METAR KJFK 201151Z 06004KT 10SM FEW045 BKN075 BKN200 BKN250 26/22 A2995 RMK AO2 SLP140 TCU DSNT SE-S 7//// T02560222 51004 $=
20/08/2016 10:51->METAR KJFK 201051Z 06004KT 10SM FEW045 FEW075 SCT200 SCT250 24/22 A2994=
20/08/2016 09:51->METAR KJFK 200951Z 09004KT 10SM FEW045 BKN075 24/22 A2994 RMK AO2 SLP138 TCU DSNT SE T02390222 $=
20/08/2016 08:51->METAR KJFK 200851Z 00000KT 10SM SCT070 25/22 A2993 RMK AO2 SLP136 T02440222 55002 $=
20/08/2016 07:51->METAR KJFK 200751Z 09003KT 10SM FEW040 FEW095 25/23 A2993=
20/08/2016 06:51->METAR KJFK 200651Z 08005KT 10SM FEW040 FEW090 25/23 A2994=
20/08/2016 05:51->METAR KJFK 200551Z 08005KT 10SM FEW040 SCT090 26/23 A2994 RMK AO2 SLP137 6//// T02610233 50001 $=
20/08/2016 04:51->METAR KJFK 200451Z 10004KT 10SM FEW040 BKN095 26/23 A2994 RMK AO2 SLP138 T02560233 $=
20/08/2016 03:51->METAR KJFK 200351Z 00000KT 10SM FEW035 FEW065 BKN090 26/23 A2994=
20/08/2016 02:51->METAR KJFK 200251Z 00000KT 10SM SCT070 BKN100 25/23 A2994 RMK AO2 SLP137 6//// T02500233 50008 PNO $=
20/08/2016 01:51->METAR KJFK 200151Z 17003KT 10SM FEW065 SCT090 BKN120 26/23 A2994 RMK AO2 RAE22 SLP138 T02560233 PNO $=
20/08/2016 00:51->METAR KJFK 200051Z 35010KT 10SM -RA FEW043 SCT055 OVC100 26/23 A2993 RMK AO2 RAB43 SLP135 T02560233 PNO $=
19/08/2016 23:51->METAR KJFK 192351Z 14008KT 10SM BKN050TCU 27/24 A2991 RMK AO2 SLP128 TCU OHD AND W-NW TCU DSNT E VCSH W AND NW-N T02670239 53002 $=
19/08/2016 22:51->METAR KJFK 192251Z 15008KT 10SM SCT050 SCT070 SCT250 27/24 A2991 RMK AO2 SLP127 T02720239 $=
19/08/2016 21:51->METAR KJFK 192151Z 13007KT 10SM SCT050 SCT085 SCT250 29/23 A2990 RMK AO2 SLP124 T02830233 $=
19/08/2016 20:51->METAR KJFK 192051Z 13010KT 10SM SCT050 SCT085 SCT250 29/23 A2990 RMK AO2 SLP126 T02940233 56009 $=
19/08/2016 19:51->METAR KJFK 191951Z 18009KT 10SM SCT045 SCT095 SCT250 29/23 A2991 RMK AO2 SLP128 T02940233 $=
19/08/2016 18:51->METAR KJFK 191851Z 19009KT 10SM SCT045 SCT095 SCT250 30/23 A2992 RMK AO2 SLP132 T03000233 $=
19/08/2016 17:51->METAR KJFK 191751Z 18009KT 10SM SCT045 SCT085 SCT250 31/22 A2993 RMK AO2 SLP135 T03060217 56008 $=
19/08/2016 16:51->METAR KJFK 191651Z 00000KT 10SM FEW043 SCT085 SCT250 29/21 A2994 RMK AO2 SLP137 T02940211 $=
19/08/2016 15:51->METAR KJFK 191551Z COR 05007KT 10SM FEW039 BKN080 BKN250 29/21 A2995 RMK AO2 SLP141 T02890206 $=
19/08/2016 14:51->METAR KJFK 191451Z 02004KT 10SM FEW039 FEW080 SCT140 SCT250 28/20 A2996 RMK AO2 SLP143 T02780200 53000 $=
19/08/2016 13:51->METAR KJFK 191351Z 36013G18KT 10SM FEW037 FEW110 SCT170 BKN250 26/21 A2995 RMK AO2 SLP142 T02610206 $=
19/08/2016 12:51->METAR KJFK 191251Z 36013KT 10SM FEW032 SCT110 SCT250 26/20 A2995 RMK AO2 SLP143 T02560200 $=
19/08/2016 11:51->METAR KJFK 191151Z 01012KT 10SM SCT110 BKN270 24/21 A2995 RMK AO2 SLP143 T02440206 53007 $=
19/08/2016 10:51->METAR KJFK 191051Z 36010KT 10SM SCT110 BKN270 24/21 A2995=
19/08/2016 09:51->METAR KJFK 190951Z 02004KT 10SM SCT110 24/22 A2994 RMK AO2 SLP137 T02440217 $=
19/08/2016 08:51->METAR KJFK 190851Z 36005KT 10SM FEW100 24/22 A2993 RMK AO2 SLP136 T02440222 55001 $=
19/08/2016 07:51->METAR KJFK 190751Z 29005KT 10SM FEW100 24/22 A2992 RMK AO2 SLP133 T02440222 $=
19/08/2016 06:51->METAR KJFK 190651Z 24005KT 10SM FEW050 SCT100 24/22 A2994 RMK AO2 SLP137 T02440222 $=
19/08/2016 05:51->METAR KJFK 190551Z 22004KT 10SM FEW050 SCT100 24/22 A2994 RMK AO2 SLP137 T02440222 58006 $=
19/08/2016 04:51->METAR KJFK 190451Z 23004KT 10SM FEW050 SCT080 25/23 A2995 RMK AO2 SLP142 T02440228 $=
19/08/2016 03:51->METAR KJFK 190351Z 19006KT 10SM SCT049 25/22 A2995 RMK AO2 SLP142 T02440222 $=
19/08/2016 02:51->METAR KJFK 190251Z 18007KT 10SM SCT050 25/22 A2996 RMK AO2 SLP144 T02440222 50008 $=
19/08/2016 01:51->METAR KJFK 190151Z 19006KT 10SM FEW050 SCT130 SCT250 26/24 A2996 RMK AO2 SLP145 T02560233 $=
19/08/2016 00:51->METAR KJFK 190051Z 18009KT 10SM FEW050 SCT090 SCT250 26/23 A2995=
18/08/2016 23:51->METAR KJFK 182351Z 18008KT 10SM FEW050 SCT250 26/23 A2993 RMK AO2 SLP136 T02670233 55001 $=
18/08/2016 22:51->METAR KJFK 182251Z 18007KT 10SM SCT050 SCT250 27/23 A2993 RMK AO2 SLP135 T02670233 $=
18/08/2016 21:51->METAR KJFK 182151Z 20006KT 10SM SCT045 SCT250 28/23 A2993 RMK AO2 SLP136 T02780228 $=
18/08/2016 20:51->METAR KJFK 182051Z 19004KT 10SM SCT032 SCT060 SCT250 28/22 A2994 RMK AO2 SLP137 T02780222 58016 $=
18/08/2016 19:51->METAR KJFK 181951Z COR 20006KT 10SM SCT032 BKN055 BKN250 29/21 A2995 RMK AO2 SLP143 T02830206 $=
18/08/2016 18:51->METAR KJFK 181851Z 22005KT 10SM FEW028 BKN041 30/21 A2997=
18/08/2016 17:51->METAR KJFK 181751Z 00000KT 10SM FEW028TCU BKN042 BKN090 27/21 A2998 RMK AO2 SLP153 TCU NE T02670206 58012 $=
18/08/2016 16:51->METAR KJFK 181651Z 00000KT 10SM FEW027 BKN043 BKN090 26/20 A2999 RMK AO2 SLP157 T02610200 $=
18/08/2016 15:51->METAR KJFK 181551Z 00000KT 10SM FEW023 BKN050 BKN080 OVC140 26/21 A3001 RMK AO2 SLP162 T02560206 $=
18/08/2016 14:51->METAR KJFK 181451Z 14006KT 10SM SCT023 BKN050 OVC140 26/22 A3002 RMK AO2 SLP164 T02560217 55002 $=
18/08/2016 13:51->METAR KJFK 181351Z 00000KT 10SM FEW025 BKN055 BKN090 BKN140 25/21 A3001 RMK AO2 SLP163 T02500206 $=
18/08/2016 12:51->METAR KJFK 181251Z 04003KT 10SM FEW025 SCT065 BKN080 BKN140 25/21 A3002=
18/08/2016 11:51->METAR KJFK 181151Z 04006KT 10SM FEW022 BKN065 BKN140 BKN230 24/21 A3002 RMK AO2 SLP167 VCSH S AND W 6//// 7//// T02440206 53006 $=
18/08/2016 10:51->METAR KJFK 181051Z 04005KT 10SM FEW022 BKN075 BKN120 BKN230 24/20 A3001 RMK AO2 SLP162 VCSH SW T02440200 $=
18/08/2016 09:51->METAR KJFK 180951Z 08004KT 10SM FEW035 OVC080 25/18 A3001 RMK AO2 SLP161 T02440178 PNO $=
18/08/2016 08:51->METAR KJFK 180851Z 00000KT 10SM SCT033 OVC080 24/18 A3001 RMK AO2 RAE37 SLP160 6//// T02390178 58008 PNO $=
18/08/2016 07:51->METAR KJFK 180751Z 00000KT 10SM -RA SCT032 OVC095 23/20 A3002=
18/08/2016 06:51->METAR KJFK 180651Z 13006KT 10SM FEW030 BKN090 OVC120 26/20 A3002 RMK AO2 SLP167 T02560200 $=
18/08/2016 05:51->METAR KJFK 180551Z 08003KT 10SM FEW033 OVC090 26/20 A3003 RMK AO2 SLP169 T02610200 55002 $=
18/08/2016 04:51->METAR KJFK 180451Z 05004KT 10SM BKN120 OVC210 26/20 A3003=
18/08/2016 03:51->METAR KJFK 180351Z 04006KT 10SM OVC130 27/18 A3002 RMK AO2 SLP166 T02720178 $=
18/08/2016 02:51->METAR KJFK 180251Z 34008KT 10SM OVC120 27/19 A3004 RMK AO2 SLP171 T02670189 50010 $=
18/08/2016 01:51->METAR KJFK 180151Z 34009KT 10SM BKN120 OVC250 27/20 A3004 RMK AO2 SLP174 T02720200 $=
18/08/2016 00:51->METAR KJFK 180051Z 32008KT 10SM SCT110 BKN140 BKN250 27/19 A3003 RMK AO2 SLP167 T02720183 $=
17/08/2016 23:51->METAR KJFK 172351Z 30010KT 10SM SCT150 BKN250 28/18 A3001 RMK AO2 SLP161 T02780183 51005 CHINO W $=
17/08/2016 22:51->METAR KJFK 172251Z 31014KT 10SM SCT180 BKN250 29/18 A3000 RMK AO2 SLP160 T02830183 CHINO W $=
17/08/2016 21:51->METAR KJFK 172151Z 32013KT 10SM SCT180 BKN250 29/17 A3000 RMK AO2 SLP157 T02890172 CHINO W $=
17/08/2016 20:51->METAR KJFK 172051Z 33010G14KT 10SM FEW050 SCT200 BKN250 31/17 A2999 RMK AO2 SLP155 T03060167 56010 $=
17/08/2016 19:51->METAR KJFK 171951Z 31012G17KT 10SM FEW050 SCT200 BKN250 30/17 A3000 RMK AO2 SLP157 T03060167 $=
17/08/2016 18:51->METAR KJFK 171851Z 32014G20KT 10SM FEW050 SCT180 BKN250 30/17 A3001=
17/08/2016 17:51->METAR KJFK 171751Z 32017G21KT 10SM FEW050 SCT180 BKN250 29/16 A3002 RMK AO2 SLP165 T02890161 56002 $=
17/08/2016 16:51->METAR KJFK 171651Z 28012G25KT 10SM FEW050 SCT180 SCT250 29/17 A3002 RMK AO2 SLP165 T02890167 $=
17/08/2016 15:51->METAR KJFK 171551Z 27015KT 10SM FEW043 SCT200 SCT250 28/18 A3002=
17/08/2016 14:51->METAR KJFK 171451Z 30014G22KT 10SM FEW041 SCT200 SCT250 28/19 A3003 RMK AO2 SLP167 T02830189 53010 $=
17/08/2016 13:51->METAR KJFK 171351Z 30017G24KT 10SM SCT032 BKN210 28/21 A3001 RMK AO2 SLP163 T02780211 $=
17/08/2016 12:51->METAR KJFK 171251Z 29012G22KT 10SM SCT026 BKN220 27/22 A3000 RMK AO2 SLP160 T02670217 $=
17/08/2016 11:51->METAR KJFK 171151Z 28014G21KT 10SM FEW020 BKN210 26/22 A3000 RMK AO2 SLP157 6//// 7//// T02610222 51007 $=
17/08/2016 10:51->METAR KJFK 171051Z 27016G22KT 10SM FEW018 FEW130 BKN190 BKN250 26/22 A2999 RMK AO2 SLP155 T02560222 $=
17/08/2016 09:51->METAR KJFK 170951Z 27014G19KT 10SM FEW015 SCT130 BKN210 25/22 A2999 RMK AO2 SLP154 T02500222 $=
17/08/2016 08:51->METAR KJFK 170851Z 27015G20KT 10SM OVC210 26/23 A2998 RMK AO2 SLP150 6//// T02560233 55007 $=
17/08/2016 07:51->METAR KJFK 170751Z 25013KT 10SM FEW090 OVC240 26/23 A2997 RMK AO2 SLP148 T02610233 $=
17/08/2016 06:51->METAR KJFK 170651Z 24018G22KT 10SM FEW038 FEW090 BKN150 OVC250 26/23 A2999 RMK AO2 TSE11 SLP154 OCNL LTGIC DSNT SE-S CB DSNT SE-S MOV E T02560233 PNO $=
17/08/2016 05:51->METAR KJFK 170551Z 26019G23KT 10SM TS FEW011 BKN044CB BKN110 OVC200 28/25 A3000 RMK AO2 RAB30E48 TSB36 SLP157 FRQ LTGIC N AND OCNL LTGIC SW TS N AND SW MOV E 6//// T02780250 55009 PNO $=
17/08/2016 04:51->METAR KJFK 170451Z 21015G21KT 10SM FEW050 SCT150 BKN250 28/25 A2999 RMK AO2 SLP156 FRQ LTGICCC DSNT SW-NW CB DSNT SW-NW MOV E T02780250 $=
17/08/2016 03:51->METAR KJFK 170351Z 20013KT 10SM BKN250 28/25 A3002 RMK AO2 SLP164 T02780250 CHINO W $=
17/08/2016 02:51->METAR KJFK 170251Z 21014G20KT 10SM BKN250 28/25 A3002 RMK AO2 SLP166 T02780250 51000 CHINO W $=
17/08/2016 01:51->METAR KJFK 170151Z 20015G20KT 10SM FEW036 SCT200 BKN250 28/24 A3002 RMK AO2 TSE14 SLP164 T02780244 $=
17/08/2016 00:51->METAR KJFK 170051Z 19017G24KT 10SM TS SCT036CB SCT200 BKN250 28/23 A3003 RMK AO2 TSB24 SLP168 FRQ LTGICCA NW-N TS NW-N MOV NE T02780233 $=
16/08/2016 23:51->METAR KJFK 162351Z 19018G26KT 10SM SCT036 SCT050 SCT150 BKN250 28/23 A3002 RMK AO2 PRESFR SLP166 FRQ LTGIC DSNT NW CB DSNT NW TCU DSNT W-NW T02780233 56019 $=
16/08/2016 22:51->METAR KJFK 162251Z 18019G25KT 10SM FEW036 FEW050 BKN250 28/24 A3003 RMK AO2 SLP169 TCU DSNT SW T02780244 $=
16/08/2016 21:51->METAR KJFK 162151Z 19019G31KT 10SM FEW009 FEW036 FEW050 SCT250 29/24 A3006 RMK AO2 SLP179 T02890244 $=
16/08/2016 20:51->METAR KJFK 162051Z 18020G28KT 10SM FEW009 SCT037 SCT050 BKN250 28/25 A3008 RMK AO2 SLP184 T02780250 56026 $=
16/08/2016 19:51->METAR KJFK 161951Z 17021G32KT 10SM SCT036 SCT050 SCT200 BKN250 30/25 A3009 RMK AO2 SLP190 T02940256 $=
16/08/2016 18:51->METAR KJFK 161851Z 17017G22KT 10SM FEW016 BKN038 BKN250 30/24 A3012 RMK AO2 SLP200 T02940239 $=
16/08/2016 17:51->METAR KJFK 161751Z 17016G22KT 10SM BKN042 BKN250 30/22 A3015 RMK AO2 SLP210 T02940222 56014 $=
16/08/2016 16:51->METAR KJFK 161651Z 18013KT 10SM BKN046 BKN150 BKN250 30/22 A3016 RMK AO2 SLP214 T03060222 $=
16/08/2016 15:51->METAR KJFK 161551Z 17013KT 10SM FEW035 SCT060 SCT150 BKN250 29/24 A3018 RMK AO2 SLP219 T02940239 $=
16/08/2016 14:51->METAR KJFK 161451Z 19007KT 10SM FEW028 BKN055 BKN150 BKN250 29/24 A3020 RMK AO2 SLP225 T02940239 $=
16/08/2016 13:51->METAR KJFK 161351Z 19007KT 10SM FEW025 SCT150 BKN250 28/24 A3020 RMK AO2 SLP225 T02780239 $=
16/08/2016 12:51->METAR KJFK 161251Z 19007KT 10SM FEW025 FEW070 SCT150 SCT200 SCT250 27/23 A3020 RMK AO2 SLP225 T02720233 $=
16/08/2016 11:51->METAR KJFK 161151Z 15004KT 10SM FEW020 FEW100 SCT150 SCT200 BKN250 28/23 A3019 RMK AO2 SLP221 T02780233 55000 $=
16/08/2016 10:51->METAR KJFK 161051Z 00000KT 10SM FEW100 SCT150 BKN200 BKN250 27/23 A3018 RMK AO2 SLP218 T02670233 $=
16/08/2016 09:51->METAR KJFK 160951Z 30005KT 10SM SCT055 SCT120 BKN250 25/23 A3017 RMK AO2 SLP217 T02500228 $=
16/08/2016 08:51->METAR KJFK 160851Z 23007KT 10SM SCT055 BKN250 27/24 A3019 RMK AO2 SLP221 T02670239 50000 $=
16/08/2016 07:51->METAR KJFK 160751Z 16004KT 10SM SCT055 BKN250 27/24 A3018 RMK AO2 SLP221 T02670239 $=
16/08/2016 06:51->METAR KJFK 160651Z 19004KT 10SM BKN055 BKN250 26/22 A3020 RMK AO2 SLP225 T02610222 $=
16/08/2016 05:51->METAR KJFK 160551Z 19004KT 10SM FEW050 SCT150 BKN250 26/23 A3019 RMK AO2 SLP221 T02560228 56007 $=
16/08/2016 04:51->METAR KJFK 160451Z 17003KT 10SM FEW055 SCT150 BKN250 26/23 A3019 RMK AO2 SLP221 T02560228 $=
16/08/2016 03:51->METAR KJFK 160351Z 18003KT 10SM FEW050 SCT150 BKN240 27/24 A3020 RMK AO2 SLP226 T02720244 $=
16/08/2016 02:51->METAR KJFK 160251Z 19007KT 10SM FEW050 SCT140 BKN230 27/24 A3021 RMK AO2 SLP228 T02720239 51015 $=
16/08/2016 01:51->METAR KJFK 160151Z 19009KT 10SM FEW030 SCT047 SCT140 BKN220 28/24 A3020 RMK AO2 SLP226 T02780239 $=
16/08/2016 00:51->METAR KJFK 160051Z 17010KT 10SM FEW140 BKN250 27/23 A3018 RMK AO2 SLP218 T02720233 CHINO W $=
15/08/2016 23:51->METAR KJFK 152351Z 18007KT 10SM FEW065 FEW140 BKN250 27/24 A3016 RMK AO2 SLP213 T02720244 51007 $=
15/08/2016 22:51->METAR KJFK 152251Z 18009KT 10SM SCT065 SCT120 BKN250 28/24 A3015 RMK AO2 SLP211 T02780244 $=
15/08/2016 21:51->METAR KJFK 152151Z 17011KT 10SM SCT065 SCT120 BKN250 29/24 A3015 RMK AO2 SLP210 T02890239 $=
15/08/2016 20:51->METAR KJFK 152051Z 18011KT 10SM SCT060 BKN250 29/23 A3014 RMK AO2 SLP206 T02890233 56006 $=
15/08/2016 19:51->METAR KJFK 151951Z 18009KT 10SM SCT060 BKN250 30/24 A3015 RMK AO2 SLP208 T02940239 $=
15/08/2016 18:51->METAR KJFK 151851Z 20009KT 10SM SCT060 SCT250 31/23 A3015=
15/08/2016 17:51->METAR KJFK 151751Z 19010KT 10SM SCT055 SCT250 31/23 A3016 RMK AO2 SLP212 T03060233 50001 $=
15/08/2016 16:51->METAR KJFK 151651Z 19009KT 10SM SCT050 SCT250 30/23 A3016 RMK AO2 SLP214 T03000228 $=
15/08/2016 15:51->METAR KJFK 151551Z 19007KT 10SM SCT043 SCT250 30/22 A3016 RMK AO2 SLP212 T03000222 $=
15/08/2016 14:51->METAR KJFK 151451Z 36003KT 10SM SCT036 SCT250 29/21 A3015 RMK AO2 SLP211 T02940211 51005 $=
15/08/2016 13:51->METAR KJFK 151351Z 01005KT 10SM SCT027 BKN250 28/22 A3015 RMK AO2 SLP210 T02780222 $=
15/08/2016 12:51->METAR KJFK 151251Z 00000KT 10SM FEW027 BKN250 28/23 A3015 RMK AO2 SLP210 T02780228 $=
15/08/2016 11:51->METAR KJFK 151151Z 36007KT 10SM FEW025 FEW055 BKN250 26/23 A3014 RMK AO2 SLP206 7//// T02610228 51020 $=
15/08/2016 10:51->METAR KJFK 151051Z 36008KT 10SM FEW050 BKN250 26/23 A3012 RMK AO2 SLP200 T02610233 $=
15/08/2016 09:51->METAR KJFK 150951Z 35011KT 10SM FEW050 SCT250 26/23 A3011 RMK AO2 SLP194 T02670233 $=
15/08/2016 08:51->METAR KJFK 150851Z 36009KT 10SM FEW045 FEW250 26/23 A3008 RMK AO2 SLP186 T02670233 53008 $=
15/08/2016 07:51->METAR KJFK 150751Z 34006KT 10SM SCT250 28/23 A3006 RMK AO2 SLP179 T02780233 $=
15/08/2016 06:51->METAR KJFK 150651Z 34006KT 10SM SCT045 BKN240 28/23 A3005 RMK AO2 SLP175 T02780228 $=
15/08/2016 05:51->METAR KJFK 150551Z 30007KT 10SM FEW044 BKN250 28/23 A3006 RMK AO2 SLP177 6//// T02830228 53009 $=
15/08/2016 04:51->METAR KJFK 150451Z 31010KT 10SM FEW055 BKN220 29/24 A3004 RMK AO2 SLP170 T02830239 $=
15/08/2016 03:51->METAR KJFK 150351Z COR 27009KT 10SM FEW050 SCT100 BKN200 29/23 A3004 RMK AO2 SLP174 T02830233 CHINO W $=
15/08/2016 02:51->METAR KJFK 150251Z 33008KT 10SM FEW055 FEW130 BKN200 29/24 A3003 RMK AO2 SLP168 6//// T02830244 51015 PNO $=
15/08/2016 01:51->METAR KJFK 150151Z 35004KT 10SM FEW055 SCT100 SCT130 29/24 A3002 RMK AO2 RAE23 TSE40 SLP167 T02890239 PNO $=
15/08/2016 00:51->METAR KJFK 150051Z 33011KT 10SM -TSRA SCT048CB BKN085 BKN130 31/24 A3002 RMK AO2 RAB34 TSB14 SLP165 FRQ LTGICCC S TS S MOV E T03060244 PNO $=
14/08/2016 23:51->METAR KJFK 142351Z 28013G20KT 10SM SCT055 BKN080 BKN250 33/22 A2998 RMK AO2 SLP153 CB DSNT W VCSH W-N T03330222 53015 $=
14/08/2016 22:51->METAR KJFK 142251Z 25010KT 10SM FEW055 SCT080 SCT250 34/22 A2995 RMK AO2 SLP143 CB DSNT NW T03390217 $=
14/08/2016 21:51->METAR KJFK 142151Z 20009KT 10SM SCT055 SCT080 BKN200 32/24 A2994 RMK AO2 SLP139 T03220239 $=
14/08/2016 20:51->METAR KJFK 142051Z 20011KT 10SM BKN060 BKN080 32/24 A2994=
14/08/2016 19:51->METAR KJFK 141951Z 19013G20KT 10SM BKN055 BKN070 34/24 A2994 RMK AO2 SLP137 T03440244 $=
14/08/2016 18:51->METAR KJFK 141851Z 23015G20KT 10SM SCT050 BKN070 35/25 A2995 RMK AO2 SLP141 T03500250 $=
14/08/2016 17:51->METAR KJFK 141751Z 24014G24KT 10SM SCT045 34/24 A2996 RMK AO2 SLP143 T03390244 55001 $=
14/08/2016 16:51->METAR KJFK 141651Z 25014G19KT 10SM SCT050 35/23 A2995 RMK AO2 SLP142 T03440228 $=
14/08/2016 15:51->METAR KJFK 141551Z 27011KT 10SM FEW045 FEW100 SCT200 34/23 A2996 RMK AO2 SLP144 T03390228 $=
14/08/2016 14:51->METAR KJFK 141451Z 28011G15KT 10SM FEW040 FEW075 SCT100 SCT200 33/24 A2996 RMK AO2 SLP144 T03280239 51006 $=
14/08/2016 13:51->METAR KJFK 141351Z 27009KT 10SM FEW075 BKN085 BKN200 32/24 A2995 RMK AO2 SLP143 T03170239 $=
14/08/2016 12:51->METAR KJFK 141251Z 27006KT 10SM FEW075 SCT100 SCT200 31/25 A2995 RMK AO2 SLP142 T03060250 $=
14/08/2016 11:51->METAR KJFK 141151Z 24011KT 10SM FEW100 SCT200 29/24 A2994=
14/08/2016 10:51->METAR KJFK 141051Z 23009KT 10SM FEW150 SCT200 28/23 A2993 RMK AO2 SLP134 T02830233 CHINO W $=
14/08/2016 09:51->METAR KJFK 140951Z 21008KT 9SM SCT200 28/22 A2991 RMK AO2 SLP127 T02780222 CHINO W $=
14/08/2016 08:51->METAR KJFK 140851Z 19005KT 10SM FEW240 28/21 A2989 RMK AO2 SLP122 6//// T02780211 55008 CHINO W $=
14/08/2016 07:51->METAR KJFK 140751Z 12005KT 10SM FEW240 29/21 A2989 RMK AO2 SLP120 T02890211 CHINO W $=
14/08/2016 06:51->METAR KJFK 140651Z 00000KT 10SM SCT049 SCT100 BKN230 29/24 A2991 RMK AO2 SLP128 OCNL LTGIC DSNT NE CB DSNT NE T02890239 PNO $=
14/08/2016 05:51->METAR KJFK 140551Z 16003KT 10SM BKN050 BKN110 BKN210 29/22 A2992=
14/08/2016 04:51->METAR KJFK 140451Z 00000KT 10SM SCT048 BKN110 BKN220 29/24 A2993 RMK AO2 SLP134 OCNL LTGIC DSNT NW CB DSNT NW T02890239 $=
14/08/2016 03:51->METAR KJFK 140351Z 20006G14KT 10SM FEW050 FEW110 SCT230 28/24 A2991 RMK AO2 SLP128 CONS LTGIC DSNT W-N CB DSNT W-N T02830244 $=
14/08/2016 02:51->METAR KJFK 140251Z 19008KT 10SM FEW050 FEW100 SCT220 29/25 A2991 RMK AO2 SLP128 FRQ LTGICCCCG DSNT W-NW CB DSNT W-NW T02940250 50016 $=
14/08/2016 01:51->METAR KJFK 140151Z 19011KT 10SM FEW047 SCT100 SCT200 29/25 A2991 RMK AO2 SLP129 OCNL LTGIC DSNT NE CB NE AND W T02940250 $=
14/08/2016 00:51->METAR KJFK 140051Z 19012G17KT 10SM FEW047 SCT100 SCT200 29/25 A2989 RMK AO2 SLP120 OCNL LTGIC DSNT W FRQ LTGICCC DSNT N CB DSNT W AND N T02940250 $=
13/08/2016 23:51->METAR KJFK 132351Z 19016G22KT 10SM FEW047 SCT110 SCT200 29/25 A2986 RMK AO2 SLP112 TCU DSNT NW T02890250 53001 $=
13/08/2016 22:51->METAR KJFK 132251Z 19013KT 10SM FEW047 FEW110 SCT200 30/24 A2984 RMK AO2 SLP105 T03000244 $=
13/08/2016 21:51->METAR KJFK 132151Z 18015G22KT 10SM FEW030 FEW100 SCT200 30/24 A2985 RMK AO2 SLP108 T03000244 $=
13/08/2016 20:51->METAR KJFK 132051Z 18017G26KT 10SM FEW030 FEW095 SCT200 31/24 A2986 RMK AO2 SLP111 T03060239 57014 $=
13/08/2016 19:51->METAR KJFK 131951Z 18015G22KT 10SM FEW038 FEW095 SCT200 32/28 A2987 RMK AO2 SLP114 TCU DSNT SW T03170278 $=
13/08/2016 18:51->METAR KJFK 131851Z 19015G19KT 10SM FEW047 FEW095 SCT200 31/29 A2989 RMK AO2 SLP121 CB DSNT NE T03110289 $=
13/08/2016 17:51->METAR KJFK 131751Z 18009KT 10SM SCT040TCU SCT130 33/26 A2990 RMK AO2 SLP124 TCU N T03280261 58008 $=
13/08/2016 16:51->METAR KJFK 131651Z 18009KT 10SM SCT040TCU SCT250 33/26 A2991 RMK AO2 SLP128 TCU N T03280261 $=
13/08/2016 15:51->METAR KJFK 131551Z 20007KT 10SM SCT039 SCT250 32/25 A2992 RMK AO2 SLP132 T03220250 $=
13/08/2016 14:51->METAR KJFK 131451Z 22006KT 10SM SCT110 SCT250 32/25 A2992 RMK AO2 SLP132 T03170250 58004 $=
13/08/2016 13:51->METAR KJFK 131351Z 23008KT 10SM FEW110 FEW250 31/25 A2993 RMK AO2 SLP135 T03110250 $=
13/08/2016 12:51->METAR KJFK 131251Z 23007KT 10SM FEW100 FEW150 SCT250 29/25 A2993 RMK AO2 SLP136 T02940256 $=
13/08/2016 11:51->METAR KJFK 131151Z 25008KT 10SM FEW060 FEW170 SCT250 28/24 A2993 RMK AO2 SLP136 7//// T02830244 51012 $=
13/08/2016 10:51->METAR KJFK 131051Z 25009KT 10SM FEW100 FEW180 SCT250 27/24 A2992 RMK AO2 SLP132 T02720239 $=
13/08/2016 09:51->METAR KJFK 130951Z 25007KT 10SM FEW090 FEW160 FEW250 27/24 A2991 RMK AO2 SLP127 T02670239 $=
13/08/2016 08:51->METAR KJFK 130851Z 24007KT 10SM FEW090 SCT180 SCT250 28/24 A2990 RMK AO2 SLP123 T02780239 56002 $=
13/08/2016 07:51->METAR KJFK 130751Z 27009KT 10SM SCT180 SCT250 28/24 A2990 RMK AO2 SLP123 T02780239 CHINO W $=
13/08/2016 06:51->METAR KJFK 130651Z 23006KT 10SM SCT250 28/24 A2989 RMK AO2 SLP122 T02780239 CHINO W $=
13/08/2016 05:51->METAR KJFK 130551Z 00000KT 10SM FEW090 FEW180 SCT250 27/24 A2990 RMK AO2 SLP125 6//// T02670239 58005 $=
13/08/2016 04:51->METAR KJFK 130451Z 22004KT 10SM FEW050 FEW090 SCT180 BKN250 27/24 A2991 RMK AO2 SLP128 T02720239 $=
13/08/2016 03:51->METAR KJFK 130351Z 22007KT 10SM FEW055 SCT090 BKN180 BKN250 27/23 A2992=
13/08/2016 02:51->METAR KJFK 130251Z 22010KT 10SM FEW055 FEW090 SCT180 SCT250 28/24 A2992=
13/08/2016 01:51->METAR KJFK 130151Z 24007KT 10SM FEW055 SCT090 SCT180 BKN250 29/24 A2991 RMK AO2 SLP127 FRQ LTGIC DSNT NW CB DSNT NW T02890239 PNO $=
13/08/2016 00:51->METAR KJFK 130051Z 25008KT 10SM FEW055 SCT090 SCT180 BKN230 29/24 A2990 RMK AO2 RAE10 SLP124 FRQ LTGIC DSNT NW CB DSNT NW T02940233 PNO $=
12/08/2016 23:51->METAR KJFK 122351Z 30010G26KT 10SM -RA SCT055 SCT090 SCT140 BKN190 BKN250 30/23 A2987 RMK AO2 RAB46 SLP116 CB DSNT N 6//// T03060228 53007 PNO $=
12/08/2016 22:51->METAR KJFK 122251Z 24019KT 10SM SCT055 SCT080 SCT140 BKN250 31/24 A2987 RMK AO2 SLP113 CB DSNT W-NW TCU DSNT N VCSH DSNT W-NW T03110239 $=
12/08/2016 21:51->METAR KJFK 122151Z 21011G18KT 10SM SCT055 SCT130 BKN250 30/24 A2985 RMK AO2 SLP108 CB DSNT S T03060239 $=
12/08/2016 20:51->METAR KJFK 122051Z 18013G17KT 10SM SCT050 SCT080 BKN250 31/24 A2985 RMK AO2 SLP109 CB DSNT SW T03060239 55007 $=
12/08/2016 19:51->METAR KJFK 121951Z 19014KT 10SM SCT035 SCT120 BKN250 31/24 A2985 RMK AO2 SLP108 CB DSNT N T03170244 $=
12/08/2016 18:51->METAR KJFK 121851Z 18013KT 10SM SCT035 BKN250 32/24 A2987 RMK AO2 SLP113 T03170244 $=
12/08/2016 17:51->METAR KJFK 121751Z 20011G17KT 10SM SCT035 SCT250 32/26 A2988 RMK AO2 SLP116 TCU DSNT NW T03220256 58016 $=
12/08/2016 16:51->METAR KJFK 121651Z 20010KT 10SM SCT033 SCT250 32/25 A2990 RMK AO2 SLP125 T03220250 $=
12/08/2016 15:51->METAR KJFK 121551Z 24015G22KT 10SM FEW027 SCT250 31/24 A2991 RMK AO2 SLP129 T03110244 $=
12/08/2016 14:51->METAR KJFK 121451Z 23010KT 10SM FEW024 FEW210 SCT250 30/24 A2992 RMK AO2 SLP132 T03000244 58009 $=
12/08/2016 13:51->METAR KJFK 121351Z 26009KT 10SM SCT018 BKN230 28/24 A2994 RMK AO2 SLP137 T02830239 $=
12/08/2016 12:51->METAR KJFK 121251Z 24012G17KT 10SM SCT016 BKN230 27/23 A2995 RMK AO2 SLP141 T02670233 $=
12/08/2016 11:51->METAR KJFK 121151Z 24005KT 10SM FEW014 FEW140 BKN230 26/23 A2995 RMK AO2 SLP141 6//// 7//// T02560233 55001 $=
12/08/2016 10:51->METAR KJFK 121051Z 23009KT 10SM FEW018 FEW150 BKN190 26/24 A2995 RMK AO2 SLP140 T02560239 $=
12/08/2016 10:00->METAR KJFK NIL=
12/08/2016 09:51->METAR KJFK 120951Z 20007KT 10SM BKN160 BKN210 26/24 A2994 RMK AO2 SLP138 T02610244 CHINO W $=
12/08/2016 08:51->METAR KJFK 120851Z 24004KT 10SM FEW150 BKN250 25/23 A2995 RMK AO2 SLP141 6//// T02500233 56010 CHINO W $=
12/08/2016 07:51->METAR KJFK 120751Z 22010KT 10SM FEW050 BKN150 BKN230 24/22 A2995 RMK AO2 SLP142 T02390217 PNO $=
12/08/2016 06:51->METAR KJFK 120651Z 23006KT 10SM FEW045 SCT130 OVC240 25/23 A2995 RMK AO2 RAE36 SLP141 T02500228 PNO $=
12/08/2016 05:51->METAR KJFK 120551Z 30012G16KT 10SM -RA FEW012 SCT050 OVC130 25/23 A2998 RMK AO2 SLP151 6//// T02500228 58008 PNO $=
12/08/2016 04:51->METAR KJFK 120451Z 32013KT 10SM -RA FEW014 BKN043 OVC130 28/25 A3001 RMK AO2 RAB42 SLP162 WSHFT 0440 OCNL LTGICCA DSNT N CB DSNT N MOV E T02780250 PNO $=
12/08/2016 03:51->METAR KJFK 120351Z 20007KT 10SM SCT050 BKN120 OVC250 27/25 A3000 RMK AO2 SLP157 OCNL LTGICCA DSNT N CB DSNT N MOV E T02720250 $=
12/08/2016 02:51->METAR KJFK 120251Z 21003KT 10SM FEW044 SCT100 BKN180 OVC250 28/26 A3000 RMK AO2 SLP160 FRQ LTGICCA DSNT NW-N CB DSNT NW-N MOV E T02830261 50002 $=
12/08/2016 01:51->METAR KJFK 120151Z 32008KT 10SM FEW043 SCT100 BKN190 BKN250 29/25 A3002 RMK AO2 SLP165 OCNL LTGIC DSNT NW CB DSNT NW T02890250 $=
12/08/2016 00:51->METAR KJFK 120051Z 27008KT 10SM FEW043 SCT060 SCT160 BKN250 29/24 A3000 RMK AO2 SLP159 FRQ LTGIC DSNT NW CB DSNT NW T02940244 $=
11/08/2016 23:51->METAR KJFK 112351Z 17006KT 10SM FEW043 SCT060 SCT140 BKN250 28/23 A3000 RMK AO2 SLP158 TCU DSNT NW 6//// T02830228 53001 PNO $=
11/08/2016 22:51->METAR KJFK 112251Z 00000KT 10SM FEW030 SCT043CB SCT095 BKN140 BKN250 30/23 A3000 RMK AO2 RAB15E47 TSB06E47 SLP157 CB N-NE MOV E VCSH N-NE T02940233 PNO $=
11/08/2016 21:51->METAR KJFK 112151Z 18011KT 10SM FEW030 SCT055CB SCT100 BKN250 30/23 A2999 RMK AO2 SLP156 OCNL LTGCG W CB W MOV E TCU DSNT N VCSH W T03000233 $=
11/08/2016 20:51->METAR KJFK 112051Z 18012KT 10SM SCT055TCU SCT160 SCT190 SCT250 33/25 A2999=
11/08/2016 19:51->METAR KJFK 111951Z 20011KT 10SM SCT055TCU SCT100 SCT250 33/26 A3001 RMK AO2 SLP161 TCU OHD AND DSNT W-N T03330256 $=
11/08/2016 18:51->METAR KJFK 111851Z 19008KT 10SM SCT055 SCT170 SCT250 32/26 A3002 RMK AO2 SLP167 T03170256 $=
11/08/2016 17:51->METAR KJFK 111751Z 20009G16KT 10SM FEW055 SCT170 SCT250 32/26 A3005=
11/08/2016 16:51->METAR KJFK 111651Z 20010KT 10SM SCT050TCU BKN170 31/25 A3007 RMK AO2 SLP182 TCU N T03110250 $=
11/08/2016 15:51->METAR KJFK 111551Z 18010KT 10SM FEW050 SCT160 BKN250 30/25 A3009=
11/08/2016 14:51->METAR KJFK 111451Z 23010KT 10SM FEW022 FEW050 BKN170 BKN250 28/25 A3009 RMK AO2 SLP190 T02830250 58006 $=
11/08/2016 13:51->METAR KJFK 111351Z 24013KT 10SM FEW016 SCT042 BKN140 BKN250 28/25 A3010 RMK AO2 SLP193 VCSH S T02780250 $=
11/08/2016 12:51->METAR KJFK 111251Z 24012G16KT 10SM FEW016 SCT044 BKN120 BKN250 27/25 A3011 RMK AO2 SLP197 VCSH S-SW AND NW T02720250 $=
11/08/2016 11:51->METAR KJFK 111151Z 24007KT 10SM FEW050 SCT120 SCT170 BKN230 26/24 A3011 RMK AO2 SLP196 7//// T02610239 51004 $=
11/08/2016 10:51->METAR KJFK 111051Z 23005KT 10SM FEW050 SCT120 BKN230 26/23 A3011 RMK AO2 SLP195 T02560233 $=
11/08/2016 09:51->METAR KJFK 110951Z 23006KT 10SM FEW050 SCT100 BKN220 26/24 A3010 RMK AO2 SLP193 T02560239 $=
11/08/2016 08:51->METAR KJFK 110851Z 20007KT 10SM FEW075 BKN150 BKN250 26/24 A3010 RMK AO2 SLP191 T02560244 53001 $=
11/08/2016 07:51->METAR KJFK 110751Z 22005KT 10SM FEW130 BKN250 26/24 A3009 RMK AO2 SLP188 T02560244 $=
11/08/2016 06:51->METAR KJFK 110651Z 20006KT 10SM FEW044 OVC250 26/25 A3009 RMK AO2 SLP190 T02560244 $=
11/08/2016 05:51->METAR KJFK 110551Z 20007KT 10SM FEW048 OVC250 26/25 A3009 RMK AO2 SLP190 T02560244 58009 $=
11/08/2016 04:51->METAR KJFK 110451Z 20005KT 10SM FEW047 OVC250 26/25 A3011 RMK AO2 SLP195 T02560244 $=
11/08/2016 03:51->METAR KJFK 110351Z 20009KT 10SM SCT044 SCT150 OVC250 26/25 A3012 RMK AO2 SLP200 T02610244 $=
11/08/2016 02:51->METAR KJFK 110251Z 19010KT 10SM FEW050 SCT140 OVC250 26/25 A3012 RMK AO2 SLP200 T02670250 51009 $=
11/08/2016 01:51->METAR KJFK 110151Z 19012KT 10SM FEW050 SCT140 BKN250 27/24 A3012 RMK AO2 SLP199 T02670244 $=
11/08/2016 00:51->METAR KJFK 110051Z 19012KT 10SM SCT045 SCT140 BKN250 27/24 A3011 RMK AO2 SLP196 T02670244 $=
10/08/2016 23:51->METAR KJFK 102351Z 19016G24KT 10SM SCT045 SCT140 BKN250 26/24 A3010 RMK AO2 SLP191 6//// T02670244 56005 PNO $=
10/08/2016 22:51->METAR KJFK 102251Z 19020G29KT 10SM FEW036 SCT070 BKN110 BKN140 BKN250 27/23 A3010 RMK AO2 RAE00 SLP192 TCU DSNT N T02670233 PNO $=
10/08/2016 21:51->METAR KJFK 102151Z 18015G20KT 10SM -RA SCT036TCU SCT070 SCT120 BKN250 28/24 A3010 RMK AO2 RAB46 SLP193 TCU OHD T02780244 PNO $=
10/08/2016 20:51->METAR KJFK 102051Z 18014G20KT 10SM SCT036 BKN130 BKN250 29/24 A3011 RMK AO2 SLP196 6//// T02890233 56011 $=
10/08/2016 19:51->METAR KJFK 101951Z 19013KT 10SM SCT036 SCT050 SCT100 SCT170 BKN250 28/24 A3011 RMK AO2 SLP197 TCU DSNT SE T02830244 $=
10/08/2016 18:51->METAR KJFK 101851Z 20013G18KT 10SM SCT035 SCT050 SCT160 BKN210 BKN250 26/24 A3013 RMK AO2 SLP202 TCU DSNT SW T02610244 PNO $=
10/08/2016 17:51->METAR KJFK 101751Z 19012G20KT 8SM FEW014 BKN031 BKN075 BKN250 26/24 A3014 RMK AO2 RAB02E42 SLP206 CIG 028V034 VCSH NE-S 6//// T02610244 58017 PNO $=
10/08/2016 16:51->METAR KJFK 101651Z 19017G24KT 10SM BKN028 BKN060 BKN110 BKN240 28/25 A3015 RMK AO2 RAE1555 SLP211 BKN028 V SCT VCSH W-NW T02780250 PNO $=
10/08/2016 15:51->METAR KJFK 101551Z 19014G20KT 10SM -RA BKN027 BKN044 BKN110 27/24 A3018 RMK AO2 RAB42 SLP219 TCU DSNT S T02720244 PNO $=
10/08/2016 14:51->METAR KJFK 101451Z 19012G18KT 10SM FEW012 BKN028 BKN095 OVC220 27/24 A3019 RMK AO2 SLP223 T02720244 58001 $=
10/08/2016 13:51->METAR KJFK 101351Z 19011KT 10SM FEW017 SCT027 BKN055 27/24 A3020 RMK AO2 SLP225 SCT V BKN T02670239 $=
10/08/2016 12:51->METAR KJFK 101251Z 19009KT 10SM FEW017 BKN031 BKN065 BKN180 26/24 A3020 RMK AO2 SLP226 T02610239 $=
10/08/2016 11:51->METAR KJFK 101151Z 20007KT 10SM FEW008 SCT019 BKN031 OVC130 26/24 A3019 RMK AO2 SLP224 SCT V BKN 6//// 7//// T02560239 51005 $=
10/08/2016 10:51->METAR KJFK 101051Z 19006KT 10SM FEW009 BKN032 BKN110 BKN250 25/23 A3020 RMK AO2 SLP224 T02500233 $=
10/08/2016 09:51->METAR KJFK 100951Z 18009KT 10SM FEW009 BKN035 OVC055 25/24 A3019 RMK AO2 SLP222 T02500239 $=
10/08/2016 08:51->METAR KJFK 100851Z 17009KT 10SM FEW007 OVC034 25/23 A3018 RMK AO2 SLP219 6//// T02440233 58009 PNO $=
10/08/2016 07:51->METAR KJFK 100751Z 16009KT 10SM SCT007 OVC031 25/23 A3019 RMK AO2 RAE14B32E49 SLP222 SCT007 V BKN T02440233 PNO $=
10/08/2016 06:51->METAR KJFK 100651Z 18012KT 9SM -RA FEW009 SCT024 OVC048 23/22 A3021 RMK AO2 RAB44 SLP228 T02330222 PNO $=
10/08/2016 05:51->METAR KJFK 100551Z 17012G19KT 10SM FEW011 BKN075 OVC250 25/23 A3022=
10/08/2016 04:51->METAR KJFK 100451Z 17008KT 10SM FEW011 FEW070 BKN250 25/23 A3023 RMK AO2 SLP235 T02440228 $=
10/08/2016 03:51->METAR KJFK 100351Z 18009G14KT 10SM FEW011 FEW070 BKN250 25/23 A3023 RMK AO2 SLP236 T02440233 $=
10/08/2016 02:51->METAR KJFK 100251Z 17012KT 10SM FEW012 BKN250 25/24 A3022 RMK AO2 SLP232 T02560239 53006 $=
10/08/2016 01:51->METAR KJFK 100151Z 17010G18KT 10SM FEW060 BKN250 25/23 A3021 RMK AO2 SLP230 T02500233 $=
10/08/2016 00:51->METAR KJFK 100051Z 16010KT 10SM FEW060 BKN250 25/23 A3020 RMK AO2 SLP226 T02560233 $=
09/08/2016 23:51->METAR KJFK 092351Z 16009KT 10SM SCT060 SCT150 BKN250 26/23 A3020 RMK AO2 SLP225 T02560233 55003 $=
09/08/2016 22:51->METAR KJFK 092251Z 17012G17KT 10SM FEW070 BKN250 26/21 A3020 RMK AO2 SLP225 T02670206 $=
09/08/2016 21:51->METAR KJFK 092151Z 17011G17KT 10SM FEW070 BKN250 27/20 A3020 RMK AO2 SLP227 T02720206 $=
09/08/2016 20:51->METAR KJFK 092051Z 17013G19KT 10SM FEW070 SCT250 27/22 A3021 RMK AO2 SLP228 T02720217 58007 $=
09/08/2016 19:51->METAR KJFK 091951Z 18013G19KT 10SM FEW070 BKN250 28/19 A3021 RMK AO2 SLP230 T02830194 $=
09/08/2016 18:51->METAR KJFK 091851Z 18012G16KT 10SM FEW070 BKN250 28/18 A3023 RMK AO2 SLP235 T02780183 $=
09/08/2016 17:51->METAR KJFK 091751Z 18013G17KT 10SM FEW065 BKN250 29/18 A3023 RMK AO2 SLP235 T02940183 58001 $=
09/08/2016 16:51->METAR KJFK 091651Z 17010G14KT 10SM FEW065 SCT250 30/14 A3023 RMK AO2 SLP236 T03000139 $=
09/08/2016 15:51->METAR KJFK 091551Z 20008KT 10SM FEW065 SCT250 29/13 A3023=
09/08/2016 14:51->METAR KJFK 091451Z 21005KT 10SM SCT050 SCT250 29/15 A3023 RMK AO2 SLP236 T02890150 51010 $=
09/08/2016 13:51->METAR KJFK 091351Z 22003KT 10SM FEW050 FEW250 27/17 A3022 RMK AO2 SLP234 T02720172 $=
09/08/2016 12:51->METAR KJFK 091251Z 00000KT 10SM FEW050 FEW250 26/17 A3021 RMK AO2 SLP230 T02670172 $=
09/08/2016 11:51->METAR KJFK 091151Z 00000KT 10SM FEW050 FEW250 25/21 A3020 RMK AO2 SLP226 T02500206 53012 $=
09/08/2016 10:51->METAR KJFK 091051Z 00000KT 10SM FEW070 FEW250 23/21 A3018 RMK AO2 SLP220 T02280211 $=
09/08/2016 09:51->METAR KJFK 090951Z 25005KT 10SM FEW070 22/21 A3018 RMK AO2 SLP218 T02220211 $=
09/08/2016 08:51->METAR KJFK 090851Z 24004KT 10SM FEW070 22/21 A3017 RMK AO2 SLP215 T02220211 53005 $=
09/08/2016 07:51->METAR KJFK 090751Z 24005KT 10SM FEW070 22/20 A3016 RMK AO2 SLP214 T02170206 $=
09/08/2016 06:51->METAR KJFK 090651Z 21004KT 10SM FEW070 23/22 A3015 RMK AO2 SLP210 T02280217 $=
09/08/2016 05:51->METAR KJFK 090551Z 24004KT 10SM FEW065 24/22 A3015 RMK AO2 SLP210 T02390222 51010 $=
09/08/2016 04:51->METAR KJFK 090451Z 19004KT 10SM CLR 23/22 A3014 RMK AO2 SLP206 T02330222 $=
09/08/2016 03:51->METAR KJFK 090351Z 20007KT 10SM FEW060 25/23 A3013 RMK AO2 SLP203 T02440228 $=
09/08/2016 02:51->METAR KJFK 090251Z 19007KT 10SM FEW060 24/21 A3012 RMK AO2 SLP199 T02440206 53020 $=
09/08/2016 01:51->METAR KJFK 090151Z 10SM FEW060 FEW250 25/21 A3010 RMK AO2 SLP192 T02440211 $=
09/08/2016 00:51->METAR KJFK 090051Z 14004KT 10SM FEW065 SCT250 25/17 A3008 RMK AO2 SLP184 T02560172 $=
08/08/2016 23:51->METAR KJFK 082351Z 15006KT 10SM FEW065 SCT250 25/20 A3006 RMK AO2 SLP179 T02500206 53002 $=
08/08/2016 22:51->METAR KJFK 082251Z 16007KT 10SM SCT065 BKN250 26/18 A3005 RMK AO2 SLP175 T02610178 $=
08/08/2016 21:51->METAR KJFK 082151Z 17008KT 10SM SCT065 SCT210 SCT250 27/19 A3005 RMK AO2 SLP176 T02720183 $=
08/08/2016 20:51->METAR KJFK 082051Z 16007KT 10SM SCT065 SCT210 BKN250 27/18 A3005 RMK AO2 SLP176 T02720178 58004 $=
08/08/2016 19:51->METAR KJFK 081951Z 19007KT 10SM SCT065 BKN250 27/19 A3006 RMK AO2 SLP179 T02720189 $=
08/08/2016 18:51->METAR KJFK 081851Z 17008KT 10SM FEW060 BKN250 27/19 A3006 RMK AO2 SLP179 T02720189 $=
08/08/2016 17:51->METAR KJFK 081751Z 18006KT 10SM SCT060 BKN260 29/17 A3007 RMK AO2 SLP181 T02890167 55002 $=
08/08/2016 16:51->METAR KJFK 081651Z 20007KT 10SM FEW060 FEW080 BKN260 29/15 A3006 RMK AO2 SLP179 T02890150 $=
08/08/2016 15:51->METAR KJFK 081551Z 02003KT 10SM FEW055 FEW080 BKN260 29/13 A3007 RMK AO2 SLP181 T02890133 $=
08/08/2016 15:00->METAR KJFK NIL=
08/08/2016 14:51->METAR KJFK 081451Z 00000KT 10SM FEW050 FEW080 SCT220 BKN280 28/14 A3007 RMK AO2 SLP183 T02830144 52010 $=
08/08/2016 13:51->METAR KJFK 081351Z 05006KT 10SM R04R/4500VP6000FT FEW065 FEW090 SCT220 BKN280 27/15 A3006 RMK AO2 SLP179 T02720150 $=
08/08/2016 12:51->METAR KJFK 081251Z 01010KT 10SM FEW045 FEW095 BKN230 BKN280 26/14 A3005 RMK AO2 SLP177 T02560144 $=
08/08/2016 11:51->METAR KJFK 081151Z 03010KT 10SM FEW032 FEW120 SCT230 24/15 A3004 RMK AO2 SLP173 T02390150 51014 $=
08/08/2016 10:51->METAR KJFK 081051Z 03005KT 10SM FEW032 SCT230 23/16 A3003 RMK AO2 SLP170 T02330156 $=
08/08/2016 09:51->METAR KJFK 080951Z 03006KT 10SM BKN240 23/17 A3002=
08/08/2016 08:51->METAR KJFK 080851Z 04003KT 10SM BKN230 24/16 A3000=
08/08/2016 07:51->METAR KJFK 080751Z 01006KT 10SM BKN230 25/14 A2998=
08/08/2016 06:51->METAR KJFK 080651Z 35006KT 10SM BKN220 25/13 A2997=
08/08/2016 05:51->METAR KJFK 080551Z 35005KT 10SM BKN240 24/14 A2996=
08/08/2016 04:51->METAR KJFK 080451Z 02008KT 10SM BKN240 25/13 A2995=
08/08/2016 03:51->METAR KJFK 080351Z 35009KT 10SM BKN220 26/12 A2995=
08/08/2016 02:51->METAR KJFK 080251Z 33008KT 10SM BKN220 27/11 A2995=
08/08/2016 01:51->METAR KJFK 080151Z 34008KT 10SM SCT230 28/11 A2994 RMK SLP138 T02830111=
08/08/2016 01:00->METAR KJFK NIL=
08/08/2016 00:51->METAR KJFK 080051Z 32009G18KT 10SM FEW080 FEW270 28/11 A2992 RMK SLP132 T02830111=
07/08/2016 23:51->METAR KJFK 072351Z 34011KT 10SM FEW080 FEW280 29/11 A2989 RMK AO2 SLP123 T02940111 53007 $=
07/08/2016 22:51->METAR KJFK 072251Z 32013KT 10SM FEW080 SCT300 30/11 A2988 RMK AO2 SLP118 T03000106 $=
07/08/2016 21:51->METAR KJFK 072151Z 30011G18KT 10SM SCT075 SCT300 31/10 A2988 RMK AO2 SLP117 T03060100 $=
07/08/2016 20:51->METAR KJFK 072051Z 32011G19KT 10SM SCT075 SCT300 32/11 A2987 RMK AO2 SLP115 T03170106 58001 $=
07/08/2016 19:51->METAR KJFK 071951Z 30007KT 10SM SCT075 BKN300 31/11 A2988 RMK AO2 SLP116 T03110111 $=
07/08/2016 18:51->METAR KJFK 071851Z 22012KT 10SM SCT070 SCT300 31/12 A2988 RMK AO2 SLP116 T03110117 $=
07/08/2016 17:51->METAR KJFK 071751Z 27009KT 10SM SCT060 SCT250 32/11 A2988=
07/08/2016 16:51->METAR KJFK 071651Z 21010G17KT 10SM FEW055 SCT250 30/13 A2987 RMK AO2 SLP116 T03000133 $=
07/08/2016 15:51->METAR KJFK 071551Z 24009KT 10SM FEW055 SCT250 31/14 A2988 RMK AO2 SLP116 T03060144 $=
07/08/2016 14:51->METAR KJFK 071451Z 29004KT 10SM FEW060 SCT250 29/15 A2988 RMK AO2 SLP119 T02940144 51007 $=
07/08/2016 13:51->METAR KJFK 071351Z 36005KT 10SM FEW200 SCT250 28/14 A2988 RMK AO2 SLP116 T02830144 CHINO W $=
07/08/2016 12:51->METAR KJFK 071251Z 32006KT 10SM FEW200 SCT250 26/15 A2987 RMK AO2 SLP116 T02560150 CHINO W $=
07/08/2016 11:51->METAR KJFK 071151Z 34010KT 10SM SCT250 23/17 A2986 RMK AO2 SLP112 7//// T02330167 53016 CHINO W $=
07/08/2016 10:51->METAR KJFK 071051Z 32009KT 10SM FEW150 SCT250 20/16 A2984 RMK AO2 SLP106 T02000161 CHINO W $=
07/08/2016 09:51->METAR KJFK 070951Z 33006KT 10SM FEW250 23/16 A2983 RMK AO2 SLP101 T02280161 CHINO W $=
07/08/2016 08:51->METAR KJFK 070851Z 35005KT 10SM FEW250 23/15 A2982 RMK AO2 SLP096 T02330156 53008 CHINO W $=
07/08/2016 07:51->METAR KJFK 070751Z 35007KT 10SM FEW250 24/15 A2980 RMK AO2 SLP090 T02440150 CHINO W $=
07/08/2016 06:51->METAR KJFK 070651Z 34011KT 10SM FEW075 FEW250 25/15 A2979=
07/08/2016 05:51->METAR KJFK 070551Z 34011KT 10SM FEW075 FEW250 26/15 A2979 RMK AO2 SLP088 T02560156 51008 $=
07/08/2016 04:51->METAR KJFK 070451Z 33013KT 10SM FEW075 FEW250 26/16 A2979 RMK AO2 SLP086 T02560156 $=
07/08/2016 03:51->METAR KJFK 070351Z 35010KT 10SM FEW075 FEW250 26/17 A2977 RMK AO2 SLP082 T02670167 $=
07/08/2016 02:51->METAR KJFK 070251Z 34009KT 10SM FEW060 FEW250 27/18 A2977=
07/08/2016 01:51->METAR KJFK 070151Z 31008KT 10SM FEW260 24/24 A2976 RMK AO2 SLP078 T02440239 CHINO W $=
07/08/2016 00:51->METAR KJFK 070051Z 25007KT 10SM FEW065 FEW130 SCT260 25/24 A2974 RMK AO2 SLP071 T02500244 $=
06/08/2016 23:51->METAR KJFK 062351Z 23006KT 10SM FEW050 FEW070 SCT130 SCT220 24/23 A2970 RMK AO2 SLP058 CB DSNT SE-S 6//// T02440233 53004 $=
06/08/2016 22:51->METAR KJFK 062251Z 26005KT 10SM FEW040 SCT080 SCT130 BKN240 27/26 A2970 RMK AO2 SLP056 CB DSNT SE T02670261 PNO $=
06/08/2016 21:51->METAR KJFK 062151Z 25010KT 10SM FEW015 SCT035 BKN075 BKN130 BKN220 24/23 A2969 RMK AO2 RAB04E48 SLP055 T02440233 PNO $=
06/08/2016 20:51->METAR KJFK 062051Z 19010KT 10SM SCT040 BKN080 BKN170 28/27 A2969 RMK AO2 SLP054 T02780272 56016 $=
06/08/2016 19:51->METAR KJFK 061951Z 18012KT 10SM SCT037 SCT080 BKN220 28/27 A2970 RMK AO2 SLP058 T02780267 $=
06/08/2016 18:51->METAR KJFK 061851Z COR 18011KT 10SM FEW035 SCT080 BKN220 26/24 A2972 RMK AO2 SLP064 T02610239 $=
06/08/2016 17:51->METAR KJFK 061751Z 20010G19KT 10SM SCT033 SCT085 BKN130 29/24 A2974 RMK AO2 SLP069 T02890239 56015 $=
06/08/2016 16:51->METAR KJFK 061651Z 22011KT 10SM FEW032 BKN120 OVC180 27/24 A2975 RMK AO2 SLP074 T02720239 $=
06/08/2016 15:51->METAR KJFK 061551Z 21010KT 10SM FEW028 SCT080 BKN140 BKN180 27/23 A2976 RMK AO2 SLP078 T02670233 $=
06/08/2016 14:51->METAR KJFK 061451Z 25012KT 10SM BKN024 BKN090 26/23 A2978 RMK AO2 SLP085 BKN024 V SCT T02610233 57010 $=
06/08/2016 13:51->METAR KJFK 061351Z 23008KT 10SM BKN013 BKN085 26/23 A2979 RMK AO2 SLP086 T02560228 $=
06/08/2016 12:51->METAR KJFK 061251Z 23008KT 10SM OVC013 25/23 A2981 RMK AO2 SLP093 T02500228 $=
06/08/2016 11:51->METAR KJFK 061151Z 21007KT 10SM BKN016 OVC110 24/22 A2981=
06/08/2016 10:51->METAR KJFK 061051Z 24011KT 10SM FEW022 SCT037 BKN095 BKN250 24/22 A2981 RMK AO2 SLP095 TCU DSNT SW T02440222 $=
06/08/2016 09:51->METAR KJFK 060951Z 22008KT 10SM SCT022 BKN035 BKN120 24/22 A2982 RMK AO2 SLP097 T02390222 $=
06/08/2016 08:51->METAR KJFK 060851Z 22009G14KT 10SM BKN022 23/21 A2982 RMK AO2 SLP097 T02330211 56016 $=
06/08/2016 07:51->METAR KJFK 060751Z 21008KT 10SM BKN032 24/21 A2983 RMK AO2 SLP102 T02330211 $=
06/08/2016 06:51->METAR KJFK 060651Z 23009KT 10SM BKN033 23/21 A2984 RMK AO2 SLP106 T02330206 $=
06/08/2016 05:51->METAR KJFK 060551Z 23012KT 10SM BKN036 23/20 A2987 RMK AO2 SLP114 T02330206 58009 $=
06/08/2016 04:51->METAR KJFK 060451Z 23010KT 10SM SCT036 SCT250 24/20 A2989 RMK AO2 SLP120 T02330200 $=
06/08/2016 03:51->METAR KJFK 060351Z COR 22009G14KT 10SM FEW250 24/21 A2988 RMK AO2 SLP119 T02390211=
06/08/2016 02:51->METAR KJFK 060251Z 20012G16KT 10SM FEW045 FEW075 FEW250 24/21 A2990 RMK AO2 SLP123 T02390211 58007 $=
06/08/2016 01:51->METAR KJFK 060151Z 20012G18KT 10SM FEW045 FEW075 FEW250 24/20 A2991 RMK AO2 SLP127 T02440200 $=
06/08/2016 00:51->METAR KJFK 060051Z 19014G19KT 10SM SCT045 BKN075 BKN250 25/21 A2991 RMK AO2 SLP127 T02500206 $=
05/08/2016 23:51->METAR KJFK 052351Z 19016G27KT 10SM BKN045 BKN080 BKN250 25/20 A2992 RMK AO2 SLP130 T02440206 56010 $=
05/08/2016 22:51->METAR KJFK 052251Z 18017G24KT 10SM BKN050 BKN080 BKN250 25/18 A2992 RMK AO2 SLP130 T02560183 $=
05/08/2016 21:51->METAR KJFK 052151Z 18014G22KT 10SM FEW045 FEW080 SCT250 26/16 A2992 RMK AO2 SLP132 T02610156 $=
05/08/2016 20:51->METAR KJFK 052051Z 18015G22KT 10SM FEW045 SCT080 SCT250 25/17 A2995 RMK AO2 SLP140 T02560167 58021 $=
05/08/2016 19:51->METAR KJFK 051951Z 17016G21KT 10SM FEW045 FEW060 SCT250 25/18 A2998 RMK AO2 SLP150 T02500178 $=
05/08/2016 18:51->METAR KJFK 051851Z 18014G19KT 10SM FEW045 SCT250 27/18 A2999 RMK AO2 SLP156 T02720178 $=
05/08/2016 17:51->METAR KJFK 051751Z 18012G16KT 10SM FEW045 FEW250 27/19 A3001 RMK AO2 SLP161 T02670189 58012 $=
05/08/2016 16:51->METAR KJFK 051651Z 19008KT 10SM FEW042 FEW250 27/19 A3002 RMK AO2 SLP165 T02670194 $=
05/08/2016 15:51->METAR KJFK 051551Z COR 19009KT 10SM FEW037 FEW250 26/19 A3003 RMK AO2 SLP170 T02560189 $=
05/08/2016 14:51->METAR KJFK 051451Z 20008KT 10SM FEW033 FEW250 25/18 A3004 RMK AO2 SLP173 T02500183 58012 $=
05/08/2016 13:51->METAR KJFK 051351Z 20005KT 10SM FEW030 FEW250 24/17 A3006=
05/08/2016 12:51->METAR KJFK 051251Z 24004KT 10SM FEW027 FEW060 FEW250 23/17 A3007 RMK AO2 SLP182 T02330172 $=
05/08/2016 11:51->METAR KJFK 051151Z 24006KT 10SM FEW060 22/17 A3008 RMK AO2 SLP185 T02170172 51005 $=
05/08/2016 10:51->METAR KJFK 051051Z 00000KT 10SM SCT060 SCT250 21/18 A3008 RMK AO2 SLP184 T02060183 $=
05/08/2016 09:51->METAR KJFK 050951Z 23004KT 10SM FEW060 FEW250 20/19 A3007 RMK AO2 SLP182 T02000189 $=
05/08/2016 08:51->METAR KJFK 050851Z 22006KT 10SM FEW055 FEW250 20/19 A3006=
05/08/2016 07:51->METAR KJFK 050751Z 23007KT 10SM FEW055 FEW250 21/18 A3007 RMK AO2 SLP183 T02110178 $=
05/08/2016 06:51->METAR KJFK 050651Z 24007KT 10SM FEW012 FEW060 SCT250 20/19 A3008 RMK AO2 SLP185 T02000189 $=
05/08/2016 05:51->METAR KJFK 050551Z 23007KT 10SM FEW013 SCT250 21/19 A3009 RMK AO2 SLP187 T02110189 58004 $=
05/08/2016 04:51->METAR KJFK 050451Z 21006KT 10SM FEW012 SCT250 22/20 A3009=
05/08/2016 03:51->METAR KJFK 050351Z 21008KT 10SM FEW025 BKN250 22/18 A3010 RMK AO2 SLP192 T02220178 $=
05/08/2016 02:51->METAR KJFK 050251Z 19006KT 10SM BKN250 23/18 A3010 RMK AO2 SLP191 T02280178 56003 CHINO W $=
05/08/2016 01:51->METAR KJFK 050151Z 19005KT 10SM BKN250 23/18 A3010 RMK AO2 SLP192 T02330183 CHINO W $=
05/08/2016 00:51->METAR KJFK 050051Z 18007KT 10SM FEW050 BKN250 23/18 A3010 RMK AO2 SLP193 T02280183 $=
04/08/2016 23:51->METAR KJFK 042351Z 16009KT 10SM FEW050 SCT250 24/18 A3011 RMK AO2 SLP194 T02390183 56010 $=
04/08/2016 22:51->METAR KJFK 042251Z 17010KT 10SM FEW050 SCT250 25/16 A3011 RMK AO2 SLP197 T02440156 $=
04/08/2016 21:51->METAR KJFK 042151Z 18011KT 10SM FEW050 SCT250 25/16 A3012 RMK AO2 SLP200 T02500161 $=
04/08/2016 20:51->METAR KJFK 042051Z 18010KT 10SM FEW050 SCT250 25/16 A3014 RMK AO2 SLP204 T02500161 56011 $=
04/08/2016 19:51->METAR KJFK 041951Z 17011KT 10SM FEW045 SCT250 25/17 A3014 RMK AO2 SLP206 T02440172 $=
04/08/2016 18:51->METAR KJFK 041851Z 18010KT 10SM FEW042 SCT250 26/19 A3015 RMK AO2 SLP211 T02560189 $=
04/08/2016 17:51->METAR KJFK 041751Z 19008G14KT 10SM FEW042 FEW250 26/19 A3017 RMK AO2 SLP216 T02610194 58005 $=
04/08/2016 16:51->METAR KJFK 041651Z 16008KT 10SM FEW036 FEW250 27/19 A3018 RMK AO2 SLP218 T02670189 $=
04/08/2016 16:00->METAR KJFK NIL=
04/08/2016 15:51->METAR KJFK 041551Z 19007KT 10SM FEW030 FEW250 26/18 A3018 RMK AO2 SLP219 T02560183 $=
04/08/2016 14:51->METAR KJFK 041451Z 16006KT 10SM FEW026 FEW250 25/18 A3018 RMK AO2 SLP221 T02500183 55001 $=
04/08/2016 13:51->METAR KJFK 041351Z 00000KT 10SM FEW022 FEW250 24/19 A3017 RMK AO2 SLP216 T02390189 $=
04/08/2016 12:51->METAR KJFK 041251Z 00000KT 10SM FEW020 FEW250 23/17 A3017 RMK AO2 SLP218 T02330172 $=
04/08/2016 11:51->METAR KJFK 041151Z 07003KT 10SM FEW018 FEW250 22/18 A3019 RMK AO2 SLP222 T02220183 10222 20178 51013=
04/08/2016 10:51->METAR KJFK 041051Z 05004KT 10SM FEW015 19/17 A3018=
04/08/2016 09:51->METAR KJFK 040951Z 00000KT 10SM FEW015 18/16 A3016 RMK AO2 SLP214 T01780156=
04/08/2016 08:51->METAR KJFK 040851Z 03003KT 10SM FEW012 18/16 A3015 RMK AO2 SLP209 T01830161 56002=
04/08/2016 07:51->METAR KJFK 040751Z 04004KT 10SM CLR 19/16 A3015 RMK AO2 SLP210 T01890161=
04/08/2016 06:51->METAR KJFK 040651Z 03004KT 10SM CLR 19/17 A3015 RMK AO2 SLP210 T01940167=
04/08/2016 05:51->METAR KJFK 040551Z 00000KT 10SM CLR 19/17 A3016 RMK AO2 SLP211 T01940167 10228 20194 58006=
04/08/2016 04:51->METAR KJFK 040451Z 15003KT 10SM CLR 20/16 A3017 RMK AO2 SLP216 T02000161 402610178=
04/08/2016 03:51->METAR KJFK 040351Z 10003KT 10SM CLR 21/17 A3018 RMK AO2 SLP218 T02060172=
04/08/2016 02:51->METAR KJFK 040251Z 12004KT 10SM FEW250 21/17 A3018 RMK AO2 SLP218 T02110167 51003=
04/08/2016 01:51->METAR KJFK 040151Z 12006KT 10SM FEW250 22/17 A3017 RMK AO2 SLP217 T02170172=
04/08/2016 00:51->METAR KJFK 040051Z 12006KT 10SM FEW055 FEW250 22/16 A3017 RMK AO2 SLP217 T02170161=
03/08/2016 23:51->METAR KJFK 032351Z 12007KT 10SM FEW055 FEW250 23/14 A3017=
03/08/2016 22:51->METAR KJFK 032251Z 12010KT 10SM FEW055 FEW250 24/14 A3016 RMK AO2 SLP211 T02390144=
03/08/2016 21:51->METAR KJFK 032151Z 12009KT 10SM FEW055 FEW250 24/15 A3015 RMK AO2 SLP211 T02440150=
03/08/2016 20:51->METAR KJFK 032051Z 12011KT 10SM FEW050 FEW250 26/14 A3016 RMK AO2 SLP211 T02560144 58010=
03/08/2016 19:51->METAR KJFK 031951Z 13010KT 10SM FEW050 FEW250 26/14 A3017 RMK AO2 SLP216 T02560144=
03/08/2016 18:51->METAR KJFK 031851Z 13012KT 10SM FEW050 FEW250 26/13 A3018 RMK AO2 SLP221 T02560128=
03/08/2016 17:51->METAR KJFK 031751Z 14008KT 10SM FEW050 FEW250 26/15 A3019 RMK AO2 SLP221 T02610150 10261 20211 58002=
03/08/2016 16:51->METAR KJFK 031651Z 11010KT 10SM FEW050 26/12 A3019 RMK AO2 SLP224 T02560117=
03/08/2016 15:51->METAR KJFK 031551Z 14010KT 10SM FEW045 26/14 A3020=
03/08/2016 14:51->METAR KJFK 031451Z 11008KT 10SM FEW045 25/13 A3019 RMK AO2 SLP223 T02500128 53005=
03/08/2016 13:51->METAR KJFK 031351Z 07006KT 10SM FEW043 24/13 A3018 RMK AO2 SLP220 T02440133=
03/08/2016 12:51->METAR KJFK 031251Z 04007KT 10SM FEW021 23/17 A3018 RMK AO2 SLP220 T02280167=
03/08/2016 11:51->METAR KJFK 031151Z 05007KT 10SM FEW013 FEW037 21/18 A3018 RMK AO2 SLP218 T02060178 10211 20178 51015=
03/08/2016 10:51->METAR KJFK 031051Z 03007KT 10SM FEW017 FEW035 FEW250 19/17 A3016 RMK AO2 SLP214 T01940167=
03/08/2016 09:51->METAR KJFK 030951Z 03006KT 10SM FEW035 19/17 A3014 RMK AO2 SLP207 T01890167=
03/08/2016 08:51->METAR KJFK 030851Z 03004KT 10SM CLR 18/17 A3013 RMK AO2 SLP203 T01830167 57003=
03/08/2016 07:51->METAR KJFK 030751Z 36006KT 10SM CLR 19/17 A3014 RMK AO2 SLP205 T01890172=
03/08/2016 06:51->METAR KJFK 030651Z 02004KT 10SM CLR 19/16 A3013 RMK AO2 SLP204 T01890156=
03/08/2016 05:51->METAR KJFK 030551Z 00000KT 10SM CLR 19/15 A3014 RMK AO2 SLP206 T01890150 10233 20189 58001=
03/08/2016 04:51->METAR KJFK 030451Z 01004KT 10SM CLR 19/14 A3015 RMK AO2 SLP208 T01940144 402610194=
03/08/2016 03:51->METAR KJFK 030351Z 02006KT 10SM CLR 21/14 A3014 RMK AO2 SLP207 T02060144=
03/08/2016 02:51->METAR KJFK 030251Z 04004KT 10SM FEW035 21/14 A3014 RMK AO2 SLP207 T02060139 51009=
03/08/2016 01:51->METAR KJFK 030151Z 00000KT 10SM FEW030 FEW055 22/14 A3014 RMK AO2 SLP207 T02170139=
03/08/2016 00:51->METAR KJFK 030051Z 06005KT 10SM FEW055 22/14 A3013 RMK AO2 SLP203 T02170144=
02/08/2016 23:51->METAR KJFK 022351Z 04007KT 10SM FEW030 FEW055 23/15 A3012 RMK AO2 SLP198 T02330150 10261 20233 51003=
02/08/2016 22:51->METAR KJFK 022251Z 05009KT 10SM FEW036 SCT055 24/15 A3011 RMK AO2 SLP196 T02440150=
02/08/2016 21:51->METAR KJFK 022151Z 05010KT 10SM FEW036 BKN060 25/14 A3012 RMK AO2 SLP198 T02500144=
02/08/2016 20:51->METAR KJFK 022051Z 03012KT 10SM FEW025 SCT036 BKN055 25/14 A3011 RMK AO2 SLP195 T02500144 58004=
02/08/2016 19:51->METAR KJFK 021951Z 05010KT 10SM FEW025 BKN036 BKN048 25/16 A3011 RMK AO2 SLP195 T02500161=
02/08/2016 18:51->METAR KJFK 021851Z 11010KT 10SM SCT025 BKN033 BKN050 23/19 A3012 RMK AO2 SLP199 T02330194=
02/08/2016 17:51->METAR KJFK 021751Z 10007KT 10SM BKN038 BKN055 24/17 A3012 RMK AO2 SLP199 T02440167 10261 20222 53005=
02/08/2016 16:51->METAR KJFK 021651Z 05008KT 10SM BKN037 BKN060 26/15 A3011 RMK AO2 SLP196 T02560150=
02/08/2016 15:51->METAR KJFK 021551Z 06008KT 10SM SCT031 BKN055 25/15 A3011 RMK AO2 SLP194 T02500150=
02/08/2016 14:51->METAR KJFK 021451Z 04009KT 10SM SCT029 BKN050 BKN110 24/16 A3011 RMK AO2 SLP194 T02440161 51009=
02/08/2016 13:51->METAR KJFK 021351Z 07010KT 10SM SCT022 SCT075 SCT250 24/17 A3009 RMK AO2 SLP188 T02390172=
02/08/2016 12:51->METAR KJFK 021251Z 05013KT 10SM SCT037 BKN050 BKN110 BKN150 23/17 A3010 RMK AO2 SLP193 T02280172=
02/08/2016 11:51->METAR KJFK 021151Z 06010KT 10SM FEW037 SCT050 BKN110 BKN150 22/17 A3008 RMK AO2 SLP185 T02220172 10222 20211 51011=
02/08/2016 10:51->METAR KJFK 021051Z 03009KT 10SM SCT037 BKN065 BKN080 BKN130 22/18 A3007 RMK AO2 SLP183 VIRGA SW T02170178=
02/08/2016 09:51->METAR KJFK 020951Z 02007KT 10SM FEW020 OVC060 22/17 A3006 RMK AO2 SLP178 T02170172=
02/08/2016 08:51->METAR KJFK 020851Z 03006KT 10SM FEW020 OVC060 22/18 A3005 RMK AO2 SLP174 T02170178 55004=
02/08/2016 07:51->METAR KJFK 020751Z 06006KT 10SM FEW020 OVC060 22/18 A3004 RMK AO2 SLP172 T02170183=
02/08/2016 06:51->METAR KJFK 020651Z 06005KT 10SM FEW020 OVC060 22/18 A3006 RMK AO2 SLP178 T02170183=
02/08/2016 05:51->METAR KJFK 020551Z 07004KT 10SM SCT018 SCT250 22/18 A3006 RMK AO2 SLP178 T02170183 10228 20217 56003=
02/08/2016 04:51->METAR KJFK 020451Z 06005KT 10SM FEW015 SCT048 BKN250 22/19 A3006 RMK AO2 SLP180 T02170189 402560211=
02/08/2016 03:51->METAR KJFK 020351Z 07006KT 10SM SCT047 OVC250 22/19 A3006 RMK AO2 SLP178 T02220194=
02/08/2016 02:51->METAR KJFK 020251Z 09006KT 10SM OVC041 23/18 A3007 RMK AO2 SLP181 T02280183 50004=
02/08/2016 01:51->METAR KJFK 020151Z 09009KT 10SM FEW015 OVC036 23/18 A3009 RMK AO2 SLP188 T02280183=
02/08/2016 00:51->METAR KJFK 020051Z 09008KT 10SM FEW015 OVC032 23/19 A3007 RMK AO2 SLP182 T02280194=
01/08/2016 23:51->METAR KJFK 012351Z 09011KT 10SM FEW015 OVC031 23/19 A3006 RMK AO2 SLP178 T02280189 10256 20228 53007=
01/08/2016 22:51->METAR KJFK 012251Z 11012KT 10SM FEW015 BKN031 OVC250 23/20 A3004 RMK AO2 SLP173 T02330200=
01/08/2016 21:51->METAR KJFK 012151Z 13013KT 10SM BKN027 BKN050 BKN250 23/19 A3003 RMK AO2 SLP170 T02330194=
01/08/2016 20:51->METAR KJFK 012051Z 13011KT 10SM BKN025 BKN050 BKN250 25/19 A3003 RMK AO2 SLP169 T02500189 57013=
01/08/2016 19:51->METAR KJFK 011951Z 10008KT 10SM BKN024 26/19 A3004 RMK AO2 SLP174 T02560194=
01/08/2016 18:51->METAR KJFK 011851Z 11003KT 10SM OVC022 25/19 A3005 RMK AO2 SLP177 T02500189=
01/08/2016 17:51->METAR KJFK 011751Z 10006KT 10SM OVC021 24/19 A3007 RMK AO2 SLP182 T02440189 10244 20211 58003=
01/08/2016 16:51->METAR KJFK 011651Z 13007KT 10SM OVC020 24/19 A3008 RMK AO2 SLP186 T02390194=
01/08/2016 15:51->METAR KJFK 011551Z 11007KT 10SM FEW012 OVC019 24/19 A3007 RMK AO2 SLP184 T02390189=
01/08/2016 14:51->METAR KJFK 011451Z 12006KT 10SM BKN015 BKN110 BKN320 24/20 A3008 RMK AO2 SLP185 CIG 013V017 T02390200 53001=
01/08/2016 13:51->METAR KJFK 011351Z 05007KT 10SM BKN010 OVC022 22/18 A3007 RMK AO2 SLP182 CIG 009V011 T02220183=
01/08/2016 12:51->METAR KJFK 011251Z 04008KT 10SM OVC008 21/18 A3008 RMK AO2 SLP185 T02110183=
01/08/2016 11:51->METAR KJFK 011151Z 03007KT 10SM OVC008 21/19 A3007 RMK AO2 SLP184 70045 T02110189 10222 20211 51015=
01/08/2016 10:51->METAR KJFK 011051Z 07005KT 10SM OVC009 21/19 A3006 RMK AO2 SLP180 T02110189=
01/08/2016 09:51->METAR KJFK 010951Z 08007KT 10SM OVC010 21/19 A3006 RMK AO2 SLP177 T02110194=
01/08/2016 08:51->METAR KJFK 010851Z 04007KT 10SM OVC011 22/19 A3003 RMK AO2 SLP169 T02170194 53002=
01/08/2016 07:51->METAR KJFK 010751Z 05007KT 10SM OVC010 22/20 A3003 RMK AO2 SLP167 T02170200=
01/08/2016 06:51->METAR KJFK 010651Z 04009KT 10SM BKN008 OVC020 22/21 A3001 RMK AO2 SLP162 T02220206=
01/08/2016 05:51->METAR KJFK 010551Z 03010KT 10SM FEW009 OVC018 22/20 A3003 RMK AO2 RAE20 SLP167 P0000 60030 T02220200 10239 20222 58003=
01/08/2016 04:51->METAR KJFK 010451Z 02007KT 10SM -RA SCT009 BKN055 OVC120 23/21 A3004 RMK AO2 RAE25B51 SLP171 P0002 T02280211 402670228=
01/08/2016 03:51->METAR KJFK 010351Z 03008KT 6SM RA BR OVC010 23/21 A3004 RMK AO2 RAE0256B35 SLP173 P0002 T02280211=
01/08/2016 02:51->METAR KJFK 010251Z 02005KT 10SM -RA BKN015 OVC031 23/21 A3003 RMK AO2 RAB29 TSE49 SLP170 PK WND 09031/0235 OCNL LTGIC DSNT E-SE CB DSNT E-SE MOV SE P0026 60026 T02280211 53012=
01/08/2016 01:51->METAR KJFK 010151Z 07007KT 10SM TS FEW009 BKN014 BKN021CB BKN140 24/21 A3002 RMK AO2 TSB40 SLP164 OCNL LTGIC NW TS NW MOV SE T02390211=
01/08/2016 00:51->METAR KJFK 010051Z 08007KT 10SM SCT015 BKN021 BKN080 24/21 A3002 RMK AO2 SLP164 T02390211=
