26/08/2023 05:51->METAR KJFK 260551Z 19003KT 8SM FEW060 BKN075 BKN150 22/22 A2982 RMK AO2 SLP099 T02220222 10228 20217 58006 $=
31/07/2023 23:51->METAR KJFK 312351Z 20011KT 10SM FEW075 FEW110 SCT250 23/18 A2998 RMK SLP152 T02330178 10272 20233 51008=
30/06/2023 23:51->METAR KJFK 302351Z 16009KT 7SM BKN250 22/18 A3005 RMK AO2 SLP176 T02220178 10278 20222 55000=
31/05/2023 23:51->METAR KJFK 312351Z 13005KT 10SM FEW250 FEW300 17/13 A3016 RMK AO2 SLP212 FU FEW300 T01670128 10211 20167 56004=
30/04/2023 23:51->METAR KJFK 302351Z 09008KT 1/2SM -RA BR OVC002 14/14 A2920 RMK SFC VIS 2 1/2 SLP889 P0003 60099 T01440144 10150 20133 58043=
