202303251851 METAR KJFK 251851Z 10023G35KT 5SM -RA BR BKN012 OVC023 06/05 A2985 RMK AO2 PRESFR SLP113 T00610050 PNO $=
202303251758 SPECI KJFK 251758Z 10016G25KT 2SM -RA BR SCT014 OVC023 06/04 A2993 RMK AO2 T00610044 PNO $=
202303251751 METAR KJFK 251751Z 10016G25KT 6SM -RA BR SCT014 OVC023 06/04 A2993 RMK AO2 SLP140 6//// T00610044 56030 PNO $=
202303251651 METAR KJFK 251651Z 10021G28KT 6SM -RA BR SCT017 OVC037 06/04 A2996 RMK AO2 SLP150 T00560044 PNO $=
202303251551 METAR KJFK 251551Z 10019G26KT 10SM -RA FEW012 OVC042 06/04 A2998 RMK AO2 RAB18 SLP157 T00610039 PNO $=
202303251451 METAR KJFK 251451Z 10016KT 10SM FEW012 OVC043 06/03 A3002 RMK AO2 SLP171 T00610028 58013 $=
202303251351 METAR KJFK 251351Z 11016KT 10SM FEW012 OVC055 06/02 A3008 RMK AO2 SLP191 T00610022 $=
202303251251 METAR KJFK 251251Z 10014KT 10SM FEW012 OVC055 06/02 A3007 RMK AO2 SLP182 T00610022 $=
202303251151 METAR KJFK 251151Z 09018KT 10SM OVC085 07/03 A3008 RMK AO2 SLP185 6//// 7//// T00720028 50006 PNO $=
202303251051 METAR KJFK 251051Z 09018KT 10SM OVC085 07/03 A3010 RMK AO2 RAB03E18 SLP192 P0000 T00670028=
202303250951 METAR KJFK 250951Z 10015G22KT 10SM FEW012 BKN090 BKN110 07/03 A3008 RMK AO2 SLP186 T00670033=
202303250851 METAR KJFK 250851Z 07011KT 10SM SCT110 SCT150 BKN250 06/00 A3006 RMK AO2 SLP179 T00610000 55011=
202303250751 METAR KJFK 250751Z 05009KT 10SM FEW100 SCT150 BKN250 06/M01 A3006 RMK AO2 SLP178 T00561011=
202303250651 METAR KJFK 250651Z 04006KT 10SM FEW100 SCT200 BKN250 04/M02 A3008 RMK AO2 SLP185 T00391022=
202303250551 METAR KJFK 250551Z 02003KT 10SM FEW100 FEW200 SCT250 06/M03 A3009 RMK AO2 SLP190 T00561028 10072 20044 53007=
202303250451 METAR KJFK 250451Z 05005KT 10SM FEW100 FEW200 SCT250 05/M02 A3008 RMK AO2 SLP184 T00501017 401390050=
202303250351 METAR KJFK 250351Z 03006KT 10SM FEW100 BKN220 BKN250 06/00 A3007 RMK AO2 SLP182 T00610000=
202303250251 METAR KJFK 250251Z 00000KT 10SM FEW100 SCT220 SCT250 07/02 A3007 RMK AO2 SLP183 T00720017 53018=
202303250151 METAR KJFK 250151Z 19005KT 10SM FEW100 BKN250 06/02 A3006 RMK AO2 SLP177 T00610022=
202303250051 METAR KJFK 250051Z 21005KT 10SM FEW100 BKN250 07/02 A3003 RMK AO2 SLP169 T00670022=
202303242351 METAR KJFK 242351Z 18004KT 10SM FEW100 BKN230 06/02 A3002 RMK AO2 SLP165 T00610022 10106 20061 51014=
202303242251 METAR KJFK 242251Z 18004KT 10SM FEW100 SCT220 BKN250 08/02 A3002 RMK AO2 SLP164 T00780017=
202303242151 METAR KJFK 242151Z 20006KT 10SM FEW100 SCT220 BKN250 09/01 A2999 RMK AO2 SLP155 T00890006=
202303242051 METAR KJFK 242051Z 20010KT 10SM FEW100 SCT190 BKN250 09/01 A2998 RMK AO2 SLP151 T00890006 53004=
202303241951 METAR KJFK 241951Z 21009KT 10SM FEW085 BKN190 BKN250 09/00 A2997 RMK AO2 SLP148 T00940000=
202303241851 METAR KJFK 241851Z 31003KT 10SM FEW085 BKN180 BKN230 10/M01 A2997 RMK AO2 SLP149 T01001011=
202303241751 METAR KJFK 241751Z VRB03KT 10SM SCT085 BKN170 BKN250 09/M01 A2997 RMK AO2 SLP147 60001 T00941006 10094 20056 58003=
202303241651 METAR KJFK 241651Z 33006KT 10SM BKN080 BKN180 BKN230 08/M01 A2998 RMK AO2 SLP153 T00781006=
202303241551 METAR KJFK 241551Z 35006KT 10SM BKN070 OVC230 06/M01 A2998 RMK AO2 SLP150 T00611006=
202303241451 METAR KJFK 241451Z 01009KT 10SM SCT080 BKN120 OVC230 07/00 A2998 RMK AO2 SLP150 60001 T00670000 51013=
202303241351 METAR KJFK 241351Z 35009KT 10SM FEW075 BKN110 OVC190 07/00 A2998 RMK AO2 RAE22 SLP150 P0001 T00670000=
202303241251 METAR KJFK 241251Z 33014G19KT 10SM -RA BKN100 OVC160 07/M01 A2998 RMK AO2 RAB10E33B49 PRESRR SLP150 P0000 T00671011=
202303241151 METAR KJFK 241151Z 32014KT 10SM FEW090 BKN120 OVC250 07/M01 A2994 RMK AO2 SLP138 70008 T00721011 10122 20072 53023=
202303241051 METAR KJFK 241051Z 34016G21KT 10SM FEW090 BKN140 OVC250 08/M02 A2990 RMK AO2 SLP125 T00831017=
202303240951 METAR KJFK 240951Z 31016KT 10SM FEW080 OVC160 09/M04 A2989 RMK AO2 SLP121 T00941039=
202303240851 METAR KJFK 240851Z 32014KT 10SM FEW040 SCT080 BKN230 10/02 A2987 RMK AO2 SLP114 T01000017 53009=
202303240751 METAR KJFK 240751Z 33013KT 10SM FEW040 SCT090 SCT250 11/05 A2985 RMK AO2 SLP106 T01060050=
202303240651 METAR KJFK 240651Z 32015KT 10SM FEW040 BKN080 OVC250 11/06 A2983 RMK AO2 SLP101 T01110061=
202303240551 METAR KJFK 240551Z 33016G23KT 10SM BKN043 OVC075 12/06 A2984 RMK AO2 SLP105 T01220061 10150 20122 53020=
202303240451 METAR KJFK 240451Z 34007KT 10SM FEW022 OVC043 14/09 A2981 RMK AO2 SLP094 T01390094 401500061=
202303240446 SPECI KJFK 240446Z 35006KT 10SM FEW022 OVC043 14/10 A2981 RMK AO2=
202303240351 METAR KJFK 240351Z 30010KT 9SM BKN027 OVC075 15/12 A2979 RMK AO2 SLP089 T01500117=
202303240251 METAR KJFK 240251Z 23009KT 9SM SCT110 SCT190 BKN250 12/11 A2978 RMK AO2 SLP085 T01220106 53006=
202303240151 METAR KJFK 240151Z 24007KT 9SM FEW050 SCT100 SCT130 BKN250 13/11 A2976 RMK AO2 SLP078 T01330106=
202303240051 METAR KJFK 240051Z 24008KT 9SM FEW120 FEW180 BKN250 13/11 A2977 RMK AO2 SLP080 T01330106=
202303232351 METAR KJFK 232351Z 24011KT 9SM FEW044 FEW120 BKN250 13/11 A2976 RMK AO2 SLP079 60000 T01330106 10139 20094 55009=
202303232251 METAR KJFK 232251Z 22011KT 8SM FEW023 FEW044 BKN120 BKN160 BKN250 12/09 A2976 RMK AO2 SLP078 T01170094=
202303232151 METAR KJFK 232151Z 23010KT 8SM SCT024 SCT044 SCT130 BKN190 OVC250 14/11 A2979 RMK AO2 SLP087 T01390106=
202303232051 METAR KJFK 232051Z 23010KT 9SM SCT017 SCT048 SCT200 BKN250 13/11 A2979 RMK SLP087 60000 101330106 56029=
202303231951 METAR KJFK 231951Z 23011KT 8SM BKN015 OVC049 12/11 A2982 RMK AO2 SLP097 T01170106=
202303231851 METAR KJFK 231851Z 19006KT 6SM BR BKN016 BKN036 OVC049 10/09 A2983 RMK AO2 RAB27E44 SLP102 P0000 T01000094=
202303231758 SPECI KJFK 231758Z 16006KT 7SM BKN016 BKN070 OVC090 10/09 A2987 RMK AO2 T01000089=
202303231751 METAR KJFK 231751Z 18006KT 7SM SCT020 BKN070 OVC090 10/09 A2988 RMK AO2 RAE20 SLP117 P0001 60008 T01000089 10111 20072 58029=
202303231651 METAR KJFK 231651Z 19008KT 5SM -RA BR SCT033 BKN060 OVC095 09/08 A2992 RMK AO2 SLP132 P0005 T00890083=
202303231551 METAR KJFK 231551Z 17008KT 6SM -RA BR BKN048 BKN075 OVC120 09/08 A2994 RMK AO2 RAB15 SLP140 P0002 T00890078=
202303231451 METAR KJFK 231451Z 21007KT 10SM FEW047 BKN110 BKN170 BKN250 11/07 A2996 RMK AO2 SLP146 T01060072 56025=
202303231351 METAR KJFK 231351Z 20012KT 10SM FEW060 BKN110 BKN230 10/07 A2999 RMK AO2 SLP154 T01000072=
202303231251 METAR KJFK 231251Z 18007KT 10SM FEW060 SCT095 BKN250 09/08 A3000 RMK AO2 SLP159 T00890078=
202303231151 METAR KJFK 231151Z 18009KT 7SM FEW003 BKN090 OVC220 07/07 A3004 RMK AO2 SLP171 T00720072 10078 20061 58014=
202303231111 SPECI KJFK 231111Z 16005KT 5SM BR FEW000 SCT003 OVC090 07/07 A3004 RMK AO2 VIS NW-NE 1 1/2 BR FEW000 T00670067=
202303231051 METAR KJFK 231051Z 18004KT 1/4SM R04R/P6000FT BR SCT000 OVC002 07/07 A3006 RMK AO2 SFC VIS 3/4 SLP179 BR SCT000 T00670067=
202303230951 METAR KJFK 230951Z 15005KT 1/4SM R04R/3000V4000FT FG VV002 06/06 A3008 RMK AO2 SFC VIS 1/2 SLP184 T00610061=
202303230934 SPECI KJFK 230934Z 16005KT 1/4SM R04R/2000V4000FT FG VV002 06/06 A3007 RMK AO2 T00610061=
202303230851 METAR KJFK 230851Z 12004KT 1/4SM R04R/1600V1800FT FG VV002 07/07 A3008 RMK AO2 SLP185 T00670067 56027=
202303230751 METAR KJFK 230751Z 15003KT 1/4SM R04R/1400V1600FT FG VV002 07/07 A3009 RMK AO2 SLP190 T00670067=
202303230651 METAR KJFK 230651Z 15004KT 1/4SM R04R/1600V2000FT FG VV002 07/07 A3013 RMK AO2 SLP202 T00720072=
202303230628 SPECI KJFK 230628Z 14004KT 1/4SM R04R/1800V2000FT FG VV002 07/07 A3014 RMK AO2 SFC VIS 1/2 T00720072=
202303230551 METAR KJFK 230551Z 17004KT 1/4SM R04R/3000V3500FT FG VV002 08/08 A3016 RMK AO2 SLP212 T00780078 10094 20078 58013=
202303230522 SPECI KJFK 230522Z 19007KT 1/4SM R04R/2000V2400FT FG VV002 08/08 A3017 RMK AO2 T00780078=
202303230451 METAR KJFK 230451Z 19006KT 1/2SM R04R/1800V2200FT FG OVC002 08/08 A3018 RMK AO2 SLP219 T00780078 401280022=
202303230351 METAR KJFK 230351Z 18013KT 1/2SM R04R/P6000FT BR OVC003 09/08 A3019 RMK AO2 SFC VIS 2 1/2 SLP222 T00890083=
202303230337 SPECI KJFK 230337Z 18013KT 1/2SM R04R/P6000FT BR OVC004 09/08 A3018 RMK AO2 SFC VIS 4 T00890083=
202303230251 METAR KJFK 230251Z 18013KT 10SM OVC007 09/08 A3020 RMK AO2 SLP225 T00940078 58011=
202303230233 SPECI KJFK 230233Z 17013KT 9SM OVC007 09/08 A3019 RMK AO2 T00890078=
202303230151 METAR KJFK 230151Z 17015KT 10SM BKN013 OVC110 09/07 A3021 RMK AO2 SLP229 T00890072=
202303230140 SPECI KJFK 230140Z 17016KT 10SM BKN015 BKN110 BKN250 09/07 A3021 RMK AO2 T00890072=
202303230051 METAR KJFK 230051Z 17014KT 10SM FEW012 BKN120 BKN250 08/07 A3022 RMK AO2 SLP233 T00830072=
202303222351 METAR KJFK 222351Z 17015KT 10SM FEW020 BKN140 BKN250 09/07 A3023 RMK AO2 SLP236 T00890072 10128 20089 55008=
202303222251 METAR KJFK 222251Z 17018KT 10SM BKN110 BKN140 BKN250 09/07 A3022 RMK AO2 SLP234 T00890072=
202303222151 METAR KJFK 222151Z 17017KT 10SM FEW120 BKN150 BKN250 10/07 A3023 RMK AO2 PK WND 17027/2135 SLP237 T01000072=
202303222051 METAR KJFK 222051Z 17021KT 10SM FEW080 BKN140 BKN250 11/07 A3025 RMK AO2 PK WND 17027/2026 SLP244 T01060067 56025=
202303221951 METAR KJFK 221951Z 17018G26KT 10SM FEW080 SCT110 BKN230 12/06 A3027 RMK AO2 PK WND 18026/1946 SLP249 T01170061=
202303221851 METAR KJFK 221851Z 18018G24KT 10SM FEW080 BKN110 BKN230 12/03 A3030 RMK AO2 SLP261 T01220028=
202303221751 METAR KJFK 221751Z 18008KT 10SM BKN110 BKN250 11/05 A3033 RMK AO2 SLP269 T01060050 10111 20056 58020=
202303221651 METAR KJFK 221651Z 15010KT 10SM SCT100 BKN250 11/04 A3035 RMK SLP276 T01060039=
202303221551 METAR KJFK 221551Z 17006KT 10SM FEW120 SCT150 BKN250 09/01 A3038 RMK SLP286 T00940011=
202303221451 METAR KJFK 221451Z 16005KT 10SM SCT150 BKN250 09/M01 A3039 RMK SLP289 T00891011 58008=
202303221351 METAR KJFK 221351Z 18006KT 10SM BKN150 OVC250 08/M01 A3039 RMK SLP292 T00781006=
202303221251 METAR KJFK 221251Z 19006KT 10SM BKN170 BKN250 07/00 A3041 RMK SLP297 T00670000=
202303221151 METAR KJFK 221151Z 19005KT 10SM BKN170 BKN250 06/01 A3041 RMK SLP297 T00560011 10056 20022 53006=
202303221051 METAR KJFK 221051Z 21008KT 10SM SCT170 BKN250 04/M01 A3040 RMK SLP293 T00441006=
202303220951 METAR KJFK 220951Z 21007KT 10SM SCT170 OVC250 04/M01 A3039 RMK SLP291 T00441006=
202303220851 METAR KJFK 220851Z 23008KT 10SM FEW170 BKN250 02/M01 A3039 RMK SLP291 T00221011 53000=
202303220751 METAR KJFK 220751Z 23009KT 10SM BKN250 03/M01 A3039 RMK SLP290 T00331011=
202303220651 METAR KJFK 220651Z 22007KT 10SM BKN250 03/M02 A3039 RMK SLP290 T00331017=
202303220551 METAR KJFK 220551Z 22008KT 10SM SCT250 05/M01 A3039 RMK SLP290 T00501011 10094 20050 51006=
202303220451 METAR KJFK 220451Z 22008KT 10SM SCT250 05/M02 A3039 RMK SLP289 T00501017 401440000=
202303220351 METAR KJFK 220351Z 23011KT 10SM BKN250 07/M02 A3038 RMK SLP287 T00721017=
202303220251 METAR KJFK 220251Z 20006KT 10SM BKN250 07/01 A3037 RMK SLP284 T00670006 51009=
202303220151 METAR KJFK 220151Z 22008KT 10SM BKN250 08/00 A3037 RMK SLP282 T00830000=
202303220051 METAR KJFK 220051Z 22008KT 10SM BKN250 08/M01 A3036 RMK SLP279 T00831006=
202303212351 METAR KJFK 212351Z AUTO 20008KT 10SM 07/02 A3035 RMK AO2 SLP276 6//// T00720022 10144 20072 TSNO $=
202303212251 METAR KJFK 212251Z 20011KT 10SM BKN250 08/03 A3033 RMK SLP271 T00830028=
202303212151 METAR KJFK 212151Z 19016KT 10SM CLR 10/01 A3032 RMK AO2 SLP266 T01000006 $=
202303212051 METAR KJFK 212051Z 19018KT 10SM SCT250 11/00 A3033 RMK AO2 SLP270 T01060000 58010=
202303211951 METAR KJFK 211951Z 17017KT 10SM FEW250 11/00 A3034 RMK AO2 SLP275 T01110000=
202303211851 METAR KJFK 211851Z 18013KT 10SM FEW250 12/M02 A3035 RMK AO2 SLP276 T01221022=
202303211751 METAR KJFK 211751Z 21012KT 10SM FEW250 14/M06 A3036 RMK AO2 SLP281 T01391056 10139 20039 58008=
202303211651 METAR KJFK 211651Z 21012KT 10SM CLR 12/M04 A3038 RMK SLP288 T01221044=
202303211551 METAR KJFK 211551Z 23009KT 10SM FEW250 12/M05 A3039 RMK SLP289 T01221050=
202303211451 METAR KJFK 211451Z 27010KT 10SM FEW250 11/M07 A3039 RMK SLP289 T01111067 53007=
202303211351 METAR KJFK 211351Z 22007KT 10SM FEW250 08/M02 A3038 RMK SLP286 T00781017=
202303211251 METAR KJFK 211251Z 24007KT 10SM FEW250 06/M03 A3037 RMK SLP284 T00611033=
202303211151 METAR KJFK 211151Z 25005KT 10SM FEW250 04/M03 A3037 RMK SLP282 T00391028 10050 20000 51012=
202303211051 METAR KJFK 211051Z 24009KT 10SM CLR 02/M03 A3036 RMK AO2 SLP280 T00221033=
202303210951 METAR KJFK 210951Z 24008KT 10SM CLR 01/M03 A3035 RMK AO2 SLP278 T00111028=
202303210851 METAR KJFK 210851Z 24007KT 10SM CLR 02/M02 A3033 RMK AO2 SLP271 T00171022 53009=
202303210751 METAR KJFK 210751Z 22008KT 10SM CLR 02/M02 A3032 RMK AO2 SLP267 T00221022=
202303210651 METAR KJFK 210651Z 25007KT 10SM CLR 03/M03 A3031 RMK AO2 SLP264 T00331033=
202303210551 METAR KJFK 210551Z 25012KT 10SM CLR 04/M03 A3031 RMK AO2 SLP262 T00441033 10056 20039 51009=
202303210451 METAR KJFK 210451Z 24011KT 10SM CLR 04/M02 A3030 RMK AO2 SLP261 T00441022 400671006=
202303210351 METAR KJFK 210351Z 23010KT 10SM CLR 05/M02 A3029 RMK AO2 SLP256 T00501022=
202303210251 METAR KJFK 210251Z 23010KT 10SM CLR 05/M02 A3028 RMK AO2 SLP252 T00501017 51011=
202303210151 METAR KJFK 210151Z 22012KT 10SM CLR 06/M01 A3027 RMK AO2 SLP250 T00561006=
202303210051 METAR KJFK 210051Z 20011KT 10SM CLR 05/01 A3026 RMK AO2 SLP245 T00500006=
202303210000 METAR KJFK 182351Z 27021G26KT 10SM FEW075 FEW250 09/M07 A2975 RMK AO2 PK WND 27026/2326 SLP073 T00891072 10111 20083 51023=
202303202351 METAR KJFK 202351Z 19015KT 10SM CLR 05/01 A3025 RMK AO2 SLP242 T00500011 10067 20050 55004=
202303202251 METAR KJFK 202251Z 18016KT 10SM CLR 05/00 A3024 RMK AO2 SLP240 T00500000=
202303202151 METAR KJFK 202151Z 18015KT 10SM FEW250 06/M01 A3025 RMK AO2 SLP241 T00611006=
202303202051 METAR KJFK 202051Z 17016KT 10SM FEW250 06/M02 A3026 RMK AO2 SLP245 T00611022 56012=
202303201951 METAR KJFK 201951Z 17013KT 10SM FEW250 07/M04 A3027 RMK AO2 SLP249 T00671039=
202303201851 METAR KJFK 201851Z 19012KT 10SM FEW250 06/M06 A3027 RMK AO2 SLP250 T00611056=
202303201751 METAR KJFK 201751Z 18012KT 10SM FEW250 06/M06 A3029 RMK AO2 SLP257 T00611056 10067 20006 58015=
202303201651 METAR KJFK 201651Z 22010KT 10SM FEW250 07/M07 A3031 RMK AO2 SLP264 T00671072=
202303201551 METAR KJFK 201551Z 24010KT 10SM CLR 05/M06 A3032 RMK AO2 SLP268 T00501061=
202303201451 METAR KJFK 201451Z 23010KT 10SM CLR 04/M06 A3034 RMK AO2 SLP272 T00391056 50006=
202303201351 METAR KJFK 201351Z 22007KT 10SM FEW250 03/M08 A3034 RMK AO2 SLP273 T00281078 $=
202303201251 METAR KJFK 201251Z 25007KT 10SM FEW250 02/M08 A3033 RMK AO2 SLP271 T00171083 $=
202303201151 METAR KJFK 201151Z 25008KT 10SM FEW250 01/M08 A3032 RMK AO2 SLP265 T00061083 10006 21006 53018 $=
202303201051 METAR KJFK 201051Z 27010KT 10SM FEW250 00/M09 A3029 RMK AO2 SLP256 T00001094 $=
202303200951 METAR KJFK 200951Z 27010KT 10SM CLR M01/M09 A3028 RMK AO2 SLP254 T10061089 $=
202303200851 METAR KJFK 200851Z 27008KT 10SM CLR M01/M09 A3026 RMK AO2 SLP247 T10061094 51008 $=
202303200751 METAR KJFK 200751Z 26010KT 10SM CLR 00/M09 A3026 RMK AO2 SLP245 T00001089=
202303200651 METAR KJFK 200651Z 25008KT 10SM CLR M01/M08 A3025 RMK AO2 SLP242 T10061083=
202303200551 METAR KJFK 200551Z 26011KT 10SM CLR 01/M09 A3024 RMK AO2 SLP239 T00061089 10028 20006 53016=
202303200451 METAR KJFK 200451Z 26010KT 10SM CLR 01/M09 A3022 RMK AO2 SLP232 T00061094 400501011=
202303200351 METAR KJFK 200351Z 26010KT 10SM CLR 01/M10 A3021 RMK AO2 SLP229 T00111100=
202303200251 METAR KJFK 200251Z 27010KT 10SM CLR 02/M10 A3019 RMK AO2 SLP223 T00171100 51027=
202303200151 METAR KJFK 200151Z 28013KT 10SM CLR 02/M11 A3017 RMK AO2 SLP216 T00171106=
202303200051 METAR KJFK 200051Z 27015G20KT 10SM CLR 02/M11 A3015 RMK AO2 SLP207 T00221106=
202303192351 METAR KJFK 192351Z 28014G22KT 10SM CLR 02/M12 A3011 RMK AO2 SLP197 T00221117 10039 20022 53026=
202303192251 METAR KJFK 192251Z 28014G21KT 10SM SCT065 02/M12 A3008 RMK AO2 SLP187 T00221117=
202303192151 METAR KJFK 192151Z 29016KT 10SM SCT065 03/M12 A3006 RMK AO2 PK WND 27027/2129 SLP178 T00331117=
202303192051 METAR KJFK 192051Z 30018G26KT 10SM SCT065 04/M12 A3004 RMK AO2 PK WND 29029/2023 SLP171 T00391117 53006=
202303191951 METAR KJFK 191951Z 29017KT 10SM BKN070 04/M12 A3002 RMK AO2 PK WND 27028/1913 SLP165 T00391122=
202303191851 METAR KJFK 191851Z 28017G23KT 10SM SCT065 03/M12 A3001 RMK AO2 PK WND 27030/1752 SLP163 T00331117=
202303191751 METAR KJFK 191751Z 27024G31KT 10SM SCT065 03/M12 A3002 RMK AO2 PK WND 27031/1751 SLP164 T00331117 10039 21006 58001=
202303191651 METAR KJFK 191651Z 30017G23KT 10SM SCT060 03/M12 A3002 RMK AO2 PK WND 29029/1612 SLP164 T00331122=
202303191551 METAR KJFK 191551Z 29019G27KT 10SM FEW060 02/M12 A3003 RMK AO2 PK WND 30027/1546 SLP167 T00221122=
202303191451 METAR KJFK 191451Z 30016G23KT 10SM FEW055 FEW200 01/M13 A3002 RMK AO2 PK WND 29028/1437 SLP165 T00111128 51009=
202303191351 METAR KJFK 191351Z 28015G20KT 10SM FEW055 FEW200 01/M13 A3001 RMK AO2 SLP162 T00061128=
202303191251 METAR KJFK 191251Z 29014G21KT 10SM FEW055 FEW200 00/M14 A3001 RMK AO2 SLP161 T00001144=
202303191151 METAR KJFK 191151Z 30017G25KT 10SM FEW055 SCT200 M01/M14 A2999 RMK AO2 SLP156 T10061139 10044 21011 51029=
202303191051 METAR KJFK 191051Z 31018KT 10SM SCT055 BKN200 M01/M14 A2997 RMK AO2 PK WND 31026/1034 SLP149 T10111139=
202303190951 METAR KJFK 190951Z 28017G26KT 10SM FEW065 SCT250 00/M12 A2994 RMK AO2 PK WND 29029/0932 SLP137 T00001117=
202303190851 METAR KJFK 190851Z 28022G29KT 10SM SCT250 01/M11 A2991 RMK AO2 PK WND 29030/0807 SLP127 T00111111 51015=
202303190751 METAR KJFK 190751Z 29021G29KT 10SM SCT220 02/M11 A2989 RMK AO2 PK WND 30032/0729 SLP122 T00171106=
202303190651 METAR KJFK 190651Z 29019G35KT 10SM BKN250 03/M09 A2990 RMK AO2 PK WND 29035/0645 SLP123 T00281094=
202303190551 METAR KJFK 190551Z 27018G25KT 10SM SCT250 04/M08 A2986 RMK AO2 PK WND 27028/0518 SLP112 T00441078 10089 20044 53015=
202303190451 METAR KJFK 190451Z 26017G23KT 10SM SCT250 05/M08 A2983 RMK AO2 PK WND 27026/0414 SLP102 T00501078 401110050=
202303190351 METAR KJFK 190351Z 28014KT 10SM SCT220 06/M08 A2982 RMK AO2 SLP098 T00611083=
202303190251 METAR KJFK 190251Z 27011G19KT 10SM FEW250 07/M09 A2982 RMK AO2 SLP097 T00671089 51024=
202303190151 METAR KJFK 190151Z 28014KT 10SM FEW250 07/M09 A2980 RMK AO2 SLP091 T00721089=
202303190051 METAR KJFK 190051Z 28016G24KT 10SM FEW250 08/M09 A2978 RMK AO2 PK WND 27027/0015 SLP082 T00781089=
202303182351 METAR KJFK 182351Z 27021G26KT 10SM FEW075 FEW250 09/M07 A2975 RMK AO2 PK WND 27026/2326 SLP073 T00891072 10111 20083 51023=
202303182251 METAR KJFK 182251Z 25016KT 10SM FEW070 SCT250 09/M04 A2973 RMK AO2 SLP067 T00891044=
202303182151 METAR KJFK 182151Z 24017KT 10SM FEW065 SCT250 10/M02 A2971 RMK AO2 SLP059 T01001022=
202303182051 METAR KJFK 182051Z 23018KT 10SM FEW055 BKN250 11/M03 A2968 RMK AO2 SLP050 T01061033 56014=
202303181951 METAR KJFK 181951Z 20011KT 10SM FEW055 BKN250 11/M02 A2969 RMK AO2 WSHFT 1908 SLP053 T01061022=
202303181928 SPECI KJFK 181928Z 22016KT 10SM FEW050 BKN250 11/M02 A2969 RMK AO2 WSHFT 1908 T01061022=
202303181851 METAR KJFK 181851Z 25012KT 10SM FEW050 BKN250 11/M04 A2969 RMK AO2 SLP053 T01111039=
202303181751 METAR KJFK 181751Z 27009KT 10SM SCT060 BKN250 10/M04 A2972 RMK AO2 SLP064 T01001039 10106 20061 58005=
202303181651 METAR KJFK 181651Z 31010KT 10SM FEW070 BKN250 09/M03 A2974 RMK AO2 SLP071 T00891033=
202303181551 METAR KJFK 181551Z 30014G20KT 10SM FEW070 SCT250 09/M03 A2973 RMK AO2 SLP066 T00891028=
202303181451 METAR KJFK 181451Z 34015KT 10SM FEW035 SCT070 BKN250 08/M02 A2973 RMK AO2 SLP068 T00831022 50011=
202303181351 METAR KJFK 181351Z 32016KT 10SM FEW035 SCT070 BKN240 08/M02 A2974 RMK AO2 SLP069 T00781017=
202303181251 METAR KJFK 181251Z 31018G23KT 10SM SCT035 BKN070 07/M02 A2974 RMK AO2 SLP069 T00671022=
202303181151 METAR KJFK 181151Z 31016G26KT 10SM OVC065 06/M02 A2970 RMK AO2 PK WND 30026/1143 SLP057 60001 70002 T00611017 10111 20061 50020=
202303181051 METAR KJFK 181051Z 31015G23KT 10SM FEW041 BKN060 07/M01 A2970 RMK AO2 PK WND 32026/1026 PRESRR SLP058 T00671011=
202303180951 METAR KJFK 180951Z 31018KT 10SM BKN037 OVC055 07/01 A2966 RMK AO2 SLP043 T00720006=
202303180851 METAR KJFK 180851Z 33016KT 10SM BKN028 OVC050 08/03 A2964 RMK AO2 PK WND 33028/0820 RAB0752E18 SLP037 P0000 60001 T00780028 53008=
202303180751 METAR KJFK 180751Z 33022G26KT 10SM BKN025 OVC049 11/07 A2961 RMK AO2 PK WND 33026/0750 RAB05E39 SLP026 P0000 T01060067=
202303180651 METAR KJFK 180651Z 23005KT 8SM BKN044 OVC090 08/07 A2961 RMK AO2 RAE48 SLP028 P0001 T00780067=
202303180551 METAR KJFK 180551Z 21004KT 8SM -RA SCT024 BKN030 OVC060 08/07 A2962 RMK AO2 SLP028 P0001 60001 T00780067 10128 20078 56003=
202303180451 METAR KJFK 180451Z 22003KT 10SM -RA OVC055 08/07 A2962 RMK AO2 RAB26 SLP029 P0000 T00830067 401330039=
202303180351 METAR KJFK 180351Z 17008KT 10SM OVC050 09/06 A2962 RMK AO2 SLP028 T00940061=
202303180251 METAR KJFK 180251Z 21006KT 10SM BKN049 OVC150 11/06 A2962 RMK AO2 SLP031 T01110056 53005=
202303180151 METAR KJFK 180151Z 22012KT 10SM BKN055 BKN150 OVC250 13/04 A2962 RMK AO2 SLP030 T01280044=
202303180051 METAR KJFK 180051Z 23010KT 10SM SCT047 BKN100 BKN140 OVC250 11/05 A2961 RMK AO2 SLP026 T01110050=
202303172351 METAR KJFK 172351Z 19007KT 10SM SCT055 BKN085 BKN150 BKN250 09/05 A2961 RMK AO2 SLP026 T00940050 10111 20089 55000=
202303172251 METAR KJFK 172251Z 19006KT 10SM BKN085 BKN150 BKN200 BKN250 09/06 A2960 RMK AO2 SLP024 T00890056=
202303172151 METAR KJFK 172151Z 18007KT 10SM SCT070 BKN130 BKN180 BKN250 09/06 A2959 RMK AO2 SLP018 T00940056=
202303172051 METAR KJFK 172051Z 19003KT 10SM BKN085 BKN110 OVC190 09/06 A2961 RMK AO2 SLP026 T00940056 56020=
202303171951 METAR KJFK 171951Z 18006KT 10SM SCT085 BKN110 BKN180 OVC250 09/06 A2963 RMK AO2 SLP032 T00940056=
202303171851 METAR KJFK 171851Z 18006KT 10SM FEW090 SCT120 SCT200 OVC250 11/05 A2964 RMK AO2 SLP035 T01060050=
202303171751 METAR KJFK 171751Z 17009KT 10SM FEW090 FEW200 OVC250 10/04 A2967 RMK AO2 PRESFR SLP046 T01000044 10133 20061 56038=
202303171651 METAR KJFK 171651Z 15011KT 10SM FEW090 BKN250 10/03 A2970 RMK AO2 SLP057 T01000033=
202303171551 METAR KJFK 171551Z 15005KT 10SM FEW090 FEW170 BKN250 11/01 A2974 RMK AO2 SLP070 T01110011=
202303171451 METAR KJFK 171451Z 24005KT 10SM FEW090 SCT170 BKN250 10/01 A2978 RMK AO2 SLP084 T01000006 58015=
202303171351 METAR KJFK 171351Z 19007KT 10SM BKN090 OVC250 08/04 A2980 RMK AO2 SLP089 T00780039=
202303171251 METAR KJFK 171251Z 19010KT 10SM BKN085 BKN140 BKN250 07/04 A2983 RMK AO2 SLP100 T00670044=
202303171151 METAR KJFK 171151Z 18008KT 10SM BKN110 BKN140 BKN250 06/04 A2982 RMK AO2 SLP099 T00610039 10061 20039 58006=
202303171051 METAR KJFK 171051Z 18007KT 10SM SCT140 BKN250 06/03 A2983 RMK AO2 SLP102 T00560028=
202303170951 METAR KJFK 170951Z 19007KT 10SM BKN140 OVC250 06/03 A2986 RMK AO2 SLP111 T00560028=
202303170851 METAR KJFK 170851Z 17008KT 10SM SCT160 BKN250 05/02 A2984 RMK AO2 SLP105 T00500022 56023=
202303170751 METAR KJFK 170751Z 16006KT 10SM SCT160 BKN250 04/M01 A2986 RMK AO2 SLP112 T00441011=
202303170651 METAR KJFK 170651Z 16004KT 10SM BKN160 BKN250 06/M01 A2989 RMK AO2 SLP121 T00611011=
202303170551 METAR KJFK 170551Z 23006KT 10SM SCT150 BKN250 06/M03 A2991 RMK AO2 SLP128 T00611028 10094 20056 58008=
202303170451 METAR KJFK 170451Z 24004KT 10SM BKN160 BKN250 07/M01 A2993 RMK AO2 SLP133 T00721006 401280000=
202303170351 METAR KJFK 170351Z 24010KT 10SM BKN150 BKN250 08/M01 A2994 RMK AO2 SLP136 T00781006=
202303170251 METAR KJFK 170251Z 21007KT 10SM FEW150 SCT250 07/M02 A2994 RMK AO2 SLP137 T00721017 58004=
202303170151 METAR KJFK 170151Z 23006KT 10SM FEW150 SCT250 07/M01 A2994 RMK AO2 SLP140 T00721006=
202303170051 METAR KJFK 170051Z 22004KT 10SM FEW150 SCT250 07/01 A2995 RMK AO2 SLP142 T00720011=
202303162351 METAR KJFK 162351Z 18004KT 10SM FEW150 SCT250 07/02 A2995 RMK AO2 SLP141 T00670017 10128 20061 53004=
202303162251 METAR KJFK 162251Z 17006KT 10SM FEW150 SCT250 07/01 A2994 RMK AO2 SLP139 T00720011=
202303162151 METAR KJFK 162151Z 17010KT 10SM FEW150 SCT250 08/01 A2994 RMK AO2 SLP137 T00830011=
202303162051 METAR KJFK 162051Z 23010KT 10SM FEW150 FEW250 12/M03 A2994 RMK AO2 SLP137 T01221028 56024=
202303161951 METAR KJFK 161951Z 23015KT 10SM FEW100 FEW250 12/M04 A2996 RMK AO2 WSHFT 1840 SLP144 T01171039=
202303161851 METAR KJFK 161851Z 26012KT 10SM FEW100 FEW250 12/M06 A2998 RMK AO2 SLP152 ACSL NW T01221056=
202303161751 METAR KJFK 161751Z 28011KT 10SM FEW160 FEW250 11/M07 A3001 RMK AO2 SLP160 T01111067 10111 20022 58018=
202303161651 METAR KJFK 161651Z 30008KT 10SM FEW190 SCT250 09/M08 A3003 RMK AO2 SLP169 T00941078=
202303161551 METAR KJFK 161551Z 28008KT 10SM FEW160 BKN190 BKN250 08/M09 A3005 RMK AO2 SLP177 T00781089=
202303161451 METAR KJFK 161451Z 31010KT 10SM FEW160 BKN250 06/M09 A3006 RMK AO2 SLP179 T00611094 58011=
202303161351 METAR KJFK 161351Z 31008KT 270V330 10SM BKN160 BKN250 04/M11 A3009 RMK AO2 SLP188 T00441111=
202303161251 METAR KJFK 161251Z 29006KT 10SM SCT170 BKN250 03/M11 A3009 RMK AO2 SLP190 T00331111=
202303161151 METAR KJFK 161151Z 28010KT 10SM FEW120 FEW170 BKN250 02/M11 A3009 RMK AO2 SLP189 T00221111 10022 20000 53016=
202303161051 METAR KJFK 161051Z 29006KT 10SM BKN250 02/M11 A3008 RMK AO2 SLP184 T00171106=
202303160951 METAR KJFK 160951Z 27007KT 10SM SCT250 01/M11 A3006 RMK AO2 SLP178 T00111106=
202303160851 METAR KJFK 160851Z 27007KT 10SM CLR 00/M10 A3005 RMK AO2 SLP174 T00001100 51002=
202303160751 METAR KJFK 160751Z 28006KT 10SM FEW250 02/M12 A3004 RMK AO2 SLP173 T00171117=
202303160651 METAR KJFK 160651Z 30014KT 10SM FEW250 02/M12 A3004 RMK AO2 SLP173 T00171117=
202303160551 METAR KJFK 160551Z 31016KT 10SM FEW250 02/M12 A3004 RMK AO2 SLP171 T00171117 10050 20017 51012=
202303160451 METAR KJFK 160451Z 31015KT 10SM FEW250 02/M11 A3003 RMK AO2 PK WND 30027/0355 SLP168 T00221111 400830011=
202303160351 METAR KJFK 160351Z 31019KT 10SM FEW250 02/M11 A3002 RMK AO2 PK WND 31026/0310 SLP164 T00221106=
202303160251 METAR KJFK 160251Z 31018G24KT 10SM FEW250 03/M09 A3000 RMK AO2 PK WND 32028/0208 SLP159 T00281094 51030=
202303160151 METAR KJFK 160151Z 32018G28KT 10SM CLR 03/M08 A2998 RMK AO2 PK WND 30030/0135 SLP151 T00331083=
202303160051 METAR KJFK 160051Z 31016G24KT 10SM FEW250 04/M08 A2994 RMK AO2 PK WND 32034/0018 SLP139 T00441078=
202303152351 METAR KJFK 152351Z 31020G29KT 10SM FEW250 05/M06 A2991 RMK AO2 PK WND 32036/2259 SLP129 T00501061 10083 20050 53032=
202303152251 METAR KJFK 152251Z 31024G30KT 10SM FEW050 FEW250 06/M06 A2988 RMK AO2 PK WND 33036/2218 SLP117 T00611056=
202303152151 METAR KJFK 152151Z 33024G36KT 10SM FEW050 FEW250 07/M06 A2985 RMK AO2 PK WND 34039/2127 SLP107 T00721056=
202303152051 METAR KJFK 152051Z 32027G39KT 10SM FEW050 FEW250 08/M05 A2982 RMK AO2 PK WND 32039/2047 SLP097 T00781050 53005=
202303151951 METAR KJFK 151951Z 32028G42KT 10SM FEW050 BKN250 07/M04 A2981 RMK AO2 PK WND 33042/1949 SLP093 T00721044=
202303151851 METAR KJFK 151851Z 32026G40KT 10SM FEW050 FEW070 BKN250 07/M04 A2979 RMK AO2 PK WND 30041/1805 SLP088 ACSL SW T00721044=
202303151751 METAR KJFK 151751Z 31030G37KT 10SM FEW050 SCT250 07/M04 A2980 RMK AO2 PK WND 31041/1730 SLP092 T00671044 10067 20011 58004=
202303151651 METAR KJFK 151651Z 32027G35KT 10SM FEW047 FEW170 SCT250 06/M04 A2982 RMK AO2 PK WND 30037/1619 SLP097 T00561044=
202303151551 METAR KJFK 151551Z 32024G32KT 10SM FEW047 SCT170 BKN250 05/M05 A2981 RMK AO2 PK WND 32034/1536 SLP093 T00501050=
202303151451 METAR KJFK 151451Z 30022G33KT 10SM FEW045 SCT170 BKN250 03/M06 A2981 RMK AO2 PK WND 28035/1438 SLP096 T00331056 51018=
202303151351 METAR KJFK 151351Z 31020G34KT 10SM FEW043 BKN170 BKN250 02/M06 A2980 RMK AO2 PK WND 30036/1328 SLP091 T00221056=
202303151251 METAR KJFK 151251Z 31023G30KT 10SM FEW040 BKN150 BKN250 02/M06 A2979 RMK AO2 PK WND 30037/1154 SLP087 T00171061=
202303151151 METAR KJFK 151151Z 30023G31KT 10SM FEW037 BKN150 BKN250 01/M06 A2976 RMK AO2 PK WND 31036/1118 SLP077 70003 T00111061 10017 20011 53025=
202303151051 METAR KJFK 151051Z 31020G36KT 10SM FEW036 BKN130 02/M06 A2973 RMK AO2 PK WND 30036/1043 SLP068 T00171056=
202303150951 METAR KJFK 150951Z 31019G27KT 10SM FEW036 OVC130 02/M05 A2971 RMK AO2 PK WND 30032/0923 SLP061 T00171050=
202303150851 METAR KJFK 150851Z 29020G31KT 10SM FEW036 OVC140 02/M05 A2969 RMK AO2 PK WND 32032/0803 SLP053 T00171050 53015=
202303150751 METAR KJFK 150751Z 30022G30KT 10SM FEW050 OVC200 02/M05 A2967 RMK AO2 PK WND 29034/0721 SLP047 T00171050=
202303150651 METAR KJFK 150651Z 30022G33KT 10SM FEW055 FEW120 BKN230 02/M05 A2966 RMK AO2 PK WND 30037/0626 SLP043 T00171050=
202303150551 METAR KJFK 150551Z 30021G32KT 10SM FEW050 SCT120 BKN250 02/M05 A2964 RMK AO2 PK WND 32035/0531 SLP038 60000 T00171050 10022 20006 53008=
202303150451 METAR KJFK 150451Z 30018G29KT 10SM BKN050 BKN120 02/M04 A2963 RMK AO2 PK WND 29030/0413 SLP032 T00171044 400390006=
202303150351 METAR KJFK 150351Z 30021G29KT 10SM FEW033 BKN055 BKN120 02/M04 A2963 RMK AO2 PK WND 31038/0254 SLP034 T00221044=
202303150251 METAR KJFK 150251Z 30024G34KT 10SM FEW033 OVC110 02/M04 A2962 RMK AO2 PK WND 30034/0242 SLP030 60000 T00171044 50012=
202303150151 METAR KJFK 150151Z 30020G32KT 10SM FEW034 SCT090 OVC150 01/M04 A2962 RMK AO2 PK WND 30037/0114 SNE33 SLP030 P0000 T00111039=
202303150134 SPECI KJFK 150134Z 29019G31KT 10SM SCT032 OVC150 01/M03 A2962 RMK AO2 PK WND 30037/0114 SNE33 P0000 T00111033=
202303150051 METAR KJFK 150051Z 29019G33KT 9SM -SN FEW024 BKN032 OVC095 01/M03 A2960 RMK AO2 PK WND 29034/2355 SLP024 P0000 T00111033=
202303142351 METAR KJFK 142351Z 29027G40KT 9SM -SN BKN024 OVC047 01/M03 A2959 RMK AO2 PK WND 30040/2351 SLP018 BKN V SCT P0000 60001 T00111028 10017 20006 53026=
202303142251 METAR KJFK 142251Z 28026G37KT 10SM -SN BKN023 BKN037 OVC048 01/M02 A2956 RMK AO2 PK WND 28037/2250 SLP010 P0000 T00111022=
202303142151 METAR KJFK 142151Z 28022G32KT 3SM -SN BKN025 BKN039 OVC050 01/M02 A2953 RMK AO2 PK WND 29033/2130 SFC VIS 5 SLP998 P0000 T00111022=
202303142051 METAR KJFK 142051Z 29022G32KT 3SM -SN BKN020 OVC034 01/M02 A2951 RMK AO2 PK WND 28032/2038 SFC VIS 4 SLP992 P0000 60001 T00111017 53009=
202303142034 SPECI KJFK 142034Z 28022G31KT 3SM -SN BR BKN018 BKN027 OVC044 01/M01 A2950 RMK AO2 PK WND 27031/2034 SFC VIS 5 P0000 T00111011=
202303141951 METAR KJFK 141951Z 28024G30KT 1SM R04R/5000VP6000FT -SN BR BKN015 BKN022 OVC034 01/M01 A2949 RMK AO2 PK WND 28036/1902 SFC VIS 2 SLP986 P0001 T00061011=
202303141851 METAR KJFK 141851Z 28024G31KT 1SM R04R/6000VP6000FT -SN BR BKN018 OVC024 01/M02 A2948 RMK AO2 PK WND 27037/1810 SFC VIS 2 SLP982 P0000 T00061017=
202303141842 SPECI KJFK 141842Z 28022G32KT 1SM R04R/6000VP6000FT -SN BKN018 OVC024 01/M02 A2948 RMK AO2 PK WND 27037/1810 SFC VIS 2 1/2 P0000 T00111017=
202303141751 METAR KJFK 141751Z 28022G32KT 1 1/2SM -SN BR BKN013 OVC020 01/M01 A2948 RMK AO2 PK WND 27034/1653 SFC VIS 2 1/2 SLP983 P0001 60002 T00111011 10022 20006 58012=
202303141651 METAR KJFK 141651Z 28021G30KT 1SM R04R/5000VP6000FT -SN BR FEW007 BKN013 OVC022 01/M01 A2950 RMK AO2 PK WND 27031/1619 SFC VIS 2 SLP988 P0001 T00111006=
202303141636 SPECI KJFK 141636Z 28019G28KT 1SM R04R/6000VP6000FT -SN BR FEW000 SCT008 BKN013 OVC022 01/M01 A2950 RMK AO2 PK WND 27031/1619 SFC VIS 1 1/2 SN FEW000 P0001 T00111006=
202303141551 METAR KJFK 141551Z 29024G30KT 1 1/2SM -SN BR FEW000 BKN013 BKN025 OVC044 02/00 A2951 RMK AO2 PK WND 30033/1514 SFC VIS 1 3/4 SLP993 SN FEW000 P0000 T00170000=
202303141521 SPECI KJFK 141521Z 29020G33KT 1 3/4SM -SN BR FEW000 BKN015 OVC028 02/M01 A2951 RMK AO2 PK WND 30033/1514 TWR VIS 2 SN FEW000 P0000 T00171006=
202303141451 METAR KJFK 141451Z 29022G30KT 2SM -SN FEW009 BKN017 OVC033 02/M01 A2952 RMK AO2 PK WND 30031/1433 SFC VIS 2 1/2 SLP995 P0000 60000 T00171011 58008=
202303141351 METAR KJFK 141351Z 29019G28KT 7SM -SN BKN021 BKN027 OVC041 02/M01 A2953 RMK AO2 PK WND 28033/1336 RAE36 SLP000 P0000 T00221006=
202303141251 METAR KJFK 141251Z 29018G27KT 8SM -SNRA FEW012 BKN019 OVC026 02/M01 A2954 RMK AO2 PK WND 29029/1230 SLP001 P0000 T00221006=
202303141151 METAR KJFK 141151Z 28019G24KT 9SM -RASN FEW010 OVC019 02/00 A2954 RMK AO2 SNB44 SLP004 P0000 60003 70109 T00220000 10033 20022 55002=
202303141144 SPECI KJFK 141144Z 29016G23KT 8SM -RASN FEW010 OVC019 02/00 A2954 RMK AO2 SNB44 P0000 T00220000=
202303141051 METAR KJFK 141051Z 29014G21KT 10SM -RA FEW011 BKN019 OVC025 02/01 A2954 RMK AO2 SLP002 P0001 T00220006=
202303140951 METAR KJFK 140951Z 29014KT 10SM -RA OVC016 03/02 A2955 RMK AO2 RAB11 SLP005 P0000 T00280017=
202303140914 SPECI KJFK 140914Z 30014KT 10SM -RA OVC016 03/02 A2955 RMK AO2 RAB11 P0000 T00280017=
202303140851 METAR KJFK 140851Z 29014KT 10SM OVC013 03/02 A2955 RMK AO2 RAE38 SLP006 P0000 60002 T00280017 56017=
202303140838 SPECI KJFK 140838Z 30014G24KT 10SM OVC012 03/01 A2955 RMK AO2 RAE38 P0000 T00280011=
202303140751 METAR KJFK 140751Z 31014KT 10SM -RA BKN008 OVC037 03/02 A2956 RMK AO2 SLP008 P0001 T00280017=
202303140651 METAR KJFK 140651Z 32017KT 6SM -RA BR BKN008 OVC025 02/02 A2958 RMK AO2 SLP016 P0001 T00220017=
202303140551 METAR KJFK 140551Z 31015KT 5SM -RA BR BKN008 OVC030 03/03 A2960 RMK AO2 SLP022 P0004 60081 T00330028 10056 20033 56032=
202303140451 METAR KJFK 140451Z 32015KT 6SM +RA BR BKN007 OVC031 04/03 A2962 RMK AO2 SLP031 P0023 T00440033 400610033=
202303140424 SPECI KJFK 140424Z 32018KT 4SM +RA BR BKN007 OVC025 04/04 A2963 RMK AO2 P0014 T00440039=
202303140351 METAR KJFK 140351Z 35014KT 5SM +RA BR SCT009 OVC027 06/04 A2966 RMK AO2 SLP042 P0021 T00560044=
202303140251 METAR KJFK 140251Z 36012KT 5SM +RA BR SCT009 OVC025 05/04 A2969 RMK AO2 SLP054 P0018 60033 T00500044 58023=
202303140151 METAR KJFK 140151Z 02012KT 5SM RA BR BKN009 OVC017 05/04 A2972 RMK AO2 SLP064 P0009 T00500044=
202303140051 METAR KJFK 140051Z 02010KT 6SM RA BR BKN009 OVC021 05/04 A2975 RMK AO2 SLP072 P0006 T00500044=
202303132351 METAR KJFK 132351Z 03009KT 9SM -RA BKN008 OVC020 05/04 A2976 RMK AO2 SLP077 P0002 60021 T00500044 10061 20050 58016=
202303132251 METAR KJFK 132251Z 03008KT 6SM -RA BR OVC009 06/04 A2978 RMK AO2 SLP085 P0001 T00560044=
202303132151 METAR KJFK 132151Z 05011KT 10SM -RA BKN009 OVC014 06/05 A2980 RMK AO2 SLP089 P0004 T00610050=
202303132118 SPECI KJFK 132118Z 06009KT 5SM RA BR OVC009 06/05 A2980 RMK AO2 P0001 T00610050=
202303132051 METAR KJFK 132051Z 06010KT 5SM -RA BR FEW007 OVC011 06/05 A2981 RMK AO2 SLP093 P0006 60014 T00610050 56022=
202303132047 SPECI KJFK 132047Z 05011KT 5SM -RA BR FEW007 OVC011 06/05 A2981 RMK AO2 P0006=
202303131951 METAR KJFK 131951Z 07010KT 6SM -RA BR BKN010 OVC024 06/04 A2983 RMK AO2 SLP099 P0006 T00610044=
202303131851 METAR KJFK 131851Z 08011G20KT 4SM RA BR BKN010 OVC026 06/04 A2985 RMK AO2 SLP107 P0002 T00560044=
202303131751 METAR KJFK 131751Z 08016G21KT 4SM -RA BR BKN011 BKN018 OVC036 06/04 A2987 RMK AO2 RAB23 SLP115 P0000 60004 T00610044 10061 20050 58020=
202303131651 METAR KJFK 131651Z 08016G24KT 9SM BKN013 OVC041 06/04 A2990 RMK AO2 RAE24 SLP125 BKN V SCT P0000 T00610039=
202303131551 METAR KJFK 131551Z 09018KT 8SM -RA FEW007 BKN013 OVC031 06/04 A2992 RMK AO2 RAE18B49 SLP130 P0000 T00610044=
202303131451 METAR KJFK 131451Z 09013G27KT 7SM -RA BKN013 OVC029 06/04 A2993 RMK AO2 PK WND 09027/1447 SLP135 P0001 60004 T00560039 58008=
202303131351 METAR KJFK 131351Z 09013KT 5SM -RA BR SCT013 OVC028 06/04 A2995 RMK AO2 SLP143 P0002 T00560039=
202303131251 METAR KJFK 131251Z 09007KT 7SM -RA SCT012 OVC029 05/03 A2996 RMK AO2 SLP146 P0001 T00500033=
202303131151 METAR KJFK 131151Z 09009KT 10SM -RA SCT010 OVC025 05/03 A2995 RMK AO2 RAB02 SLP143 P0000 60006 70006 T00500028 10050 20033 56005=
202303131132 SPECI KJFK 131132Z 09010KT 10SM -RA SCT011 OVC028 04/03 A2995 RMK AO2 RAB02 P0000 T00440028=
202303131051 METAR KJFK 131051Z 07008KT 10SM FEW009 BKN013 OVC028 04/03 A2996 RMK AO2 RAE03 SLP145 P0000 T00440028=
202303130951 METAR KJFK 130951Z 06009KT 5SM -RA BR OVC009 04/03 A2996 RMK AO2 SLP144 P0003 T00390028=
202303130914 SPECI KJFK 130914Z 08006KT 4SM -RA BR OVC008 04/03 A2997 RMK AO2 P0002 T00390033=
202303130851 METAR KJFK 130851Z 06005KT 3SM -RA BR OVC010 03/03 A2997 RMK AO2 SLP148 P0002 60003 T00330033 56013=
202303130830 SPECI KJFK 130830Z 06005KT 4SM -RA BR OVC013 04/03 A2997 RMK AO2 P0001 T00390028=
202303130751 METAR KJFK 130751Z 08005KT 4SM -RA BR OVC015 04/03 A2998 RMK AO2 RAB08 SLP152 P0001 T00390028=
202303130651 METAR KJFK 130651Z 10013KT 7SM OVC016 04/02 A2999 RMK AO2 RAB08E36 SLP156 P0000 T00390017=
202303130630 SPECI KJFK 130630Z 10011KT 3SM -RA BR OVC014 04/02 A3000 RMK AO2 RAB08 P0000 T00390022=
202303130551 METAR KJFK 130551Z 11010KT 10SM SCT017 OVC033 04/01 A3001 RMK AO2 SLP161 T00440011 10050 20044 58013=
202303130451 METAR KJFK 130451Z 10012KT 10SM SCT020 OVC038 05/01 A3002 RMK AO2 SLP165 T00500011 400780000=
202303130416 SPECI KJFK 130416Z 11011KT 10SM SCT020 OVC040 05/01 A3003 RMK AO2 T00500011=
202303130351 METAR KJFK 130351Z 11007KT 10SM BKN021 BKN040 OVC100 05/01 A3003 RMK AO2 SLP170 T00500011=
202303130251 METAR KJFK 130251Z 13008KT 10SM BKN021 OVC100 05/01 A3004 RMK AO2 SLP173 T00500011 56002=
202303130248 SPECI KJFK 130248Z 13007KT 10SM BKN021 OVC100 05/01 A3005 RMK AO2=
202303130151 METAR KJFK 130151Z 13005KT 10SM BKN120 OVC150 04/01 A3005 RMK AO2 SLP174 T00440006=
202303130051 METAR KJFK 130051Z 14007KT 10SM FEW030 BKN150 BKN250 04/00 A3004 RMK AO2 SLP173 T00440000=
202303122351 METAR KJFK 122351Z 15006KT 10SM FEW030 BKN150 BKN250 04/00 A3005 RMK AO2 SLP175 T00440000 10072 20044 53010=
202303122251 METAR KJFK 122251Z 15009KT 10SM FEW030 BKN150 BKN250 04/00 A3004 RMK AO2 SLP173 T00440000=
202303122151 METAR KJFK 122151Z 13011KT 10SM BKN150 BKN250 05/M01 A3002 RMK AO2 SLP166 T00501011=
202303122051 METAR KJFK 122051Z 14010KT 10SM BKN150 OVC250 06/M02 A3002 RMK AO2 SLP164 T00561022 55002=
202303121951 METAR KJFK 121951Z 17009KT 10SM FEW040 BKN150 OVC250 06/M03 A3001 RMK AO2 SLP162 T00611028=
202303121851 METAR KJFK 121851Z 20008KT 10SM FEW030 BKN200 OVC250 07/M02 A3002 RMK AO2 SLP166 T00671022=
202303121751 METAR KJFK 121751Z 23006KT 10SM FEW030 BKN250 07/M04 A3002 RMK AO2 SLP167 T00721039 10078 20011 58006=
202303121651 METAR KJFK 121651Z 00000KT 10SM BKN250 07/M04 A3004 RMK AO2 SLP172 T00721044=
202303121551 METAR KJFK 121551Z 33005KT 10SM BKN250 07/M04 A3004 RMK AO2 SLP172 T00671044=
202303121451 METAR KJFK 121451Z 02004KT 10SM BKN250 06/M04 A3004 RMK AO2 SLP172 T00561039 50015=
202303121351 METAR KJFK 121351Z 36007KT 10SM SCT250 04/M04 A3004 RMK AO2 SLP173 T00441039=
202303121251 METAR KJFK 121251Z 34007KT 10SM FEW250 03/M03 A3003 RMK AO2 SLP169 T00281033=
202303121151 METAR KJFK 121151Z 36009KT 10SM FEW250 01/M04 A3000 RMK AO2 SLP158 70016 T00111039 10022 20000 55001=
202303121051 METAR KJFK 121051Z 36011KT 10SM FEW250 01/M04 A2999 RMK AO2 SLP156 T00061039=
202303120951 METAR KJFK 120951Z 01011KT 10SM CLR 01/M04 A2999 RMK AO2 SLP155 T00061039=
202303120851 METAR KJFK 120851Z 35012KT 10SM CLR 01/M04 A3000 RMK AO2 SLP159 T00111039 53003=
202303120751 METAR KJFK 120751Z 36013KT 10SM FEW050 02/M03 A2998 RMK AO2 SLP152 T00171033=
202303120651 METAR KJFK 120651Z 34011KT 10SM SCT055 02/M02 A2998 RMK AO2 SLP151 T00171022=
202303120551 METAR KJFK 120551Z 33014KT 10SM FEW055 02/M02 A2999 RMK AO2 SLP156 T00221017 10050 20022 51010=
202303120451 METAR KJFK 120451Z 34009KT 10SM SCT050 03/M02 A2999 RMK AO2 SLP153 T00331017 400670017=
202303120351 METAR KJFK 120351Z 34013KT 10SM BKN050 04/M01 A2998 RMK AO2 SLP150 T00391011=
202303120251 METAR KJFK 120251Z 33015G21KT 10SM FEW035 BKN055 04/M02 A2996 RMK AO2 SLP146 T00441022 51021=
202303120151 METAR KJFK 120151Z 36015KT 10SM FEW035 BKN060 04/M02 A2995 RMK AO2 SLP141 T00441022=
202303120051 METAR KJFK 120051Z 35013G19KT 10SM BKN050 04/M01 A2992 RMK AO2 SLP133 T00441011=
202303112351 METAR KJFK 112351Z 36013KT 10SM BKN050 04/M01 A2990 RMK AO2 SLP125 T00441011 10067 20044 53027=
202303112251 METAR KJFK 112251Z 36014G21KT 10SM FEW037 BKN049 05/M01 A2987 RMK AO2 SLP114 T00501011=
202303112151 METAR KJFK 112151Z 36015G21KT 10SM FEW035 BKN040 06/M01 A2985 RMK AO2 SLP107 T00561011=
202303112051 METAR KJFK 112051Z 36013G21KT 10SM FEW026 SCT033 BKN045 06/00 A2982 RMK AO2 SLP097 T00610000 53019=
202303111951 METAR KJFK 111951Z 36015KT 10SM SCT026 BKN034 06/00 A2980 RMK AO2 SLP089 T00610000=
202303111851 METAR KJFK 111851Z 33013KT 10SM FEW021 SCT028 OVC036 06/01 A2977 RMK AO2 CIG 030 W SLP081 T00560011=
202303111751 METAR KJFK 111751Z 36011G20KT 10SM BKN028 BKN034 06/01 A2976 RMK AO2 SLP078 60016 T00610011 10067 20017 50008=
202303111651 METAR KJFK 111651Z 01015KT 10SM BKN021 OVC026 04/01 A2976 RMK AO2 SLP079 T00440011=
202303111551 METAR KJFK 111551Z 01013G19KT 10SM SCT015 BKN024 OVC029 04/03 A2975 RMK AO2 RAE36 SLP074 P0001 T00440028=
202303111543 SPECI KJFK 111543Z 01015G22KT 10SM SCT013 BKN021 OVC027 04/02 A2975 RMK AO2 RAE36 CIG 013 W P0001 T00390022=
202303111451 METAR KJFK 111451Z 01012KT 7SM -RA OVC011 03/02 A2974 RMK AO2 SNB1356E02 SLP070 P0005 60015 T00280017 51024=
202303111351 METAR KJFK 111351Z 01011KT 5SM RA BR BKN008 OVC018 02/01 A2972 RMK AO2 SLP064 P0007 T00170006=
202303111327 SPECI KJFK 111327Z 01013KT 5SM RA BR BKN009 OVC016 02/01 A2971 RMK AO2 P0005 T00220011=
202303111251 METAR KJFK 111251Z 02013KT 7SM RA BKN010 OVC019 02/01 A2970 RMK AO2 SLP055 P0003 T00220011=
202303111233 SPECI KJFK 111233Z 02013KT 7SM -RA OVC011 03/02 A2969 RMK AO2 P0001 T00280017=
202303111151 METAR KJFK 111151Z 02012KT 9SM -RA SCT012 BKN017 OVC025 03/02 A2967 RMK AO2 CIG 010 W SLP046 P0001 60023 70067 T00330022 10056 20033 53020=
202303111051 METAR KJFK 111051Z 05016G21KT 7SM -RA FEW008 BKN014 OVC027 04/03 A2965 RMK AO2 SLP039 P0005 T00390028=
202303110951 METAR KJFK 110951Z 06010KT 5SM -RA BR SCT009 BKN014 OVC020 04/03 A2962 RMK AO2 SLP031 P0004 T00440033=
202303110908 SPECI KJFK 110908Z 06011G20KT 7SM -RA SCT009 OVC014 05/04 A2961 RMK AO2 P0002 T00500039=
202303110851 METAR KJFK 110851Z 03011KT 6SM -RA BR BKN012 OVC017 05/04 A2961 RMK AO2 SLP026 P0006 60013 T00500039 55012=
202303110751 METAR KJFK 110751Z 06012KT 8SM -RA BKN025 OVC034 05/04 A2961 RMK AO2 SLP026 P0002 T00500044=
202303110718 SPECI KJFK 110718Z 06013KT 9SM -RA SCT009 OVC023 06/04 A2962 RMK AO2 CIG 007 W P0001 T00560044=
202303110651 METAR KJFK 110651Z 07008KT 10SM -RA BKN009 OVC021 06/05 A2963 RMK AO2 SLP032 P0005 T00560050=
202303110551 METAR KJFK 110551Z 08004KT 5SM RA BR SCT008 BKN018 OVC021 06/05 A2964 RMK AO2 SLP038 P0008 60043 T00560050 10056 20056 58023=
202303110451 METAR KJFK 110451Z 06005KT 5SM RA BR FEW008 BKN019 OVC025 06/05 A2967 RMK AO2 SLP047 P0009 T00560050 400720006=
202303110351 METAR KJFK 110351Z 08005KT 5SM -RA BR FEW013 OVC024 06/04 A2969 RMK AO2 SLP054 P0006 T00560044=
202303110251 METAR KJFK 110251Z 09007KT 8SM RA FEW015 BKN022 OVC035 06/04 A2971 RMK AO2 SLP061 P0007 60020 T00560044 57028=
202303110151 METAR KJFK 110151Z 13006KT 8SM -RA BKN020 OVC034 06/04 A2974 RMK AO2 SLP071 P0009 T00560039=
202303110051 METAR KJFK 110051Z 09008KT 7SM RA BKN026 OVC039 06/04 A2976 RMK AO2 SLP078 P0004 T00560039=
202303110027 SPECI KJFK 110027Z 12007KT 8SM -RA BKN026 OVC033 06/03 A2978 RMK AO2 P0002 T00560033=
202303102351 METAR KJFK 102351Z 11007KT 10SM -RA FEW037 BKN050 OVC070 06/03 A2979 RMK AO2 SLP088 P0001 60001 T00560028 10072 20056 56023=
202303102251 METAR KJFK 102251Z 11007KT 10SM -RA FEW065 OVC080 06/02 A2981 RMK AO2 RAB19 SLP093 P0000 T00560017=
202303102151 METAR KJFK 102151Z 13007KT 10SM FEW019 BKN070 OVC085 06/02 A2983 RMK AO2 RAB26E35 SLP102 P0000 T00560017=
202303102051 METAR KJFK 102051Z 14007KT 10SM FEW019 FEW070 OVC100 06/01 A2986 RMK AO2 SLP111 T00610011 56035=
202303101951 METAR KJFK 101951Z 16006KT 10SM FEW019 FEW050 OVC110 06/01 A2989 RMK AO2 SLP121 T00610006=
202303101851 METAR KJFK 101851Z 14007KT 10SM FEW019 BKN120 OVC220 07/02 A2992 RMK AO2 SLP131 T00670017=
202303101751 METAR KJFK 101751Z 13008KT 10SM FEW017 BKN190 06/02 A2996 RMK AO2 SLP146 T00610022 10067 20011 58033=
202303101707 SPECI KJFK 101707Z 14008KT 10SM SCT020 SCT150 OVC190 07/02 A2999 RMK AO2 PRESFR T00670017=
202303101651 METAR KJFK 101651Z VRB05KT 10SM BKN020 BKN150 BKN210 07/02 A3001 RMK AO2 SLP163 T00670017=
202303101551 METAR KJFK 101551Z 11006KT 10SM BKN021 BKN150 OVC220 06/01 A3004 RMK AO2 SLP173 T00610006=
202303101526 SPECI KJFK 101526Z 08003KT 10SM BKN023 BKN150 OVC220 06/M01 A3005 RMK AO2 T00561006=
202303101451 METAR KJFK 101451Z 07004KT 10SM SCT022 BKN160 OVC220 05/M01 A3006 RMK AO2 SLP179 T00501011 58013=
202303101351 METAR KJFK 101351Z 02006KT 10SM SCT023 BKN190 OVC230 04/M02 A3008 RMK AO2 SLP187 T00391022=
202303101330 SPECI KJFK 101330Z 03007KT 10SM BKN023 BKN160 OVC230 03/M02 A3009 RMK AO2 T00331022=
202303101251 METAR KJFK 101251Z 02007KT 10SM FEW020 FEW160 BKN230 03/M03 A3010 RMK AO2 SLP191 T00281028=
202303101151 METAR KJFK 101151Z 02008KT 10SM FEW160 BKN230 01/M03 A3010 RMK AO2 SLP192 T00111033 10028 20006 57012=
202303101051 METAR KJFK 101051Z 01006KT 10SM BKN240 01/M04 A3011 RMK AO2 SLP196 T00061039=
202303100951 METAR KJFK 100951Z 02008KT 10SM BKN250 01/M04 A3012 RMK AO2 SLP200 T00111039=
202303100851 METAR KJFK 100851Z 02009KT 10SM FEW250 01/M04 A3014 RMK AO2 SLP204 T00111039 58011=
202303100751 METAR KJFK 100751Z 35007KT 10SM FEW250 01/M04 A3015 RMK AO2 SLP209 T00111039=
202303100651 METAR KJFK 100651Z 01008KT 10SM FEW250 02/M04 A3016 RMK AO2 SLP212 T00171039=
202303100551 METAR KJFK 100551Z 01009KT 10SM CLR 02/M04 A3017 RMK AO2 SLP215 T00221039 10067 20022 56007=
202303100451 METAR KJFK 100451Z 36011KT 10SM FEW250 03/M04 A3017 RMK AO2 SLP216 T00331039 401060006=
202303100351 METAR KJFK 100351Z 01015G20KT 10SM FEW250 04/M04 A3018 RMK AO2 SLP220 T00391039=
202303100251 METAR KJFK 100251Z 36012KT 10SM FEW250 04/M04 A3019 RMK AO2 SLP222 T00441039 51011=
202303100151 METAR KJFK 100151Z 35009KT 10SM FEW250 05/M04 A3019 RMK AO2 SLP222 T00501039=
202303100051 METAR KJFK 100051Z 36010KT 10SM FEW050 06/M03 A3017 RMK AO2 SLP215 T00561033=
202303092351 METAR KJFK 092351Z 35014KT 10SM FEW050 FEW250 07/M04 A3016 RMK AO2 SLP211 T00671039 10106 20067 53016=
202303092251 METAR KJFK 092251Z 36015G21KT 10SM FEW050 FEW250 07/M04 A3014 RMK AO2 SLP206 T00721039=
202303092151 METAR KJFK 092151Z 36017G22KT 10SM FEW050 FEW250 09/M03 A3012 RMK AO2 PK WND 36031/2106 SLP199 T00891028=
202303092051 METAR KJFK 092051Z 35022G32KT 10SM FEW050 FEW250 09/M03 A3011 RMK AO2 PK WND 34032/2042 SLP195 T00941028 58005=
202303092005 SPECI KJFK 092005Z 35020KT 10SM FEW050 FEW250 10/M02 A3011 RMK AO2 PK WND 36027/1954 T01001022=
202303091951 METAR KJFK 091951Z 35021G29KT 10SM FEW050 FEW250 10/M03 A3011 RMK AO2 PK WND 36033/1924 SLP197 T01001028=
202303091951 SPECI KJFK 091951Z 35021G29KT 10SM FEW050 FEW250 10/M03 A3011 RMK AO2 PK WND 36033/1924 SLP197 T01001028=
202303091851 METAR KJFK 091851Z 35021G27KT 10SM FEW047 FEW060 FEW250 09/M02 A3012 RMK AO2 PK WND 35031/1838 SLP198 T00941022=
202303091751 METAR KJFK 091751Z 33020G25KT 10SM FEW046 SCT055 SCT110 10/M02 A3012 RMK AO2 PK WND 36029/1739 SLP200 T01001022 10100 20011 58013=
202303091651 METAR KJFK 091651Z 34015KT 10SM SCT055 SCT110 08/M03 A3014 RMK AO2 SLP205 T00781028=
202303091551 METAR KJFK 091551Z 35012KT 10SM FEW050 SCT110 SCT250 07/M03 A3016 RMK AO2 SLP211 T00721028=
202303091451 METAR KJFK 091451Z 35011KT 10SM FEW050 FEW100 FEW250 06/M03 A3016 RMK AO2 SLP213 T00611033 58006=
202303091351 METAR KJFK 091351Z 34013KT 10SM FEW100 FEW250 04/M04 A3017 RMK AO2 SLP217 T00391039=
202303091251 METAR KJFK 091251Z 33015KT 10SM FEW100 FEW250 02/M04 A3018 RMK AO2 SLP219 T00221044=
202303091151 METAR KJFK 091151Z 33014KT 10SM FEW100 01/M04 A3018 RMK AO2 SLP219 T00111044 10017 20006 55003=
202303091051 METAR KJFK 091051Z 33012KT 10SM FEW100 01/M05 A3018 RMK AO2 SLP218 T00061050=
202303090951 METAR KJFK 090951Z 33012KT 10SM SCT100 01/M05 A3018 RMK AO2 SLP220 T00061050=
202303090851 METAR KJFK 090851Z 32016KT 10SM FEW100 01/M05 A3019 RMK AO2 SLP222 T00061050 58003=
202303090751 METAR KJFK 090751Z 32015KT 10SM FEW100 01/M04 A3019 RMK AO2 SLP224 T00111044=
202303090651 METAR KJFK 090651Z 32017KT 10SM FEW110 02/M04 A3019 RMK AO2 SLP224 T00171044=
202303090551 METAR KJFK 090551Z 33017KT 10SM FEW110 02/M04 A3020 RMK AO2 SLP225 T00171044 10061 20017 52002=
202303090451 METAR KJFK 090451Z 32012KT 10SM FEW110 03/M04 A3020 RMK AO2 SLP225 T00281039 400831011=
202303090351 METAR KJFK 090351Z 35014KT 10SM FEW110 03/M04 A3019 RMK AO2 SLP223 T00331039=
202303090251 METAR KJFK 090251Z 33013KT 10SM FEW110 04/M04 A3019 RMK AO2 SLP223 T00391039 53010=
202303090151 METAR KJFK 090151Z 34014G26KT 10SM FEW110 04/M04 A3018 RMK AO2 PK WND 01026/0143 SLP218 T00441039=
202303090051 METAR KJFK 090051Z 34012KT 10SM FEW110 05/M04 A3016 RMK AO2 SLP213 T00501039=
202303082351 METAR KJFK 082351Z 36015G24KT 10SM SCT110 BKN140 06/M03 A3016 RMK AO2 PK WND 35029/2337 SLP213 T00611033 10083 20061 53018=
202303082251 METAR KJFK 082251Z 35019G28KT 10SM BKN090 07/M03 A3014 RMK AO2 PK WND 35031/2222 SLP206 T00671033=
202303082151 METAR KJFK 082151Z 35022G27KT 10SM FEW050 BKN090 08/M03 A3012 RMK AO2 PK WND 35028/2054 SLP198 T00781033=
202303082051 METAR KJFK 082051Z 34019G27KT 10SM FEW050 BKN090 07/M03 A3011 RMK AO2 PK WND 34031/2014 SLP194 T00721033 55004=
202303081951 METAR KJFK 081951Z 35026G33KT 10SM FEW050 SCT080 BKN100 08/M03 A3009 RMK AO2 PK WND 34033/1942 SLP190 T00781033=
202303081851 METAR KJFK 081851Z 34023G30KT 10SM FEW045 SCT060 08/M03 A3010 RMK AO2 PK WND 36032/1835 SLP191 T00831033=
202303081751 METAR KJFK 081751Z 34021G29KT 10SM SCT045 07/M04 A3012 RMK AO2 PK WND 36032/1719 SLP198 T00721039 10072 21006 58006=
202303081651 METAR KJFK 081651Z 35022G30KT 10SM SCT045 06/M04 A3012 RMK AO2 PK WND 34030/1648 SLP200 T00611044=
202303081551 METAR KJFK 081551Z 34017G29KT 10SM SCT045 05/M05 A3013 RMK AO2 PK WND 35035/1521 SLP204 T00501050=
202303081451 METAR KJFK 081451Z 33024G31KT 10SM FEW044 04/M06 A3014 RMK AO2 PK WND 33031/1451 SLP205 T00391056 51008=
202303081351 METAR KJFK 081351Z 33017KT 10SM FEW042 FEW055 03/M06 A3013 RMK AO2 PK WND 32026/1330 SLP204 FU PLUME NW DRFTG SE T00281061=
202303081251 METAR KJFK 081251Z 33018G27KT 10SM FEW040 FEW050 01/M07 A3012 RMK AO2 PK WND 32031/1210 SLP198 T00061067=
202303081151 METAR KJFK 081151Z 33020G25KT 10SM FEW037 FEW050 M01/M07 A3011 RMK AO2 PK WND 33028/1120 SLP197 T10061072 10000 21011 51006=
202303081051 METAR KJFK 081051Z 33020G26KT 10SM FEW050 M01/M08 A3011 RMK AO2 PK WND 33026/0958 SLP195 T10111078=
202303080951 METAR KJFK 080951Z 33017G26KT 10SM FEW045 M01/M08 A3011 RMK AO2 PK WND 33027/0855 SLP194 T10111083=
202303080851 METAR KJFK 080851Z 34017KT 10SM FEW045 M01/M09 A3010 RMK AO2 PK WND 34029/0835 SLP191 T10061089 53015=
202303080751 METAR KJFK 080751Z 35020G26KT 10SM FEW047 FEW080 M01/M09 A3008 RMK AO2 PK WND 33030/0718 SLP184 T10061089=
202303080651 METAR KJFK 080651Z 34018G24KT 10SM FEW047 SCT080 00/M08 A3006 RMK AO2 SLP180 T00001078=
202303080551 METAR KJFK 080551Z 36014KT 10SM FEW047 00/M08 A3005 RMK AO2 SLP176 T00001078 10028 20000 53018=
202303080451 METAR KJFK 080451Z 33013KT 10SM BKN046 01/M08 A3002 RMK AO2 PK WND 33034/0355 SLP166 T00111078 400890000=
202303080351 METAR KJFK 080351Z 33024G35KT 10SM SCT050 02/M08 A3001 RMK AO2 PK WND 33035/0257 SLP163 T00171083=
202303080251 METAR KJFK 080251Z 32025G30KT 10SM BKN049 02/M08 A3000 RMK AO2 PK WND 33035/0220 SLP158 T00221078 51016=
202303080151 METAR KJFK 080151Z 33021G28KT 10SM SCT048 02/M07 A2999 RMK AO2 PK WND 32038/0117 SLP156 T00221072=
202303080051 METAR KJFK 080051Z 32020G29KT 10SM BKN050 03/M08 A2997 RMK AO2 PK WND 31036/2353 SLP148 T00281078=
202303072351 METAR KJFK 072351Z 33027G37KT 10SM BKN055 03/M08 A2995 RMK AO2 PK WND 34041/2316 SLP141 T00281078 10089 20028 51057=
202303072251 METAR KJFK 072251Z 32024G33KT 10SM BKN050 04/M07 A2991 RMK AO2 PK WND 31036/2152 SLP128 T00441067=
202303072151 METAR KJFK 072151Z 31027G40KT 10SM SCT065 SCT250 07/M07 A2984 RMK AO2 PK WND 31040/2144 SLP102 T00671067=
202303072051 METAR KJFK 072051Z 33026G34KT 10SM FEW065 FEW250 08/M07 A2978 RMK AO2 PK WND 32040/2021 SLP085 T00831067 53007=
202303071951 METAR KJFK 071951Z 32029G37KT 10SM FEW065 FEW250 09/M08 A2977 RMK AO2 PK WND 32037/1948 SLP081 T00891078=
202303071851 METAR KJFK 071851Z 30027G35KT 10SM FEW065 FEW160 FEW250 08/M09 A2976 RMK AO2 PK WND 32039/1820 SLP078 T00831094=
202303071751 METAR KJFK 071751Z 32026G36KT 10SM FEW120 FEW250 08/M09 A2976 RMK AO2 PK WND 33036/1746 SLP078 60000 T00781094 10083 20006 58003=
202303071651 METAR KJFK 071651Z 33023KT 10SM FEW060 SCT120 BKN250 08/M09 A2977 RMK AO2 PK WND 31030/1611 SLP080 T00781094=
202303071551 METAR KJFK 071551Z 31019G24KT 10SM FEW050 BKN120 BKN250 07/M09 A2977 RMK AO2 PK WND 32028/1524 SLP080 T00671094=
202303071451 METAR KJFK 071451Z 31013KT 10SM FEW047 FEW120 BKN250 06/M05 A2977 RMK AO2 SLP081 60000 T00561050 58010=
202303071351 METAR KJFK 071351Z 32013G23KT 10SM FEW070 SCT120 BKN250 04/M04 A2978 RMK AO2 SLP085 T00391039=
202303071251 METAR KJFK 071251Z 28009KT 10SM FEW026 BKN070 BKN140 01/M02 A2980 RMK AO2 SNE17 SLP089 VIRGA N AND SE P0000 T00111017=
202303071217 SPECI KJFK 071217Z 28008KT 10SM FEW013 FEW027 BKN060 BKN140 01/M02 A2979 RMK AO2 SNE17 VCSH NE-SW AND NW P0000 T00111017=
202303071151 METAR KJFK 071151Z 31009KT 8SM -SN FEW013 SCT028 BKN047 BKN140 01/M02 A2980 RMK AO2 SNB10 SLP090 P0000 60008 70008 T00061017 10061 20000 56006=
202303071119 SPECI KJFK 071119Z 34014G19KT 5SM -SN FEW008 BKN026 OVC047 01/M02 A2980 RMK AO2 SNB10 P0000 T00111022=
202303071110 SPECI KJFK 071110Z 32012G19KT 10SM -SN FEW008 FEW024 OVC049 01/M02 A2980 RMK AO2 SNB10 P0000 T00111017=
202303071051 METAR KJFK 071051Z 30009KT 10SM FEW008 OVC047 01/M01 A2980 RMK AO2 SNE43 SLP091 P0000 T00061011=
202303071043 SPECI KJFK 071043Z 30007KT 10SM FEW008 OVC047 01/M01 A2980 RMK AO2 SNE43 P0000 T00061011=
202303070951 METAR KJFK 070951Z 34009KT 6SM -SN BR FEW008 OVC038 00/M02 A2981 RMK AO2 SLP092 P0002 T00001017=
202303070949 SPECI KJFK 070949Z 34009KT 6SM -SN BR FEW008 OVC038 00/M01 A2981 RMK AO2 P0002=
202303070851 METAR KJFK 070851Z 35008KT 2SM -SN BR BKN009 OVC028 00/M01 A2982 RMK AO2 SFC VIS 3 SLP096 P0002 60006 T00001011 58009=
202303070839 SPECI KJFK 070839Z 36008KT 2SM -SN BR BKN009 OVC020 01/M01 A2982 RMK AO2 P0002 T00061006=
202303070804 SPECI KJFK 070804Z 35008KT 2SM -SN BR FEW009 OVC024 01/M01 A2982 RMK AO2 SFC VIS 2 1/2 P0002 T00061006=
202303070751 METAR KJFK 070751Z 35010KT 4SM -SN BR FEW009 OVC031 01/M01 A2983 RMK AO2 PLB11E38 SLP099 P0004 T00061006=
202303070738 SPECI KJFK 070738Z 36013KT 5SM -SN BR FEW009 OVC040 01/M01 A2983 RMK AO2 PLB11E38 P0004 T00061006=
202303070711 SPECI KJFK 070711Z 35011KT 7SM -PLSN OVC043 02/M01 A2983 RMK AO2 PLB11 P0002 T00171011=
202303070651 METAR KJFK 070651Z 01010KT 6SM -SN FEW031 OVC045 02/M02 A2984 RMK AO2 RAE13SNB17 SLP103 P0000 T00221017=
202303070618 SPECI KJFK 070618Z 30012KT 10SM -SN OVC045 06/M08 A2987 RMK AO2 RAE13SNB17 P0000 T00561078=
202303070551 METAR KJFK 070551Z 29008KT 10SM -RA OVC049 06/M06 A2984 RMK AO2 RAB16 SLP106 P0000 60000 T00611061 10100 20061 56023=
202303070451 METAR KJFK 070451Z 32010KT 10SM OVC070 07/M12 A2987 RMK AO2 SLP115 T00721117 401220039=
202303070351 METAR KJFK 070351Z 33010KT 10SM FEW090 OVC130 08/M10 A2987 RMK AO2 SLP114 T00781100=
202303070251 METAR KJFK 070251Z 31012KT 10SM SCT090 OVC110 08/M09 A2991 RMK AO2 SLP129 T00831094 58007=
202303070151 METAR KJFK 070151Z 31013KT 10SM BKN150 BKN250 09/M09 A2994 RMK AO2 SLP137 T00891089=
202303070051 METAR KJFK 070051Z 28012KT 10SM BKN170 BKN250 09/M08 A2992 RMK AO2 SLP131 T00941083=
202303062351 METAR KJFK 062351Z 31009KT 10SM SCT170 BKN250 09/M07 A2993 RMK AO2 SLP136 T00941072 10122 20094 56016=
202303062251 METAR KJFK 062251Z 28013KT 10SM FEW080 SCT250 10/M07 A2995 RMK AO2 SLP141 T01001072=
202303062151 METAR KJFK 062151Z 29011KT 10SM FEW080 FEW250 11/M06 A2996 RMK AO2 SLP146 T01061061=
202303062051 METAR KJFK 062051Z 31015KT 10SM FEW080 FEW250 11/M06 A2998 RMK AO2 SLP152 T01111061 58026=
202303061951 METAR KJFK 061951Z 30017KT 10SM FEW080 SCT120 SCT250 11/M06 A3002 RMK AO2 SLP164 T01061056=
202303061851 METAR KJFK 061851Z 31017G21KT 10SM FEW080 BKN120 BKN250 11/M06 A3003 RMK SLP169 T01061056=
202303061751 METAR KJFK 061751Z 30013G24KT 10SM FEW095 SCT180 BKN250 12/M04 A3006=
202303061651 METAR KJFK 061651Z 31013KT 10SM FEW095 BKN250 11/M04 A3010 RMK AO2 SLP191 VIRGA W T01111039=
202303061551 METAR KJFK 061551Z 31013KT 10SM FEW095 BKN250 10/M03 A3013 RMK AO2 SLP203 T01001033=
202303061451 METAR KJFK 061451Z 33012KT 10SM SCT250 09/M03 A3015 RMK AO2 SLP211 T00891028 58012=
202303061351 METAR KJFK 061351Z 32011KT 10SM FEW250 07/M02 A3017 RMK AO2 SLP216 T00721022 $=
202303061251 METAR KJFK 061251Z 31013G20KT 10SM FEW250 06/M02 A3019 RMK AO2 SLP223 T00611022 $=
202303061151 METAR KJFK 061151Z 31012KT 10SM CLR 04/M03 A3019 RMK AO2 SLP222 T00441028 10061 20039 53003 $=
202303061051 METAR KJFK 061051Z 31014KT 10SM CLR 04/M03 A3018 RMK AO2 SLP219 T00391028 $=
202303060951 METAR KJFK 060951Z 31013KT 10SM CLR 04/M03 A3018 RMK AO2 SLP219 T00441028 $=
202303060851 METAR KJFK 060851Z 31015KT 10SM FEW047 04/M03 A3018 RMK AO2 SLP219 T00441028 58003 $=
202303060751 METAR KJFK 060751Z 30012KT 10SM FEW047 05/M03 A3019 RMK AO2 SLP222 T00501028 $=
202303060651 METAR KJFK 060651Z 30014KT 10SM FEW047 06/M03 A3019 RMK AO2 SLP222 T00561028 $=
202303060551 METAR KJFK 060551Z 31017KT 10SM FEW047 06/M03 A3019 RMK AO2 SLP222 T00611028 10089 20061 50001 $=
202303060451 METAR KJFK 060451Z 32015G22KT 10SM BKN046 07/M03 A3020 RMK AO2 PK WND 32029/0358 SLP225 T00671028 401330022 $=
202303060351 METAR KJFK 060351Z 32021G27KT 10SM BKN046 07/M03 A3020 RMK AO2 PK WND 31030/0255 SLP226 T00671028 $=
202303060251 METAR KJFK 060251Z 31020G30KT 10SM BKN047 07/M02 A3019 RMK AO2 PK WND 31030/0251 SLP221 T00671022 51010 $=
202303060151 METAR KJFK 060151Z 33018G25KT 10SM FEW045 07/M02 A3018 RMK AO2 PK WND 31027/0109 SLP220 T00671017 $=
202303060051 METAR KJFK 060051Z 33016KT 10SM FEW060 08/M02 A3017 RMK AO2 PK WND 32026/0005 SLP215 T00781017 $=
202303052351 METAR KJFK 052351Z 30020G30KT 10SM BKN060 09/M02 A3016 RMK AO2 PK WND 31031/2326 SLP211 T00891022 10133 20083 51024 $=
202303052251 METAR KJFK 052251Z 31015G23KT 10SM FEW060 BKN065 09/M02 A3014 RMK AO2 PK WND 29029/2231 SLP206 T00891022 $=
202303052151 METAR KJFK 052151Z 32019G28KT 10SM SCT060 10/M02 A3012 RMK AO2 PK WND 32032/2105 SLP198 T01001017 $=
202303052051 METAR KJFK 052051Z 32022G30KT 10SM SCT055 BKN070 11/M01 A3008 RMK AO2 PK WND 31031/2018 SLP187 T01111011 53006 $=
202303051951 METAR KJFK 051951Z 32020G25KT 10SM SCT060 BKN070 BKN150 13/M01 A3007 RMK AO2 PK WND 29029/1922 SLP181 T01281011 $=
202303051851 METAR KJFK 051851Z 30017G24KT 10SM BKN060 BKN075 BKN150 11/M01 A3006 RMK AO2 PK WND 29030/1835 SLP180 T01111006 $=
202303051751 METAR KJFK 051751Z 29013G23KT 10SM BKN055 BKN090 BKN150 11/00 A3007 RMK AO2 SLP181 T01110000 10122 20033 58020 $=
202303051651 METAR KJFK 051651Z 26012KT 10SM FEW040 FEW090 SCT150 10/00 A3010 RMK AO2 SLP191 T01000000 $=
202303051551 METAR KJFK 051551Z 25011KT 10SM FEW040 FEW090 SCT150 SCT250 08/M01 A3011 RMK AO2 SLP195 T00831006 $=
202303051451 METAR KJFK 051451Z 30010KT 10SM FEW040 FEW090 SCT150 07/M01 A3013 RMK AO2 SLP201 T00721011 50003 $=
202303051351 METAR KJFK 051351Z 29015G18KT 10SM FEW090 SCT150 07/M02 A3013 RMK AO2 SLP202 T00671017 $=
202303051251 METAR KJFK 051251Z 30007KT 10SM FEW060 BKN100 BKN150 04/M02 A3012 RMK AO2 SLP199 T00441017 $=
202303051151 METAR KJFK 051151Z 28007KT 10SM FEW040 SCT060 SCT150 SCT250 03/M02 A3012 RMK AO2 SLP198 T00331022 10039 20022 53014 $=
202303051051 METAR KJFK 051051Z 31009KT 10SM FEW060 BKN150 03/M03 A3010 RMK AO2 SLP192 T00331028 $=
202303050951 METAR KJFK 050951Z 33010KT 10SM SCT055 03/M03 A3009 RMK AO2 SLP188 T00281028 $=
202303050851 METAR KJFK 050851Z 30011KT 10SM SCT050 03/M03 A3008 RMK AO2 SLP184 T00281028 51013 $=
202303050751 METAR KJFK 050751Z 31009KT 10SM SCT055 03/M02 A3006 RMK AO2 SLP179 T00281022 $=
202303050651 METAR KJFK 050651Z 30009KT 10SM SCT050 03/M02 A3005 RMK AO2 SLP177 T00331017 $=
202303050551 METAR KJFK 050551Z 33009KT 10SM FEW038 BKN050 03/M01 A3004 RMK AO2 SLP171 60000 T00331011 10061 20033 51013 $=
202303050451 METAR KJFK 050451Z 34010KT 10SM FEW026 OVC048 04/00 A3003 RMK AO2 RAB0357E08 SLP167 P0000 T00390000 400780039 $=
202303050351 METAR KJFK 050351Z 32014G20KT 10SM OVC022 04/01 A3002 RMK AO2 SLP166 T00390006 $=
202303050251 METAR KJFK 050251Z 32011KT 10SM BKN020 OVC045 05/01 A3000 RMK AO2 RAE07 SLP158 P0000 60000 T00500011 51031 $=
202303050151 METAR KJFK 050151Z 34010KT 10SM -RA BKN023 BKN045 BKN080 05/01 A2996 RMK AO2 RAB37 SLP146 P0000 T00500011 $=
202303050146 SPECI KJFK 050146Z 32010KT 10SM -RA BKN024 BKN045 BKN080 05/01 A2996 RMK AO2 RAB37 P0000 $=
202303050051 METAR KJFK 050051Z 34010KT 10SM FEW026 BKN040 BKN080 06/01 A2991 RMK AO2 SLP127 T00560011 $=
202303042351 METAR KJFK 042351Z 34012KT 10SM FEW028 BKN036 BKN080 06/01 A2986 RMK AO2 SLP111 T00610006 10072 20056 51048 $=
202303042251 METAR KJFK 042251Z 34014KT 10SM FEW025 BKN036 BKN080 06/01 A2983 RMK AO2 SLP099 T00610011 $=
202303042151 METAR KJFK 042151Z 33013G21KT 10SM SCT025 BKN030 OVC080 07/02 A2977 RMK AO2 SLP081 T00670017 $=
202303042051 METAR KJFK 042051Z 35011KT 10SM FEW026 BKN034 BKN100 07/02 A2972 RMK AO2 SLP063 T00720017 53050=
202303042021 SPECI KJFK 042021Z 31015KT 10SM BKN031 BKN080 BKN250 07/01 A2969 RMK AO2 T00720011=
202303041951 METAR KJFK 041951Z 32018G22KT 10SM BKN026 BKN250 07/01 A2967 RMK AO2 SLP046 T00720011=
202303041851 METAR KJFK 041851Z 34011KT 10SM BKN027 BKN250 07/02 A2961 RMK AO2 SLP027 T00670022=
202303041751 METAR KJFK 041751Z 31016KT 10SM BKN022 BKN250 07/02 A2957 RMK AO2 SLP013 60000 T00670022 10067 20044 51036=
202303041651 METAR KJFK 041651Z 30013KT 10SM BKN018 BKN031 BKN250 06/02 A2954 RMK AO2 SLP004 T00610022=
202303041600 SPECI KJFK 041600Z 31013KT 10SM BKN016 BKN033 BKN250 06/03 A2951 RMK AO2 T00610028=
202303041551 METAR KJFK 041551Z 33011KT 10SM BKN014 BKN033 BKN250 06/03 A2950 RMK AO2 SLP989 T00610028=
202303041451 METAR KJFK 041451Z 33012KT 10SM BKN010 BKN250 05/03 A2946 RMK AO2 SLP977 60000 T00500033 51053=
202303041351 METAR KJFK 041351Z 33017G22KT 10SM OVC012 05/04 A2943 RMK AO2 RAB24E48 SLP965 P0000 T00500039=
202303041305 SPECI KJFK 041305Z 33013KT 9SM OVC010 05/04 A2939 RMK AO2 PRESRR T00500039=
202303041251 METAR KJFK 041251Z 35016G21KT 7SM OVC009 05/04 A2937 RMK AO2 RAB26E37 SLP946 P0000 T00500039=
202303041151 METAR KJFK 041151Z 01010KT 8SM OVC009 05/04 A2931 RMK AO2 PRESRR SLP924 60063 70094 T00500044 10078 20050 53000=
202303041051 METAR KJFK 041051Z 01013KT 10SM OVC009 06/05 A2927 RMK AO2 RAE48 SLP911 P0001 T00560050=
202303040951 METAR KJFK 040951Z 03016KT 7SM -RA SCT009 BKN015 OVC028 07/06 A2926 RMK AO2 PK WND 34034/0925 WSHFT 0914 SLP909 P0007 T00670061=
202303040928 SPECI KJFK 040928Z 03020G34KT 2SM -RA BR BKN007 BKN011 OVC020 07/06 A2927 RMK AO2 PK WND 34034/0925 WSHFT 0914 P0005 T00670061=
202303040919 SPECI KJFK 040919Z 04016G30KT 2SM RA BR BKN009 BKN013 OVC021 07/06 A2928 RMK AO2 PK WND 07031/0912 WSHFT 0903 P0004 T00720061=
202303040907 SPECI KJFK 040907Z 35018G26KT 320V020 3SM -RA BR BKN009 OVC013 07/06 A2929 RMK AO2 PK WND 33026/0904 WSHFT 0852 P0001 T00670061=
202303040851 METAR KJFK 040851Z 05020G25KT 4SM -RA BR BKN009 OVC018 07/06 A2931 RMK AO2 PK WND 09034/0822 WSHFT 0828 SLP923 P0006 60055 T00670061 55028=
202303040848 SPECI KJFK 040848Z 03020G25KT 5SM -RA BR BKN009 OVC018 07/06 A2930 RMK AO2 PK WND 09034/0822 WSHFT 0828 P0006=
202303040751 METAR KJFK 040751Z 09023G38KT 4SM RA BR BKN008 OVC024 06/06 A2935 RMK AO2 PK WND 10042/0715 SLP939 P0021 T00610056=
202303040651 METAR KJFK 040651Z 09027G42KT 2 1/2SM +RA BR OVC008 06/05 A2939 RMK AO2 PK WND 11043/0625 VIS 1 3/4 W SLP951 P0028 T00560050=
202303040551 METAR KJFK 040551Z 09023G33KT 3SM +RA BR OVC008 06/05 A2948 RMK AO2 PK WND 10039/0535 PRESFR SLP984 P0021 60031 T00560050 10056 20044 58105=
202303040451 METAR KJFK 040451Z 09019G30KT 4SM RA BR BKN008 BKN013 OVC041 06/04 A2961 RMK AO2 PK WND 09031/0439 SLP028 P0004 T00560044 400720000=
202303040351 METAR KJFK 040351Z 09019G28KT 9SM -RA BKN008 OVC050 06/04 A2967 RMK AO2 PK WND 09030/0318 PRESFR SLP048 P0001 T00560044=
202303040302 SPECI KJFK 040302Z 10018G25KT 10SM -RA OVC009 05/04 A2976 RMK AO2 PRESFR P0000 T00500039=
202303040251 METAR KJFK 040251Z 09017G27KT 7SM -RA OVC011 05/04 A2979 RMK AO2 PK WND 10027/0243 SLP089 P0005 60005 T00500039 58046=
202303040230 SPECI KJFK 040230Z 10018G25KT 6SM -RA BR OVC013 04/03 A2981 RMK AO2 P0002 T00440033=
202303040151 METAR KJFK 040151Z 09021G26KT 10SM -RA BKN019 OVC050 04/02 A2984 RMK AO2 PK WND 09026/0151 SLP103 P0000 T00440017=
202303040145 SPECI KJFK 040145Z 09017G24KT 9SM -RA BKN021 OVC050 04/02 A2985 RMK AO2 PRESFR P0000=
202303040051 METAR KJFK 040051Z 09014KT 10SM -RA FEW026 OVC060 04/00 A2990 RMK AO2 RAB2357E12B50 SLP124 P0000 T00440000=
202303032351 METAR KJFK 032351Z 09015KT 10SM FEW030 OVC070 04/M01 A2993 RMK AO2 RAB02E22 PRESFR SLP135 P0000 60000 T00441006 10072 20044 58031=
202303032251 METAR KJFK 032251Z 11012KT 10SM FEW030 OVC080 04/M01 A3000 RMK AO2 SLP158 T00441006=
202303032151 METAR KJFK 032151Z 12013KT 10SM FEW030 SCT075 OVC095 04/M02 A3001 RMK AO2 SLP162 T00441022=
202303032051 METAR KJFK 032051Z 14012KT 10SM SCT075 OVC090 05/M03 A3002 RMK AO2 SLP166 T00501028 58014=
202303031951 METAR KJFK 031951Z 14012KT 10SM BKN120 OVC250 05/M02 A3004 RMK AO2 SLP172 T00501022=
202303031951 SPECI KJFK 031951Z 14012KT 10SM BKN120 OVC250 05/M02 A3004 RMK AO2 SLP172 T00501022=
202303031851 METAR KJFK 031851Z 16010KT 10SM FEW095 BKN140 OVC250 06/M02 A3006 RMK AO2 SLP180 T00561022=
202303031751 METAR KJFK 031751Z 14006KT 10SM FEW095 BKN140 BKN250 07/M03 A3006 RMK AO2 SLP180 T00671028 10072 20006 58018=
202303031651 METAR KJFK 031651Z 04007KT 10SM SCT150 BKN250 07/M04 A3009 RMK AO2 SLP190 T00721044=
202303031551 METAR KJFK 031551Z 05006KT 10SM FEW120 SCT160 BKN250 07/M05 A3012 RMK AO2 SLP198 T00671050=
202303031451 METAR KJFK 031451Z 36006KT 10SM FEW120 FEW160 BKN230 06/M05 A3012 RMK AO2 SLP198 T00611050 51021=
202303031351 METAR KJFK 031351Z 03009KT 10SM FEW160 BKN230 04/M04 A3010 RMK AO2 SLP191 T00441044=
202303031251 METAR KJFK 031251Z 03006KT 10SM FEW160 BKN250 04/M03 A3007 RMK AO2 SLP183 T00391028=
202303031151 METAR KJFK 031151Z 00000KT 10SM FEW160 BKN250 01/M03 A3005 RMK AO2 SLP176 T00061033 10039 20000 50014=
202303031051 METAR KJFK 031051Z 35004KT 10SM BKN250 02/M04 A3006 RMK AO2 SLP177 T00171044=
202303030951 METAR KJFK 030951Z 02005KT 10SM FEW039 SCT250 02/M04 A3003 RMK AO2 SLP167 T00171044=
202303030851 METAR KJFK 030851Z 00000KT 10SM FEW038 SCT250 02/M04 A3001 RMK AO2 SLP162 T00171039 53030=
202303030751 METAR KJFK 030751Z 02005KT 10SM FEW039 SCT250 02/M03 A2998 RMK AO2 SLP152 T00221028=
202303030651 METAR KJFK 030651Z 33009KT 10SM FEW040 FEW250 03/M03 A2994 RMK AO2 SLP137 T00281028=
202303030551 METAR KJFK 030551Z 31008KT 10SM FEW250 04/M03 A2992 RMK AO2 SLP132 T00391028 10094 20039 51030=
202303030451 METAR KJFK 030451Z 32012KT 10SM FEW250 04/M03 A2989 RMK AO2 PK WND 33027/0352 SLP120 T00441033 401280039=
202303030351 METAR KJFK 030351Z 33020KT 10SM BKN250 06/M03 A2987 RMK AO2 PK WND 35030/0331 SLP115 T00561028=
202303030251 METAR KJFK 030251Z 34018G22KT 10SM BKN250 07/M02 A2983 RMK AO2 PK WND 33028/0220 SLP102 T00721022 51027=
202303030151 METAR KJFK 030151Z 33018G25KT 10SM BKN250 08/M02 A2981 RMK AO2 PK WND 33029/0135 SLP096 T00781017=
202303030051 METAR KJFK 030051Z 32020G29KT 10SM BKN250 09/M02 A2979 RMK AO2 PK WND 33031/0008 SLP086 T00891017=
202303022351 METAR KJFK 022351Z 34015G25KT 10SM BKN250 09/M01 A2975 RMK AO2 PK WND 33028/2310 SLP075 T00941006 10128 20094 51036=
202303022251 METAR KJFK 022251Z 34018G24KT 10SM FEW025 BKN250 11/M01 A2973 RMK AO2 PK WND 32027/2224 SLP066 T01061011=
202303022151 METAR KJFK 022151Z 33017G23KT 10SM FEW025 BKN250 12/M01 A2969 RMK AO2 PK WND 31026/2119 SLP053 T01171006=
202303022051 METAR KJFK 022051Z 32015G19KT 10SM FEW021 BKN250 12/03 A2965 RMK AO2 SLP039 T01220033 51008=
202303021951 METAR KJFK 021951Z 31016G23KT 10SM FEW021 BKN250 12/03 A2964 RMK AO2 SLP038 T01220033=
202303021851 METAR KJFK 021851Z 31013KT 10SM SCT021 SCT220 BKN250 11/06 A2965 RMK AO2 SLP038 T01060061=
202303021751 METAR KJFK 021751Z 27010KT 7SM BKN015 BKN250 09/06 A2962 RMK AO2 SLP031 CIG 013V017 60000 T00940061 10094 20044 58012=
202303021716 SPECI KJFK 021716Z 25008KT 4SM BR BKN011 BKN020 BKN250 08/07 A2963 RMK AO2 PRESFR CIG 009V013 T00830067=
202303021651 METAR KJFK 021651Z 26006KT 2SM BR BKN008 OVC021 08/06 A2965 RMK AO2 SFC VIS 4 SLP038 T00780061=
202303021611 SPECI KJFK 021611Z 25007KT 2SM BR FEW002 OVC008 07/06 A2965 RMK AO2 SFC VIS 4 T00670061=
202303021551 METAR KJFK 021551Z 24007KT 1/2SM R04R/P6000FT BR SCT002 OVC006 07/06 A2967 RMK AO2 SFC VIS 2 1/2 SLP045 T00670061=
202303021543 SPECI KJFK 021543Z 23005KT 1/2SM R04R/P6000FT BR SCT002 OVC006 06/06 A2966 RMK AO2 SFC VIS 2 1/2 T00610061=
202303021521 SPECI KJFK 021521Z 25006KT 1 1/2SM BR SCT002 BKN006 OVC034 06/06 A2966 RMK AO2 SFC VIS 3 T00610056=
202303021451 METAR KJFK 021451Z 25005KT 3/4SM R04R/1800V3000FT BR SCT000 BKN002 OVC038 06/06 A2966 RMK AO2 SFC VIS 1 1/2 RAB24E35 SLP044 BR SCT000 P0000 60000 T00560056 56024=
202303021421 SPECI KJFK 021421Z 22004KT 1/2SM R04R/1800V2000FT BR VV002 05/05 A2965 RMK AO2 SFC VIS 3/4 PRESFR T00500050=
202303021351 METAR KJFK 021351Z 25004KT 1/2SM R04R/6000VP6000FT BR SCT000 OVC002 05/05 A2968 RMK AO2 SFC VIS 1 1/2 RAE37 SLP051 BR SCT000 P0000 T00500050=
202303021251 METAR KJFK 021251Z 10005KT 2SM -RA BR OVC004 05/04 A2966 RMK AO2 SFC VIS 3 RAB49 PRESFR SLP044 P0000 T00500044=
202303021151 METAR KJFK 021151Z 01003KT 1/2SM R04R/P6000FT BR OVC002 04/04 A2973 RMK AO2 SFC VIS 2 1/2 SLP068 60000 70002 T00440044 10050 20039 55003=
202303021051 METAR KJFK 021051Z 01007KT 1/2SM R04R/P6000FT BR OVC003 04/04 A2972 RMK AO2 SFC VIS 4 DZE48 SLP065 P0000 T00440039=
202303020951 METAR KJFK 020951Z 36007KT 1/2SM R04R/P6000FT -DZ BR OVC003 04/04 A2974 RMK AO2 SFC VIS 3 SLP071 P0000 T00440044=
202303020851 METAR KJFK 020851Z 03004KT 1/2SM R04R/P6000FT -DZ BR OVC003 04/04 A2974 RMK AO2 SFC VIS 2 SLP071 P0000 60000 T00440039 56042=
202303020751 METAR KJFK 020751Z 03009KT 1/2SM R04R/P6000FT -DZ BR OVC003 04/04 A2977 RMK AO2 SFC VIS 2 PRESFR SLP081 P0000 T00390039=
202303020734 SPECI KJFK 020734Z 34008KT 1/2SM R04R/P6000FT -DZ BR OVC004 04/04 A2980 RMK AO2 SFC VIS 2 1/2 P0000 T00440044=
202303020651 METAR KJFK 020651Z 01004KT 2SM -DZ BR OVC004 04/04 A2980 RMK AO2 SFC VIS 2 1/2 PRESFR SLP091 P0000 T00440044=
202303020551 METAR KJFK 020551Z 02005KT 2SM -DZ BR OVC004 05/04 A2987 RMK AO2 SFC VIS 3 SLP113 P0000 60001 T00500044 10050 20044 58036=
202303020451 METAR KJFK 020451Z 05008KT 2SM -DZ BR OVC004 04/04 A2991 RMK AO2 SFC VIS 3 SLP127 P0000 T00440044 400611017=
202303020429 SPECI KJFK 020429Z 05008KT 2SM -DZ BR OVC004 04/04 A2991 RMK AO2 SFC VIS 3 P0000 T00440039=
202303020351 METAR KJFK 020351Z 06009KT 5SM -DZ BR OVC005 04/04 A2995 RMK AO2 SLP140 P0000 T00440039=
202303020251 METAR KJFK 020251Z 06008KT 7SM -DZ OVC006 04/04 A2997 RMK AO2 SLP149 P0000 60001 T00440039 58028=
202303020244 SPECI KJFK 020244Z 07009KT 7SM -DZ OVC007 04/04 A2998 RMK AO2 P0000 T00440039=
202303020151 METAR KJFK 020151Z 09009KT 7SM -DZ SCT005 OVC018 04/04 A3000 RMK AO2 SLP158 P0001 T00440039=
202303020145 SPECI KJFK 020145Z 09008KT 7SM -DZ SCT005 OVC018 04/04 A3000 RMK AO2 P0001=
202303020051 METAR KJFK 020051Z 11008KT 5SM -DZ BR BKN005 OVC019 04/04 A3003 RMK AO2 SLP169 P0000 T00440039=
202303020022 SPECI KJFK 020022Z 11008KT 6SM -DZ BR BKN008 OVC021 04/04 A3004 RMK AO2 P0000 T00440039=
202303020007 SPECI KJFK 020007Z 11006KT 6SM -DZ BR FEW009 SCT022 OVC026 04/04 A3005 RMK AO2 P0000 T00440039=
202303012351 METAR KJFK 012351Z 12005KT 6SM -DZ BR OVC028 05/03 A3005 RMK AO2 RAB2255E00DZB50 SLP177 P0001 60001 T00500033 10061 20044 50001=
202303012251 METAR KJFK 012251Z 14008KT 6SM HZ SCT017 OVC025 05/02 A3006 RMK AO2 RAB39E49 SLP179 P0000 T00500022=
202303012215 SPECI KJFK 012215Z 12008KT 10SM BKN026 OVC060 06/02 A3004 RMK AO2 T00560017=
202303012151 METAR KJFK 012151Z 13007KT 10SM SCT024 BKN060 OVC140 06/01 A3005 RMK AO2 SLP174 T00560011=
202303012051 METAR KJFK 012051Z 14010KT 10SM FEW024 BKN065 BKN140 OVC250 05/01 A3005 RMK AO2 SLP176 T00500006 58031=
202303011951 METAR KJFK 011951Z 15014KT 10SM FEW024 BKN080 BKN100 BKN250 05/00 A3010 RMK AO2 SLP191 T00500000=
202303011851 METAR KJFK 011851Z 13012KT 10SM FEW045 BKN075 BKN250 05/M01 A3012 RMK AO2 SLP198 T00501011=
202303011751 METAR KJFK 011751Z 17011KT 10SM FEW042 BKN090 BKN250 04/M02 A3015 RMK AO2 SLP207 T00441022 10061 21006 56011=
202303011651 METAR KJFK 011651Z 18008KT 10SM FEW038 BKN110 BKN250 05/M01 A3015 RMK AO2 SLP211 T00501011=
202303011551 METAR KJFK 011551Z 10SM FEW150 SCT250 06/M02 A3016 RMK AO2 SLP211 T00561022=
202303011451 METAR KJFK 011451Z 04004KT 10SM FEW150 BKN250 05/M02 A3018 RMK AO2 SLP218 T00501022 53009=
202303011351 METAR KJFK 011351Z 05010KT 10SM FEW150 BKN250 03/M02 A3016 RMK AO2 SLP213 T00331017=
202303011251 METAR KJFK 011251Z 05005KT 10SM SCT150 BKN250 01/M02 A3016 RMK AO2 SLP214 T00111022=
202303011151 METAR KJFK 011151Z 02005KT 10SM FEW150 BKN250 M01/M03 A3015 RMK AO2 SLP209 70003 T10061028 10028 21017 51008=
202303011051 METAR KJFK 011051Z 03004KT 10SM SCT150 00/M03 A3015 RMK AO2 SLP207 T00001028=
202303010951 METAR KJFK 010951Z 01004KT 10SM BKN160 01/M03 A3014 RMK AO2 SLP206 T00061028=
202303010851 METAR KJFK 010851Z 35005KT 10SM CLR 01/M03 A3013 RMK AO2 SLP201 T00061028 53015=
202303010751 METAR KJFK 010751Z 32008KT 10SM FEW045 02/M02 A3010 RMK AO2 SLP192 T00171022=
202303010651 METAR KJFK 010651Z 31006KT 10SM CLR 02/M02 A3009 RMK AO2 SLP189 T00171017=
202303010551 METAR KJFK 010551Z 31008KT 10SM FEW230 03/M02 A3008 RMK AO2 SLP186 T00281017 10033 20017 53022=
202303010451 METAR KJFK 010451Z 31007KT 10SM FEW040 SCT230 03/M01 A3006 RMK AO2 SLP177 T00331011 400330000=
202303010351 METAR KJFK 010351Z 31009KT 10SM FEW040 03/00 A3003 RMK AO2 SLP169 T00330000=
202303010251 METAR KJFK 010251Z 31010KT 10SM FEW040 03/01 A3002 RMK AO2 SLP164 T00280006 52022=
202303010151 METAR KJFK 010151Z 32007KT 10SM FEW020 FEW040 02/01 A3000 RMK AO2 SLP158 T00220006=
202303010051 METAR KJFK 010051Z 32005KT 10SM FEW020 FEW040 03/01 A2997 RMK AO2 SLP148 T00280006=
202302282351 METAR KJFK 282351Z 32010KT 10SM FEW015 BKN040 BKN250 02/01 A2995 RMK AO2 SLP142 60001 T00220006 10028 20017 53042=
202302282251 METAR KJFK 282251Z 35010KT 10SM FEW010 SCT015 BKN041 02/01 A2989 RMK AO2 SLP122 T00220006=
202302282247 SPECI KJFK 282247Z 35010KT 10SM FEW010 SCT015 BKN041 02/01 A2989 RMK AO2 PRESRR=
202302282209 SPECI KJFK 282209Z 36007KT 10SM FEW009 BKN016 BKN038 BKN250 02/01 A2987 RMK AO2 T00220011=
202302282151 METAR KJFK 282151Z 35009KT 10SM BKN009 OVC015 02/01 A2986 RMK AO2 SLP111 BKN V SCT T00220011=
202302282051 METAR KJFK 282051Z 35010KT 10SM BKN009 OVC015 03/01 A2983 RMK AO2 RAE18 SLP101 P0000 60001 T00280011 53029=
202302281951 METAR KJFK 281951Z 35011KT 10SM -RA BKN006 OVC016 02/01 A2980 RMK AO2 SNE40 SLP090 P0000 T00220011=
202302281940 SPECI KJFK 281940Z 34010KT 7SM -RA BKN006 OVC016 02/01 A2979 RMK AO2 SNE40 P0000 T00220011=
202302281851 METAR KJFK 281851Z 35008KT 3SM -RASN BR OVC005 02/01 A2976 RMK AO2 SLP076 P0001 T00220011=
202302281751 METAR KJFK 281751Z 35007KT 3SM -RASN BR OVC009 02/02 A2974 RMK AO2 SLP072 P0000 60002 T00220017 10022 20006 53010=
202302281651 METAR KJFK 281651Z 36007KT 3SM -RASN BR OVC009 02/01 A2973 RMK AO2 SLP068 P0001 T00170006=
202302281551 METAR KJFK 281551Z 02006KT 3SM -RASN BR OVC009 02/01 A2972 RMK AO2 SLP062 P0000 T00170006=
202302281451 METAR KJFK 281451Z 36008KT 5SM -SNRA BR OVC009 01/01 A2971 RMK AO2 SLP061 P0000 60001 T00110006 53013=
202302281419 SPECI KJFK 281419Z 03007KT 4SM -SNRA BR OVC009 01/01 A2970 RMK AO2 P0000 T00110006=
202302281351 METAR KJFK 281351Z 04009KT 4SM -SNRA BR FEW009 OVC011 01/00 A2970 RMK AO2 SLP055 P0001 T00110000=
202302281251 METAR KJFK 281251Z 04010KT 4SM -SNRA BR FEW009 OVC012 01/M01 A2968 RMK AO2 RAB42 SLP048 P0000 T00061006=
202302281151 METAR KJFK 281151Z 04012KT 6SM -SN BR BKN012 OVC020 01/M01 A2965 RMK AO2 SLP040 P0000 60016 70058 T00061006 10006 20000 51015=
202302281051 METAR KJFK 281051Z 04013KT 3SM -SN BR BKN014 OVC030 01/M01 A2964 RMK AO2 SFC VIS 6 SLP036 P0000 T00061006=
202302281039 SPECI KJFK 281039Z 05014KT 3SM -SN BR OVC013 01/M01 A2965 RMK AO2 SFC VIS 6 PRESRR P0000 T00061006=
202302280951 METAR KJFK 280951Z 05015KT 2 1/2SM -SN BR OVC011 00/M01 A2963 RMK AO2 SFC VIS 6 SLP031 P0000 T00001006=
202302280943 SPECI KJFK 280943Z 05017G23KT 2 1/2SM -SN BR BKN011 OVC030 00/M01 A2962 RMK AO2 SFC VIS 5 P0000 T00001006=
202302280851 METAR KJFK 280851Z 04015KT 2 1/2SM -SN BR OVC008 00/M01 A2961 RMK AO2 PLE40 SLP025 P0004 60016 T00001006 56009=
202302280840 SPECI KJFK 280840Z 05014KT 2 1/2SM -SN BR OVC008 00/M01 A2960 RMK AO2 SFC VIS 3 PLE40 P0003 T00001006=
202302280751 METAR KJFK 280751Z 05013KT 2 1/2SM -SNPL BR OVC008 00/00 A2961 RMK AO2 SFC VIS 4 RAB39E50PLB50 SLP027 P0005 T00000000=
202302280651 METAR KJFK 280651Z 06012KT 2 1/2SM -SN BR OVC008 01/00 A2963 RMK AO2 SFC VIS 3 PLE45 SLP032 P0007 T00060000=
202302280645 SPECI KJFK 280645Z 06012KT 2 1/2SM -SN BR OVC008 01/00 A2963 RMK AO2 SFC VIS 3 PLE45 P0007=
202302280607 SPECI KJFK 280607Z 06013KT 2 1/2SM -SNPL BR OVC008 01/00 A2963 RMK AO2 SFC VIS 4 P0002 T00060000=
202302280551 METAR KJFK 280551Z 06013KT 2 1/2SM PLSN BR OVC008 01/00 A2963 RMK AO2 SFC VIS 4 RAB24E46SNE24B46 SLP034 P0011 60042 T00060000 10028 20000 56057=
202302280524 SPECI KJFK 280524Z 07014KT 2 1/2SM RAPL BR OVC007 01/00 A2964 RMK AO2 SFC VIS 4 RAB24SNE24 P0006 T00060000=
202302280451 METAR KJFK 280451Z 08017G23KT 2 1/2SM -SNPL BR OVC005 01/00 A2965 RMK AO2 SFC VIS 4 SLP039 PLB25 P0007 T00060000 400611006=
202302280425 SPECI KJFK 280425Z 08015G22KT 2 1/2SM -SNPL BR OVC005 01/00 A2968 RMK AO2 SFC VIS 4 PLB25 P0003 T00060000=
202302280409 SPECI KJFK 280409Z 09016KT 2 1/2SM -SN BR OVC005 01/00 A2970 RMK AO2 SFC VIS 4 P0001 T00060000=
202302280351 METAR KJFK 280351Z 10017KT 1SM R04R/P6000FT -SN BR OVC004 01/00 A2971 RMK AO2 SFC VIS 1 1/2 PRESFR SLP062 P0008 T00060000=
202302280251 METAR KJFK 280251Z 10012G18KT 1SM R04R/5000VP6000FT -SN BR OVC003 00/00 A2980 RMK AO2 SLP091 P0014 60016 T00000000 56026=
202302280222 SPECI KJFK 280222Z 11015KT 1SM R04R/3500VP6000FT -SN BR BKN006 OVC013 00/M01 A2980 RMK AO2 SFC VIS 1 1/4 P0008 T00001006=
202302280157 SPECI KJFK 280157Z 12012KT 1SM R04R/P6000FT -SN BR FEW006 BKN013 OVC025 01/M01 A2985 RMK AO2 SFC VIS 1 1/2 P0001 T00111006=
202302280151 METAR KJFK 280151Z 13014KT 2SM -SN BR FEW010 BKN017 OVC024 01/M01 A2985 RMK AO2 PK WND 11026/0052 SFC VIS 2 1/2 SLP106 P0002 T00111006=
202302280124 SPECI KJFK 280124Z 13014KT 2SM -SN BKN026 OVC050 02/M02 A2985 RMK AO2 PK WND 11026/0052 SFC VIS 4 P0000 T00221022=
202302280051 METAR KJFK 280051Z 10018G25KT 9SM -SN SCT031 SCT044 OVC055 03/M03 A2983 RMK AO2 PK WND 10027/0041 SNB02 SLP101 P0000 T00281033=
202302280003 SPECI KJFK 280003Z 11015G22KT 10SM -SN FEW050 OVC065 03/M06 A2985 RMK AO2 SNB02 PRESFR P0000 T00281056=
202302272351 METAR KJFK 272351Z 12014KT 10SM BKN060 OVC075 03/M06 A2988 RMK AO2 SLP118 T00281056 10056 20028 56017=
202302272251 METAR KJFK 272251Z 13013KT 10SM OVC110 03/M06 A2990 RMK AO2 SLP126 T00331061=
202302272151 METAR KJFK 272151Z 13014KT 10SM SCT120 BKN150 OVC230 03/M07 A2989 RMK AO2 SLP122 T00331067=
202302272051 METAR KJFK 272051Z 13012KT 10SM SCT190 BKN230 04/M06 A2993 RMK AO2 PRESFR SLP135 T00391061 56022=
202302271951 METAR KJFK 271951Z 15009KT 10SM FEW190 BKN230 04/M06 A2996 RMK AO2 SLP146 T00441056=
202302271851 METAR KJFK 271851Z VRB05KT 10SM FEW045 FEW170 BKN250 05/M06 A2996 RMK AO2 SLP144 T00501061=
202302271751 METAR KJFK 271751Z 20011KT 10SM FEW045 BKN250 06/M04 A2999 RMK AO2 SLP156 T00561044 10061 20000 58017=
202302271651 METAR KJFK 271651Z 32004KT 10SM FEW042 BKN250 04/M07 A3001 RMK AO2 SLP163 T00441072=
202302271551 METAR KJFK 271551Z 36004KT 10SM FEW042 BKN250 04/M06 A3003 RMK AO2 SLP169 T00441056=
202302271451 METAR KJFK 271451Z 03007KT 10SM FEW040 BKN250 03/M06 A3004 RMK AO2 SLP173 T00331061 51010=
202302271351 METAR KJFK 271351Z 07005KT 10SM FEW033 FEW180 BKN250 02/M06 A3004 RMK AO2 SLP173 T00221056=
202302271251 METAR KJFK 271251Z 05006KT 10SM FEW030 BKN250 01/M04 A3003 RMK AO2 SLP168 T00111044=
202302271151 METAR KJFK 271151Z 05005KT 10SM FEW027 BKN250 00/M05 A3001 RMK AO2 SLP163 T00001050 10033 21006 51027=
202302271051 METAR KJFK 271051Z 36007KT 10SM CLR 01/M07 A2999 RMK AO2 SLP156 T00061072=
202302270951 METAR KJFK 270951Z 32011KT 10SM CLR 01/M07 A2997 RMK AO2 SLP147 T00111072 $=
202302270851 METAR KJFK 270851Z 30011KT 10SM CLR 02/M07 A2993 RMK AO2 SLP135 T00221067 53015 $=
202302270751 METAR KJFK 270751Z 30012KT 10SM CLR 02/M07 A2992 RMK AO2 SLP131 T00221067 $=
202302270651 METAR KJFK 270651Z 32015KT 10SM CLR 03/M06 A2989 RMK AO2 SLP123 T00281061 $=
202302270551 METAR KJFK 270551Z 32010KT 10SM CLR 02/M06 A2989 RMK AO2 SLP121 T00221056 10067 20017 53023 $=
202302270451 METAR KJFK 270451Z 35009KT 10SM CLR 03/M03 A2986 RMK AO2 SLP110 T00281033 401001050 $=
202302270351 METAR KJFK 270351Z 01008KT 10SM CLR 03/M01 A2985 RMK AO2 SLP107 T00281011 $=
202302270251 METAR KJFK 270251Z 01011KT 9SM CLR 04/M01 A2982 RMK AO2 SLP098 T00441006 53027 $=
202302270151 METAR KJFK 270151Z 33007KT 10SM CLR 06/00 A2979 RMK AO2 SLP088 T00560000 $=
202302270051 METAR KJFK 270051Z 25008KT 10SM CLR 05/02 A2975 RMK AO2 SLP075 T00500017 $=
202302262351 METAR KJFK 262351Z 23011KT 10SM CLR 06/02 A2974 RMK AO2 SLP071 T00610022 10100 20028 55001 $=
202302262251 METAR KJFK 262251Z 23014KT 10SM CLR 07/02 A2973 RMK AO2 SLP067 T00670022 $=
202302262151 METAR KJFK 262151Z 23018KT 10SM FEW045 FEW065 08/02 A2973 RMK AO2 SLP065 T00830017 $=
202302262051 METAR KJFK 262051Z 26013KT 10SM FEW047 SCT055 09/01 A2974 RMK AO2 SLP072 T00940006 56046 $=
202302261951 METAR KJFK 261951Z 22012KT 10SM FEW020 SCT035 08/01 A2977 RMK AO2 SLP082 T00780011 $=
202302261851 METAR KJFK 261851Z 24013KT 10SM FEW020 SCT027 BKN035 06/01 A2982 RMK AO2 SLP098 T00610011 $=