202305251851 METAR KJFK 251851Z 34010G19KT 10SM FEW250 18/03 A3014 RMK AO2 SLP204 T01830033=
202305251751 METAR KJFK 251751Z 02011G14KT 10SM FEW250 18/04 A3014 RMK AO2 SLP205 T01780039 10178 20117 56001=
202305251651 METAR KJFK 251651Z 34008G19KT 10SM FEW045 17/04 A3014 RMK AO2 PK WND 35028/1638 SLP206 T01720039=
202305251551 METAR KJFK 251551Z 02013G20KT 10SM FEW045 17/03 A3014 RMK AO2 SLP205 T01670028=
202305251451 METAR KJFK 251451Z 34014KT 10SM FEW040 16/04 A3014 RMK AO2 SLP206 T01560044 50001=
202305251351 METAR KJFK 251351Z 02017G21KT 10SM FEW250 14/03 A3015 RMK AO2 SLP208 T01440033=
202305251251 METAR KJFK 251251Z 02018G23KT 10SM CLR 13/03 A3014 RMK AO2 PK WND 01026/1237 SLP207 T01280033=
202305251151 METAR KJFK 251151Z 35018G23KT 10SM CLR 12/04 A3014 RMK AO2 SLP205 70001 T01170039 10128 20094 51019=
202305251051 METAR KJFK 251051Z 36017KT 10SM CLR 11/04 A3013 RMK AO2 SLP201 T01060044=
202305250951 METAR KJFK 250951Z 01015KT 10SM FEW040 FEW110 10/04 A3010 RMK AO2 SLP193 T01000039=
202305250851 METAR KJFK 250851Z 36018G24KT 10SM FEW110 FEW250 10/03 A3008 RMK AO2 PK WND 36027/0755 SLP187 T01000028 53012=
202305250751 METAR KJFK 250751Z 36017G24KT 10SM FEW110 SCT250 11/03 A3007 RMK AO2 PK WND 36026/0737 SLP182 T01060028=
202305250651 METAR KJFK 250651Z 35016KT 10SM FEW041 BKN110 BKN250 12/04 A3005 RMK AO2 PK WND 36027/0619 SLP176 T01220039=
202305250551 METAR KJFK 250551Z 01017G25KT 10SM FEW025 SCT095 BKN250 13/08 A3005 RMK AO2 SLP175 60001 T01330078 10178 20133 53004=
202305250451 METAR KJFK 250451Z 01018G23KT 10SM FEW027 OVC075 14/09 A3004 RMK AO2 RAE0356 SLP171 P0000 T01390089 402060094=
202305250351 METAR KJFK 250351Z 02013G19KT 10SM -RA FEW030 OVC070 13/10 A3003 RMK AO2 RAB15 SLP170 P0001 T01330100=
202305250251 METAR KJFK 250251Z 01015G23KT 10SM FEW036 OVC065 15/08 A3004 RMK AO2 SLP170 60000 T01500083 51020=
202305250151 METAR KJFK 250151Z 03014G29KT 10SM SCT047 BKN090 OVC110 15/10 A3002 RMK AO2 PK WND 03029/0146 RAE28 SLP165 P0000 T01500100=
202305250051 SPECI KJFK 250051Z 01014G21KT 10SM -RA FEW030 SCT065 OVC080 16/12 A3000 RMK AO2 RAB27 SLP157 P0000 T01560122=
202305250051 METAR KJFK 250051Z 01014G21KT 10SM -RA FEW030 SCT065 OVC080 16/12 A3000 RMK AO2 RAB27 SLP157 P0000 T01560122=
202305242351 METAR KJFK 242351Z 04005KT 10SM FEW030 OVC075 17/06 A2998 RMK AO2 SLP151 T01720056 10206 20161 53006=
202305242251 METAR KJFK 242251Z 19008KT 10SM SCT050 SCT250 BKN300 16/07 A2993 RMK AO2 SLP134 FU BKN300 T01610067=
202305242151 METAR KJFK 242151Z 18011KT 10SM FEW050 SCT250 BKN300 17/08 A2994 RMK AO2 SLP140 FU BKN300 T01670083=
202305242051 METAR KJFK 242051Z 16011KT 10SM FEW250 BKN300 17/08 A2996 RMK AO2 SLP144 FU BKN300 T01720078 56018=
202305241951 METAR KJFK 241951Z 15012KT 10SM FEW250 BKN300 19/06 A2998 RMK AO2 SLP150 FU BKN300 T01890061=
202305241851 METAR KJFK 241851Z 16009KT 10SM SCT250 BKN300 20/07 A2999 RMK AO2 SLP154 FU BKN300 T02000072=
202305241751 METAR KJFK 241751Z 19009KT 10SM FEW200 FEW250 20/00 A3001 RMK AO2 SLP162 T02000000 10200 20133 56022=
202305241651 METAR KJFK 241651Z 19009KT 10SM SCT250 19/04 A3003 RMK AO2 SLP169 T01940039=
202305241601 SPECI KJFK 241601Z 20008KT 10SM FEW003 19/07 A3005 RMK AO2 T01940072=
202305241551 METAR KJFK 241551Z 20007KT 10SM FEW250 BKN300 19/06 A3005 RMK AO2 SLP176 FU BKN300 T01940056=
202305241451 METAR KJFK 241451Z 22005KT 10SM FEW200 FEW250 BKN300 18/06 A3007 RMK AO2 SLP184 FU BKN300 T01780056 56022=
202305241351 METAR KJFK 241351Z VRB03KT 10SM FEW250 BKN300 17/06 A3010 RMK AO2 SLP191 FU BKN300 T01670061=
202305241251 METAR KJFK 241251Z 00000KT 10SM SCT250 BKN300 15/06 A3012 RMK AO2 SLP198 FU BKN300 T01500056=
202305241151 METAR KJFK 241151Z 04003KT 10SM FEW250 BKN300 13/07 A3014 RMK AO2 SLP205 FU BKN300 T01330067 10133 20094 58006=
202305241051 METAR KJFK 241051Z 00000KT 10SM SCT250 SCT300 11/06 A3015 RMK AO2 SLP209 FU SCT300 T01110056=
202305240951 METAR KJFK 240951Z 06003KT 10SM FEW250 10/04 A3016 RMK AO2 SLP212 T01000044=
202305240851 METAR KJFK 240851Z 07004KT 10SM SCT250 09/05 A3016 RMK AO2 SLP211 T00940050 57012=
202305240751 METAR KJFK 240751Z 00000KT 10SM CLR 11/04 A3017 RMK AO2 SLP215 T01060044=
202305240651 METAR KJFK 240651Z 00000KT 10SM SCT250 11/04 A3018 RMK AO2 SLP219 T01060044=
202305240551 METAR KJFK 240551Z 06003KT 10SM SCT250 11/06 A3019 RMK AO2 SLP224 T01060061 10133 20106 56020=
202305240451 METAR KJFK 240451Z 03004KT 10SM SCT250 12/06 A3021 RMK AO2 SLP229 T01170061 401830117=
202305240351 METAR KJFK 240351Z 04003KT 10SM SCT250 12/07 A3023 RMK AO2 SLP235 T01170067=
202305240251 METAR KJFK 240251Z 09003KT 10SM SCT250 12/06 A3025 RMK AO2 SLP243 T01170061 58007=
202305240151 METAR KJFK 240151Z 11004KT 10SM SCT250 12/06 A3027 RMK AO2 SLP251 T01220056=
202305240051 SPECI KJFK 240051Z 12004KT 10SM BKN250 13/06 A3027 RMK AO2 SLP249 T01280056=
202305240051 METAR KJFK 240051Z 12004KT 10SM BKN250 13/06 A3027 RMK AO2 SLP249 T01280056=
202305232351 METAR KJFK 232351Z 12009KT 10SM BKN250 BKN300 13/05 A3027 RMK AO2 SLP250 FU BKN300 T01330050 10167 20133 56013=
202305232251 METAR KJFK 232251Z 12009KT 10SM BKN250 BKN300 15/04 A3028 RMK AO2 SLP252 FU BKN300 T01500039=
202305232151 METAR KJFK 232151Z 11009KT 10SM BKN250 BKN300 16/04 A3029 RMK AO2 SLP258 FU BKN300 T01560039=
202305232051 METAR KJFK 232051Z 13013KT 10SM BKN250 BKN300 16/08 A3031 RMK AO2 SLP263 FU BKN300 T01610078 58013=
202305231951 METAR KJFK 231951Z 12012G17KT 10SM FEW045 BKN250 BKN300 16/08 A3032 RMK AO2 SLP267 FU BKN300 T01610078=
202305231851 METAR KJFK 231851Z 14014KT 10SM FEW045 BKN250 16/09 A3034 RMK AO2 SLP274 T01610089=
202305231751 METAR KJFK 231751Z 15015KT 10SM FEW045 BKN250 17/09 A3035 RMK AO2 SLP275 T01670089 10183 20133 58001=
202305231651 METAR KJFK 231651Z 12012KT 10SM FEW045 BKN250 18/09 A3035 RMK AO2 SLP276 T01780089=
202305231551 METAR KJFK 231551Z 13014KT 10SM FEW040 SCT250 18/10 A3035 RMK AO2 SLP277 T01780100=
202305231451 METAR KJFK 231451Z 11008KT 10SM FEW075 BKN250 18/10 A3035 RMK AO2 SLP277 T01780100 58003=
202305231351 METAR KJFK 231351Z 09006KT 10SM FEW022 SCT075 BKN250 17/10 A3036 RMK AO2 SLP279 T01670100=
202305231251 METAR KJFK 231251Z 08005KT 10SM FEW018 SCT080 BKN250 16/10 A3036 RMK AO2 SLP280 T01560100=
202305231151 METAR KJFK 231151Z 07005KT 10SM FEW012 BKN085 BKN250 14/11 A3036 RMK AO2 SLP280 T01390106 10139 20117 51012=
202305231051 METAR KJFK 231051Z 06007KT 10SM FEW010 BKN080 BKN250 12/11 A3035 RMK AO2 SLP277 T01220106=
202305230951 METAR KJFK 230951Z 04005KT 10SM SCT010 BKN070 BKN100 OVC300 12/11 A3034 RMK AO2 SLP272 FU OVC300 T01170106=
202305230851 METAR KJFK 230851Z 04005KT 10SM FEW011 OVC100 12/11 A3032 RMK AO2 SLP268 T01220111 53005=
202305230751 METAR KJFK 230751Z 05005KT 10SM SCT090 BKN300 13/11 A3032 RMK AO2 SLP265 FU BKN300 T01280111=
202305230651 METAR KJFK 230651Z 04003KT 10SM FEW080 BKN300 12/11 A3031 RMK AO2 SLP263 FU BKN300 T01170106=
202305230551 METAR KJFK 230551Z 08004KT 10SM BKN300 12/11 A3031 RMK AO2 SLP263 FU BKN300 T01220106 10150 20122 51006=
202305230451 METAR KJFK 230451Z 09004KT 10SM BKN300 13/11 A3031 RMK AO2 SLP262 FU BKN300 T01280111 402330128=
202305230351 METAR KJFK 230351Z 09006KT 10SM BKN300 13/11 A3030 RMK AO2 SLP260 FU BKN300 T01280111=
202305230251 METAR KJFK 230251Z 11007KT 10SM FEW065 BKN300 13/11 A3029 RMK AO2 SLP257 FU BKN300 T01330111 51013=
202305230151 METAR KJFK 230151Z 12010KT 10SM FEW250 BKN300 14/11 A3029 RMK AO2 SLP256 FU BKN300 T01390106=
202305230051 METAR KJFK 230051Z 11009KT 10SM FEW250 BKN300 14/11 A3026 RMK AO2 SLP248 FU BKN300 T01390106=
202305222351 METAR KJFK 222351Z 12009KT 10SM FEW065 FEW250 BKN300 15/10 A3026 RMK AO2 SLP245 FU BKN300 T01500100 10211 20150 53018=
202305222251 METAR KJFK 222251Z 13011KT 10SM FEW065 BKN300 16/10 A3023 RMK AO2 SLP237 FU BKN300 T01610100=
202305222151 METAR KJFK 222151Z 12012G17KT 10SM FEW065 BKN300 17/11 A3022 RMK AO2 SLP231 FU BKN300 T01670111=
202305222051 METAR KJFK 222051Z 12012KT 10SM FEW065 FEW250 BKN300 18/11 A3020 RMK AO2 SLP227 FU BKN300 T01780111 51002=
202305221951 METAR KJFK 221951Z 14013KT 10SM FEW065 FEW250 BKN300 19/12 A3020 RMK AO2 SLP226 FU BKN300 T01890122=
202305221851 METAR KJFK 221851Z 13012KT 10SM FEW065 FEW250 BKN300 21/11 A3020 RMK AO2 SLP226 FU BKN300 T02060106=
202305221751 METAR KJFK 221751Z 15008KT 10SM SCT065 SCT250 BKN300 21/12 A3020 RMK AO2 SLP225 FU BKN300 T02110122 10233 20172 51008=
202305221651 METAR KJFK 221651Z 15009KT 10SM FEW050 BKN300 22/13 A3019 RMK AO2 SLP223 FU BKN300 T02220128=
202305221551 METAR KJFK 221551Z 11006KT 10SM FEW047 BKN300 22/12 A3018 RMK AO2 SLP220 FU BKN300 T02220117=
202305221451 METAR KJFK 221451Z 05008KT 10SM BKN300 21/12 A3017 RMK AO2 SLP217 FU BKN300 T02110117 51013=
202305221351 METAR KJFK 221351Z 03010KT 10SM BKN300 21/12 A3016 RMK AO2 SLP212 FU BKN300 T02060117=
202305221251 METAR KJFK 221251Z 02010KT 10SM FEW250 BKN300 19/11 A3015 RMK AO2 SLP210 FU BKN300 T01890111=
202305221151 METAR KJFK 221151Z 01007KT 10SM BKN300 17/11 A3013 RMK AO2 SLP204 FU BKN300 T01720111 10172 20144 53020 $=
202305221051 METAR KJFK 221051Z 01006KT 10SM BKN300 16/11 A3012 RMK AO2 SLP198 FU BKN300 T01560106 $=
202305220951 METAR KJFK 220951Z 35008KT 10SM SCT300 15/10 A3009 RMK AO2 SLP189 FU SCT300 T01500100 $=
202305220851 METAR KJFK 220851Z 36007KT 10SM FEW250 15/10 A3008 RMK AO2 SLP184 T01500100 53006 $=
202305220751 METAR KJFK 220751Z 01006KT 10SM FEW250 15/11 A3007 RMK AO2 SLP182 T01500106 $=
202305220651 METAR KJFK 220651Z 36007KT 10SM FEW250 16/11 A3006 RMK AO2 SLP179 T01560106 $=
202305220551 METAR KJFK 220551Z 35007KT 10SM FEW250 16/11 A3006 RMK AO2 SLP178 T01560106 10194 20156 50007 $=
202305220451 METAR KJFK 220451Z 35006KT 10SM SCT250 16/11 A3006 RMK AO2 SLP179 T01610106 402220133 $=
202305220351 METAR KJFK 220351Z 35005KT 10SM SCT250 18/11 A3005 RMK AO2 SLP175 T01780106 $=
202305220251 METAR KJFK 220251Z 32005KT 10SM SCT250 18/10 A3004 RMK AO2 SLP171 T01830100 51016 $=
202305220151 METAR KJFK 220151Z 34006KT 10SM SCT250 19/10 A3003 RMK AO2 SLP168 T01890100 $=
202305220051 METAR KJFK 220051Z 35008KT 10SM FEW055 SCT250 19/10 A3001 RMK AO2 SLP162 T01890100 $=
202305212351 METAR KJFK 212351Z 01006KT 10SM FEW055 SCT200 SCT250 19/10 A2999 RMK AO2 SLP155 T01940100 10222 20194 53015 $=
202305212251 METAR KJFK 212251Z 34013KT 10SM SCT055 BKN200 BKN250 21/10 A2997 RMK AO2 SLP149 T02110100 $=
202305212151 METAR KJFK 212151Z 33013G19KT 10SM BKN055 BKN200 BKN250 21/11 A2996 RMK AO2 SLP145 T02110106 $=
202305212051 METAR KJFK 212051Z 33012G21KT 10SM BKN055 BKN200 BKN250 21/10 A2994 RMK AO2 SLP140 T02110100 53002 $=
202305211951 METAR KJFK 211951Z 32009G19KT 10SM BKN049 BKN200 BKN250 22/10 A2994 RMK AO2 SLP137 T02170100 $=
202305211851 METAR KJFK 211851Z 31014G25KT 10SM BKN048 BKN200 BKN250 21/10 A2993 RMK AO2 SLP136 T02060100 $=
202305211751 METAR KJFK 211751Z 31011G20KT 10SM BKN046 BKN200 BKN250 21/10 A2994 RMK AO2 PK WND 30026/1708 SLP138 T02060100 10211 20139 53001 $=
202305211651 METAR KJFK 211651Z 33014G22KT 10SM SCT045 SCT200 BKN250 21/10 A2994 RMK AO2 SLP138 T02110100 $=
202305211551 METAR KJFK 211551Z 31014G22KT 10SM SCT040 SCT200 BKN250 19/09 A2993 RMK AO2 SLP136 T01940094 $=
202305211451 METAR KJFK 211451Z 32017G22KT 10SM FEW040 FEW100 SCT220 BKN250 18/09 A2994 RMK AO2 SLP137 T01830089 58007 $=
202305211351 METAR KJFK 211351Z 33016G21KT 10SM FEW040 FEW100 SCT200 BKN250 17/08 A2995 RMK AO2 SLP140 T01670083 $=
202305211251 METAR KJFK 211251Z 31012KT 10SM FEW100 SCT200 BKN250 16/08 A2995 RMK AO2 SLP143 T01560078 $=
202305211151 METAR KJFK 211151Z 31011KT 10SM FEW100 BKN200 BKN250 14/08 A2996 RMK AO2 SLP144 60000 70165 T01440078 10178 20133 53027 $=
202305211051 METAR KJFK 211051Z 31013G24KT 10SM FEW100 BKN200 BKN250 13/07 A2993 RMK AO2 SLP135 T01330072 $=
202305210951 METAR KJFK 210951Z 32017KT 10SM BKN200 13/07 A2990 RMK AO2 PK WND 33030/0857 SLP125 T01330072 $=
202305210851 METAR KJFK 210851Z 32017G25KT 10SM BKN039 OVC075 14/07 A2988 RMK AO2 SLP117 60000 T01440072 53006 $=
202305210807 SPECI KJFK 210807Z 32013KT 10SM FEW032 BKN060 OVC085 15/10 A2988 RMK AO2 T01500100 $=
202305210751 METAR KJFK 210751Z 32014KT 10SM BKN029 OVC055 15/10 A2988 RMK AO2 RAB0653E12 SLP117 P0000 T01500100 $=
202305210713 SPECI KJFK 210713Z 32018G25KT 10SM FEW013 BKN019 OVC040 15/11 A2987 RMK AO2 RAB0653E12 P0000 T01500106 $=
202305210651 METAR KJFK 210651Z 31014KT 10SM SCT025 OVC040 18/16 A2986 RMK AO2 SLP110 T01780161 $=
202305210632 SPECI KJFK 210632Z 31008KT 10SM FEW018 OVC035 18/17 A2985 RMK AO2 T01780167 $=
202305210551 METAR KJFK 210551Z 28008KT 10SM FEW013 SCT018 OVC026 17/17 A2986 RMK AO2 SLP111 60000 T01720172 10172 20156 56008 $=
202305210534 SPECI KJFK 210534Z 25005KT 6SM R04R/2800VP6000FT BR SCT015 OVC020 17/17 A2986 RMK AO2 T01670167 $=
202305210530 SPECI KJFK 210530Z 24004KT 1 1/2SM R04R/2800VP6000FT BR FEW002 OVC018 17/17 A2987 RMK AO2 T01670167 $=
202305210504 SPECI KJFK 210504Z 26003KT 1/4SM R04R/2000V2400FT FG VV002 16/16 A2987 RMK AO2 T01610161 $=
202305210451 METAR KJFK 210451Z 22003KT 1/4SM R04R/1400V1800FT FG VV002 16/16 A2987 RMK AO2 SLP114 T01610161 401720139 $=
202305210439 SPECI KJFK 210439Z 22003KT 1/4SM R04R/1200V1600FT FG VV002 16/16 A2987 RMK AO2 TWR VIS 1/4 T01610161 $=
202305210427 SPECI KJFK 210427Z 00000KT 1/4SM R04R/1400VP6000FT FG VV002 16/16 A2987 RMK AO2 TWR VIS 1/4 T01610161 $=
202305210351 METAR KJFK 210351Z 25006KT 1/4SM R04R/1600V1800FT FG VV002 16/16 A2987 RMK AO2 SFC VIS 1/2 DZE29 SLP113 P0000 T01610161 $=
202305210251 METAR KJFK 210251Z 22009KT 1/4SM R04R/2200V3500FT -DZ FG VV002 16/16 A2988 RMK AO2 SFC VIS 1/2 SLP119 P0000 60000 T01610161 55005 $=
202305210151 METAR KJFK 210151Z 18009KT 1/4SM R04R/2600V3500FT -DZ BR VV003 16/16 A2988 RMK AO2 SFC VIS 3/4 DZB45 SLP117 P0000 T01610161 $=
202305210051 METAR KJFK 210051Z 20009KT 1/4SM R04R/4500VP6000FT BR OVC003 16/16 A2988 RMK AO2 SFC VIS 1 SLP118 T01560156 $=
202305202351 METAR KJFK 202351Z 19013KT 1/4SM R04R/3500V5000FT BR OVC002 16/16 A2990 RMK AO2 SFC VIS 3/4 RAE2252 SLP124 P0000 60073 T01610161 10172 20161 55014 $=
202305202314 SPECI KJFK 202314Z 18015KT 1/4SM R04R/3500V4500FT BR OVC003 16/16 A2990 RMK AO2 SFC VIS 3/4 RAE2252 P0000 T01610161 $=
202305202251 METAR KJFK 202251Z 18015KT 1 1/2SM -RA BR BKN004 OVC036 17/17 A2990 RMK AO2 SFC VIS 3 SLP124 P0009 T01670167 $=
202305202151 METAR KJFK 202151Z 18014KT 1SM R04R/P6000FT -RA BR OVC004 17/17 A2992 RMK AO2 SFC VIS 3 SLP132 P0010 T01670167 $=
202305202131 SPECI KJFK 202131Z 18012KT 3SM -RA BR OVC004 17/17 A2993 RMK AO2 P0008 T01670167 $=
202305202051 METAR KJFK 202051Z 18013KT 3SM R04R/4000VP6000FT +RA BR BKN005 OVC010 17/17 A2994 RMK AO2 SLP137 P0021 60054 T01670167 56024 $=
202305202042 SPECI KJFK 202042Z 19011KT 3SM R04R/4000VP6000FT RA BR BKN005 OVC008 17/17 A2994 RMK AO2 SFC VIS 5 P0018 T01670167 $=
202305201951 METAR KJFK 201951Z 16014KT 1 1/2SM -RA BR OVC005 17/17 A2995 RMK AO2 SFC VIS 4 SLP142 P0016 T01670167 $=
202305201939 SPECI KJFK 201939Z 16015G20KT 1 1/2SM -RA BR OVC005 17/17 A2995 RMK AO2 SFC VIS 2 P0016 T01720167 $=
202305201908 SPECI KJFK 201908Z 20008KT 2 1/2SM R04R/3500VP6000FT RA BR OVC006 17/17 A2997 RMK AO2 SFC VIS 4 P0007 T01670167=
202305201851 METAR KJFK 201851Z 19009KT 1SM R04R/3500VP6000FT -RA BR OVC004 17/17 A2998 RMK AO2 SFC VIS 2 1/2 SLP153 P0017 T01670167=
202305201829 SPECI KJFK 201829Z 17006KT 1SM R04R/3500VP6000FT +RA BR BKN004 OVC009 17/17 A2999 RMK AO2 SFC VIS 1 1/2 P0009 T01670167=
202305201819 SPECI KJFK 201819Z 16006KT 2SM R04R/5500VP6000FT RA BR OVC004 17/17 A2999 RMK AO2 SFC VIS 3 P0002 T01670167=
202305201751 METAR KJFK 201751Z 13006KT 2SM -RA BR OVC005 17/17 A3001 RMK AO2 SFC VIS 4 SLP161 P0014 60092 T01670167 10167 20156 58026=
202305201727 SPECI KJFK 201727Z 13006KT 2SM RA BR OVC007 16/16 A3002 RMK AO2 SFC VIS 3 P0011 T01610161=
202305201709 SPECI KJFK 201709Z 11005KT 1 1/2SM R04R/4000VP6000FT +RA BR BKN006 OVC013 16/16 A3003 RMK AO2 SFC VIS 3 VIS 1 1/4 W P0005 T01610161=
202305201651 METAR KJFK 201651Z 11006KT 1 1/4SM R04R/4000VP6000FT +RA BR FEW005 BKN015 OVC024 16/16 A3004 RMK AO2 TWR VIS 1 1/2 SLP172 P0049 T01610161=
202305201644 SPECI KJFK 201644Z 11007KT 1SM R04R/3000V5500FT +RA BR FEW005 OVC015 16/16 A3004 RMK AO2 TWR VIS 1 1/2 P0040 T01610161=
202305201611 SPECI KJFK 201611Z 10005KT 1SM R04R/2600VP6000FT +RA BR SCT005 BKN011 OVC023 16/16 A3006 RMK AO2 TWR VIS 1 1/2 CIG 005 W P0012 T01610161=
202305201551 METAR KJFK 201551Z 10007KT 1 1/2SM R04R/4000VP6000FT -RA BR OVC005 16/16 A3007 RMK AO2 SFC VIS 1 3/4 RAE1452B16 SLP182 P0002 T01610161=
202305201540 SPECI KJFK 201540Z 10006KT 1 1/2SM -RA BR OVC005 17/16 A3007 RMK AO2 SFC VIS 1 3/4 RAE1452B16 P0001 T01670161=
202305201451 METAR KJFK 201451Z 10008KT 10SM -RA BKN007 OVC012 17/16 A3009 RMK AO2 SLP188 P0019 60027 T01670161 58013=
202305201439 SPECI KJFK 201439Z 09007KT 5SM -RA BR BKN007 OVC012 17/17 A3009 RMK AO2 P0019 T01670167=
202305201409 SPECI KJFK 201409Z 05006KT 1 1/2SM R04R/5500VP6000FT +RA BR OVC006 17/16 A3010 RMK AO2 P0003 T01670161=
202305201351 METAR KJFK 201351Z 05007KT 2 1/2SM -RA BR OVC006 17/16 A3010 RMK AO2 SFC VIS 3 SLP193 P0007 T01670161=
202305201258 SPECI KJFK 201258Z 08007KT 2 1/2SM RA BR BKN007 OVC015 16/16 A3012 RMK AO2 P0001 T01610156=
202305201251 METAR KJFK 201251Z 07007KT 3SM RA BR OVC007 16/16 A3012 RMK AO2 RAB1156E17B28 SLP199 P0001 T01610156=
202305201217 SPECI KJFK 201217Z 08007KT 6SM BR BKN008 BKN012 OVC030 16/14 A3012 RMK AO2 VIS 2 1/2 W RAB1156E17 P0000 T01560144=
202305201207 SPECI KJFK 201207Z 08007KT 4SM -RA BR SCT008 BKN026 OVC030 16/14 A3012 RMK AO2 VIS 2 1/2 W RAB1156 CIG 010 W P0000 T01560144=
202305201151 METAR KJFK 201151Z 08008KT 7SM FEW016 BKN024 OVC033 16/14 A3013 RMK AO2 CIG 012 W SLP201 T01610139 10161 20139 57009=
202305201051 METAR KJFK 201051Z 08006KT 10SM FEW008 BKN019 OVC027 15/14 A3014 RMK AO2 SLP205 T01500139=
202305201025 SPECI KJFK 201025Z 08006KT 10SM FEW007 OVC029 14/14 A3014 RMK AO2 CIG 020 W T01440139=
202305201012 SPECI KJFK 201012Z 07005KT 10SM SCT023 OVC031 14/14 A3014 RMK AO2 CIG 021 W T01440139=
202305200951 METAR KJFK 200951Z 06006KT 10SM FEW018 BKN025 OVC029 14/14 A3014 RMK AO2 SLP207 T01440139=
202305200851 METAR KJFK 200851Z 06004KT 10SM FEW017 BKN024 OVC038 14/14 A3015 RMK AO2 SLP210 T01390139 58010=
202305200751 METAR KJFK 200751Z 12005KT 6SM BR OVC019 14/13 A3017 RMK AO2 CIG 014 W SLP215 T01390133=
202305200651 METAR KJFK 200651Z 14007KT 10SM BKN024 OVC030 14/13 A3018 RMK AO2 CIG 007 W SLP220 T01440133=
202305200647 SPECI KJFK 200647Z 14006KT 10SM FEW007 BKN024 OVC034 14/13 A3018 RMK AO2 CIG 007 W=
202305200551 METAR KJFK 200551Z 12004KT 10SM FEW020 BKN044 OVC250 14/12 A3020 RMK AO2 SLP228 T01440122 10144 20133 56022=
202305200451 METAR KJFK 200451Z 00000KT 10SM BKN050 OVC250 14/12 A3023 RMK AO2 SLP235 T01390117 401890106=
202305200351 METAR KJFK 200351Z 14008KT 10SM SCT060 BKN250 13/11 A3024 RMK AO2 SLP241 T01330111=
202305200251 METAR KJFK 200251Z 15010KT 10SM FEW100 SCT250 13/10 A3027 RMK AO2 SLP249 T01330100 58001=
202305200151 METAR KJFK 200151Z 15008KT 10SM FEW060 BKN250 13/10 A3028 RMK AO2 SLP252 T01330100=
202305200051 METAR KJFK 200051Z 16009KT 10SM SCT250 14/11 A3028 RMK AO2 SLP252 T01390111=
202305192351 METAR KJFK 192351Z 15009KT 10SM FEW055 SCT250 14/11 A3027 RMK AO2 SLP250 T01390106 10178 20139 58002=
202305192251 METAR KJFK 192251Z 16012KT 10SM FEW055 FEW180 SCT250 15/11 A3029 RMK AO2 SLP256 T01500106=
202305192151 METAR KJFK 192151Z 17017G23KT 10SM FEW027 FEW050 FEW180 SCT250 16/11 A3029 RMK AO2 PK WND 15026/2110 SLP255 T01560106=
202305192051 METAR KJFK 192051Z 15018G24KT 10SM FEW027 FEW050 SCT180 BKN230 17/10 A3028 RMK AO2 PK WND 16027/2005 SLP252 T01720100 58021=
202305191951 METAR KJFK 191951Z 16017G24KT 10SM FEW027 FEW050 SCT180 BKN250 17/10 A3030 RMK AO2 SLP260 T01720100=
202305191851 METAR KJFK 191851Z 17017G24KT 10SM FEW027 FEW050 BKN250 18/11 A3033 RMK AO2 SLP269 T01780111=
202305191751 METAR KJFK 191751Z 17016G22KT 10SM FEW050 BKN250 18/11 A3034 RMK AO2 SLP273 T01780106 10189 20139 58010=
202305191651 METAR KJFK 191651Z 17017G27KT 10SM FEW050 FEW095 BKN250 18/11 A3036 RMK AO2 PK WND 18027/1647 SLP279 T01830111=
202305191551 METAR KJFK 191551Z 18015G23KT 10SM SCT050 BKN250 17/11 A3036 RMK AO2 SLP281 T01720111=
202305191451 METAR KJFK 191451Z 19014KT 10SM FEW034 FEW050 BKN250 17/12 A3037 RMK AO2 SLP284 T01670117 50001=
202305191351 METAR KJFK 191351Z 17009KT 10SM FEW034 FEW045 BKN250 16/12 A3037 RMK AO2 SLP285 T01610117=
202305191251 METAR KJFK 191251Z 15008KT 10SM FEW028 FEW045 BKN250 15/11 A3037 RMK AO2 SLP284 T01500111=
202305191151 METAR KJFK 191151Z 16007KT 10SM FEW044 BKN250 14/10 A3037 RMK AO2 SLP282 T01390100 10139 20106 51008=
202305191051 METAR KJFK 191051Z 14006KT 10SM FEW044 BKN250 12/08 A3036 RMK AO2 SLP281 T01220083=
202305190951 METAR KJFK 190951Z 15006KT 10SM SCT040 BKN250 12/07 A3035 RMK AO2 SLP278 T01170072=
202305190851 METAR KJFK 190851Z 15006KT 10SM BKN250 11/07 A3034 RMK AO2 SLP274 T01110072 56006=
202305190751 METAR KJFK 190751Z 16006KT 10SM SCT250 11/07 A3035 RMK AO2 SLP276 T01060072=
202305190651 METAR KJFK 190651Z 17006KT 10SM FEW024 FEW250 11/07 A3035 RMK AO2 SLP276 T01060072=
202305190551 METAR KJFK 190551Z 17007KT 10SM FEW021 FEW250 11/07 A3036 RMK AO2 SLP280 T01110072 10117 20106 58005=
202305190451 METAR KJFK 190451Z 17006KT 10SM FEW030 FEW250 11/07 A3038 RMK AO2 SLP285 T01060072 401390056=
202305190351 METAR KJFK 190351Z 17007KT 10SM FEW250 11/07 A3037 RMK AO2 SLP285 T01110072=
202305190251 METAR KJFK 190251Z 17008KT 10SM FEW040 FEW250 11/07 A3038 RMK AO2 SLP285 T01110072 51013=
202305190151 METAR KJFK 190151Z 17007KT 10SM FEW250 11/07 A3037 RMK AO2 SLP284 T01110072=
202305190051 METAR KJFK 190051Z 15008KT 10SM FEW250 FEW300 11/07 A3035 RMK AO2 SLP276 FU FEW300 T01110067=
202305182351 METAR KJFK 182351Z 15008KT 10SM FEW250 FEW300 11/06 A3034 RMK AO2 SLP272 FU FEW300 T01110061 10139 20111 55000=
202305182251 METAR KJFK 182251Z 16012KT 10SM FEW250 FEW300 12/05 A3033 RMK AO2 SLP271 FU FEW300 T01170050=
202305182151 METAR KJFK 182151Z 18013KT 10SM FEW250 FEW300 13/04 A3034 RMK AO2 SLP272 FU FEW300 T01280044=
202305182051 METAR KJFK 182051Z 17011KT 10SM FEW300 13/04 A3034 RMK AO2 SLP272 FU FEW300 T01330044 58011=
202305181951 METAR KJFK 181951Z 17014KT 10SM FEW060 FEW300 13/03 A3035 RMK AO2 SLP275 FU FEW300 T01280033=
202305181851 METAR KJFK 181851Z 19012KT 10SM FEW060 FEW300 14/03 A3036 RMK AO2 SLP280 FU FEW300 T01390028=
202305181751 METAR KJFK 181751Z 17012G19KT 10SM FEW060 FEW300 13/01 A3037 RMK AO2 SLP283 FU FEW300 T01330011 10139 20094 51007=
202305181651 METAR KJFK 181651Z 18015KT 10SM FEW060 FEW300 13/M01 A3036 RMK AO2 SLP282 FU FEW300 T01331006=
202305181551 METAR KJFK 181551Z 15010KT 10SM FEW060 SCT300 13/M02 A3036 RMK AO2 SLP280 FU SCT300 T01281022=
202305181451 METAR KJFK 181451Z 17009KT 10SM FEW060 FEW300 13/M01 A3035 RMK AO2 SLP275 FU FEW300 T01281011 51017=
202305181351 METAR KJFK 181351Z VRB04KT 10SM FEW060 FEW300 12/M04 A3033 RMK AO2 SLP271 FU FEW300 T01221044=
202305181251 METAR KJFK 181251Z 06008KT 10SM FEW250 SCT300 11/M04 A3032 RMK AO2 SLP265 FU SCT300 T01111044=
202305181151 METAR KJFK 181151Z 08009KT 10SM SCT300 09/M03 A3030 RMK AO2 SLP258 FU SCT300 T00941033 10094 20056 53026=
202305181051 METAR KJFK 181051Z 07006KT 10SM SCT300 08/M02 A3027 RMK AO2 SLP249 FU SCT300 T00781022=
202305180951 METAR KJFK 180951Z 04006KT 10SM FEW300 06/M02 A3024 RMK AO2 SLP239 FU FEW300 T00611017=
202305180851 METAR KJFK 180851Z 04005KT 10SM FEW300 06/M02 A3022 RMK AO2 SLP232 FU FEW300 T00561022 52021=
202305180751 METAR KJFK 180751Z 04007KT 10SM FEW300 07/M03 A3020 RMK AO2 SLP225 FU FEW300 T00671033=
202305180651 METAR KJFK 180651Z 02009KT 10SM FEW300 08/M04 A3018 RMK AO2 SLP219 FU FEW300 T00781044=
202305180551 METAR KJFK 180551Z 02011KT 10SM FEW300 09/M06 A3016 RMK AO2 SLP211 FU FEW300 T00891061 10144 20089 51026=
202305180451 METAR KJFK 180451Z 02007KT 10SM FEW300 10/M06 A3014 RMK AO2 SLP204 FU FEW300 T01001061 402000100=
202305180351 METAR KJFK 180351Z 01008KT 10SM SCT300 11/M06 A3011 RMK AO2 SLP196 FU SCT300 T01061056=
202305180251 METAR KJFK 180251Z 01012KT 10SM SCT300 12/M07 A3008 RMK AO2 SLP185 FU SCT300 T01171067 51045=
202305180151 METAR KJFK 180151Z 01008KT 10SM FEW250 SCT300 13/M05 A3004 RMK AO2 SLP172 FU SCT300 T01281050=
202305180051 METAR KJFK 180051Z 35012KT 10SM SCT300 14/M06 A3000 RMK AO2 SLP158 FU SCT300 T01391061=
202305172351 METAR KJFK 172351Z 34012KT 10SM SCT300 14/M07 A2995 RMK AO2 SLP140 FU SCT300 T01441067 10189 20144 53029=
202305172251 METAR KJFK 172251Z 34017G23KT 10SM FEW250 SCT300 16/M06 A2991 RMK AO2 SLP129 FU SCT300 T01561061=
202305172151 METAR KJFK 172151Z 33016G21KT 10SM FEW250 17/M06 A2988 RMK AO2 PK WND 33027/2052 SLP119 T01721056=
202305172051 METAR KJFK 172051Z 34019G27KT 10SM FEW250 18/M06 A2986 RMK AO2 PK WND 30028/2004 SLP111 T01781056 53022=
202305171951 METAR KJFK 171951Z 32014G20KT 10SM FEW065 FEW250 19/M04 A2982 RMK AO2 PK WND 33026/1931 SLP098 T01891044=
202305171851 METAR KJFK 171851Z 35013G25KT 10SM FEW065 FEW250 18/M03 A2981 RMK AO2 SLP094 T01831033=
202305171751 METAR KJFK 171751Z 32013G18KT 10SM FEW060 FEW250 18/00 A2979 RMK AO2 SLP088 T01780000 10183 20122 50008=
202305171651 METAR KJFK 171651Z 35013G21KT 10SM FEW060 FEW250 17/M01 A2979 RMK AO2 SLP089 T01671011=
202305171551 METAR KJFK 171551Z 36016G24KT 10SM FEW055 FEW250 17/02 A2979 RMK AO2 SLP087 T01670022=
202305171451 METAR KJFK 171451Z 02018G24KT 10SM FEW050 FEW250 16/02 A2977 RMK AO2 SLP081 T01610022 51030=
202305171351 METAR KJFK 171351Z 35014G26KT 10SM SCT044 SCT250 14/03 A2974 RMK AO2 PK WND 36028/1320 SLP070 T01440028=
202305171251 METAR KJFK 171251Z 35019G26KT 10SM FEW035 FEW047 SCT250 13/04 A2971 RMK AO2 PK WND 36028/1203 SLP062 T01330039=
202305171151 METAR KJFK 171151Z 35018G29KT 10SM FEW045 SCT250 SCT300 13/04 A2968 RMK AO2 PK WND 36029/1143 SLP050 FU SCT300 T01330044 10200 20133 51039=
202305171051 METAR KJFK 171051Z 01019KT 10SM FEW042 FEW100 SCT250 SCT300 14/06 A2964 RMK AO2 SLP038 FU SCT300 T01390056=
202305170951 METAR KJFK 170951Z 35014KT 10SM FEW100 BKN250 16/05 A2961 RMK AO2 PK WND 33029/0922 SLP025 T01610050=
202305170851 METAR KJFK 170851Z 34014KT 10SM SCT100 OVC250 18/04 A2957 RMK AO2 SLP012 T01780044 53009=
202305170751 METAR KJFK 170751Z 33015KT 10SM FEW100 OVC250 19/04 A2955 RMK AO2 SLP007 T01890039=
202305170651 METAR KJFK 170651Z 31012KT 10SM OVC250 20/08 A2954 RMK AO2 SLP004 T02000078=
202305170551 METAR KJFK 170551Z 26010KT 10SM OVC240 19/13 A2954 RMK AO2 SLP002 T01940133 10228 20189 58001=
202305170451 METAR KJFK 170451Z 26011KT 10SM OVC240 20/14 A2954 RMK AO2 SLP004 T02000139 402560133=
202305170351 METAR KJFK 170351Z 24010KT 10SM FEW100 BKN250 19/14 A2954 RMK AO2 SLP002 T01890139=
202305170251 METAR KJFK 170251Z 25011KT 10SM BKN250 19/13 A2954 RMK AO2 SLP003 T01940128 50001=
202305170151 METAR KJFK 170151Z 24012KT 10SM FEW100 BKN240 20/12 A2955 RMK AO2 SLP007 T02000122=
202305170051 METAR KJFK 170051Z 24017KT 10SM FEW100 FEW210 BKN250 22/11 A2954 RMK AO2 SLP003 T02220106=
202305162351 METAR KJFK 162351Z 24012KT 10SM FEW100 SCT210 BKN250 23/09 A2954 RMK AO2 SLP002 T02280094 10256 20217 56015=
202305162251 METAR KJFK 162251Z 24017KT 10SM FEW100 BKN250 23/08 A2955 RMK AO2 SLP005 T02330083=
202305162151 METAR KJFK 162151Z 24016KT 10SM BKN250 24/09 A2956 RMK AO2 WSHFT 2048 SLP009 T02390089=
202305162108 SPECI KJFK 162108Z 19011KT 10SM BKN250 22/12 A2958 RMK AO2 WSHFT 2048 T02170117=
202305162051 METAR KJFK 162051Z 24012KT 10SM BKN250 24/08 A2958 RMK AO2 SLP017 T02440078 56037=
202305161951 METAR KJFK 161951Z 24014KT 10SM BKN250 25/08 A2961 RMK AO2 SLP027 T02500078=
202305161851 METAR KJFK 161851Z 17010KT 10SM BKN250 22/11 A2965 RMK AO2 SLP041 T02220111=
202305161751 METAR KJFK 161751Z 17011KT 10SM BKN250 22/09 A2969 RMK AO2 WSHFT 1708 SLP054 T02220094 10244 20161 56036=
202305161723 SPECI KJFK 161723Z 19011KT 10SM BKN250 22/07 A2970 RMK AO2 WSHFT 1708 T02220072=
202305161651 METAR KJFK 161651Z 23012KT 10SM BKN250 24/03 A2973 RMK AO2 SLP066 T02390028=
202305161551 METAR KJFK 161551Z 24013KT 10SM SCT250 23/06 A2976 RMK AO2 SLP078 T02280061=
202305161451 METAR KJFK 161451Z 24012KT 10SM FEW250 22/07 A2980 RMK AO2 SLP090 T02170072 58025=
202305161351 METAR KJFK 161351Z 26010KT 10SM FEW250 21/05 A2983 RMK AO2 SLP100 T02110050=
202305161251 METAR KJFK 161251Z 24011KT 10SM SCT250 18/10 A2985 RMK AO2 SLP109 T01830100=
202305161151 METAR KJFK 161151Z 24012KT 10SM SCT250 16/11 A2987 RMK AO2 SLP115 T01610106 10161 20133 56007=
202305161051 METAR KJFK 161051Z 25010KT 10SM FEW250 SCT300 14/09 A2988 RMK AO2 SLP117 FU SCT300 T01440094=
202305160951 METAR KJFK 160951Z 25010KT 10SM FEW250 SCT300 14/09 A2988 RMK AO2 SLP118 FU SCT300 T01390089=
202305160851 METAR KJFK 160851Z 25009KT 10SM FEW300 14/09 A2989 RMK AO2 SLP122 FU FEW300 T01440089 56017=
202305160751 METAR KJFK 160751Z 25011KT 10SM SCT300 14/09 A2991 RMK AO2 SLP128 FU SCT300 T01440094=
202305160651 METAR KJFK 160651Z 25010KT 10SM SCT300 16/09 A2992 RMK AO2 SLP131 FU SCT300 T01560089=
202305160551 METAR KJFK 160551Z 25009KT 10SM SCT300 16/08 A2994 RMK AO2 SLP139 FU SCT300 T01560083 10200 20156 58018=
202305160451 METAR KJFK 160451Z 24010KT 10SM SCT300 16/08 A2996 RMK AO2 SLP146 FU SCT300 T01610083 402220106=
202305160351 METAR KJFK 160351Z 26012KT 10SM SCT300 17/07 A2998 RMK AO2 SLP151 FU SCT300 T01720067=
202305160251 METAR KJFK 160251Z 25012KT 10SM FEW250 BKN300 17/07 A2999 RMK AO2 SLP157 FU BKN300 T01720072 58004=
202305160151 METAR KJFK 160151Z 24011KT 10SM SCT250 BKN300 18/07 A3001 RMK AO2 SLP161 FU BKN300 T01830067=
202305160051 METAR KJFK 160051Z 24012KT 10SM SCT250 BKN300 20/06 A3001 RMK AO2 SLP161 FU BKN300 T02000056=
202305152351 METAR KJFK 152351Z 24013KT 10SM BKN250 BKN300 19/07 A3001 RMK AO2 SLP161 FU BKN300 T01940067 10217 20183 56017=
202305152251 METAR KJFK 152251Z 24014G21KT 10SM BKN250 BKN300 21/07 A3001 RMK AO2 SLP162 FU BKN300 T02060067=
202305152151 METAR KJFK 152151Z 23013KT 10SM BKN250 BKN300 21/09 A3004 RMK AO2 SLP171 FU BKN300 T02060089=
202305152051 METAR KJFK 152051Z 19013KT 10SM BKN250 BKN300 19/09 A3006 RMK AO2 SLP178 FU BKN300 T01890094 56034=
202305151951 METAR KJFK 151951Z 19013KT 10SM BKN250 BKN300 18/08 A3009 RMK AO2 SLP189 FU BKN300 T01830083=
202305151851 METAR KJFK 151851Z 21015G22KT 10SM SCT250 BKN300 20/06 A3012 RMK AO2 SLP199 FU BKN300 T02000061=
202305151751 METAR KJFK 151751Z 23014G20KT 10SM FEW250 BKN300 22/04 A3016 RMK AO2 SLP211 FU BKN300 T02170039 10222 20156 58034=
202305151651 METAR KJFK 151651Z 25011KT 10SM FEW250 BKN300 20/03 A3019 RMK AO2 SLP223 FU BKN300 T02000033=
202305151551 METAR KJFK 151551Z 23013KT 10SM BKN300 19/04 A3023 RMK AO2 SLP237 FU BKN300 T01890039=
202305151451 METAR KJFK 151451Z 23010KT 10SM FEW250 BKN300 19/03 A3026 RMK AO2 SLP245 FU BKN300 T01890033 58013=
202305151351 METAR KJFK 151351Z 25007KT 10SM FEW250 19/01 A3028 RMK AO2 SLP252 T01890006=
202305151251 METAR KJFK 151251Z 32005KT 10SM FEW250 17/00 A3029 RMK AO2 SLP255 T01720000=
202305151151 METAR KJFK 151151Z 33008KT 10SM FEW250 16/01 A3029 RMK AO2 SLP258 T01560011 10156 20106 53004=
202305151051 METAR KJFK 151051Z 35005KT 10SM FEW250 13/02 A3029 RMK AO2 SLP256 T01330017=
202305150951 METAR KJFK 150951Z 36005KT 10SM FEW250 11/02 A3028 RMK AO2 SLP254 T01060017=
202305150851 METAR KJFK 150851Z 36007KT 10SM FEW250 12/01 A3028 RMK AO2 SLP254 T01170011 51009=
202305150751 METAR KJFK 150751Z 35009KT 10SM FEW250 13/01 A3028 RMK AO2 SLP253 T01280011=
202305150651 METAR KJFK 150651Z 36010KT 10SM SCT250 13/01 A3027 RMK AO2 SLP248 T01330011=
202305150551 METAR KJFK 150551Z 36010KT 10SM SCT250 14/01 A3026 RMK AO2 SLP245 T01440011 10156 20133 53006=
202305150451 METAR KJFK 150451Z 35008KT 10SM BKN250 15/01 A3025 RMK AO2 SLP244 T01500011 402060133=
202305150351 METAR KJFK 150351Z 35008KT 10SM SCT250 15/03 A3024 RMK AO2 SLP239 T01500033=
202305150251 METAR KJFK 150251Z 02004KT 10SM BKN250 16/04 A3024 RMK AO2 SLP239 T01560039 51019=
202305150151 METAR KJFK 150151Z 00000KT 10SM BKN250 13/10 A3023 RMK AO2 SLP237 T01330100=
202305150051 METAR KJFK 150051Z 00000KT 10SM BKN250 15/10 A3021 RMK AO2 SLP228 T01500100=
202305142351 METAR KJFK 142351Z 22003KT 10SM FEW180 BKN250 14/09 A3018 RMK AO2 SLP220 T01440094 10189 20144 53014=
202305142251 METAR KJFK 142251Z 19006KT 10SM FEW200 BKN250 16/10 A3016 RMK AO2 SLP212 T01560100=
202305142151 METAR KJFK 142151Z 20007KT 10SM FEW200 BKN250 17/09 A3015 RMK AO2 SLP210 T01670094=
202305142051 METAR KJFK 142051Z 20010KT 10SM FEW200 BKN250 17/11 A3014 RMK AO2 SLP206 T01720106 55007=
202305141951 METAR KJFK 141951Z 19009KT 10SM FEW200 SCT250 18/10 A3014 RMK AO2 SLP205 T01830100=
202305141851 METAR KJFK 141851Z 18008KT 10SM FEW200 FEW250 18/10 A3015 RMK AO2 SLP208 T01830100=
202305141751 METAR KJFK 141751Z 19010KT 10SM FEW040 FEW200 BKN250 18/10 A3016 RMK AO2 SLP213 T01830100 10206 20161 56012=
202305141651 METAR KJFK 141651Z 19008KT 10SM FEW200 BKN250 17/09 A3017 RMK AO2 SLP216 T01720094=
202305141551 METAR KJFK 141551Z VRB05KT 10SM FEW200 BKN250 18/08 A3018 RMK AO2 SLP220 T01830083=
202305141451 METAR KJFK 141451Z 01006KT 10SM FEW200 BKN250 19/02 A3020 RMK AO2 SLP225 T01890022 58002=
202305141351 METAR KJFK 141351Z 36007KT 10SM FEW200 BKN250 18/03 A3020 RMK AO2 SLP227 T01830028=
202305141251 METAR KJFK 141251Z 03008KT 10SM FEW200 BKN250 18/03 A3021 RMK AO2 SLP229 T01780033=
202305141151 METAR KJFK 141151Z 04008KT 10SM FEW200 BKN250 16/03 A3020 RMK AO2 SLP227 T01610033 10178 20144 51022=
202305141051 METAR KJFK 141051Z 04009KT 10SM FEW200 BKN250 15/03 A3019 RMK AO2 SLP224 T01500028=
202305140951 METAR KJFK 140951Z 01009KT 10SM BKN250 14/02 A3016 RMK AO2 SLP212 T01440022=
202305140851 METAR KJFK 140851Z 02012KT 10SM SCT250 16/02 A3014 RMK AO2 SLP205 T01560017 53015=
202305140751 METAR KJFK 140751Z 02009KT 10SM SCT250 16/01 A3013 RMK AO2 SLP201 T01610011=
202305140651 METAR KJFK 140651Z 01009KT 10SM SCT250 17/01 A3010 RMK AO2 SLP192 T01670006=
202305140551 METAR KJFK 140551Z 01011KT 10SM CLR 18/01 A3009 RMK AO2 SLP190 T01780006 10256 20178 51012=
202305140451 METAR KJFK 140451Z 36012KT 10SM CLR 19/01 A3009 RMK AO2 SLP188 T01940011 402670178=
202305140351 METAR KJFK 140351Z 01009KT 10SM CLR 20/02 A3008 RMK AO2 SLP185 T02000017=
202305140251 METAR KJFK 140251Z 36010KT 10SM CLR 21/03 A3006 RMK AO2 SLP179 T02110033 51027=
202305140151 METAR KJFK 140151Z 35010KT 10SM BKN250 23/03 A3004 RMK AO2 SLP170 T02280033=
202305140051 METAR KJFK 140051Z 36006KT 10SM FEW100 BKN250 24/04 A3000 RMK AO2 SLP160 T02390039=
202305132351 METAR KJFK 132351Z 33011KT 10SM FEW100 BKN250 26/03 A2998 RMK AO2 SLP151 T02560033 10267 20233 53009=
202305132251 METAR KJFK 132251Z 32010KT 10SM FEW100 BKN240 26/07 A2997 RMK AO2 SLP147 T02610067=
202305132151 METAR KJFK 132151Z 25009KT 10SM FEW090 BKN230 24/13 A2996 RMK AO2 SLP144 T02440133=
202305132051 METAR KJFK 132051Z 23012KT 10SM FEW070 SCT095 SCT200 OVC250 24/14 A2995 RMK AO2 SLP142 T02440139 56014=
202305131951 METAR KJFK 131951Z 23012KT 10SM FEW060 SCT200 OVC250 25/14 A2996 RMK AO2 SLP145 T02500144=
202305131851 METAR KJFK 131851Z 23010KT 10SM FEW060 FEW100 SCT200 OVC250 26/14 A2998 RMK AO2 SLP151 T02610144=
202305131751 METAR KJFK 131751Z 23004KT 10SM FEW100 OVC180 26/13 A2999 RMK AO2 SLP156 T02560128 10261 20206 58009=
202305131651 METAR KJFK 131651Z 31006KT 10SM SCT100 OVC170 26/12 A3001 RMK AO2 SLP161 T02610122=
202305131551 METAR KJFK 131551Z 30006KT 10SM SCT100 OVC170 26/12 A3002 RMK AO2 SLP164 T02610122=
202305131451 METAR KJFK 131451Z 03006KT 10SM SCT100 OVC200 25/11 A3002 RMK AO2 SLP165 T02500111 50002=
202305131351 METAR KJFK 131351Z 35006KT 10SM SCT100 OVC220 25/13 A3002 RMK AO2 SLP165 T02500128=
202305131251 METAR KJFK 131251Z 25007KT 10SM BKN110 OVC200 22/15 A3002 RMK AO2 SLP165 T02220150=
202305131151 METAR KJFK 131151Z 26006KT 10SM SCT100 OVC200 21/16 A3001 RMK AO2 SLP163 T02060156 10206 20178 53008=
202305131051 METAR KJFK 131051Z 26006KT 10SM BKN100 19/16 A3001 RMK AO2 SLP161 T01940161=
202305130951 METAR KJFK 130951Z 23008KT 10SM FEW105 BKN150 OVC220 18/16 A2999 RMK AO2 SLP155 T01830156=
202305130851 METAR KJFK 130851Z 22009KT 10SM SCT070 SCT220 18/16 A2999 RMK AO2 SLP155 T01830156 56002=
202305130751 METAR KJFK 130751Z 22009KT 10SM SCT160 BKN220 19/14 A2999 RMK AO2 SLP155 T01890144=
202305130651 METAR KJFK 130651Z 21008KT 10SM FEW160 BKN250 18/14 A2999 RMK AO2 SLP155 T01830144=
202305130551 METAR KJFK 130551Z 23007KT 10SM FEW180 SCT250 19/13 A3000 RMK AO2 SLP158 T01940133 10233 20172 58006=
202305130451 METAR KJFK 130451Z 24006KT 10SM FEW100 SCT230 19/14 A3001 RMK AO2 SLP161 T01940139 402830133=
202305130351 METAR KJFK 130351Z 25013KT 10SM FEW100 BKN240 23/12 A3001 RMK AO2 SLP163 T02330122=
202305130251 METAR KJFK 130251Z 23010KT 10SM FEW060 SCT250 20/12 A3002 RMK AO2 SLP163 T02000122 50006=
202305130151 METAR KJFK 130151Z 20005KT 10SM FEW060 BKN250 18/13 A3002 RMK AO2 SLP165 T01830128=
202305130051 METAR KJFK 130051Z 20005KT 10SM FEW100 BKN250 18/13 A3001 RMK AO2 SLP162 T01830133=
202305122351 METAR KJFK 122351Z 18005KT 10SM FEW070 FEW100 BKN250 18/14 A3000 RMK AO2 SLP158 T01830139 10278 20183 53002=
202305122251 METAR KJFK 122251Z 19009KT 10SM FEW100 BKN250 21/14 A2999 RMK AO2 SLP155 T02060139=
202305122151 METAR KJFK 122151Z 24011KT 10SM FEW100 BKN250 27/12 A2999 RMK AO2 SLP154 T02670122=
202305122051 METAR KJFK 122051Z 19011KT 10SM SCT100 BKN250 23/14 A2999 RMK AO2 SLP156 T02280139 58018=
202305121951 METAR KJFK 121951Z 18011KT 10SM FEW070 SCT100 BKN250 24/14 A3002 RMK AO2 SLP164 T02390144=
202305121851 METAR KJFK 121851Z 19016KT 10SM FEW070 BKN250 25/14 A3003 RMK AO2 SLP170 T02500139=
202305121751 METAR KJFK 121751Z 19010KT 10SM FEW065 BKN250 28/11 A3005 RMK AO2 SLP174 T02780111 10283 20183 58016=
202305121651 METAR KJFK 121651Z 21010KT 10SM FEW065 BKN250 28/11 A3007 RMK AO2 SLP181 T02780106=
202305121551 METAR KJFK 121551Z 24011KT 10SM FEW060 BKN250 27/13 A3009 RMK AO2 SLP188 T02720128=
202305121451 METAR KJFK 121451Z 23010KT 10SM BKN250 25/13 A3009 RMK AO2 SLP190 T02500133 53001=
202305121351 METAR KJFK 121351Z 22008KT 10SM BKN250 23/14 A3009 RMK AO2 SLP188 T02280139=
202305121251 METAR KJFK 121251Z 23003KT 10SM FEW100 BKN250 22/13 A3009 RMK AO2 SLP189 T02170128=
202305121151 METAR KJFK 121151Z 24004KT 10SM FEW100 BKN250 18/13 A3009 RMK AO2 SLP190 T01830128 10183 20133 51011=
202305121051 METAR KJFK 121051Z 25005KT 10SM BKN100 BKN250 16/13 A3009 RMK AO2 SLP189 T01610128=
202305120951 METAR KJFK 120951Z 25004KT 10SM BKN100 BKN250 14/12 A3008 RMK AO2 SLP184 T01440117=
202305120851 METAR KJFK 120851Z 22003KT 10SM FEW250 14/12 A3006 RMK AO2 SLP179 T01440122 56002=
202305120751 METAR KJFK 120751Z 22006KT 10SM FEW250 14/12 A3006 RMK AO2 SLP180 T01390117=
202305120651 METAR KJFK 120651Z 24006KT 10SM FEW250 15/12 A3006 RMK AO2 SLP179 T01500117=
202305120551 METAR KJFK 120551Z 25009KT 10SM FEW250 16/12 A3007 RMK AO2 SLP181 T01560117 10189 20156 50000=
202305120451 METAR KJFK 120451Z 25008KT 10SM FEW250 17/11 A3007 RMK AO2 SLP183 T01670106 402390106=
202305120351 METAR KJFK 120351Z 23009KT 10SM FEW250 17/10 A3007 RMK AO2 SLP182 T01720100=
202305120251 METAR KJFK 120251Z 24010KT 10SM FEW250 18/10 A3007 RMK AO2 SLP181 T01830100 51011=
202305120151 METAR KJFK 120151Z 18005KT 10SM FEW070 FEW250 16/12 A3006 RMK AO2 SLP179 T01610117=
202305120051 METAR KJFK 120051Z 19005KT 10SM FEW070 FEW250 17/11 A3005 RMK AO2 SLP174 T01720111=
202305112351 METAR KJFK 112351Z 20007KT 10SM FEW070 FEW250 19/12 A3003 RMK AO2 SLP170 T01890117 10239 20183 56004=
202305112251 METAR KJFK 112251Z 19009KT 10SM FEW070 FEW250 20/11 A3004 RMK AO2 SLP171 T02000111=
202305112151 METAR KJFK 112151Z 18011KT 10SM FEW070 FEW250 21/11 A3004 RMK AO2 SLP171 T02110111=
202305112051 METAR KJFK 112051Z 20012KT 10SM FEW065 SCT250 SCT300 21/12 A3005 RMK AO2 SLP174 FU SCT300 T02110117 58017=
202305111951 METAR KJFK 111951Z 20014KT 10SM SCT250 BKN300 22/11 A3006 RMK AO2 SLP179 FU BKN300 T02220106=
202305111851 SPECI KJFK 111851Z 20014KT 10SM FEW250 BKN300 22/09 A3009 RMK AO2 SLP188 FU BKN300 T02170094=
202305111851 METAR KJFK 111851Z 20014KT 10SM FEW250 BKN300 22/09 A3009 RMK AO2 SLP188 FU BKN300 T02170094=
202305111751 METAR KJFK 111751Z 21012KT 10SM SCT250 BKN300 23/07 A3010 RMK AO2 SLP191 FU BKN300 T02330072 10233 20172 56018=
202305111651 METAR KJFK 111651Z 21012KT 10SM SCT250 BKN300 22/07 A3011 RMK AO2 SLP197 FU BKN300 T02220072=
202305111551 METAR KJFK 111551Z 22010KT 10SM SCT250 SCT300 23/07 A3012 RMK AO2 SLP200 FU SCT300 T02280072=
202305111451 METAR KJFK 111451Z VRB06KT 10SM FEW250 SCT300 22/06 A3015 RMK AO2 SLP209 FU SCT300 T02220061 58001=
202305111351 METAR KJFK 111351Z 25009KT 10SM FEW250 SCT300 20/07 A3016 RMK AO2 SLP212 FU SCT300 T02000067=
202305111251 METAR KJFK 111251Z 24006KT 10SM FEW250 SCT300 18/08 A3016 RMK AO2 SLP211 FU SCT300 T01830083=
202305111151 METAR KJFK 111151Z 30006KT 10SM FEW250 BKN300 17/07 A3015 RMK AO2 SLP210 FU BKN300 T01720067 10172 20106 51016=
202305111051 METAR KJFK 111051Z 27008KT 10SM BKN300 13/08 A3014 RMK AO2 SLP207 FU BKN300 T01330078=
202305110951 METAR KJFK 110951Z 25007KT 10SM BKN300 11/07 A3012 RMK AO2 SLP200 FU BKN300 T01110067=
202305110851 METAR KJFK 110851Z 25003KT 10SM BKN300 12/08 A3010 RMK AO2 SLP194 FU BKN300 T01220078 58001=
202305110751 METAR KJFK 110751Z 21008KT 10SM BKN300 11/08 A3010 RMK AO2 SLP194 FU BKN300 T01110083=
202305110651 METAR KJFK 110651Z 25007KT 10SM BKN300 13/08 A3011 RMK AO2 SLP195 FU BKN300 T01280078=
202305110551 METAR KJFK 110551Z 25008KT 10SM BKN300 13/09 A3011 RMK AO2 SLP194 FU BKN300 T01280089 10139 20117 55000=
202305110451 METAR KJFK 110451Z 22007KT 10SM BKN300 13/09 A3011 RMK AO2 SLP194 FU BKN300 T01280094 401890067=
202305110351 METAR KJFK 110351Z 22005KT 10SM BKN300 13/10 A3010 RMK AO2 SLP193 FU BKN300 T01280100=
202305110251 METAR KJFK 110251Z 21005KT 10SM FEW250 BKN300 12/11 A3011 RMK AO2 SLP195 FU BKN300 T01220111 51007=
202305110151 METAR KJFK 110151Z 20007KT 10SM FEW250 BKN300 13/11 A3011 RMK AO2 SLP195 FU BKN300 T01280111=
202305110051 METAR KJFK 110051Z 21004KT 10SM BKN300 13/11 A3010 RMK AO2 SLP192 FU BKN300 T01330106=
202305102351 METAR KJFK 102351Z 19015KT 10SM BKN300 14/09 A3009 RMK AO2 SLP188 FU BKN300 T01390094 10189 20139 56005=
202305102251 METAR KJFK 102251Z 19017KT 10SM BKN300 15/08 A3009 RMK AO2 SLP188 FU BKN300 T01500078=
202305102151 METAR KJFK 102151Z 19017KT 10SM SCT300 16/07 A3009 RMK AO2 SLP190 FU SCT300 T01610072=
202305102051 METAR KJFK 102051Z 20020KT 10SM SCT300 17/08 A3010 RMK AO2 SLP193 FU SCT300 T01720083 56016=
202305101951 METAR KJFK 101951Z 19015KT 10SM BKN300 17/11 A3011 RMK AO2 SLP194 FU BKN300 T01720106=
202305101851 METAR KJFK 101851Z 18010KT 10SM BKN300 19/09 A3012 RMK AO2 SLP201 FU BKN300 T01890089=
202305101851 SPECI KJFK 101851Z 18010KT 10SM BKN300 19/09 A3012 RMK AO2 SLP201 FU BKN300 T01890089=
202305101751 METAR KJFK 101751Z 19011KT 10SM FEW055 SCT300 17/08 A3015 RMK AO2 SLP208 FU SCT300 T01720083 10178 20122 56017=
202305101651 METAR KJFK 101651Z 21011KT 10SM FEW050 BKN300 17/08 A3016 RMK AO2 SLP214 FU BKN300 T01720083=
202305101551 METAR KJFK 101551Z 20009KT 10SM FEW050 BKN300 16/08 A3018 RMK AO2 SLP218 FU BKN300 T01560083=
202305101451 METAR KJFK 101451Z 20007KT 10SM FEW047 BKN300 16/09 A3020 RMK AO2 SLP225 FU BKN300 T01560089 50001=
202305101351 METAR KJFK 101351Z 20004KT 10SM BKN300 14/08 A3020 RMK AO2 SLP227 FU BKN300 T01440083=
202305101251 METAR KJFK 101251Z 21004KT 10SM BKN300 14/08 A3020 RMK AO2 SLP225 FU BKN300 T01390083=
202305101151 METAR KJFK 101151Z VRB03KT 10SM FEW250 BKN300 13/09 A3019 RMK AO2 SLP223 FU BKN300 T01280094 10128 20067 52017=
202305101051 METAR KJFK 101051Z 14003KT 10SM FEW250 SCT300 09/07 A3018 RMK AO2 SLP218 FU SCT300 FU PLUME N T00940072=
202305100951 METAR KJFK 100951Z 06003KT 10SM FEW250 07/05 A3016 RMK AO2 SLP212 T00670050=
202305100851 METAR KJFK 100851Z 12003KT 10SM SCT250 08/06 A3014 RMK AO2 SLP206 T00780056 52006=
202305100751 METAR KJFK 100751Z 00000KT 10SM SCT250 09/06 A3014 RMK AO2 SLP205 T00890056=
202305100651 METAR KJFK 100651Z 00000KT 10SM FEW250 09/06 A3013 RMK AO2 SLP202 T00890056=
202305100551 METAR KJFK 100551Z 21004KT 10SM SCT250 11/06 A3012 RMK AO2 SLP200 T01060061 10122 20100 51010=
202305100451 METAR KJFK 100451Z 17004KT 10SM FEW090 BKN250 11/06 A3012 RMK AO2 SLP200 T01060061 401720100=
202305100351 METAR KJFK 100351Z 14004KT 10SM FEW130 BKN250 11/07 A3012 RMK AO2 SLP198 T01060067=
202305100251 METAR KJFK 100251Z 14004KT 10SM BKN250 11/06 A3009 RMK AO2 SLP189 T01110061 51030=
202305100151 METAR KJFK 100151Z 14005KT 10SM SCT250 11/06 A3007 RMK AO2 SLP183 T01110056=
202305100051 METAR KJFK 100051Z 13005KT 10SM SCT250 SCT300 12/06 A3005 RMK AO2 SLP174 FU SCT300 T01170061=
202305092351 METAR KJFK 092351Z 15006KT 10SM FEW050 BKN250 BKN300 12/06 A3000 RMK AO2 SLP159 FU BKN300 T01220056 10172 20122 53010=
202305092251 METAR KJFK 092251Z 16007KT 10SM FEW050 BKN250 BKN300 14/04 A2999 RMK AO2 SLP155 FU BKN300 T01390039=
202305092151 METAR KJFK 092151Z 14010KT 10SM FEW050 FEW190 BKN250 BKN300 15/03 A2998 RMK AO2 SLP151 FU BKN300 T01500028=
202305092051 METAR KJFK 092051Z 16011KT 10SM FEW050 FEW070 SCT190 BKN250 16/02 A2997 RMK AO2 SLP149 T01560022 55003=
202305091951 METAR KJFK 091951Z 15010KT 10SM FEW050 FEW070 SCT180 BKN250 16/03 A2997 RMK AO2 SLP148 T01610028=
202305091851 METAR KJFK 091851Z 15011KT 10SM FEW050 FEW070 SCT160 BKN250 17/02 A2998 RMK AO2 SLP151 T01670022=
202305091751 METAR KJFK 091751Z 14008KT 10SM FEW050 SCT160 BKN250 17/02 A2998 RMK AO2 SLP152 T01670022 10172 20139 56001=
202305091651 METAR KJFK 091651Z 15009KT 10SM BKN160 BKN250 16/02 A2998 RMK AO2 SLP153 T01610022=
202305091551 METAR KJFK 091551Z 15007KT 10SM FEW130 BKN250 17/03 A2998 RMK AO2 SLP152 T01670028=
202305091451 METAR KJFK 091451Z 13004KT 10SM BKN130 BKN250 16/01 A2998 RMK AO2 SLP153 T01610011 51014=
202305091351 METAR KJFK 091351Z 09006KT 10SM BKN150 BKN250 16/02 A2997 RMK AO2 SLP149 T01560017=
202305091251 METAR KJFK 091251Z 06008KT 10SM BKN150 BKN250 15/03 A2996 RMK AO2 SLP145 T01500028=
202305091151 METAR KJFK 091151Z 04008KT 10SM BKN140 BKN250 14/04 A2994 RMK AO2 SLP140 T01440039 10161 20117 51015=
202305091051 METAR KJFK 091051Z 04007KT 10SM BKN150 BKN250 13/04 A2994 RMK AO2 SLP139 T01280039=
202305090951 METAR KJFK 090951Z 04006KT 10SM BKN160 BKN250 12/03 A2992 RMK AO2 SLP131 T01220033=
202305090851 METAR KJFK 090851Z 02007KT 10SM FEW200 BKN250 13/02 A2990 RMK AO2 SLP124 T01280017 53007=
202305090751 METAR KJFK 090751Z 01007KT 10SM FEW200 BKN250 13/01 A2989 RMK AO2 SLP122 T01330011=
202305090651 METAR KJFK 090651Z 04013G18KT 10SM FEW200 SCT250 14/01 A2988 RMK AO2 SLP119 T01440006=
202305090551 METAR KJFK 090551Z 02011KT 10SM SCT250 16/M01 A2988 RMK AO2 SLP117 T01611011 10217 20156 50005=
202305090451 METAR KJFK 090451Z 01007KT 10SM BKN250 17/04 A2989 RMK AO2 SLP121 T01670039 402560139=
202305090351 METAR KJFK 090351Z 01007KT 10SM BKN240 18/04 A2988 RMK AO2 SLP117 T01830039=
202305090251 METAR KJFK 090251Z 35008KT 10SM BKN250 19/04 A2986 RMK AO2 SLP112 T01940039 51028=
202305090151 METAR KJFK 090151Z 34010KT 10SM BKN250 21/04 A2984 RMK AO2 SLP106 T02060044=
202305090051 METAR KJFK 090051Z 34009KT 10SM BKN250 19/07 A2980 RMK AO2 SLP091 T01940072=
202305082351 METAR KJFK 082351Z 15006KT 10SM FEW075 BKN250 17/12 A2978 RMK AO2 SLP084 T01670117 10256 20161 53010=
202305082251 METAR KJFK 082251Z 18010KT 10SM FEW075 BKN250 19/12 A2976 RMK AO2 SLP077 T01890117=
202305082151 METAR KJFK 082151Z VRB03KT 10SM FEW075 BKN250 21/11 A2975 RMK AO2 SLP075 T02110111=
202305082051 METAR KJFK 082051Z 29012G20KT 10SM FEW075 BKN250 25/08 A2975 RMK AO2 SLP074 T02500078 56009=
202305081951 METAR KJFK 081951Z 28010KT 10SM FEW075 BKN250 24/08 A2975 RMK AO2 SLP074 T02440078=
202305081851 METAR KJFK 081851Z 28013G21KT 10SM SCT070 BKN250 24/09 A2976 RMK AO2 SLP078 T02440094=
202305081751 METAR KJFK 081751Z 34007KT 10SM FEW060 BKN250 24/09 A2978 RMK AO2 SLP083 T02390089 10239 20172 58005=
202305081651 METAR KJFK 081651Z 10SM FEW055 SCT250 23/09 A2979 RMK AO2 SLP087 T02280089=
202305081551 METAR KJFK 081551Z 01010KT 10SM FEW050 SCT250 22/09 A2980 RMK AO2 SLP090 T02170089=
202305081451 METAR KJFK 081451Z 32011KT 10SM FEW047 FEW250 21/09 A2979 RMK AO2 SLP088 T02060094 50003=
202305081351 METAR KJFK 081351Z 33013KT 10SM FEW047 SCT100 BKN250 19/11 A2979 RMK AO2 SLP088 T01890106=
202305081251 METAR KJFK 081251Z 33012KT 10SM FEW043 FEW100 BKN250 18/11 A2980 RMK AO2 SLP090 T01830111=
202305081151 METAR KJFK 081151Z 35008KT 10SM FEW040 FEW100 SCT250 17/11 A2978 RMK AO2 SLP085 60000 T01720106 10172 20139 53007=
202305081051 METAR KJFK 081051Z 34008KT 10SM FEW037 SCT100 SCT250 15/11 A2977 RMK AO2 SLP081 T01500106=
202305080951 METAR KJFK 080951Z 34006KT 10SM FEW037 FEW100 BKN250 14/11 A2977 RMK AO2 SLP079 T01440106=
202305080851 METAR KJFK 080851Z 33007KT 10SM FEW037 SCT065 OVC100 14/12 A2976 RMK AO2 RAB14E47 CIG 046 W SLP078 P0000 60000 T01440117 56000=
202305080751 METAR KJFK 080751Z 34007KT 10SM BKN050 16/12 A2977 RMK AO2 SLP080 T01560117=
202305080651 METAR KJFK 080651Z 02007KT 10SM BKN055 BKN095 15/12 A2975 RMK AO2 SLP072 T01500117=
202305080551 METAR KJFK 080551Z 36008KT 10SM BKN060 OVC075 17/12 A2976 RMK AO2 RAE0453 SLP078 P0000 60000 T01670122 10206 20156 56009=
202305080451 METAR KJFK 080451Z 01006KT 10SM -RA OVC065 18/14 A2978 RMK AO2 RAB37 SLP083 P0000 T01780139 402280117=
202305080351 METAR KJFK 080351Z 20005KT 10SM BKN060 OVC110 18/13 A2977 RMK AO2 RAE43 SLP080 P0000 T01780128=
202305080251 METAR KJFK 080251Z 29008KT 10SM -RA OVC090 20/12 A2979 RMK AO2 RAE15B46 SLP087 P0000 60000 T02000122 56013=
202305080151 METAR KJFK 080151Z 27013KT 10SM -RA OVC080 21/12 A2981 RMK AO2 RAB26 SLP093 P0000 T02060117=
202305080051 METAR KJFK 080051Z 24012KT 10SM BKN110 BKN150 BKN250 18/12 A2981 RMK AO2 SLP093 T01780122=
202305072351 METAR KJFK 072351Z 20010KT 10SM BKN110 BKN150 BKN250 16/12 A2983 RMK AO2 SLP100 T01610122 10228 20161 56017=
202305072251 METAR KJFK 072251Z 19011KT 10SM FEW090 BKN150 BKN250 17/12 A2984 RMK AO2 SLP104 T01670122=
202305072151 METAR KJFK 072151Z 18013KT 10SM FEW090 BKN200 OVC250 17/12 A2986 RMK AO2 SLP111 T01720122=
202305072051 METAR KJFK 072051Z 18014KT 10SM FEW090 BKN250 18/12 A2988 RMK AO2 SLP117 T01780122 58030=
202305071951 METAR KJFK 071951Z 17017KT 10SM FEW100 BKN250 19/11 A2991 RMK AO2 SLP128 T01940106=
202305071851 METAR KJFK 071851Z 17014KT 10SM FEW150 BKN250 20/07 A2994 RMK AO2 WSHFT 1810 SLP140 T02000067=
202305071826 SPECI KJFK 071826Z 18012KT 10SM FEW150 BKN250 21/08 A2995 RMK AO2 WSHFT 1810 T02060083=
202305071751 METAR KJFK 071751Z 24012KT 10SM FEW150 BKN250 22/07 A2997 RMK AO2 SLP147 T02220067 10228 20156 58028=
202305071651 METAR KJFK 071651Z 20012KT 10SM FEW150 BKN250 21/07 A3000 RMK AO2 SLP157 T02110067=
202305071551 METAR KJFK 071551Z 22009KT 10SM FEW150 BKN250 21/06 A3003 RMK AO2 SLP167 T02060061=
202305071451 METAR KJFK 071451Z 23008KT 10SM FEW150 SCT250 21/06 A3005 RMK AO2 SLP176 T02060061 56013=
202305071351 METAR KJFK 071351Z 33004KT 10SM FEW250 19/06 A3006 RMK AO2 SLP180 T01940056=
202305071251 METAR KJFK 071251Z 34005KT 10SM FEW130 FEW250 18/06 A3007 RMK AO2 SLP184 T01830056=
202305071151 METAR KJFK 071151Z 24004KT 10SM FEW130 SCT250 16/07 A3009 RMK AO2 SLP189 T01560072 10156 20117 58004=
202305071051 METAR KJFK 071051Z 26006KT 10SM FEW130 SCT250 14/07 A3010 RMK AO2 SLP193 T01390067=
202305070951 METAR KJFK 070951Z 32006KT 10SM FEW250 12/04 A3010 RMK AO2 SLP191 T01220039=
202305070851 METAR KJFK 070851Z 31006KT 10SM FEW250 13/04 A3010 RMK AO2 SLP193 T01280044 56003=
202305070751 METAR KJFK 070751Z 30007KT 10SM FEW250 13/05 A3011 RMK AO2 SLP195 T01280050=
202305070651 METAR KJFK 070651Z VRB03KT 10SM FEW250 12/05 A3010 RMK AO2 SLP193 T01170050=
202305070551 METAR KJFK 070551Z 32006KT 10SM FEW250 14/06 A3011 RMK AO2 SLP196 T01440056 10150 20117 58009=
202305070451 METAR KJFK 070451Z 32006KT 10SM FEW095 FEW250 14/08 A3012 RMK AO2 SLP199 T01440083 402220089=
202305070351 METAR KJFK 070351Z 00000KT 10SM SCT090 14/11 A3013 RMK AO2 SLP203 T01390111=
202305070251 METAR KJFK 070251Z 21005KT 10SM BKN090 12/11 A3014 RMK AO2 SLP205 T01220111 50001=
202305070151 METAR KJFK 070151Z 20006KT 10SM SCT090 12/11 A3014 RMK AO2 SLP206 T01220111=
202305070051 METAR KJFK 070051Z 20007KT 10SM SCT090 14/11 A3014 RMK AO2 SLP206 T01390106=
202305062351 METAR KJFK 062351Z 20012KT 10SM FEW085 14/09 A3014 RMK AO2 SLP204 T01440094 10222 20144 55003=
202305062251 METAR KJFK 062251Z 19011KT 10SM SCT085 16/09 A3013 RMK AO2 SLP204 T01560089=
202305062151 METAR KJFK 062151Z 19012KT 10SM SCT080 17/09 A3014 RMK AO2 SLP205 T01670089=
202305062051 METAR KJFK 062051Z 19011KT 10SM BKN080 18/11 A3014 RMK AO2 SLP207 T01780106 56017=
202305061951 METAR KJFK 061951Z 19008KT 10SM SCT075 21/07 A3015 RMK AO2 SLP208 T02060067=
202305061851 METAR KJFK 061851Z 34008KT 10SM SCT070 22/06 A3017 RMK AO2 SLP216 T02220061=
202305061751 METAR KJFK 061751Z 31010G15KT 280V340 10SM SCT065 21/06 A3019 RMK AO2 SLP223 T02060061 10211 20139 58021=
202305061651 METAR KJFK 061651Z VRB04KT 10SM FEW060 19/06 A3021 RMK AO2 SLP230 T01940061=
202305061551 METAR KJFK 061551Z 32013KT 10SM FEW060 19/06 A3024 RMK AO2 SLP239 T01940061=
202305061451 METAR KJFK 061451Z 34008KT 10SM CLR 18/07 A3025 RMK AO2 SLP245 T01830067 58006=
202305061351 METAR KJFK 061351Z 35010KT 10SM CLR 17/07 A3027 RMK AO2 SLP248 T01720072=
202305061251 METAR KJFK 061251Z 32008KT 10SM CLR 16/07 A3027 RMK AO2 SLP250 T01560072=
202305061151 METAR KJFK 061151Z 32005KT 10SM CLR 14/08 A3027 RMK AO2 SLP251 T01390078 10139 20089 53006=
202305061051 METAR KJFK 061051Z 28005KT 10SM CLR 11/08 A3027 RMK AO2 SLP249 T01110083=
202305060951 METAR KJFK 060951Z 29005KT 10SM CLR 09/08 A3025 RMK AO2 SLP244 T00940078=
202305060851 METAR KJFK 060851Z 00000KT 10SM CLR 09/08 A3025 RMK AO2 SLP244 T00940078 53002=
202305060751 METAR KJFK 060751Z 27006KT 10SM CLR 10/08 A3025 RMK AO2 SLP242 T01000083=
202305060651 METAR KJFK 060651Z 25005KT 10SM FEW060 FEW080 10/08 A3025 RMK AO2 SLP241 T01000083=
202305060551 METAR KJFK 060551Z 26005KT 10SM FEW060 BKN080 11/09 A3025 RMK AO2 SLP242 T01110089 10111 20100 50001=
202305060451 METAR KJFK 060451Z 25007KT 10SM FEW050 FEW075 BKN150 11/09 A3026 RMK AO2 SLP246 T01110089 401610067=
202305060351 METAR KJFK 060351Z 23007KT 10SM FEW060 FEW110 11/09 A3025 RMK AO2 SLP244 T01060089=
202305060251 METAR KJFK 060251Z 19006KT 10SM FEW060 FEW075 10/08 A3025 RMK AO2 SLP242 T01000083 51004=
202305060151 METAR KJFK 060151Z 20006KT 10SM FEW050 SCT080 11/08 A3024 RMK AO2 SLP241 T01060083=
202305060051 METAR KJFK 060051Z 17004KT 10SM FEW055 SCT070 BKN120 BKN250 11/08 A3024 RMK AO2 SLP241 T01060078=
202305052351 METAR KJFK 052351Z 18006KT 10SM FEW050 SCT090 BKN110 BKN250 11/08 A3024 RMK AO2 SLP238 T01110078 10144 20111 51010=
202305052251 METAR KJFK 052251Z 19011KT 10SM FEW050 SCT090 SCT110 BKN250 12/07 A3022 RMK AO2 SLP233 T01170067=
202305052151 METAR KJFK 052151Z 18011KT 10SM FEW050 SCT090 SCT250 13/07 A3022 RMK AO2 SLP232 T01280072=
202305052051 METAR KJFK 052051Z 17008KT 10SM FEW050 SCT090 SCT250 14/07 A3020 RMK AO2 SLP227 T01390072 55003=
202305051951 METAR KJFK 051951Z 14006KT 10SM FEW050 BKN090 BKN250 13/07 A3020 RMK AO2 SLP226 T01330067=
202305051851 METAR KJFK 051851Z 18009KT 10SM SCT050 BKN080 BKN250 13/07 A3021 RMK AO2 SLP230 T01330072=
202305051751 METAR KJFK 051751Z 18009KT 10SM SCT050 BKN070 BKN250 14/08 A3021 RMK AO2 SLP231 T01390078 10161 20106 58002=
202305051651 METAR KJFK 051651Z 21011KT 10SM BKN050 BKN070 BKN250 14/08 A3022 RMK AO2 SLP233 T01390083=
202305051551 METAR KJFK 051551Z 20006KT 10SM FEW045 SCT070 SCT250 15/07 A3022 RMK AO2 SLP233 T01500067=
202305051451 METAR KJFK 051451Z VRB04KT 10SM SCT040 SCT065 SCT250 16/06 A3022 RMK AO2 SLP233 T01560056 51015=
202305051351 METAR KJFK 051351Z VRB06KT 10SM SCT034 BKN065 BKN250 14/06 A3021 RMK AO2 SLP229 T01440061=
202305051251 METAR KJFK 051251Z VRB06KT 10SM FEW028 SCT070 SCT250 13/07 A3020 RMK AO2 SLP226 T01280072=
202305051151 METAR KJFK 051151Z 04007KT 10SM FEW023 FEW070 FEW250 11/08 A3018 RMK AO2 SLP218 70002 T01060078 10106 20067 51022=
202305051051 METAR KJFK 051051Z 06003KT 9SM FEW016 FEW075 FEW250 09/08 A3016 RMK AO2 SLP212 T00890083=
202305050951 METAR KJFK 050951Z 04005KT 9SM FEW016 FEW075 SCT110 07/07 A3013 RMK AO2 SLP202 T00720067=
202305050851 METAR KJFK 050851Z 00000KT 10SM CLR 07/07 A3011 RMK AO2 SLP196 T00720067 53007=
202305050751 METAR KJFK 050751Z 00000KT 10SM FEW017 SCT110 07/07 A3010 RMK AO2 SLP193 T00720067=
202305050651 METAR KJFK 050651Z 00000KT 10SM FEW015 BKN110 09/08 A3009 RMK AO2 SLP190 T00890078=
202305050551 METAR KJFK 050551Z 03003KT 10SM FEW015 BKN100 09/08 A3009 RMK AO2 SLP189 T00940078 10111 20094 53010=
202305050451 METAR KJFK 050451Z 33004KT 10SM FEW020 BKN110 10/08 A3008 RMK AO2 SLP184 T01000078 401330083=
202305050351 METAR KJFK 050351Z 29005KT 10SM FEW025 BKN090 11/08 A3007 RMK AO2 SLP181 T01060078=
202305050251 METAR KJFK 050251Z 26007KT 10SM FEW030 BKN070 OVC085 11/08 A3006 RMK AO2 SLP178 T01060078 51016=
202305050151 METAR KJFK 050151Z 25009KT 10SM BKN060 OVC085 11/08 A3005 RMK AO2 SLP175 T01060078=
202305050051 METAR KJFK 050051Z 22009KT 10SM FEW040 BKN060 OVC085 11/08 A3003 RMK AO2 SLP168 T01060078=
202305042351 METAR KJFK 042351Z 21008KT 10SM FEW040 BKN065 BKN080 BKN250 10/07 A3001 RMK AO2 SLP163 60000 T01000072 10133 20100 53017=
202305042251 METAR KJFK 042251Z 19010KT 10SM FEW040 BKN075 BKN250 11/07 A2999 RMK AO2 SLP155 T01060072=
202305042151 METAR KJFK 042151Z 18011KT 10SM FEW044 SCT060 BKN075 BKN250 11/08 A2998 RMK AO2 SLP151 T01110078=
202305042051 METAR KJFK 042051Z 18009KT 10SM BKN044 OVC060 11/07 A2996 RMK AO2 RAB14E30 SLP145 P0000 60000 T01060072 53016=
202305041951 METAR KJFK 041951Z 17010KT 10SM BKN036 BKN048 BKN065 OVC250 11/07 A2994 RMK AO2 SLP138 VCSH W-NW T01060067=
202305041851 METAR KJFK 041851Z 06006KT 10SM FEW025 SCT033 BKN049 BKN250 13/05 A2993 RMK AO2 SLP133 T01280050=
202305041751 METAR KJFK 041751Z 05004KT 10SM FEW027 BKN033 BKN049 BKN250 12/06 A2991 RMK AO2 SLP129 60002 T01220056 10133 20089 51015=
202305041735 SPECI KJFK 041735Z 06005KT 10SM SCT027 BKN035 BKN049 BKN250 12/06 A2991 RMK AO2 T01220061=
202305041651 METAR KJFK 041651Z 02008KT 10SM FEW019 BKN028 BKN047 BKN250 13/07 A2990 RMK AO2 SLP124 T01280067=
202305041551 METAR KJFK 041551Z 03010KT 10SM FEW013 BKN028 OVC044 11/07 A2989 RMK AO2 SLP121 T01110072=
202305041451 METAR KJFK 041451Z 04009G18KT 10SM FEW011 BKN021 OVC035 09/08 A2987 RMK AO2 RAE12B38E49 SLP114 P0000 60002 T00940078 51017=
202305041445 SPECI KJFK 041445Z 04013G18KT 10SM -RA FEW012 BKN021 OVC033 09/08 A2987 RMK AO2 RAE12B38 P0000=
202305041351 METAR KJFK 041351Z 04006KT 10SM -RA FEW011 BKN036 BKN085 BKN160 09/08 A2984 RMK AO2 SLP105 P0000 T00940078=
202305041251 METAR KJFK 041251Z 03009KT 10SM -RA SCT009 BKN038 OVC048 09/08 A2982 RMK AO2 SLP097 P0002 T00940078=
202305041151 METAR KJFK 041151Z 02007KT 6SM -RA BR SCT009 OVC043 09/08 A2979 RMK AO2 SLP086 P0011 60014 70015 T00890078 10094 20083 51035=
202305041127 SPECI KJFK 041127Z 03005KT 6SM -RA BR SCT011 BKN038 OVC060 09/08 A2978 RMK AO2 P0009 T00890078=
202305041051 METAR KJFK 041051Z 06007KT 5SM RA BR BKN012 BKN042 OVC050 08/07 A2975 RMK AO2 RAB16 SLP075 VIS NE-SE 3 BKN012 V SCT P0003 T00830072=
202305040951 METAR KJFK 040951Z 03010KT 10SM OVC012 09/07 A2972 RMK AO2 RAB22E36 SLP063 P0000 T00940072=
202305040851 METAR KJFK 040851Z 36008KT 10SM FEW015 BKN050 OVC140 09/07 A2968 RMK AO2 SLP051 60000 T00890067 53020=
202305040751 METAR KJFK 040751Z 01009KT 10SM BKN050 OVC065 09/07 A2966 RMK AO2 RAE01 SLP042 P0000 T00890067=
202305040651 METAR KJFK 040651Z 36011KT 10SM -RA OVC060 09/06 A2964 RMK AO2 RAB47 SLP036 P0000 T00940061=
202305040551 METAR KJFK 040551Z 35010KT 10SM OVC060 09/06 A2963 RMK AO2 SLP031 60001 T00940056 10106 20094 53002=
202305040451 METAR KJFK 040451Z 33006KT 10SM BKN060 BKN090 OVC120 09/06 A2962 RMK AO2 SLP030 T00940056 401330083=
202305040351 METAR KJFK 040351Z 34008KT 10SM BKN041 OVC080 10/06 A2962 RMK AO2 RAB09E51 SLP029 P0000 T01000056=
202305040251 METAR KJFK 040251Z 30005KT 10SM OVC060 10/05 A2962 RMK AO2 RAE05B25E35 SLP029 P0000 60001 T01000050 51017=
202305040151 METAR KJFK 040151Z 30005KT 10SM -RA FEW042 BKN055 OVC070 10/04 A2961 RMK AO2 RAB21 SLP027 P0000 T01000044=
202305040051 METAR KJFK 040051Z 31005KT 10SM OVC045 11/04 A2959 RMK AO2 LTG DSNT S RAE24 SLP020 P0001 T01060044=
202305032351 METAR KJFK 032351Z 28008KT 10SM -RA BKN045 OVC060 11/04 A2957 RMK AO2 LTG DSNT S RAB31 SLP013 P0000 60000 T01060044 10133 20106 53019=
202305032251 METAR KJFK 032251Z 24012KT 10SM FEW040 BKN055 BKN110 BKN250 12/04 A2954 RMK AO2 SLP002 VCSH S AND NW T01170044=
202305032151 METAR KJFK 032151Z 17010KT 10SM FEW040 SCT055 BKN080 BKN250 11/06 A2953 RMK AO2 SLP000 VCSH S AND NW T01110056=
202305032051 METAR KJFK 032051Z 20009KT 10SM FEW040 BKN070 BKN140 BKN250 12/05 A2951 RMK AO2 SLP993 VCSH NW T01170050 53000=
202305031951 METAR KJFK 031951Z 19011KT 10SM FEW039 SCT060 SCT130 BKN250 12/06 A2950 RMK AO2 SLP988 T01220061=
202305031851 METAR KJFK 031851Z 18010KT 10SM FEW039 SCT060 SCT110 BKN170 BKN250 12/04 A2951 RMK AO2 SLP992 T01220044=
202305031751 METAR KJFK 031751Z 20012KT 10SM FEW039 BKN055 BKN170 13/04 A2951 RMK AO2 SLP993 T01280039 10133 20089 58002=
202305031651 METAR KJFK 031651Z 24009KT 10SM FEW039 SCT055 BKN170 BKN250 13/03 A2952 RMK AO2 SLP995 T01280033=
202305031551 METAR KJFK 031551Z 24009KT 10SM SCT039 BKN170 BKN250 12/04 A2952 RMK AO2 SLP996 T01220044=
202305031451 METAR KJFK 031451Z 24012G16KT 10SM SCT034 BKN170 BKN250 12/04 A2952 RMK AO2 SLP995 T01170044 51010=
202305031351 METAR KJFK 031351Z 26007KT 10SM SCT031 BKN170 BKN250 11/04 A2952 RMK AO2 SLP995 T01060039=
202305031251 METAR KJFK 031251Z 25009KT 10SM FEW025 SCT045 SCT100 BKN170 BKN250 10/04 A2950 RMK AO2 SLP991 T01000044=
202305031151 METAR KJFK 031151Z 27010KT 10SM FEW022 SCT100 BKN170 BKN250 09/04 A2949 RMK AO2 SLP986 70005 T00890044 10094 20083 51010=
202305031051 METAR KJFK 031051Z 25008KT 10SM FEW022 SCT065 SCT100 BKN140 08/04 A2948 RMK AO2 SLP982 T00830039=
202305030951 METAR KJFK 030951Z 28011KT 10SM BKN065 BKN120 BKN160 08/03 A2947 RMK AO2 SLP980 T00830033=
202305030851 METAR KJFK 030851Z 29007KT 10SM OVC065 08/03 A2946 RMK AO2 SLP975 T00830033 56008=
202305030751 METAR KJFK 030751Z 28010KT 10SM FEW065 BKN110 OVC160 08/03 A2946 RMK AO2 SLP976 T00830028=
202305030651 METAR KJFK 030651Z 28011KT 10SM FEW065 BKN160 OVC250 09/03 A2947 RMK AO2 SLP978 T00890028=
202305030551 METAR KJFK 030551Z 27012KT 10SM FEW075 BKN150 OVC250 09/03 A2948 RMK AO2 SLP983 T00940028 10117 20094 58003=
202305030451 METAR KJFK 030451Z 26014KT 10SM FEW075 BKN130 OVC250 10/03 A2949 RMK AO2 SLP987 T01000033 401390078=
202305030351 METAR KJFK 030351Z 27014KT 10SM SCT080 BKN130 OVC250 10/03 A2949 RMK AO2 SLP986 T01000028=
202305030251 METAR KJFK 030251Z 25013KT 10SM FEW080 OVC130 11/03 A2949 RMK AO2 SLP986 T01060033 50011=
202305030151 METAR KJFK 030151Z 25013KT 10SM FEW045 OVC130 11/03 A2949 RMK AO2 SLP986 T01110033=
202305030051 METAR KJFK 030051Z 26012KT 10SM FEW040 SCT080 BKN250 11/03 A2948 RMK AO2 SLP981 T01110033=
202305022351 METAR KJFK 022351Z 26012KT 10SM FEW040 FEW060 SCT080 BKN250 12/03 A2946 RMK AO2 SLP975 T01170033 10139 20111 53016=
202305022251 METAR KJFK 022251Z 25017KT 10SM FEW040 FEW060 BKN080 BKN250 12/03 A2944 RMK AO2 SLP968 T01220028=
202305022151 METAR KJFK 022151Z 24018KT 10SM FEW040 BKN055 BKN075 BKN250 13/03 A2943 RMK AO2 SLP964 T01280033=
202305022051 METAR KJFK 022051Z 25018KT 10SM FEW045 SCT060 BKN075 BKN250 13/03 A2941 RMK AO2 SLP959 T01330028 50002=
202305021951 METAR KJFK 021951Z 25017G25KT 10SM FEW045 BKN060 BKN075 BKN250 12/03 A2942 RMK AO2 SLP960 VCSH NW T01170028=
202305021851 SPECI KJFK 021851Z 25016KT 10SM FEW030 FEW048 BKN070 12/02 A2941 RMK AO2 SLP958 VCSH E-S T01220022=
202305021851 METAR KJFK 021851Z 25016KT 10SM FEW030 FEW048 BKN070 12/02 A2941 RMK AO2 SLP958 VCSH E-S T01220022=
202305021751 METAR KJFK 021751Z 26010KT 10SM FEW030 BKN065 BKN085 BKN250 11/04 A2941 RMK SLP957 60005 T01110044 10122 20078 53002=
202305021651 METAR KJFK 021651Z 26015G22KT 10SM FEW032 SCT055 BKN090 BKN250 12/04 A2940 RMK SLP956 VCSH SE-S AND NW-N T01170044=
202305021551 METAR KJFK 021551Z 25018G23KT 10SM FEW030 BKN060 BKN110 BKN250 11/05 A2940 RMK RAB23E37 SLP957 VCSH S AND NW P0001 T01060050=
202305021451 METAR KJFK 021451Z 24015KT 10SM SCT031 BKN075 BKN100 BKN250 11/06 A2940 RMK RAE30 SLP956 P0000 60004 T01060056 56007=
202305021351 METAR KJFK 021351Z 23011KT 10SM -RA SCT028 BKN060 OVC100 09/06 A2940 RMK RAB45 SLP956 P0000 T00940061=
202305021251 METAR KJFK 021251Z 22006KT 10SM FEW021 SCT048 OVC100 08/06 A2940 RMK RAE36 SLP956 VCSH NE-E P0004 T00830056=
202305021151 METAR KJFK 021151Z 26015KT 6SM -RA BR FEW024 BKN034 OVC065 09/07 A2942 RMK SLP963 P0002 60005 70005 T00890067 10111 20078 53011=
202305021051 METAR KJFK 021051Z 20009KT 10SM -RA FEW045 BKN070 OVC095 10/07 A2940 RMK RAB29 SLP955 P0000 T01000067=
202305020951 METAR KJFK 020951Z 18006KT 10SM FEW045 BKN150 BKN220 09/07 A2939 RMK SLP952 T00940067=
202305020851 METAR KJFK 020851Z 17004KT 10SM FEW035 SCT100 BKN250 08/06 A2939 RMK SLP952 6003 T00830056 5610=
202305020751 METAR KJFK 020751Z 18012KT 10SM FEW030 BKN065 OVC095 09/06 A2940 RMK RAB32E51 SLP955 P0003 T00940061=
202305020651 METAR KJFK 020651Z 23006KT 10SM SCT050 BKN070 OVC090 10/06 A2940 RMK SLP954 T01000056=
202305020551 METAR KJFK 020551Z 26008KT 10SM BKN085 OVC110 11/04 A2942 RMK PK WND 24027/0511 WSHFT 0503 SLP962 T01110044 10139 20111 56008=
202305020518 SPECI KJFK 020518Z 24020G27KT 10SM FEW027 BKN065 OVC100 12/06 A2943 RMK PK WND 24027/0511 WSHFT 0503 T01170061=
202305020451 METAR KJFK 020451Z 17014KT 10SM BKN090 BKN120 BKN250 12/09 A2942 RMK SLP964 T01170089 401670094=
202305020351 METAR KJFK 020351Z 17011KT 10SM FEW110 SCT116 SCT250 12/07 A2943 RMK SLP966 T01170067=
202305020251 METAR KJFK 020251Z 19007KT 10SM SCT085 SCT250 12/06 A2944 RMK SLP971 T01170056 50005=
202305020151 METAR KJFK 020151Z 22010KT 10SM SCT070 BKN250 13/04 A2946 RMK SLP975 T01280044=
202305020051 METAR KJFK 020051Z 24016KT 10SM SCT060 SCT075 BKN250 14/04 A2945 RMK SLP973 T01390039=
202305012351 METAR KJFK 012351Z 23011KT 10SM FEW080 BKN110 BKN250 14/04 A2943 RMK SLP965 VIRGA NW T01390044 10167 20122 51015=
202305012251 METAR KJFK 012251Z 18012KT 10SM FEW080 SCT110 BKN250 13/08 A2941 RMK SLP960 VIRGA NW T01330083=
202305012151 METAR KJFK 012151Z 18015KT 10SM BKN080 BKN100 BKN250 14/08 A2940 RMK SLP957 T01390083=
202305012051 METAR KJFK 012051Z 18013KT 10SM FEW075 BKN090 14/07 A2938 RMK SLP950 T01390072 51003=
202305011951 METAR KJFK 011951Z 22016KT 10SM FEW060 SCT080 BKN100 16/03 A2938 RMK SLP949 T01610033=
202305011851 METAR KJFK 011851Z 24017KT 10SM SCT060 BKN100 15/03 A2938 RMK SLP948 T01500028=
202305011751 METAR KJFK 011751Z 24020KT 10SM SCT060 BKN085 14/03 A2938 RMK PK WND 24026/1727 SLP947 T01440028 10161 20106 51004=
202305011651 METAR KJFK 011651Z 24018KT 10SM SCT060 BKN085 15/04 A2937 RMK SLP947 T01500039=
202305011551 METAR KJFK 011551Z 24015KT 10SM SCT050 16/06 A2937 RMK PK WND 24026/1537 SLP945 T01560056=
202305011451 METAR KJFK 011451Z 23018KT 10SM SCT047 15/06 A2936 RMK SLP942 T01500061 51015=
202305011351 METAR KJFK 011351Z 24015KT 10SM SCT044 SCT110 14/06 A2935 RMK SLP937 T01390056=
202305011251 METAR KJFK 011251Z 27017KT 10SM FEW041 FEW110 13/04 A2934 RMK PK WND 27027/1235 SLP934 T01280044=
202305011151 METAR KJFK 011151Z 26018G25KT 10SM FEW028 SCT041 SCT110 11/04 A2932 RMK PK WND 26028/1116 SLP927 60000 70139 T01060039 10133 20094 51048=
202305011051 METAR KJFK 011051Z 26019G28KT 10SM FEW024 BKN041 BKN110 10/05 A2928 RMK PK WND 26028/1027 SLP915 T01000050=
202305010951 METAR KJFK 010951Z 27019KT 10SM FEW030 BKN110 10/06 A2923 RMK PK WND 25028/0923 SLP898 T01000056=
202305010851 METAR KJFK 010851Z 27016G19KT 10SM FEW060 SCT110 10/06 A2917 RMK PRESRR SLP879 60000 T01000061 51050=
202305010751 METAR KJFK 010751Z 28021G27KT 10SM FEW025 BKN080 11/07 A2915 RMK PK WND 29034/0707 PRESRR SLP870 T01060072=
202305010731 SPECI KJFK 010731Z 29019G30KT 10SM SCT025 BKN080 11/07 A2912 RMK PK WND 29034/0707 PRESRR T01110072=
202305010651 METAR KJFK 010651Z 28019G27KT 10SM OVC015 12/10 A2908 RMK PK WND 27031/0632 RAE40 SLP847 P0000 T01220100=
202305010551 METAR KJFK 010551Z 25014KT 3SM -RA SCT003 OVC018 13/13 A2903 RMK SFC VIS 7 DZE21RAB21 SLP829 P0003 60010 T01330133 10150 20128 55010=
202305010451 METAR KJFK 010451Z 19007KT 1/4SM R04R/3500V4500FT -DZ BR OVC003 13/13 A2902 RMK SFC VIS 3/4 DZB44 SLP826 P0000 T01330133 401500100=
202305010433 SPECI KJFK 010433Z 17006KT 1/4SM R04R/3500V4000FT BR OVC002 13/13 A2902 RMK SFC VIS 1 T01330133=
202305010351 METAR KJFK 010351Z 13007KT 1 1/2SM BR OVC003 14/14 A2903 RMK SFC VIS 3 RAE0254B26E37 SLP831 P0001 T01390139=
202305010339 SPECI KJFK 010339Z 15009KT 1 1/2SM -RA BR OVC004 14/14 A2904 RMK SFC VIS 5 RAE0254B26E37 P0001 T01440144=
202305010251 METAR KJFK 010251Z 12008KT 10SM -RA OVC005 15/15 A2906 RMK RAB02 SLP839 P0003 60006 T01500150 58050=
202305010209 SPECI KJFK 010209Z 10013KT 8SM -RA OVC004 15/15 A2910 RMK RAB02 P0001 T01500150=
202305010151 METAR KJFK 010151Z 10013KT 10SM OVC005 15/15 A2910 RMK RAE19 PRESFR SLP855 P0003 T01500150=
202305010136 SPECI KJFK 010136Z 10008KT 10SM OVC009 15/15 A2912 RMK RAE19 P0003 T01500150=
202305010051 METAR KJFK 010051Z 08009KT 1 1/2SM -RA BR BKN002 OVC018 14/14 A2918 RMK SFC VIS 5 PRESFR SLP881 P0000 T01440144=
202304302351 METAR KJFK 302351Z 09008KT 1/2SM -RA BR OVC002 14/14 A2920 RMK SFC VIS 2 1/2 SLP889 P0003 60099 T01440144 10150 20133 58043=
202304302323 SPECI KJFK 302323Z 09010KT 1/2SM -RA BR OVC003 14/14 A2923 RMK SFC VIS P0001 T01440144=
202304302251 METAR KJFK 302251Z 13009KT 8SM -RA BKN004 BKN023 OVC030 14/14 A2925 RMK PK WND 18026/2153 SLP906 P0034 T01440144=
202304302235 SPECI KJFK 302235Z 13013G19KT 2 1/2SM -RA FG BKN004 BKN019 OVC030 15/15 A2927 RMK PK WND 18026/2153 P0032 T01500150=
202304302219 SPECI KJFK 302219Z 16012G15KT 3/4SM +RA BR OVC004 14/13 A2928 RMK PK WND 18026/2153 VIS 1/2 W P0011 T01390133=
202304302212 SPECI KJFK 302212Z 16005KT 2SM +RA BR OVC004 14/14 A2929 RMK PK WND 18026/2153 VIS 1/2 W P0001 T01390139=
202304302151 METAR KJFK 302151Z 20012G21KT 8SM -RA BKN004 OVC011 14/14 A2931 RMK PK WND 12030/2124 WSHFT 2117 VIS 1 1/2 W SLP925 P0035 T01440144=
202304302132 SPECI KJFK 302132Z 21012G30KT 1 1/2SM +RA BR BKN004 OVC011 14/14 A2932 RMK PK WND 12030/2124 WSHFT 2117 VIS 1/2 W P0026 T01390139=
202304302125 SPECI KJFK 302125Z 12020G30KT 1SM +RA BR OVC005 14/14 A2934 RMK PK WND 12030/2124 PRESRR P0018 T01440144=
202304302111 SPECI KJFK 302111Z 10015G22KT 2 1/2SM RA BR OVC005 14/14 A2930 RMK VIS 1 1/2 W PRESFR P0007 T01390139=
202304302051 METAR KJFK 302051Z 11015G24KT 4SM RA BR OVC005 14/13 A2933 RMK PK WND 11030/2027 VIS 2 1/2 W RAB04 SLP931 P0011 60027 T01390133 56047=
202304302021 SPECI KJFK 302021Z 10019G25KT 9SM -RA OVC005 14/14 A2935 RMK PK WND 08027/2008 RAB04 P0009 T01390139=
202304302010 SPECI KJFK 302010Z 10019G27KT 2SM +RA BR OVC005 14/14 A2935 RMK PK WND 08027/2008 RAB04 P0000 T01440139=
202304301951 METAR KJFK 301951Z 10017KT 10SM FEW003 OVC007 15/14 A2937 RMK RAE49 SLP946 P0013 T01500144=
202304301933 SPECI KJFK 301933Z 09013G22KT 4SM -RA BR BKN007 OVC013 14/14 A2938 RMK P0013 T01440144=
202304301859 SPECI KJFK 301859Z 09013KT 2SM +RA BR OVC005 14/14 A2941 RMK PRESFR P0001 T01440139=
202304301851 METAR KJFK 301851Z 08014KT 9SM -RA OVC005 14/14 A2942 RMK RAB00 SLP964 P0003 T01440139=
202304301751 METAR KJFK 301751Z 07014KT 10SM OVC008 14/13 A2947 RMK RAE45 SLP979 P0008 60030 T01390133 10139 20106 58054=
202304301651 METAR KJFK 301651Z 08006KT 2SM R04R/4000V6000FT RA BR BKN006 OVC012 13/13 A2953 RMK SFC VIS 3 SLP001 P0010 T01330133=
202304301551 METAR KJFK 301551Z 05010KT 2SM -RA BR BKN006 BKN031 OVC042 13/13 A2959 RMK SFC VIS 5 RAB18 SLP019 P0012 T01330133=
202304301532 SPECI KJFK 301532Z 03008KT 2SM R04R/3500V6000FT +RA BR OVC006 13/13 A2961 RMK SFC 2 1/2 VIS 1 3/4 W RAB18 P0005 T01280128=
202304301451 METAR KJFK 301451Z 08007KT 10SM OVC006 13/13 A2963 RMK SLP032 T01330128 56023=
202304301351 METAR KJFK 301351Z 08009KT 7SM OVC005 12/12 A2964 RMK SLP037 T01220117=
202304301337 SPECI KJFK 301337Z 06011KT 7SM OVC005 12/12 A2963 RMK T01220117=
202304301251 METAR KJFK 301251Z 05012KT 1/4SM R04R/P6000FT BR OVC003 12/11 A2965 RMK SFC VIS 5 SLP041 T01170111=
202304301151 METAR KJFK 301151Z 03011KT 1/4SM R04R/P6000FT BR OVC003 11/11 A2969 RMK SFC VIS 1 3/4 SLP055 70060 T01060106 10106 20100 58008=
202304301051 METAR KJFK 301051Z 03005KT 1/4SM R04R/5000V6000FT BR OVC003 11/11 A2973 RMK SFC VIS 1 1/2 SLP066 T01060106=
202304300951 METAR KJFK 300951Z 05007KT 1/4SM BR OVC002 10/10 A2971 RMK SFC VIS 2 SLP059 T01000100=
202304300851 METAR KJFK 300851Z 03006KT 1/4SM BR OVC002 11/11 A2972 RMK SVC VIS 1 1/2 SLP062 T01060106 58018=
202304300759 SPECI KJFK 300759Z 04008KT 1/4SM R04R/5000V5500FT BR OVC002 11/11 A2972 RMK SFC VIS 1 1/4 T01060106=
202304300751 METAR KJFK 300751Z 04008KT 1/2SM R04R/5500V6000FT BR OVC002 11/11 A2973 RMK SFC VIS 1 SLP06 T01060106=
202304300651 METAR KJFK 300651Z 02007KT 1/2SM BR OVC002 10/10 A2976 RMK SFC VIS 1 1/2 SLP076 T01000100=
202304300551 METAR KJFK 300551Z 01007KT 1/2SM BR OVC003 11/11 A2977 RMK SFC VIS 2 SLP080 60007 T01060106 10111 20106 56019=
202304300451 METAR KJFK 300451Z 04006KT 1SM BR OVC004 11/11 A2979 RMK SFC VIS 6 SLP086 T01060106 401110089=
202304300351 METAR KJFK 300351Z 04010KT 1SM BR OVC004 11/11 A2979 RMK SFC VIS 4 SLP086 T01060106=
202304300251 METAR KJFK 300251Z 01005KT 2SM BR OVC005 11/11 A2983 RMK DZE47 SLP099 P0002 60007 T01110111 58003=
202304300151 METAR KJFK 300151Z 05010KT 2SM -DZ BR OVC005 11/11 A2984 RMK RAE44DZB44 SLP105 P0002 T01110111=
202304300051 METAR KJFK 300051Z 07008KT 2SM -RA BR OVC005 11/11 A2985 RMK SLP107 P0003 T01110111=
202304292351 METAR KJFK 292351Z 08012KT 2SM -RA BR OVC006 11/11 A2983 RMK SFC VIS 3 SLP102 P0001 60014 T01110106 10111 20111 51005=
202304292251 METAR KJFK 292251Z 08011G22KT 5SM -RA BR OVC006 11/11 A2983 RMK SLP102 P0003 T01110106=
202304292151 METAR KJFK 292151Z 08016KT 6SM -RA BR OVC007 11/11 A2983 RMK PK WND 09026/2102 SLP101 P0005 T01110106=
202304292051 METAR KJFK 292051Z 09021G28KT 6SM -RA BR OVC008 11/11 A2982 RMK PK WND 10029/2041 SLP097 P0000 60005 T01110106 58015=
202304291951 METAR KJFK 291951Z 09017G27KT 7SM -RA OVC008 11/11 A2983 RMK PK WND 10030/1902 SLP101 P0003 T01110106=
202304291851 METAR KJFK 291851Z 09019G29KT 4SM -RA BR OVC009 11/11 A2985 RMK PK WND 09030/1814 SLP109 P0002 T01110106=
202304291751 METAR KJFK 291751Z 09023G30KT 3SM -RA BR OVC009 11/11 A2986 RMK PK WND 09030/1751 VIS 1 1/2 W SLP113 P0004 60039 T01110106 10111 20100 58012=
202304291651 METAR KJFK 291651Z 09021G31KT 2SM RA BR BKN009 OVC017 11/11 A2988 RMK PK WND 09031/1645 SLP116 P0008 T01110106=
202304291612 SPECI KJFK 291612Z 09021G31KT 1 3/4SM -RA BR BKN009 OVC022 11/11 A2989 RMK PK WND 11031/1611 P0003 T01110106=
202304291557 SPECI KJFK 291557Z 09019G32KT 2 1/2SM -RA BR BKN009 OVC021 11/11 A2989 RMK PK WND 10027/1553 P0001 T01110100=
202304291551 METAR KJFK 291551Z 09021G33KT 3SM -RA BR BKN011 BKN019 OVC024 11/10 A2989 RMK PK WND 10033/1517 SLP122 P0004 T01110100=
202304291523 SPECI KJFK 291523Z 09020G33KT 2SM RA BR BKN008 BKN013 OVC022 11/11 A2989 RMK PK WND 10033/1517 P0003 T01110106=
202304291451 METAR KJFK 291451Z 10021G36KT 3SM -RA BR BKN010 OVC014 11/10 A2990 RMK PK WND 10036/1448 SLP125 P0006 60023 T01060100 58002=
202304291428 SPECI KJFK 291428Z 09021G31KT 2 1/2SM RA BR OVC011 11/10 A2990 RMK PK WND 09033/1409 VIS 1 1/2 W P0003 T01060100=
202304291351 METAR KJFK 291351Z 09019G30KT 4SM -RA BR BKN013 OVC020 11/010 A2990 RMK PK WND 10030/1335 SLP125 P0007 T01060100=
202304291302 SPECI KJFK 291302Z 09020G29KT 2SM RA BR SCT009 BKN013 OVC027 11/09 A2991 RMK PK WND 08029/1254 P0003 T01060094=
202304291251 METAR KJFK 291251Z 09021G29KT 2SM RA BR BKN010 OVC018 11/09 A2991 RMK PK WND 09029/1249 SLP128 P0010 T01060094=
202304291207 SPECI KJFK 291207Z 09018G29KT 2 1/2SM RA BR FEW010 BKN030 OVC040 10/09 A2991 RMK PK WND 10029/1157 CIG 010 W P0003 T01000094=
202304291151 METAR KJFK 291151Z 09017G28KT 5SM RA BR SCT010 BKN028 OVC047 10/09 A2991 RMK PK WND 09029/1139 CIG 015 W SLP127 P0027 60099 70151 T01000094 10100 20089 58004=
202304291051 METAR KJFK 291051Z 08020G27KT 4SM +RA BR FEW009 BKN012 OVC044 10/09 A2993 RMK PK WND 08027/1050 SLP126 P0026 T01000089=
202304291027 SPECI KJFK 291027Z COR 07016G25KT 3SM +RA BR BKN012 OVC025 10/09 A2994 RMK P0012 T01000089=
202304291027 METAR KJFK 291027Z 07016G25KT 3SM +RA BR BKN012 OVC025 10/09 A2994 RMK P0012 T01000089=
202304290951 METAR KJFK 290951Z 06017G21KT 6SM RA BR BKN012 BKN022 OVC045 10/09 A2993 RMK SLP135 P0010 T01000089=
202304290851 METAR KJFK 290851Z 07015G22KT 5SM RA BR BKN010 BKN016 OVC022 09/08 A2992 RMK PK WND 07026/0752 SLP131 P0007 60035 T00940083 56018=
202304290835 SPECI KJFK 290835Z 07016G22KT 5SM RA BR BKN012 BKN016 OVC024 09/08 A2993 RMK PK WND 07026/0752 P0006 T00940083=
202304290810 METAR KJFK 290810Z 07017G23KT 6SM RA BR BKN012 BKN022 OVC048 09/08 A2993 RMK PK WND 07026/0752 P0004 T00940083=
202304290751 METAR KJFK 290751Z 07019G26KT 6SM RA BR SCT010 BKN017 OVC055 09/08 A2994 RMK PK WND 06026/0743 SLP137 P0015 T00890083=
202304290651 METAR KJFK 290651Z 07018KT 3SM RA BR FEW012 BKN023 OVC030 09/08 A2996 RMK SLP144 P0013 T00890083=
202304290551 METAR KJFK 290551Z 07010KT 3SM RA BR FEW019 OVC031 09/08 A3001 RMK SLP162 P0016 60046 T00890078 10094 20089 58010=
202304290451 METAR KJFK 290451Z 07011KT 5SM RA BR OVC026 09/08 A3002 RMK SLP166 P0007 T00890078=
202304290351 METAR KJFK 290351Z 07014KT 9SM -RA OVC036 09/07 A3003 RMK SLP170 P0005 T00890072=
202304290251 METAR KJFK 290251Z 08010KT 7SM -RA BKN038 OVC055 09/08 A3006 RMK SLP188 P0005 T00940078=
202304290151 METAR KJFK 290151Z 08010KT 8SM RA FEW020 BKN050 OVC070 09/08 A3009 RMK SLP188 P0008 T00940078=
202304290051 METAR KJFK 290051Z 07009KT 8SM RA BKN055 OVC075 09/08 A3010 RMK SLP192 P0005 T00940083=
202304282351 METAR KJFK 282351Z 06010KT 10SM -RA FEW025 OVC055 09/08 A3009 RMK SLP190 P0005 60005 T00940078 10117 20094 58003=
202304282251 METAR KJFK 282251Z 08014G20KT 10SM -RA FEW034 BKN070 OVC085 11/07 A3010 RMK RAE2152B36 SLP193 P0000 T01060067=
202304282151 METAR KJFK 282151Z 08013G20KT 10SM -RA FEW034 BKN070 OVC095 12/05 A3010 RMK RAB27 SLP193 P0000 T01170050=
202304282051 METAR KJFK 282051Z 08013KT 10SM FEW025 SCT060 OVC110 12/04 A3010 RMK SLP192 T01170039 57024=
202304281951 METAR KJFK 281951Z 07012G19KT 10SM FEW025 OVC100 11/04 A3012 RMK SLP199 T01110044=
202304281851 METAR KJFK 281851Z 08013G21KT 10SM FEW025 BKN110 OVC140 11/04 A3015 RMK SLP210 T0110044=
202304281751 METAR KJFK 281751Z 09014G20KT 10SM FEW025 OVC140 11/04 A3017 RMK SLP217 T01110044 10122 20100 58003=
202304281651 METAR KJFK 281651Z 10016G21KT 10SM FEW027 OVC140 12/04 A3018 RMK SLP220 T01170039=
202304281551 METAR KJFK 281551Z 10014G27KT 10SM OVC150 12/02 A3019 RMK PK WND 10027/1547 SLP223 T01170022=
202304281451 METAR KJFK 281451Z 09010G20KT 10SM FEW130 OVC170 12/04 A3018 RMK SLP220 T01220039 55003=
202304281351 METAR KJFK 281351Z 09014G21KT 10SM FEW025 FEW150 OVC190 12/04 A3017 RMK SLP216 T01170039=
202304281251 METAR KJFK 281251Z 08012KT 10SM FEW015 FEW160 OVC210 11/06 A3018 RMK SLP219 T01060061=
202304281151 METAR KJFK 281151Z 06010KT 10SM FEW012 FEW160 OVC230 10/08 A3019 RMK SLP223 T01000078 10100 20078 51003=
202304281051 METAR KJFK 281051Z 05007KT 10SM FEW010 BKN220 08/07 A3019 RMK SLP222 T00830072=
202304280951 METAR KJFK 280951Z 05004KT 9SM FEW010 BKN250 08/07 A3019 RMK SLP221 T00780072=
202304280851 METAR KJFK 280851Z 05007KT 9SM SCT010 OVC250 08/08 A3018 RMK AO2 SLP220 T00830078 58005=
202304280751 METAR KJFK 280751Z 08006KT 10SM SCT011 OVC240 09/08 A3019 RMK AO2 SLP224 T00890078=
202304280651 METAR KJFK 280651Z 04004KT 10SM BKN009 BKN250 09/08 A3019 RMK AO2 SLP222 T00890078=
202304280551 METAR KJFK 280551Z 05004KT 10SM BKN008 OVC250 08/08 A3020 RMK AO2 SLP225 T00830078 10106 20083 58008=
202304280451 METAR KJFK 280451Z 09004KT 10SM SCT008 BKN250 09/08 A3022 RMK AO2 SLP232 SCT008 V BKN T00890078 401390089=
202304280403 SPECI KJFK 280403Z 08004KT 10SM FEW008 BKN250 09/08 A3021 RMK AO2 T00890078=
202304280351 METAR KJFK 280351Z 10003KT 10SM FEW011 BKN250 09/08 A3022 RMK AO2 SLP231 T00890078=
202304280251 METAR KJFK 280251Z 13005KT 10SM SCT011 BKN250 09/08 A3022 RMK AO2 SLP233 T00940083 53003=
202304280243 SPECI KJFK 280243Z 12005KT 10SM SCT011 BKN250 09/08 A3022 RMK AO2 T00940083=
202304280151 METAR KJFK 280151Z 12006KT 10SM BKN012 BKN036 10/08 A3022 RMK AO2 SLP232 BKN012 V SCT T01000083=
202304280147 SPECI KJFK 280147Z 11006KT 10SM BKN012 BKN036 10/08 A3021 RMK AO2 BKN012 V SCT=
202304280051 METAR KJFK 280051Z 12007KT 10SM SCT012 SCT036 BKN250 10/08 A3021 RMK AO2 SLP230 SCT012 V BKN T01000083=
202304272351 METAR KJFK 272351Z 11007KT 10SM FEW017 FEW036 BKN250 11/07 A3020 RMK AO2 SLP225 T01060072 10128 20106 58003=
202304272251 METAR KJFK 272251Z 14008KT 10SM FEW017 BKN036 BKN048 BKN250 11/08 A3021 RMK AO2 SLP228 T01110078=
202304272151 METAR KJFK 272151Z 13006KT 10SM FEW017 BKN037 BKN050 BKN250 12/08 A3021 RMK AO2 SLP228 T01170078=
202304272051 METAR KJFK 272051Z 14010KT 10SM SCT020 BKN040 BKN055 12/08 A3021 RMK AO2 SLP228 T01220078 58005=
202304271951 METAR KJFK 271951Z 17008KT 10SM SCT021 BKN050 BKN075 13/08 A3021 RMK AO2 SLP230 T01280078=
202304271908 SPECI KJFK 271908Z 15008KT 10SM SCT020 BKN050 BKN250 13/08 A3022 RMK AO2 T01280078=
202304271851 METAR KJFK 271851Z 17010KT 10SM SCT019 BKN027 BKN070 BKN250 12/08 A3022 RMK AO2 SLP233 T01220078=
202304271845 SPECI KJFK 271845Z 15012KT 10SM SCT019 BKN027 BKN070 BKN250 12/08 A3022 RMK AO2=
202304271751 METAR KJFK 271751Z 14010KT 10SM FEW025 BKN044 BKN160 BKN250 13/08 A3023 RMK AO2 SLP237 T01280078 10139 20100 56003=
202304271651 METAR KJFK 271651Z 17008KT 10SM FEW024 SCT035 BKN050 OVC160 13/07 A3023 RMK AO2 SLP238 T01280072=
202304271651 SPECI KJFK 271651Z 17008KT 10SM FEW024 SCT035 BKN050 OVC160 13/07 A3023 RMK AO2 SLP238 T01280072=
202304271551 METAR KJFK 271551Z 14007KT 10SM SCT020 BKN049 BKN085 BKN160 13/08 A3023 RMK AO2 SLP238 T01280078=
202304271451 METAR KJFK 271451Z 17006KT 10SM SCT032 BKN050 OVC085 12/08 A3024 RMK AO2 SLP241 T01170078 53005=
202304271351 METAR KJFK 271351Z 15005KT 10SM FEW025 BKN050 OVC085 11/07 A3023 RMK AO2 SLP237 T01110072=
202304271251 METAR KJFK 271251Z 14006KT 10SM FEW022 SCT039 BKN060 BKN250 11/07 A3023 RMK AO2 SLP236 T01060067=
202304271151 METAR KJFK 271151Z 15005KT 10SM FEW017 BKN046 BKN080 BKN250 10/07 A3023 RMK AO2 SLP236 60000 T01000072 10106 20094 53011=
202304271051 METAR KJFK 271051Z 20005KT 10SM FEW009 SCT023 OVC055 10/06 A3022 RMK AO2 RAE03 SLP233 P0000 T01000061=
202304270951 METAR KJFK 270951Z 17006KT 10SM -RA FEW009 OVC065 10/07 A3020 RMK AO2 RAB0859 SLP225 P0000 T01000067=
202304270937 SPECI KJFK 270937Z 17006KT 10SM -RA FEW009 OVC070 10/07 A3019 RMK AO2 RAB0859 P0000 T01000067=
202304270851 METAR KJFK 270851Z 19010KT 10SM BKN009 OVC065 11/09 A3020 RMK AO2 RAE26 SLP225 P0000 60000 T01060094 50003=
202304270845 SPECI KJFK 270845Z 17006KT 10SM BKN009 OVC065 11/09 A3019 RMK AO2 RAE26 P0000=
202304270751 METAR KJFK 270751Z 17005KT 10SM -RA SCT008 OVC090 10/09 A3020 RMK AO2 RAB43 SLP225 P0000 T01000089=
202304270651 METAR KJFK 270651Z 11003KT 10SM FEW008 SCT100 09/09 A3019 RMK AO2 SLP223 T00940089=
202304270551 METAR KJFK 270551Z 13006KT 10SM FEW008 BKN100 09/09 A3019 RMK AO2 SLP222 T00940089 10106 20094 58009=
202304270451 METAR KJFK 270451Z 14006KT 10SM FEW008 BKN110 10/09 A3021 RMK AO2 SLP230 T01000089 401330056=
202304270351 METAR KJFK 270351Z 15006KT 10SM FEW008 SCT100 BKN160 10/09 A3021 RMK AO2 SLP229 T01000089=
202304270251 METAR KJFK 270251Z 14007KT 10SM FEW008 SCT090 10/09 A3022 RMK AO2 SLP231 T01000089 58000=
202304270244 SPECI KJFK 270244Z 14008KT 10SM SCT008 SCT090 10/09 A3021 RMK AO2 T01000089=
202304270151 METAR KJFK 270151Z 15007KT 10SM BKN010 BKN090 11/09 A3022 RMK AO2 SLP233 T01060089=
202304270051 METAR KJFK 270051Z 16009KT 10SM BKN011 BKN110 10/08 A3022 RMK AO2 SLP233 T01000083=
202304270004 SPECI KJFK 270004Z 13008KT 10SM BKN010 BKN110 10/08 A3022 RMK AO2 T01000083=
202304262351 METAR KJFK 262351Z 14010KT 10SM SCT010 BKN110 BKN130 10/08 A3022 RMK AO2 SLP232 SCT V BKN T01000078 10128 20100 53006=
202304262251 METAR KJFK 262251Z 15011KT 10SM SCT012 SCT080 11/08 A3020 RMK AO2 SLP226 T01060078=
202304262151 METAR KJFK 262151Z 12012KT 10SM FEW014 FEW040 11/08 A3020 RMK AO2 SLP225 T01110078=
202304262051 METAR KJFK 262051Z 13010KT 10SM FEW015 FEW040 SCT085 SCT250 12/08 A3020 RMK AO2 SLP226 T01170078 58011=
202304261951 METAR KJFK 261951Z 15012KT 10SM FEW017 FEW040 BKN085 BKN250 12/08 A3021 RMK AO2 SLP229 T01220078=
202304261851 METAR KJFK 261851Z 14009KT 10SM FEW020 FEW040 SCT080 BKN250 12/07 A3023 RMK AO2 SLP235 T01220072=