202306251851 METAR KJFK 251851Z 16007KT 10SM FEW085 BKN250 26/21 A2984 RMK AO2 LTG DSNT NW SLP105 CB DSNT W-NW T02560206 $=
202306251751 METAR KJFK 251751Z 16010KT 10SM SCT040 SCT090 BKN150 BKN250 26/21 A2985 RMK AO2 LTG DSNT W AND NW SLP107 CB DSNT SW-NW T02560206 10283 20217 53003 $=
202306251651 SPECI KJFK 251651Z 16012KT 10SM SCT035 SCT090 BKN150 BKN250 26/21 A2983 RMK AO2 LTG DSNT N AND NE AND SW SLP102 CB DSNT NE AND DSNT SW-W T02610211 $=
202306251651 METAR KJFK 251651Z 16012KT 10SM SCT035 SCT090 BKN150 BKN250 26/21 A2983 RMK AO2 LTG DSNT N AND NE AND SW SLP102 CB DSNT NE AND DSNT SW-W T02610211 $=
202306251551 METAR KJFK 251551Z 16012KT 10SM SCT035CB SCT150 SCT250 26/21 A2984 RMK AO2 TSE37 SLP103 CB NW MOV NE CB DSNT S T02610206 $=
202306251451 METAR KJFK 251451Z 15006KT 10SM FEW030 FEW150 SCT250 28/21 A2984 RMK AO2 SLP103 T02780211 57003 $=
202306251351 METAR KJFK 251351Z VRB03KT 10SM FEW009 FEW180 SCT250 26/21 A2984 RMK AO2 SLP105 T02610211 $=
202306251254 SPECI KJFK 251254Z VRB03KT 7SM FEW005 FEW180 SCT250 25/21 A2984 RMK AO2 T02500211 $=
202306251251 METAR KJFK 251251Z 02004KT 2SM FEW005 FEW180 SCT250 24/21 A2984 RMK AO2 SFC VIS 8 SLP106 T02440206 $=
202306251151 METAR KJFK 251151Z 00000KT 2SM BR FEW005 FEW200 SCT250 22/21 A2985 RMK AO2 SFC VIS 5 SLP107 T02170211 10217 20183 53013 $=
202306251051 METAR KJFK 251051Z 00000KT 2SM BR SCT005 SCT200 BKN250 20/20 A2983 RMK AO2 SFC VIS 4 SLP102 T02000200 $=
202306251008 SPECI KJFK 251008Z 00000KT 1/2SM R04R/P6000FT BR SCT004 BKN200 BKN250 19/19 A2982 RMK AO2 SFC VIS 4 T01890189 $=
202306250951 METAR KJFK 250951Z 00000KT 1/2SM R04R/P6000FT BKN004 19/19 A2982 RMK AO2 SFC VIS 5 SLP097 T01890189 $=
202306250929 SPECI KJFK 250929Z 00000KT 1/2SM R04R/P6000FT FEW003 FEW015 18/18 A2982 RMK AO2 SFC VIS 5 T01830183 $=
202306250851 METAR KJFK 250851Z 08003KT 5SM FEW003 FEW015 18/18 A2981 RMK AO2 SLP093 T01830183 56004 $=
202306250751 METAR KJFK 250751Z 12004KT 2SM BR FEW003 FEW015 18/18 A2981 RMK AO2 SLP093 T01830183 $=
202306250711 SPECI KJFK 250711Z 00000KT 1 3/4SM BR SCT003 18/18 A2982 RMK AO2 T01830183 $=
202306250651 METAR KJFK 250651Z 00000KT 5SM BR SCT002 19/19 A2982 RMK AO2 VIS 1 W SLP097 T01890189 $=
202306250612 METAR KJFK COR 250612Z COR 16003KT 1/2SM R04R/3000VP6000FT FG OVC002 19/19 A2983 RMK AO2 VIS 1/4 W T01940194 $=
202306250612 SPECI KJFK 250612Z 16003KT 2SM R04R/3000VP6000FT BR OVC002 19/19 A2983 RMK AO2 VIS 1/4 W T01940194 $=
202306250551 METAR KJFK 250551Z 19003KT 1/2SM R04R/2200V3000FT FG VV002 19/19 A2983 RMK AO2 SLP101 T01890189 10217 20189 56000 $=
202306250535 SPECI KJFK 250535Z 16004KT 1/2SM R04R/1800V3000FT FG VV002 19/19 A2983 RMK AO2 T01940194 $=
202306250451 METAR KJFK 250451Z 11003KT 1 3/4SM R04R/3500V5500FT BR BKN002 19/19 A2983 RMK AO2 SLP102 T01940194 402440189 $=
202306250433 SPECI KJFK 250433Z 14003KT 1SM R04R/3500V5000FT BR VV002 19/19 A2983 RMK AO2 T01890189 $=
202306250408 SPECI KJFK 250408Z 17004KT 3/4SM R04R/2800V3500FT BR VV002 19/19 A2983 RMK AO2 T01940194 $=
202306250351 METAR KJFK 250351Z 17006KT 1 1/4SM R04R/2400VP6000FT BR OVC002 19/19 A2983 RMK AO2 SLP099 T01940194 $=
202306250341 SPECI KJFK 250341Z 14005KT 2SM R04R/3500VP6000FT BR BKN002 BKN250 19/19 A2983 RMK AO2 T01940194 $=
202306250251 METAR KJFK 250251Z 17004KT 4SM BR BKN002 19/19 A2983 RMK AO2 SLP101 T01940194 50002 $=
202306250229 SPECI KJFK 250229Z 20004KT 4SM BR OVC002 19/19 A2984 RMK AO2 T01940194 $=
202306250217 SPECI KJFK 250217Z 19008KT 2SM R04R/5000VP6000FT BR OVC003 19/19 A2984 RMK AO2 T01940194 $=
202306250157 SPECI KJFK 250157Z 18009KT 7SM BKN004 BKN250 20/19 A2983 RMK AO2 T02000194 $=
202306250151 METAR KJFK 250151Z 18008KT 8SM SCT004 BKN090 BKN250 20/20 A2983 RMK AO2 SLP102 T02000200 $=
202306250137 SPECI KJFK 250137Z 16007KT 9SM FEW004 SCT035 SCT085 BKN250 20/20 A2983 RMK AO2 T02000200 $=
202306250051 METAR KJFK 250051Z 21005KT 9SM SCT035 SCT085 BKN250 21/20 A2983 RMK AO2 SLP101 T02060200 $=
202306242351 METAR KJFK 242351Z 19011KT 10SM FEW040 SCT065 BKN250 22/20 A2983 RMK AO2 SLP100 60000 T02170200 10244 20200 55002 $=
202306242251 METAR KJFK 242251Z 18011KT 10SM FEW008 FEW030 SCT060 BKN250 22/19 A2982 RMK AO2 SLP096 T02170194 $=
202306242151 METAR KJFK 242151Z 15007KT 10SM SCT006 SCT030 BKN060 BKN250 21/19 A2981 RMK AO2 SLP095 T02110194 $=
202306242127 SPECI KJFK 242127Z 18007KT 10SM FEW005 BKN031 BKN250 21/19 A2982 RMK AO2 T02060194 $=
202306242051 METAR KJFK 242051Z 18009KT 10SM SCT005 BKN028 BKN250 21/19 A2983 RMK AO2 LTG DSNT SW SLP102 60000 T02060194 56001 $=
202306242045 SPECI KJFK 242045Z 19007KT 10SM BKN005 OVC028 21/19 A2983 RMK AO2 LTG DSNT SW $=
202306242020 SPECI KJFK 242020Z 18010KT 2SM BKN005 OVC024 21/19 A2984 RMK AO2 SFC VIS 8 LTG DSNT SW VCSH SE-S T02060189 $=
202306242004 SPECI KJFK 242004Z 17008KT 2SM SCT005 BKN010 BKN024 21/19 A2983 RMK AO2 SFC VIS 7 LTG DSNT S AND SW VCSH S T02110194 $=
202306241951 METAR KJFK 241951Z 18009KT 7SM SCT005 BKN010 BKN024 23/20 A2983 RMK AO2 LTG DSNT S AND SW RAB28E46 SLP101 P0000 T02280200 $=
202306241930 SPECI KJFK 241930Z 17008KT 10SM -RA FEW006 BKN013 BKN250 23/20 A2983 RMK AO2 RAB28 P0000 T02330200 $=
202306241851 METAR KJFK 241851Z 17008KT 10SM FEW006 SCT013 BKN070 BKN250 24/20 A2984 RMK AO2 SLP103 T02390200 $=
202306241851 SPECI KJFK 241851Z 17008KT 10SM FEW006 SCT013 BKN070 BKN250 24/20 A2984 RMK AO2 SLP103 T02390200 $=
202306241841 SPECI KJFK 241841Z 19007KT 10SM SCT006 BKN013 23/20 A2984 RMK AO2 T02330200 $=
202306241751 METAR KJFK 241751Z 17010KT 10SM OVC006 22/20 A2985 RMK AO2 CIG 002 W SLP109 60000 T02220200 10228 20194 58007 $=
202306241651 METAR KJFK 241651Z 18009KT 10SM BKN006 OVC025 22/19 A2986 RMK AO2 SLP112 T02170194 $=
202306241634 SPECI KJFK 241634Z 16009KT 10SM BKN006 OVC025 22/20 A2987 RMK AO2 T02220200 $=
202306241551 METAR KJFK 241551Z 18009KT 10SM FEW003 FEW012 BKN023 23/21 A2987 RMK AO2 SLP116 T02280206 $=
202306241451 METAR KJFK 241451Z 19008KT 10SM FEW003 BKN012 BKN018 21/21 A2988 RMK AO2 SLP117 60000 T02110206 58004 $=
202306241438 SPECI KJFK 241438Z 18007KT 10SM SCT003 OVC011 21/21 A2988 RMK AO2 CIG 004 W T02110206 $=
202306241351 METAR KJFK 241351Z 19007KT 10SM OVC004 21/20 A2988 RMK AO2 SLP119 T02060200 $=
202306241251 METAR KJFK 241251Z 17005KT 10SM OVC003 20/20 A2989 RMK AO2 RAE17 SLP120 P0000 T02000200 $=
202306241151 METAR KJFK 241151Z 20006KT 6SM -RA BR OVC003 19/19 A2989 RMK AO2 VIS 2 1/2 W RAE1059B45 SLP121 P0000 60003 7//// T01940194 10194 20189 53001 $=
202306241051 METAR KJFK 241051Z 00000KT 5SM -RA BR OVC004 19/19 A2989 RMK AO2 SLP120 P0000 T01940194 $=
202306240951 METAR KJFK 240951Z 17004KT 5SM -RA BR BKN004 OVC080 19/19 A2989 RMK AO2 SLP120 P0000 T01890189 $=
202306240920 SPECI KJFK 240920Z 18005KT 3SM -RA BR OVC003 19/19 A2989 RMK AO2 VIS 2 W P0000 T01890189 $=
202306240914 SPECI KJFK 240914Z 18005KT 2SM -RA BR OVC003 19/19 A2988 RMK AO2 P0000 T01890189 $=
202306240851 METAR KJFK 240851Z 19007KT 1 1/4SM R04R/4500V6000FT -RA BR OVC003 19/19 A2988 RMK AO2 RAB21 SLP119 P0000 60003 T01890189 55011 $=
202306240751 METAR KJFK 240751Z 18009KT 1/2SM R04R/2600V3000FT FG VV002 19/19 A2988 RMK AO2 SLP119 T01890189 $=
202306240732 SPECI KJFK 240732Z 18009KT 3/4SM R04R/3000V4000FT BR VV002 19/19 A2989 RMK AO2 T01940194 PNO $=
202306240722 SPECI KJFK 240722Z 18008KT 1 1/4SM R04R/4500VP6000FT BR OVC002 19/19 A2989 RMK AO2 T01940194 $=
202306240713 SPECI KJFK 240713Z 18007KT 2 1/2SM BR OVC003 19/19 A2989 RMK AO2 VIS 1 W T01940194 $=
202306240704 SPECI KJFK 240704Z 18008KT 3SM BR OVC003 19/19 A2989 RMK AO2 T01940194 $=
202306240651 METAR KJFK 240651Z 17007KT 5SM BR OVC005 19/19 A2989 RMK AO2 RAB00E45 SLP122 P0003 T01940194 $=
202306240551 METAR KJFK 240551Z 14007KT 7SM OVC008 19/19 A2992 RMK AO2 SLP130 T01940189 10206 20189 58010 $=
202306240451 METAR KJFK 240451Z 13004KT 8SM BKN007 BKN080 19/19 A2994 RMK AO2 SLP137 T01940189 402110172 $=
202306240447 SPECI KJFK 240447Z 13005KT 8SM BKN007 BKN080 19/19 A2994 RMK AO2 $=
202306240425 SPECI KJFK 240425Z 11005KT 9SM SCT005 BKN015 BKN080 19/19 A2994 RMK AO2 T01940194 $=
202306240351 METAR KJFK 240351Z 14007KT 9SM FEW003 BKN046 BKN060 19/19 A2995 RMK AO2 SLP140 T01940194 $=
202306240319 SPECI KJFK 240319Z 13007KT 9SM OVC003 19/19 A2995 RMK AO2 T01940194 $=
202306240251 METAR KJFK 240251Z 12006KT 10SM BKN006 BKN048 19/19 A2995 RMK AO2 SLP143 T01890189 56002 $=
202306240151 METAR KJFK 240151Z 12006KT 10SM SCT006 BKN044 BKN160 OVC250 19/18 A2996 RMK AO2 SLP144 T01940183 $=
202306240051 METAR KJFK 240051Z 11007KT 10SM SCT006 BKN160 OVC250 19/19 A2995 RMK AO2 SLP142 T01940189 $=
202306232351 METAR KJFK 232351Z 13007KT 10SM SCT008 SCT075 BKN140 BKN250 21/19 A2996 RMK AO2 SLP144 60000 T02060189 10211 20189 56011 $=
202306232346 SPECI KJFK 232346Z 12006KT 10SM SCT008 SCT075 BKN140 BKN250 21/19 A2996 RMK AO2 $=
202306232251 METAR KJFK 232251Z 12007KT 10SM BKN008 BKN075 BKN250 21/19 A2997 RMK AO2 SLP148 T02110194=
202306232151 METAR KJFK 232151Z 12007KT 10SM OVC005 20/19 A2998 RMK AO2 SLP151 T02000194=
202306232144 SPECI KJFK 232144Z 10008KT 10SM OVC006 20/19 A2998 RMK AO2 T02000194=
202306232051 METAR KJFK 232051Z 13007KT 2 1/2SM OVC006 21/19 A2999 RMK AO2 SFC VIS 9 SLP155 60000 T02060194 56013=
202306232012 SPECI KJFK 232012Z 11009KT 2 1/2SM OVC005 20/19 A3000 RMK AO2 SFC VIS 10 T02000189 $=
202306231951 METAR KJFK 231951Z 11009KT 2 1/2SM OVC004 19/18 A3000 RMK AO2 SFC VIS 8 SLP158 T01940183 $=
202306231915 SPECI KJFK 231915Z 12010KT 2 1/2SM BR OVC004 19/18 A3001 RMK AO2 SFC VIS 5 T01890183 $=
202306231851 SPECI KJFK 231851Z 11011KT 8SM OVC005 19/18 A3001 RMK AO2 DZE46 SLP161 P0000 T01940183 $=
202306231851 METAR KJFK 231851Z 11011KT 8SM OVC005 19/18 A3001 RMK AO2 DZE46 SLP161 P0000 T01940183 $=
202306231751 METAR KJFK 231751Z 12012KT 6SM -DZ BR OVC007 19/18 A3003 RMK AO2 DZB50 SLP167 60003 T01940178 10206 20178 56017 $=
202306231651 METAR KJFK 231651Z 09008KT 10SM OVC007 19/18 A3003 RMK AO2 RAE1554 SLP169 P0000 T01890178 $=
202306231551 METAR KJFK 231551Z 07011KT 10SM -RA BKN007 OVC013 18/18 A3005 RMK AO2 RAE13B38 SLP176 P0000 T01830178=
202306231451 METAR KJFK 231451Z 10012KT 7SM -RA BKN010 OVC018 18/17 A3008 RMK AO2 RAB12 SLP184 CIG 008V012 P0003 60003 T01780167 56006 $=
202306231351 METAR KJFK 231351Z 11011KT 10SM OVC013 19/16 A3008 RMK AO2 SLP185 CIG 010V016 T01940161 $=
202306231336 SPECI KJFK 231336Z 11011KT 10SM OVC011 20/17 A3008 RMK AO2 CIG 009V013 T02000167 $=
202306231251 METAR KJFK 231251Z 11008KT 10SM OVC008 19/17 A3009 RMK AO2 SLP188 T01890167 $=
202306231151 METAR KJFK 231151Z 13010KT 10SM OVC008 18/17 A3009 RMK AO2 SLP190 T01780167 10178 20172 53008 $=
202306231051 METAR KJFK 231051Z 12005KT 10SM OVC007 18/17 A3008 RMK AO2 SLP184 T01780167 $=
202306230951 METAR KJFK 230951Z 10004KT 10SM OVC007 17/16 A3007 RMK AO2 SLP182 T01720161 $=
202306230851 METAR KJFK 230851Z 12005KT 10SM OVC006 17/16 A3007 RMK AO2 SLP182 T01720161 58006 $=
202306230751 METAR KJFK 230751Z 10008KT 10SM OVC006 17/16 A3008 RMK AO2 SLP184 T01720161 $=
202306230651 METAR KJFK 230651Z 12007KT 10SM OVC006 17/16 A3008 RMK AO2 SLP187 T01720161 $=
202306230551 METAR KJFK 230551Z 10006KT 10SM SCT007 BKN029 OVC130 17/16 A3009 RMK AO2 SLP188 T01720161 10206 20172 58005 $=
202306230451 METAR KJFK 230451Z 13006KT 10SM FEW006 BKN028 OVC049 18/17 A3010 RMK AO2 SLP193 T01780167 402280144 $=
202306230442 SPECI KJFK 230442Z 13006KT 10SM FEW006 BKN029 OVC049 18/17 A3011 RMK AO2 T01780167 $=
202306230351 METAR KJFK 230351Z 13006KT 10SM FEW008 OVC031 18/17 A3011 RMK AO2 SLP194 T01780167 $=
202306230343 SPECI KJFK 230343Z 13005KT 10SM FEW008 OVC031 18/17 A3011 RMK AO2 T01780167 $=
202306230251 METAR KJFK 230251Z 15006KT 10SM SCT033 BKN250 18/17 A3010 RMK AO2 SLP193 T01780167 53002 $=
202306230151 METAR KJFK 230151Z 07006KT 10SM FEW024 OVC034 21/16 A3010 RMK AO2 SLP192 T02060161 $=
202306230051 SPECI KJFK 230051Z 09004KT 10SM FEW024 BKN036 BKN250 20/17 A3010 RMK AO2 SLP191 T02000167 $=
202306230051 METAR KJFK 230051Z 09004KT 10SM FEW024 BKN036 BKN250 20/17 A3010 RMK AO2 SLP191 T02000167 $=
202306230029 SPECI KJFK 230029Z 12006KT 10SM FEW024 BKN036 BKN250 20/17 A3010 RMK AO2 T02000167 $=
202306222351 METAR KJFK 222351Z 12006KT 10SM OVC028 21/17 A3009 RMK AO2 SLP190 T02060167 10228 20206 55006 $=
202306222251 METAR KJFK 222251Z 08010KT 10SM BKN029 BKN250 22/16 A3009 RMK AO2 SLP189 T02220156 $=
202306222151 METAR KJFK 222151Z 08012KT 10SM BKN029 BKN250 22/15 A3009 RMK AO2 SLP190 T02220150 $=
202306222051 METAR KJFK 222051Z 04010KT 10SM OVC029 22/14 A3011 RMK AO2 SLP196 T02170144 56014 $=
202306221951 METAR KJFK 221951Z 08009KT 10SM OVC029 22/14 A3012 RMK AO2 SLP200 T02220144 $=
202306221851 METAR KJFK 221851Z 05008KT 10SM OVC027 22/14 A3014 RMK AO2 SLP205 T02170144 $=
202306221751 METAR KJFK 221751Z 05010KT 10SM OVC024 21/14 A3015 RMK AO2 SLP211 60000 T02110139 10211 20156 58012 $=
202306221651 METAR KJFK 221651Z 03011KT 10SM OVC021 20/14 A3018 RMK AO2 SLP219 T02000139 $=
202306221651 SPECI KJFK 221651Z 03011KT 10SM OVC021 20/14 A3018 RMK AO2 SLP219 T02000139 $=
202306221551 METAR KJFK 221551Z 04013G21KT 10SM SCT012 OVC020 18/13 A3019 RMK AO2 SLP223 T01830133 $=
202306221451 METAR KJFK 221451Z 04016G23KT 10SM FEW014 BKN023 OVC037 19/13 A3019 RMK AO2 SLP222 60000 T01890133 50001 $=
202306221351 METAR KJFK 221351Z 04013KT 10SM BKN015 BKN027 OVC039 17/13 A3019 RMK AO2 DZE06 SLP223 CIG 013V017 P0000 T01720133 $=
202306221251 METAR KJFK 221251Z 05013KT 4SM -DZ BR FEW007 BKN013 OVC025 16/14 A3019 RMK AO2 RAB31E41DZB41 SLP224 P0000 T01560144 $=
202306221241 SPECI KJFK 221241Z 05014KT 4SM -DZ BR FEW007 BKN013 OVC025 16/14 A3019 RMK AO2 RAB31E41DZB41 P0000 T01560144 $=
202306221151 METAR KJFK 221151Z 04010KT 10SM FEW012 OVC029 16/13 A3019 RMK AO2 SLP221 60000 T01610128 10172 20144 51004 $=
202306221051 METAR KJFK 221051Z 04012KT 10SM FEW013 OVC028 15/13 A3018 RMK AO2 SLP220 T01500128 $=
202306220951 METAR KJFK 220951Z 05011KT 10SM BKN026 OVC034 14/12 A3018 RMK AO2 RAE0853B34E44 SLP221 P0000 T01440117 $=
202306220851 METAR KJFK 220851Z 07011KT 10SM -RA OVC027 16/11 A3018 RMK AO2 RAB23 SLP218 P0000 60000 T01560111 55006 $=
202306220751 METAR KJFK 220751Z 06012KT 10SM SCT034 OVC049 16/11 A3017 RMK AO2 CIG 042 W SLP216 T01610111 $=
202306220651 METAR KJFK 220651Z 06014G23KT 10SM OVC034 17/10 A3018 RMK AO2 RAB38E47 SLP220 P0000 T01670100 $=
202306220551 METAR KJFK 220551Z 07014KT 10SM BKN040 OVC050 17/11 A3019 RMK AO2 SLP224 T01720106 10183 20172 57016 $=
202306220451 METAR KJFK 220451Z 07010KT 10SM BKN055 OVC070 17/11 A3021 RMK AO2 SLP228 T01720111 402220156 $=
202306220351 METAR KJFK 220351Z 07012KT 10SM OVC070 17/11 A3023 RMK AO2 SLP236 T01720111=
202306220251 METAR KJFK 220251Z 08012KT 10SM FEW035 BKN065 BKN250 17/12 A3024 RMK AO2 SLP240 T01720117 53001=
202306220151 METAR KJFK 220151Z 08014KT 10SM FEW030 BKN080 BKN250 18/12 A3024 RMK AO2 SLP238 T01780117=
202306220051 METAR KJFK 220051Z 09010KT 10SM FEW030 BKN085 BKN250 18/11 A3023 RMK AO2 SLP236 T01830106=
202306212351 METAR KJFK 212351Z 09011KT 10SM FEW030 BKN080 BKN100 BKN250 18/12 A3024 RMK AO2 SLP239 T01830117 10222 20183 57005=
202306212251 METAR KJFK 212251Z 09017KT 10SM FEW035 BKN095 BKN170 BKN250 19/12 A3024 RMK AO2 SLP240 T01890122=
202306212151 METAR KJFK 212151Z 10015KT 10SM FEW035 SCT100 BKN170 BKN250 20/13 A3025 RMK AO2 SLP242 T02000128=
202306212051 METAR KJFK 212051Z 10014G20KT 10SM FEW017 FEW035 BKN170 BKN250 21/13 A3025 RMK AO2 SLP244 T02110128 58009=
202306211951 METAR KJFK 211951Z 08015G24KT 10SM FEW017 FEW035 BKN190 BKN250 22/12 A3027 RMK AO2 SLP249 T02170117=
202306211851 METAR KJFK 211851Z 10011G20KT 10SM FEW035 BKN170 BKN250 20/13 A3028 RMK AO2 SLP253 T02000128=
202306211751 METAR KJFK 211751Z 11015KT 10SM FEW035 SCT180 BKN250 19/12 A3028 RMK AO2 SLP253 T01940122 10211 20172 50000=
202306211651 METAR KJFK 211651Z 09017G25KT 10SM FEW035 SCT200 BKN250 20/11 A3028 RMK AO2 SLP255 T02000111=
202306211551 METAR KJFK 211551Z 11015KT 10SM FEW032 FEW210 BKN250 20/13 A3029 RMK AO2 SLP257 T02000128=
202306211451 METAR KJFK 211451Z 11013KT 10SM FEW029 FEW210 BKN250 21/12 A3028 RMK AO2 SLP252 T02060117 52002=
202306211351 METAR KJFK 211351Z 07014KT 10SM FEW026 BKN250 21/11 A3028 RMK AO2 SLP252 T02060111=
202306211251 METAR KJFK 211251Z 06013KT 10SM FEW019 BKN250 19/11 A3027 RMK AO2 SLP251 T01890111=
202306211207 SPECI KJFK 211207Z 06012KT 10SM SCT018 BKN250 17/12 A3027 RMK AO2 T01720122=
202306211151 METAR KJFK 211151Z 07014KT 10SM BKN018 BKN250 17/12 A3027 RMK AO2 SLP250 BKN018 V SCT T01670122 10167 20156 51012=
202306211051 METAR KJFK 211051Z 05012KT 10SM BKN016 BKN250 16/12 A3026 RMK AO2 SLP246 T01560122=
202306210951 METAR KJFK 210951Z 05009KT 10SM BKN015 OVC250 16/12 A3025 RMK AO2 SLP244 T01560122=
202306210933 SPECI KJFK 210933Z 06010KT 10SM OVC015 16/12 A3025 RMK AO2 T01560122 $=
202306210858 SPECI KJFK 210858Z 05012KT 10SM OVC014 16/13 A3024 RMK AO2 T01560128 $=
202306210851 METAR KJFK 210851Z 04013KT 10SM OVC015 16/13 A3024 RMK AO2 SLP239 T01560128 58002 $=
202306210845 SPECI KJFK 210845Z 04012KT 10SM BKN015 OVC250 16/13 A3024 RMK AO2 $=
202306210751 METAR KJFK 210751Z 05009KT 10SM FEW016 FEW080 OVC250 16/12 A3024 RMK SLP238 T01560122=
202306210651 METAR KJFK 210651Z 06009KT 10SM FEW080 BKN250 16/12 A3024 RMK AO2 SLP240 T01560122 $=
202306210551 METAR KJFK 210551Z 05008KT 10SM FEW080 BKN250 16/12 A3024 RMK AO2 SLP240 T01610117 10194 20161 50003 $=
202306210451 METAR KJFK 210451Z 06005KT 10SM FEW080 BKN250 17/11 A3024 RMK AO2 SLP241 T01670106 402390167 $=
202306210351 METAR KJFK 210351Z 05008KT 10SM FEW080 BKN250 17/11 A3024 RMK AO2 SLP239 T01720106 $=
202306210251 METAR KJFK 210251Z 07011KT 10SM FEW080 OVC250 18/11 A3023 RMK AO2 SLP238 T01780106 51007 $=
202306210151 METAR KJFK 210151Z 08009KT 10SM FEW190 BKN250 18/13 A3023 RMK AO2 SLP237 T01830128 $=
202306210051 METAR KJFK 210051Z 08008KT 10SM FEW020 FEW190 BKN250 18/12 A3022 RMK SLP233 T01830122=
202306202351 METAR KJFK 202351Z 11008KT 10SM FEW020 FEW190 BKN250 19/12 A3021 RMK SLP230 T01940117 10239 20194 53006=
202306202251 METAR KJFK 202251Z 10012KT 10SM FEW035 BKN250 20/13 A3020 RMK SLP227 T02000133=
202306202151 METAR KJFK 202151Z 11011KT 10SM FEW035 BKN250 21/13 A3019 RMK SLP224 T02110128=
202306202051 METAR KJFK 202051Z 12013KT 10SM FEW035 BKN250 22/13 A3019 RMK SLP224 T02170128 58003=
202306201951 METAR KJFK 201951Z 13011KT 10SM FEW035 FEW190 BKN250 22/13 A3021 RMK SLP228 T02170128=
202306201851 METAR KJFK 201851Z 13011KT 10SM FEW035 BKN250 23/13 A3020 RMK SLP228 T02280133=
202306201751 METAR KJFK 201751Z 09011KT 10SM FEW035 BKN250 23/13 A3020 RMK SLP228 T02330133 10233 20178 58001=
202306201700 METAR KJFK 141651Z 18015G23KT 10SM TS BKN007 BKN042 OVC120 21/18 A2954 RMK AO2 LTG DSNT N AND NW TSB51 SLP004 VCSH SW-N T02060178 $=
202306201651 METAR KJFK 201651Z 12011KT 10SM FEW033 FEW140 BKN250 23/14 A3021 RMK SLP230 T02280139=
202306201551 METAR KJFK 201551Z 11011KT 10SM SCT024 BKN250 22/16 A3021 RMK SLP231 T02220156=
202306201545 SPECI KJFK 201545Z 11011KT 10SM SCT024 BKN250 22/15 A3021=
202306201451 METAR KJFK 201451Z 12011KT 10SM BKN019 BKN250 21/16 A3021 RMK SLP229 T02110161 50001=
202306201351 METAR KJFK 201351Z 08008KT 10SM BKN018 BKN250 21/16 A3021 RMK SLP229 T02060156=
202306201320 SPECI KJFK 201320Z 06006KT 10SM BKN015 BKN250 19/16 A3021 RMK T01940156=
202306201251 METAR KJFK 201251Z 07007KT 10SM OVC012 19/16 A3021 RMK SLP229 T01890161=
202306201151 METAR KJFK 201151Z 06007KT 10SM OVC011 18/16 A3020 RMK SLP228 CIG 009V013 T01780156 10178 20172 51016=
202306201126 SPECI KJFK 201126Z 06007KT 10SM OVC011 18/16 A3020 RMK CIG 009V013 T01780156=
202306201051 METAR KJFK 201051Z 06008KT 10SM OVC008 17/16 A3019 RMK SLP223 T01720156=
202306200951 METAR KJFK 200951Z 04008KT 10SM OVC010 17/16 A3018 RMK SLP218 T01720156=
202306200851 METAR KJFK 200851Z 07006KT 10SM OVC010 17/16 A3016 RMK SLP212 T01720156 53003=
202306200751 METAR KJFK 200751Z 05007KT 10SM OVC011 18/16 A3014 RMK SLP207 T01780156=
202306200651 METAR KJFK 200651Z 09005KT 10SM BKN011 BKN100 OVC250 18/16 A3014 RMK SLP2207 T01780161=
202306200551 METAR KJFK 200551Z 08005KT 10SM BKN011 OVC100 18/16 A3015 RMK SLP209 T01780161 10194 20178 50001=
202306200531 SPECI KJFK 200531Z 07005KT 10SM BKN011 OVC100 18/16 A3015 RMK T01780161=
202306200451 METAR KJFK 200451Z 09006KT 10SM BKN009 BKN100 OVC250 18/16 A3015 RMK SLP210 T01780161 402500172=
202306200351 METAR KJFK 200351Z 08007KT 10SM BKN008 OVC250 18/17 A3016 RMK SLP212 T01780167=
202306200327 SPECI KJFK 200327Z 10008KT 10SM BKN008 OVC250 18/17 A3016 RMK T01830167=
202306200251 METAR KJFK 200251Z 10009KT 10SM SCT008 SCT100 BKN250 18/17 A3015 RMK SLP208 SCT008 V BKN T01780167 51020=
202306200151 METAR KJFK 200151Z 10009KT 10SM FEW009 FEW100 BKN250 18/17 A3013 RMK SLP283 T01780167=
202306200146 SPECI KJFK 200146Z 10009KT 10SM FEW009 FEW100 BKN250 18/17 A3013=
202306200051 SPECI KJFK 200051Z 11006KT 10SM FEW020 FEW100 BKN250 18/17 A3011 RMK SLP196 T01830167=
202306200051 METAR KJFK 200051Z 11006KT 10SM FEW020 FEW100 BKN250 18/17 A3011 RMK SLP196 T01830167=
202306192351 METAR KJFK 192351Z 12009KT 10SM FEW100 BKN250 19/16 A3009 RMK SLP188 T01940161 10244 20194 53014=
202306192251 METAR KJFK 192251Z 10009KT 10SM FEW045 BKN250 21/16 A3007 RMK SLP183 T02060161=
202306192151 METAR KJFK 192151Z 13008KT 10SM FEW045 BKN250 21/16 A3005 RMK SLP176 T02110161=
202306192051 METAR KJFK 192051Z 12013KT 10SM FEW045 BKN250 23/16 A3005 RMK SLP174 T02280156 58005=
202306191951 METAR KJFK 191951Z 12012KT 10SM FEW045 SCT250 23/16 A3006 RMK SLP179 T02330156=
202306191851 METAR KJFK 191851Z 12014KT 10SM FEW045 SCT250 24/16 A3007 RMK SLP182 T02390161=
202306191751 METAR KJFK 191751Z 13011KT 10SM FEW045 SCT250 24/17 A3006 RMK SLP179 T02390167 10250 20200 58001=
202306191651 METAR KJFK 191651Z 14009KT 10SM FEW042 SCT080 SCT250 23/17 A3007 RMK SLP182 T02330167=
202306191551 METAR KJFK 191551Z 14009KT 10SM FEW035 SCT075 SCT250 24/17 A3007 RMK SLP184 T02390167=
202306191451 METAR KJFK 191451Z VRB04KT 10SM SCT075 SCT250 24/16 A3007 RMK SLP181 T02390156 51011=
202306191351 METAR KJFK 191351Z 00000KT 10SM SCT075 SCT250 23/15 A3006 RMK SLP178 T02280150=
202306191251 METAR KJFK 191251Z 03005KT 10SM FEW080 FEW250 22/14 A3005 RMK SLP175 T02170144=
202306191151 METAR KJFK 191151Z 04008KT 10SM FEW250 20/14 A3003 RMK SLP169 T02000139 10200 20172 51017=
202306191051 METAR KJFK 191051Z 03007KT 10SM FEW075 FEW110 SCT250 19/14 A3002 RMK SLP164 T01890139=
202306190951 METAR KJFK 190951Z 03006KT 10SM FEW075 FEW250 17/14 A3000 RMK SLP160 T01720139=
202306190851 METAR KJFK 190851Z 04007KT 10SM FEW080 FEW250 17/14 A2998 RMK SLP152 T01720139 51007=
202306190751 METAR KJFK 190751Z 04007KT 10SM FEW080 SCT250 18/14 A2998 RMK SLP150 T01830144=
202306190651 METAR KJFK 190651Z 02006KT 10SM FEW080 SCT250 18/14 A2997 RMK SLP147 T01830144=
202306190551 METAR KJFK 190551Z 36004KT 10SM FEW080 SCT250 19/16 A2996 RMK SLP145 T01890156 10206 20178 51010=
202306190451 METAR KJFK 190451Z 23003KT 10SM SCT250 19/16 A2995 RMK SLP142 T01890161 402780178=
202306190351 METAR KJFK 190351Z 23004KT 10SM FEW080 SCT250 19/16 A2994 RMK SLP139 T01890161=
202306190251 METAR KJFK 190251Z 21003KT 10SM SCT250 20/16 A2993 RMK SLP135 T02000156 53012=
202306190151 METAR KJFK 190151Z 20003KT 10SM FEW080 SCT200 BKN250 19/15 A2992 RMK SLP132 T01940150=
202306190051 METAR KJFK 190051Z 20005KT 10SM FEW065 SCT080 BKN250 20/16 A2990 RMK SLP126 T02000156=
202306182351 METAR KJFK 182351Z 20011KT 10SM FEW065 SCT085 BKN250 21/16 A2990 RMK SLP123 T02060156 10278 20206 53011=
202306182251 METAR KJFK 182251Z 20012KT 10SM BKN065 BKN085 BKN250 21/16 A2988 RMK SLP119 T02110161=
202306182151 METAR KJFK 182151Z 18011KT 10SM BKN060 BKN080 BKN250 23/15 A2986 RMK SLP111 T02280150=
202306182051 METAR KJFK 182051Z 32008G16KT 10SM BKN060 BKN080 BKN250 26/13 A2986 RMK SLP112 T02610128 53006=
202306181951 METAR KJFK 181951Z 27010G15KT 10SM SCT055 BKN070 BKN250 27/12 A2985 RMK SLP109 T02670122=
202306181851 METAR KJFK 181851Z 28010G14KT 220V310 10SM SCT055 BKN070 BKN250 27/13 A2984 RMK SLP105 T02670133=
202306181751 METAR KJFK 181751Z 29008KT 10SM BKN055 BKN070 BKN250 25/13 A2984 RMK SLP106 T02500128 10261 20206 53002 $=
202306181651 METAR KJFK 181651Z 30007KT 10SM BKN060 BKN250 25/13 A2984 RMK SLP104 T02500128=
202306181551 METAR KJFK 181551Z 33009G16KT 10SM FEW049 SCT250 26/13 A2983 RMK SLP102 T02560128=
202306181451 METAR KJFK 181451Z 31010KT 10SM SCT045 SCT250 24/13 A2984 RMK SLP104 T02440128 53006=
202306181351 METAR KJFK 181351Z 36011G18KT 10SM FEW040 FEW080 SCT250 23/12 A2983 RMK SLP100 T02280122=
202306181251 METAR KJFK 181251Z 34012KT 10SM FEW075 SCT250 22/12 A2983 RMK SLP101 T02170122=
202306181151 METAR KJFK 181151Z 32012KT 10SM FEW080 SCT250 21/12 A2982 RMK SLP098 T02060117 10206 20178 51011 $=
202306181051 METAR KJFK 181051Z 30011G19KT 10SM FEW080 SCT250 19/10 A2981 RMK SLP094 T01890100=
202306180951 METAR KJFK 180951Z 28009KT 10SM FEW200 SCT250 18/10 A2981 RMK SLP093 T01780100=
202306180851 METAR KJFK 180851Z 29012KT 10SM FEW200 SCT250 18/11 A2979 RMK SLP087 T01780106 53008=
202306180751 METAR KJFK 180751Z 29009KT 10SM FEW250 18/11 A2977 RMK SLP081 T01780106=
202306180651 METAR KJFK 180651Z 32009KT 10SM SCT250 19/11 A2976 RMK SLP078 T01890106=
202306180551 METAR KJFK 180551Z 31013KT 10SM SCT250 19/11 A2977 RMK SLP079 T01940106 10206 20189 58001=
202306180451 METAR KJFK 180451Z 31011KT 10SM BKN075 BKN250 19/11 A2976 RMK SLP079 T01940106 402720156=
202306180351 METAR KJFK 180351Z 30013KT 10SM BKN080 20/11 A2977 RMK SLP081 T02000106=
202306180251 METAR KJFK 180251Z 31011KT 8SM BKN070 BKN085 20/11 A2977 RMK SLP080 T02000111 51014=
202306180151 METAR KJFK 180151Z 32009KT 9SM BKN110 OVC150 20/11 A2976 RMK SLP079 T02000111=
202306180051 METAR KJFK 180051Z 34015G21KT 9SM FEW070 BKN160 OVC250 20/11 A2975 RMK SLP074 T02000106=
202306172351 METAR KJFK 172351Z 35012KT 9SM FEW050 SCT070 SCT120 BKN180 BKN250 20/11 A2973 RMK PK WND 36029/2253 SLP066 T02000111 10272 20200 51034=
202306172251 METAR KJFK 172251Z 34021G31KT 8SM SCT050CB SCT075 BKN110 BKN250 22/09 A2970 RMK PK WND 01031/2248 SLP058 CB NW-NE MOV SE T02170094=
202306172151 METAR KJFK 172151Z 36024G35KT 10SM SCT050 SCT070 BKN110 BKN250 22/09 A2966 RMK PK WND 36035/2146 WSHFT 2131 SLP045 CB DSNT E T02220089=
202306172051 METAR KJFK 172051Z 30020G29KT 10SM FEW050 SCT075 BKN110 BKN250 26/09 A2963 RMK PK WND 30029/2048 TSB16E45 SLP032 T02560094 57002=
202306172046 SPECI KJFK 172046Z 30015G23KT 10SM SCT050 BKN070 BKN110 BKN250 26/10 A2963 RMK PK WND 29027/2001 TSB16E45=
202306172018 SPECI KJFK 172018Z 31019G25KT 10SM TS SCT050CB BKN070 BKN110 BKN250 25/09 A2963 RMK PK WND 29027/2001 TSB16 OCNL LTGIC W TS W MOV SE T02500094=
202306171951 METAR KJFK 171951Z 31020G27KT 10SM FEW050 SCT080 BKN250 27/09 A2963 RMK PK WND 30031/1900 SLP033 CB DSNT NW T02670094=
202306171851 METAR KJFK 171851Z 31018G28KT 10SM FEW050 SCT075 BKN250 26/09 A2963 RMK PK WND 31030/1841 SLP034 T02610089=
202306171851 SPECI KJFK 171851Z 31018G28KT 10SM FEW050 SCT075 BKN250 26/09 A2963 RMK PK WND 31030/1841 SLP034 T02610089=
202306171751 METAR KJFK 171751Z 33012KT 10SM SCT060 BKN080 BKN090 BKN250 25/11 A2964 RMK SLP038 60000 T02500111 10250 20189 56004=
202306171651 METAR KJFK 171651Z 34012KT 10SM SCT045 BKN060 BKN095 BKN250 24/13 A2967 RMK RAE08 SLP045 P0000 T02390128=
202306171551 METAR KJFK 171551Z 33012KT 10SM -RA BKN038 BKN050 BKN060 BKN250 21/13 A2967 RMK RAB45 SLP048 P000 T02110133=
202306171451 METAR KJFK 171451Z 35013KT 10SM SCT034 BKN085 BKN250 22/14 A2966 RMK SLP044 T02170139 56004=
202306171351 METAR KJFK 171351Z 34011KT 10SM SCT085 BKN110 BKN250 22/14 A2966 RMK SLP044 T02170139=
202306171251 METAR KJFK 171251Z 32013KT 10SM SCT075 BKN100 BKN250 19/14 A2967 RMK SLP046 T01940139=
202306171151 METAR KJFK 171151Z 31013KT 10SM FEW055 BKN200 BKN250 18/14 A2967 RMK SLP048 70020 T01830139 10183 20156 51006=
202306171051 METAR KJFK 171051Z 32010KT 10SM SCT045 BKN070 BKN250 18/14 A2967 RMK SLP047 T01780139=
202306170951 METAR KJFK 170951Z 32009KT 10SM OVC041 17/14 A2967 RMK SLP045 T01670139=
202306170851 METAR KJFK 170851Z 34007KT 10SM BKN250 17/14 A2965 RMK SLP041 T01670139 55003=
202306170751 METAR KJFK 170751Z 34008KT 10SM SCT100 BKN250 16/14 A2965 RMK SLP041 T01610139=
202306170651 METAR KJFK 170651Z 33006KT 10SM FEW029 BKN250 16/14 A2966 RMK SLP042 T01610144=
202306170551 METAR KJFK 170551Z 36003KT 10SM FEW080 OVC250 17/14 A2966 RMK AO2 SLP044 T01670144 10183 20167 56009=
202306170451 METAR KJFK 170451Z 04005KT 10SM OVC250 17/14 A2967 RMK AO2 SLP046 T01670144 402560161=
202306170351 METAR KJFK 170351Z 05006KT 10SM SCT250 17/14 A2968 RMK SLP050 T01720144=
202306170251 METAR KJFK 170251Z 03007KT 10SM OVC025 18/14 A2969 RMK SLP053 T01830144 55000=
202306170151 METAR KJFK 170151Z 07005KT 10SM OVC025 18/14 A2969 RMK SLP055 T01830139=
202306170051 METAR KJFK 170051Z 08004KT 10SM FEW013 BKN024 OVC047 18/14 A2968 RMK AO2 SLP049 T01830139=
202306170039 SPECI KJFK 170039Z 08005KT 10SM FEW013 BKN024 OVC047 18/14 A2968 RMK AO2 T01830144=
202306162351 METAR KJFK 162351Z 09003KT 10SM FEW025 BKN046 OVC250 18/14 A2969 RMK AO2 SLP053 60020 T01830144 10206 20172 53004=
202306162251 METAR KJFK 162251Z 09005KT 10SM FEW030 BKN048 OVC250 18/14 A2968 RMK AO2 SLP051 T01830144=
202306162151 METAR KJFK 162151Z 10009KT 10SM FEW030 FEW060 OVC250 19/14 A2968 RMK AO2 SLP049 T01890144=
202306162051 METAR KJFK 162051Z 08006KT 10SM FEW030 FEW110 OVC210 18/16 A2968 RMK AO2 SLP049 60020 T01830156 56019=
202306161951 METAR KJFK 161951Z 09006KT 10SM FEW017 FEW030 SCT110 OVC160 17/16 A2968 RMK RAE39 TSE31 SLP051 P0004 T01720161=
202306161931 SPECI KJFK 161931Z 08007KT 10SM -RA FEW017 SCT030 BKN110 OVC150 17/16 A2969 RMK AO2 TSE31 P0004 T01720161=
202306161851 METAR KJFK 161851Z 09008KT 7SM TSRA SCT030CB BKN065 OVC085 18/16 A2971 RMK AO2 TSB01 SLP060 OCNL LTGICCG NE-S TS NE-S MOV NE P0016 T01780156=
202306161801 SPECI KJFK 161801Z 26009KT 7SM -TSRA SCT038CB BKN070 OVC090 19/16 A2974 RMK TSB01 OCNL LTGICCG SW-W TS SW-W MOV NE P0001 T01940156=
202306161751 METAR KJFK 161751Z 25007KT 5SM -RA FEW038CB BKN070 OVC120 21/15 A2973 RMK RAB13E29B45 SLP067 CB SW-W MOV NE P0000 60000 T02060150 10256 20200 55007=
202306161651 METAR KJFK 161651Z 18007KT 10SM FEW045 BKN120 BKN250 24/12 A2971 RMK AO2 SLP059 T02440117=
202306161551 METAR KJFK 161551Z 19006KT 10SM FEW045 SCT140 BKN250 25/13 A2973 RMK AO2 SLP066 T02500128=
202306161451 METAR KJFK 161451Z 19005KT 10SM FEW043 FEW140 SCT250 24/13 A2975 RMK AO2 SLP074 T02390133 50000=
202306161351 METAR KJFK 161351Z 20005KT 10SM SCT250 23/14 A2975 RMK SLP075 T02280144=
202306161251 METAR KJFK 161251Z 22006KT 10SM SCT250 22/13 A2976 RMK AO2 SLP076 T02170133=
202306161151 METAR KJFK 161151Z 20004KT 10SM FEW085 SCT250 20/15 A2975 RMK AO2 SLP074 T02000150 10200 20161 51006=
202306161051 METAR KJFK 161051Z 23005KT 10SM FEW100 BKN250 18/14 A2974 RMK AO2 SLP070 T01780144=
202306160951 METAR KJFK 160951Z 23005KT 10SM FEW100 SCT250 17/15 A2975 RMK AO2 SLP073 T01720150=
202306160851 METAR KJFK 160851Z 25005KT 10SM BKN250 18/16 A2973 RMK AO2 SLP068 T01780161 55004=
202306160751 METAR KJFK 160751Z 23004KT 10SM BKN250 18/16 A2973 RMK SLP067 T01780161=
202306160651 METAR KJFK 160651Z 21004KT 10SM BKN250 18/15 A2973 RMK SLP068 T01780150=
202306160551 METAR KJFK 160551Z 23006KT 10SM BKN250 18/16 A2974 RMK AO2 SLP071 T01780156 10250 20178 51007=
202306160451 METAR KJFK 160451Z 25008KT 10SM BKN250 20/15 A2974 RMK AO2 SLP071 T02000150 402670161=
202306160351 METAR KJFK 160351Z 29005KT 10SM SCT250 22/12 A2974 RMK AO2 SLP070 T02220122=
202306160251 METAR KJFK 160251Z 28008KT 10SM BKN250 23/12 A2972 RMK AO2 SLP064 T02280122 51018=
202306160151 METAR KJFK 160151Z 28011KT 10SM FEW080 BKN250 23/13 A2972 RMK AO2 SLP063 T02330128=
202306160051 SPECI KJFK 160051Z 30008KT 10SM FEW060 FEW080 BKN250 24/13 A2969 RMK AO2 SLP054 T02390128=
202306160051 METAR KJFK 160051Z 30008KT 10SM FEW060 FEW080 BKN250 24/13 A2969 RMK AO2 SLP054 T02390128=
202306152351 METAR KJFK 152351Z 30012KT 10SM FEW060 FEW080 BKN250 25/12 A2967 RMK AO2 SLP047 T02500122 10267 20233 53008=
202306152251 METAR KJFK 152251Z 30014KT 10SM SCT060 SCT080 BKN250 26/12 A2965 RMK AO2 SLP039 T02560122=
202306152151 METAR KJFK 152151Z 26011KT 10SM SCT055 SCT075 BKN250 26/13 A2964 RMK AO2 SLP037 T02560128=
202306152051 METAR KJFK 152051Z 30008KT 10SM SCT055 SCT075 BKN250 26/13 A2964 RMK AO2 SLP038 T02560128 55003=
202306151951 METAR KJFK 151951Z 34012G28KT 10SM SCT055 SCT075 BKN250 26/13 A2964 RMK PK WND 31028/1945 SLP036 T02560128=
202306151851 METAR KJFK 151851Z 31010G18KT 10SM SCT050 SCT065 BKN250 25/13 A2965 RMK AO2 SLP039 T02500133=
202306151751 METAR KJFK 151751Z 27011KT 10SM BKN050 BKN250 23/12 A2965 RMK AO2 SLP041 T02280122 10233 20189 51004=
202306151651 METAR KJFK 151651Z 28011KT 10SM BKN050 BKN250 23/12 A2965 RMK AO2 SLP041 T02280122=
202306151551 METAR KJFK 151551Z 29010KT 10SM BKN045 BKN250 22/12 A2965 RMK SLP042 T02170122=
202306151451 METAR KJFK 151451Z 29013KT 10SM BKN040 BKN250 21/12 A2964 RMK AO2 SLP037 T02110122 53011=
202306151351 METAR KJFK 151351Z 31014G21KT 10SM FEW035 SCT250 21/12 A2962 RMK SLP028 T02110122=
202306151251 METAR KJFK 151251Z 30012KT 10SM FEW033 SCT250 20/12 A2961 RMK SLP028 T02000122=
202306151151 METAR KJFK 151151Z 28009KT 10SM FEW030 FEW100 SCT250 19/12 A2961 RMK SLP026 70024 T01890122 10189 20161 53014=
202306151051 METAR KJFK 151051Z 27012KT 10SM FEW030 FEW100 SCT250 17/12 A2959 RMK AO2 SLP019 T01720117 $=
202306150951 METAR KJFK 150951Z 27010KT 10SM FEW100 SCT250 16/12 A2958 RMK AO2 SLP015 T01610117 $=
202306150851 METAR KJFK 150851Z 29011KT 10SM FEW250 16/11 A2957 RMK AO2 SLP012 T01610111 51001 $=
202306150751 METAR KJFK 150751Z 28011KT 10SM FEW250 17/12 A2956 RMK AO2 SLP011 T01670117 $=
202306150651 METAR KJFK 150651Z 27013KT 10SM FEW250 17/12 A2957 RMK AO2 SLP013 T01720117 $=
202306150551 METAR KJFK 150551Z 27013KT 10SM FEW100 FEW250 17/12 A2956 RMK AO2 SLP011 T01720117 10206 20172 50000 $=
202306150451 METAR KJFK 150451Z 29014G21KT 10SM FEW095 FEW250 18/12 A2957 RMK AO2 SLP011 T01830117 402220161 $=
202306150351 METAR KJFK 150351Z 27015KT 10SM FEW055 FEW250 19/12 A2956 RMK AO2 SLP010 T01890117 $=
202306150251 METAR KJFK 150251Z 27013G21KT 10SM FEW050 FEW250 19/11 A2956 RMK AO2 SLP010 T01940111 51016 $=
202306150151 METAR KJFK 150151Z 26016KT 10SM FEW047 FEW090 19/11 A2955 RMK AO2 SLP006 T01940111 $=
202306150051 METAR KJFK 150051Z 27016KT 10SM FEW047 FEW090 FEW250 20/11 A2953 RMK AO2 SLP999 CB DSNT E T02000111 $=
202306142351 METAR KJFK 142351Z 27006KT 10SM SCT047 SCT060 SCT090 SCT250 20/14 A2951 RMK AO2 RAB04E14 SLP994 CB DSNT NE P0000 60002 T02000139 10211 20183 53001 $=
202306142251 METAR KJFK 142251Z 20010KT 10SM SCT050CB SCT070 BKN100 BKN250 19/15 A2950 RMK AO2 SLP989 CB W-NW MOV E VCSH W-NW T01940150 $=
202306142151 METAR KJFK 142151Z 19014KT 10SM FEW020 SCT050 BKN100 BKN160 BKN250 20/16 A2950 RMK AO2 SLP990 TCU DSNT NE T02000156 $=
202306142051 METAR KJFK 142051Z 17009KT 10SM SCT042 SCT085 BKN250 21/16 A2951 RMK AO2 RAE1957 SLP993 P0000 60002 T02060161 58007 $=
202306141951 METAR KJFK 141951Z 24008KT 10SM -RA FEW020 SCT042 BKN090 BKN250 19/15 A2952 RMK AO2 RAE1854B19 SLP997 CB DSNT NE P0002 T01890150 $=
202306141851 METAR KJFK 141851Z 28013G18KT 10SM -RA FEW009 SCT042 BKN095 OVC130 21/16 A2952 RMK AO2 WSHFT 1756 RAE11B26 SLP996 P0000 T02060161 $=
202306141811 SPECI KJFK 141811Z 27014G18KT 10SM FEW009 BKN044 BKN065 OVC200 19/17 A2953 RMK AO2 WSHFT 1756 LTG DSNT N AND NE RAE11 P0000 T01940167 $=
202306141751 METAR KJFK 141751Z 20016KT 8SM -RA SCT007 SCT028 BKN048 BKN180 19/18 A2953 RMK AO2 LTG DSNT N AND NE RAB15 TSE1652B01E50 SLP000 CB DSNT NE-E MOV NE P0022 60022 T01940183 10222 20183 56015 $=
202306141739 SPECI KJFK 141739Z 17008KT 7SM R04R/5500VP6000FT +TSRA SCT007 BKN026CB BKN060 BKN180 18/17 A2952 RMK AO2 LTG DSNT N RAB15 TSE1652B01 VIS LWR NE-E OCNL LTGIC NE-SE TS NE-SE MOV NE P0018 T01830172 $=
202306141723 SPECI KJFK 141723Z 22016KT 4SM -TSRA BR BKN007 BKN040CB BKN100 OVC140 20/18 A2953 RMK AO2 LTG DSNT NW-NE RAB15 TSE1652B01 VIS SE-S 2 OCNL LTGIC OHD-S TS OHD-S MOV NE P0000 T02000183 $=
202306141702 SPECI KJFK 141702Z 19014G22KT 10SM TS BKN007 BKN038CB OVC095 21/18 A2953 RMK AO2 LTG DSNT W AND NW TSE1652B01 OCNL LTGIC NW-N TS NW-N MOV NE VCSH SW-N T02060183 $=
202306141655 SPECI KJFK 141655Z 18017G23KT 10SM BKN007 BKN042 OVC120 21/18 A2954 RMK AO2 LTG DSNT W AND NW VCSH SW-N T02060183 $=
202306141651 METAR KJFK 141651Z 18015G23KT 10SM TS BKN007 BKN042 OVC120 21/18 A2954 RMK AO2 LTG DSNT N AND NW TSB51 SLP004 VCSH SW-N T02060178 $=
202306141619 SPECI KJFK 141619Z 18016KT 10SM SCT008 SCT045 BKN120 OVC250 21/18 A2955 RMK AO2 LTG DSNT W T02110178=
202306141551 METAR KJFK 141551Z 18016KT 10SM FEW015 BKN120 BKN250 22/18 A2956 RMK AO2 SLP009 T02170178=
202306141451 METAR KJFK 141451Z 17012KT 10SM FEW012 BKN120 BKN250 22/18 A2957 RMK AO2 SLP014 T02170178 58015=
202306141351 METAR KJFK 141351Z 19012KT 10SM FEW012 FEW110 FEW140 BKN250 22/18 A2960 RMK AO2 SLP022 T02170178=
202306141251 METAR KJFK 141251Z 18009KT 10SM FEW012 FEW140 BKN250 21/17 A2961 RMK AO2 SLP028 T02060172=
202306141151 METAR KJFK 141151Z 18008KT 10SM FEW016 FEW080 FEW140 BKN250 19/17 A2962 RMK AO2 SLP029 T01890167 10200 20161 56008 $=
202306141051 METAR KJFK 141051Z 15007KT 10SM FEW045 FEW080 SCT250 18/17 A2962 RMK AO2 SLP031 T01830167 $=
202306140951 METAR KJFK 140951Z 16004KT 10SM FEW080 SCT250 17/14 A2963 RMK AO2 SLP033 T01670144 $=
202306140851 METAR KJFK 140851Z 20007KT 10SM SCT250 17/14 A2964 RMK AO2 SLP038 T01670144 58012 $=
202306140751 METAR KJFK 140751Z 21007KT 10SM FEW250 17/15 A2965 RMK AO2 SLP041 T01720150 $=
202306140651 METAR KJFK 140651Z 21008KT 10SM FEW250 17/15 A2967 RMK AO2 SLP046 T01720150=
202306140551 METAR KJFK 140551Z 22007KT 10SM FEW250 17/14 A2968 RMK AO2 SLP050 T01720144 10233 20172 56008=
202306140451 METAR KJFK 140451Z 21009KT 10SM FEW250 18/14 A2968 RMK AO2 SLP051 T01830139 402670178=
202306140351 METAR KJFK 140351Z 21007KT 10SM SCT250 19/12 A2969 RMK AO2 SLP054 T01890122=
202306140251 METAR KJFK 140251Z 24006KT 10SM SCT250 19/11 A2970 RMK AO2 SLP057 T01940111 50005=
202306140151 METAR KJFK 140151Z 27008KT 10SM FEW065 SCT250 22/10 A2970 RMK AO2 SLP058 T02220100=
202306140051 METAR KJFK 140051Z 27012KT 10SM FEW065 SCT250 23/10 A2969 RMK AO2 SLP054 T02280100=
202306132351 METAR KJFK 132351Z 26010KT 10SM SCT065 SCT250 23/11 A2969 RMK AO2 SLP052 T02330106 10267 20233 53009=
202306132251 METAR KJFK 132251Z 25012KT 10SM FEW055 FEW250 24/12 A2968 RMK AO2 SLP049 T02390122=
202306132151 METAR KJFK 132151Z 23017KT 10SM FEW055 FEW250 25/12 A2966 RMK AO2 SLP044 T02500117=
202306132051 SPECI KJFK 132051Z 24016G20KT 10SM FEW055 SCT250 26/11 A2966 RMK AO2 SLP043 T02560106 56006=
202306132051 METAR KJFK 132051Z 24016G20KT 10SM FEW055 SCT250 26/11 A2966 RMK AO2 SLP043 T02560106 56006=
202306131951 METAR KJFK 131951Z 23013G19KT 10SM FEW055 SCT230 26/11 A2966 RMK AO2 SLP045 T02560106=
202306131851 METAR KJFK 131851Z 26014G19KT 10SM SCT055 BKN230 27/12 A2966 RMK AO2 SLP044 T02670122=
202306131751 METAR KJFK 131751Z 29010G18KT 260V320 10SM SCT050 BKN250 26/12 A2968 RMK AO2 SLP049 T02610122 10261 20183 58007=
202306131651 METAR KJFK 131651Z 29012KT 270V330 10SM SCT042 BKN250 25/14 A2970 RMK AO2 SLP056 SCT V BKN T02500139=
202306131551 METAR KJFK 131551Z 27014KT 10SM SCT037 BKN250 24/14 A2971 RMK AO2 SLP059 T02390139=
202306131451 METAR KJFK 131451Z 29010G17KT 10SM SCT034 23/14 A2970 RMK AO2 SLP057 T02280139 51005=
202306131351 METAR KJFK 131351Z VRB06KT 10SM SCT028 BKN250 21/14 A2970 RMK AO2 SLP055 T02110139=
202306131327 SPECI KJFK 131327Z VRB05KT 10SM SCT026 BKN250 21/14 A2969 RMK AO2 T02060139=
202306131251 METAR KJFK 131251Z 27008KT 10SM BKN023 BKN250 19/14 A2969 RMK AO2 SLP054 T01890139=
202306131151 METAR KJFK 131151Z 29011KT 10SM BKN021 18/14 A2968 RMK AO2 SLP051 70018 T01830139 10189 20178 51015=
202306131051 METAR KJFK 131051Z 31010KT 10SM BKN021 18/14 A2967 RMK AO2 SLP048 T01780139=
202306130951 METAR KJFK 130951Z 30011KT 10SM BKN018 18/14 A2967 RMK AO2 SLP046 T01780144=
202306130851 METAR KJFK 130851Z 28008KT 10SM OVC020 19/16 A2964 RMK AO2 SLP036 T01890161 51010=
202306130751 METAR KJFK 130751Z 28005KT 10SM OVC019 19/17 A2963 RMK AO2 SLP034 T01890172=
202306130651 METAR KJFK 130651Z 27010KT 10SM BKN016 19/17 A2962 RMK AO2 SLP031 T01890172=
202306130551 METAR KJFK 130551Z 26012KT 10SM BKN016 19/18 A2961 RMK AO2 SLP025 60013 T01890178 10200 20183 55004=
202306130535 SPECI KJFK 130535Z 25012KT 10SM BKN016 19/18 A2960 RMK AO2 T01890178=
202306130451 METAR KJFK 130451Z 24013KT 10SM SCT022 SCT250 20/19 A2960 RMK AO2 SLP022 T02000189 402440183=
202306130351 METAR KJFK 130351Z 19012KT 9SM FEW005 OVC017 19/19 A2961 RMK AO2 SLP028 T01940194=
202306130325 SPECI KJFK 130325Z 18013KT 9SM FEW005 OVC017 19/19 A2962 RMK AO2 T01890189=
202306130251 METAR KJFK 130251Z 17012KT 8SM OVC005 19/19 A2962 RMK AO2 RAE41 SLP030 P0001 60013 T01890189 56007=
202306130151 METAR KJFK 130151Z 13012KT 7SM -RA BKN005 OVC024 19/19 A2962 RMK AO2 RAB0056 SLP031 P0002 T01890189=
202306130051 METAR KJFK 130051Z 13012KT 6SM BR BKN006 OVC014 18/18 A2963 RMK AO2 RAE43 SLP033 P0010 T01830183=
202306130039 SPECI KJFK 130039Z 13009KT 8SM -RA BKN006 OVC014 19/18 A2964 RMK AO2 P0010 T01890183=
202306122351 METAR KJFK 122351Z 10009KT 3SM RA BR FEW004 BKN016 OVC029 19/18 A2964 RMK AO2 SFC VIS 5 RAB34 SLP037 P0005 60005 T01940183 10244 20194 58013=
202306122340 SPECI KJFK 122340Z 11008KT 1 1/2SM R04R/4000VP6000FT RA BR FEW004 BKN020 OVC041 19/18 A2965 RMK AO2 SFC VIS 4 RAB34 P0000 T01940183=
202306122307 SPECI KJFK 122307Z 13008KT 8SM FEW004 SCT036 BKN060 BKN210 20/19 A2966 RMK AO2 T02000189=
202306122251 METAR KJFK 122251Z 10006KT 8SM BKN004 BKN022 BKN250 20/19 A2966 RMK AO2 SLP042 BKN004 V SCT T02000189=
202306122212 SPECI KJFK 122212Z 12009KT 5SM BR OVC004 19/19 A2966 RMK AO2 T01940189=
202306122151 METAR KJFK 122151Z 12008KT 6SM BR OVC005 19/19 A2967 RMK AO2 SLP047 T01940189=
202306122051 METAR KJFK 122051Z 13011KT 8SM OVC007 21/19 A2968 RMK AO2 SLP050 T02060189 56021=
202306121951 METAR KJFK 121951Z 12014G22KT 10SM OVC008 21/19 A2969 RMK AO2 SLP054 T02110189=
202306121942 SPECI KJFK 121942Z 13016G22KT 10SM OVC009 22/19 A2970 RMK AO2 T02170189=
202306121851 METAR KJFK 121851Z 12017G21KT 10SM BKN011 BKN180 BKN250 24/19 A2971 RMK AO2 SLP059 T02390194=
202306121751 METAR KJFK 121751Z 13015G20KT 9SM BKN010 BKN130 BKN250 23/19 A2974 RMK AO2 SLP072 CIG 008V012 T02280189 10244 20194 58020=
202306121732 SPECI KJFK 121732Z 14013KT 9SM BKN010 BKN027 BKN130 BKN250 23/19 A2975 RMK AO2 T02330189=
202306121651 METAR KJFK 121651Z 14015KT 10SM FEW029 BKN130 BKN250 24/19 A2976 RMK AO2 SLP078 T02440194=
202306121551 METAR KJFK 121551Z 15014G21KT 10SM FEW027 BKN150 BKN250 23/18 A2979 RMK AO2 SLP087 T02330183=
202306121451 METAR KJFK 121451Z 15017G20KT 9SM SCT026 BKN085 BKN190 BKN250 23/18 A2980 RMK AO2 SLP092 T02280183 58008=
202306121351 METAR KJFK 121351Z 17012KT 9SM FEW011 BKN030 BKN070 OVC150 21/18 A2982 RMK AO2 SLP098 T02110178=
202306121251 METAR KJFK 121251Z 16008KT 8SM FEW027 SCT070 OVC150 19/17 A2983 RMK AO2 SLP100 T01940172=
202306121151 METAR KJFK 121151Z 17006KT 8SM SCT070 OVC170 19/17 A2983 RMK AO2 SLP100 T01940172 10194 20183 51004=
202306121051 METAR KJFK 121051Z 16007KT 9SM BKN075 OVC180 19/17 A2982 RMK AO2 SLP098 T01890167 $=
202306120951 METAR KJFK 120951Z 18007KT 10SM BKN070 OVC180 19/17 A2983 RMK AO2 SLP100 T01890167 $=
202306120851 METAR KJFK 120851Z 17010KT 10SM BKN080 OVC170 19/17 A2982 RMK AO2 SLP096 T01890172 57006 $=
202306120751 METAR KJFK 120751Z 18011KT 10SM BKN080 OVC160 19/17 A2982 RMK AO2 SLP098 T01890172 $=
202306120651 METAR KJFK 120651Z 18009KT 10SM FEW080 OVC170 19/17 A2983 RMK AO2 SLP101 T01890172 $=
202306120551 METAR KJFK 120551Z 19009KT 10SM BKN150 BKN220 19/17 A2984 RMK AO2 SLP103 T01890167 10206 20189 58004 $=
202306120451 METAR KJFK 120451Z 18015KT 10SM BKN250 19/17 A2985 RMK AO2 SLP106 T01890167 402440167 $=
202306120351 METAR KJFK 120351Z 18015KT 10SM BKN250 19/17 A2985 RMK AO2 SLP107 T01890172 $=
202306120251 METAR KJFK 120251Z 18016KT 10SM BKN250 19/17 A2985 RMK AO2 SLP107 T01890172 51005 $=
202306120151 METAR KJFK 120151Z 18016G24KT 10SM FEW100 BKN250 19/17 A2984 RMK AO2 PK WND 18027/0104 SLP105 T01940167 $=
202306120051 METAR KJFK 120051Z 18018KT 9SM FEW080 SCT100 SCT200 BKN250 19/17 A2984 RMK AO2 SLP103 T01940167 $=
202306112351 METAR KJFK 112351Z 16013KT 10SM SCT100 SCT180 BKN250 21/15 A2983 RMK AO2 SLP102 T02060150 10239 20206 56004=
202306112251 METAR KJFK 112251Z 14013KT 10SM FEW085 SCT110 BKN250 21/16 A2984 RMK AO2 SLP104 T02110156=
202306112151 METAR KJFK 112151Z 13007KT 10SM SCT090 SCT130 BKN250 21/16 A2983 RMK AO2 SLP102 T02110156=
202306112051 METAR KJFK 112051Z 13008KT 10SM FEW080 SCT110 BKN250 23/17 A2984 RMK AO2 SLP106 T02330167 58010=
202306111951 METAR KJFK 111951Z 15007KT 10SM FEW065 BKN110 OVC250 22/16 A2986 RMK AO2 SLP111 VCSH W T02170161=
202306111851 METAR KJFK 111851Z 15009KT 10SM FEW095 SCT120 SCT200 BKN250 23/16 A2987 RMK AO2 SLP114 T02280161=
202306111751 METAR KJFK 111751Z 14006KT 10SM BKN100 BKN210 BKN250 23/16 A2987 RMK AO2 SLP116 T02280161 10244 20189 58008=
202306111651 METAR KJFK 111651Z 15008KT 10SM SCT090 BKN220 BKN250 24/16 A2989 RMK AO2 SLP120 T02390156=
202306111551 METAR KJFK 111551Z VRB04KT 10SM SCT100 SCT210 BKN250 23/15 A2990 RMK AO2 SLP123 T02330150=
202306111451 METAR KJFK 111451Z 19005KT 10SM SCT100 SCT210 BKN250 22/15 A2990 RMK AO2 SLP124 T02220150 50004=
202306111351 METAR KJFK 111351Z 19006KT 9SM FEW095 SCT200 BKN250 21/16 A2990 RMK AO2 SLP125 T02110156=
202306111251 METAR KJFK 111251Z 20007KT 10SM FEW100 SCT200 BKN250 21/15 A2990 RMK AO2 SLP124 T02060150=
202306111151 METAR KJFK 111151Z 21005KT 10SM FEW100 BKN230 19/14 A2989 RMK AO2 SLP120 70005 T01890144 10194 20167 51008=
202306111051 METAR KJFK 111051Z 21004KT 10SM FEW100 BKN250 18/15 A2988 RMK AO2 SLP117 T01830150=
202306110951 METAR KJFK 110951Z 21008KT 10SM BKN100 BKN250 17/15 A2987 RMK AO2 SLP116 T01720150=
202306110851 METAR KJFK 110851Z 18005KT 10SM SCT100 SCT250 17/16 A2986 RMK AO2 SLP112 T01720156 50000=
202306110751 METAR KJFK 110751Z 13005KT 10SM FEW090 17/16 A2987 RMK AO2 SLP113 T01720156=
202306110651 METAR KJFK 110651Z 03005KT 10SM BKN080 BKN110 18/16 A2987 RMK AO2 SLP114 T01830161=
202306110551 METAR KJFK 110551Z 17005KT 10SM FEW055 BKN080 BKN110 18/16 A2986 RMK AO2 RAB12E50 SLP112 P0002 60005 T01780161 10200 20178 50002=
202306110451 METAR KJFK 110451Z 18007KT 10SM BKN080 BKN120 18/16 A2987 RMK AO2 RAE18 SLP114 P0003 T01780161 402670133=
202306110351 METAR KJFK 110351Z 27011KT 8SM -RA BKN065 BKN085 19/15 A2989 RMK AO2 RAB49 SLP121 P0000 T01940150=
202306110251 METAR KJFK 110251Z 20008KT 10SM BKN120 BKN250 18/15 A2986 RMK AO2 SLP110 T01830150 53012=
202306110151 METAR KJFK 110151Z 18005KT 10SM SCT250 18/14 A2985 RMK AO2 SLP107 T01830144=
202306110051 METAR KJFK 110051Z 20006KT 10SM BKN250 19/14 A2983 RMK AO2 SLP102 T01890139=
202306102351 METAR KJFK 102351Z 21008KT 10SM SCT100 BKN250 19/14 A2982 RMK AO2 SLP099 T01940144 10267 20189 53014=
202306102251 METAR KJFK 102251Z 19008KT 10SM SCT100 BKN250 20/14 A2981 RMK AO2 SLP093 T02000144=
202306102151 METAR KJFK 102151Z 19013KT 10SM SCT075 BKN090 21/14 A2979 RMK AO2 SLP087 T02110139=
202306102051 METAR KJFK 102051Z 20014KT 10SM BKN085 BKN200 23/13 A2978 RMK AO2 SLP085 T02280133 53001=
202306101951 METAR KJFK 101951Z 31013KT 10SM SCT070 BKN090 BKN200 26/09 A2977 RMK AO2 SLP081 T02610094=
202306101851 METAR KJFK 101851Z 30017G22KT 10SM FEW060 FEW075 BKN200 26/09 A2978 RMK AO2 SLP085 T02560089=
202306101751 METAR KJFK 101751Z 32009KT 10SM SCT060 BKN250 25/09 A2978 RMK AO2 SLP083 T02500094 10250 20172 58006=
202306101651 METAR KJFK 101651Z 28009G15KT 10SM SCT060 SCT070 BKN100 BKN250 23/09 A2979 RMK AO2 SLP086 T02280094=
202306101551 METAR KJFK 101551Z 29008KT 10SM SCT050 SCT250 22/09 A2979 RMK AO2 SLP089 T02220094=
202306101451 METAR KJFK 101451Z 30011G14KT 10SM FEW046 FEW090 SCT250 21/09 A2980 RMK AO2 SLP089 T02060089 50002=
202306101351 METAR KJFK 101351Z 31010KT 10SM FEW036 FEW090 SCT250 19/10 A2980 RMK AO2 SLP090 T01940100=
202306101251 METAR KJFK 101251Z 34010KT 10SM FEW090 FEW250 19/11 A2980 RMK AO2 SLP091 T01890106=
202306101151 METAR KJFK 101151Z 33009KT 10SM FEW090 FEW250 17/11 A2979 RMK AO2 SLP087 70006 T01720106 10172 20133 51015=
202306101051 METAR KJFK 101051Z 31009KT 10SM FEW090 SCT250 16/11 A2978 RMK AO2 SLP084 T01560106=
202306100951 METAR KJFK 100951Z 31009KT 10SM SCT090 SCT250 14/10 A2976 RMK AO2 SLP079 T01390100=
202306100851 METAR KJFK 100851Z 30007KT 10SM BKN090 BKN250 14/10 A2975 RMK AO2 SLP072 T01390100 53003=
202306100751 METAR KJFK 100751Z 32005KT 10SM FEW250 14/10 A2974 RMK AO2 SLP069 T01390100=
202306100651 METAR KJFK 100651Z 34003KT 10SM FEW100 FEW250 14/10 A2973 RMK AO2 SLP068 T01440100=
202306100551 METAR KJFK 100551Z 34007KT 10SM SCT110 SCT250 15/11 A2974 RMK AO2 SLP069 60006 T01500106 10172 20150 58008=
202306100451 METAR KJFK 100451Z 36004KT 10SM BKN090 BKN250 16/12 A2975 RMK AO2 SLP073 T01560122 402220144=
202306100351 METAR KJFK 100351Z 01005KT 10SM FEW045 BKN085 OVC250 16/14 A2975 RMK AO2 SLP075 T01610144=
202306100251 METAR KJFK 100251Z 26005KT 10SM FEW045 SCT090 SCT250 16/14 A2976 RMK AO2 SLP077 60006 T01610144 51009=
202306100151 METAR KJFK 100151Z 17009KT 10SM FEW045 FEW065 BKN090 BKN250 16/15 A2976 RMK AO2 LTG DSNT SE RAE0052B29E39 SLP076 OCNL LTGIC DSNT SE CB DSNT SE P0000 T01610150=
202306100051 METAR KJFK 100051Z 16005KT 10SM -RA SCT047 BKN090 OVC250 16/12 A2975 RMK AO2 RAB08 SLP072 P0006 T01560122=
202306092351 METAR KJFK 092351Z 19007KT 10SM FEW040 SCT070 BKN090 BKN250 17/13 A2973 RMK AO2 SLP068 VCSH W T01720128 10222 20172 53009=
202306092251 METAR KJFK 092251Z 16006KT 10SM FEW040 FEW070 BKN090 BKN230 18/13 A2972 RMK AO2 SLP065 VCSH SE AND W T01830128=
202306092151 METAR KJFK 092151Z 14005KT 10SM SCT065 BKN095 BKN140 BKN250 18/13 A2971 RMK AO2 SLP062 VCSH NE AND SW-NW T01830128=
202306092051 METAR KJFK 092051Z 18014KT 10SM SCT060 BKN100 BKN250 19/13 A2971 RMK AO2 SLP059 VCSH NW T01890128 55010=
202306091951 METAR KJFK 091951Z 18010KT 10SM SCT060 BKN095 BKN250 21/11 A2970 RMK AO2 SLP058 VCSH NW T02110106=
202306091851 METAR KJFK 091851Z 20008KT 10SM SCT050 BKN100 BKN250 21/10 A2972 RMK AO2 SLP063 T02110100=
202306091751 METAR KJFK 091751Z 21011KT 10SM SCT050 BKN095 BKN250 20/10 A2974 RMK AO2 SLP069 T02000100 10217 20167 58009=
202306091651 METAR KJFK 091651Z 23009G14KT 10SM SCT047 BKN070 BKN250 20/10 A2975 RMK AO2 SLP074 T02000100=
202306091551 METAR KJFK 091551Z 03004KT 10SM SCT044 BKN250 19/08 A2976 RMK AO2 SLP076 T01940083=
202306091451 METAR KJFK 091451Z 01004KT 10SM SCT042 SCT140 BKN250 19/09 A2976 RMK AO2 SLP078 T01940089 50001=
202306091351 METAR KJFK 091351Z VRB04KT 10SM SCT037 SCT140 BKN250 19/09 A2977 RMK AO2 SLP079 T01890089=
202306091251 METAR KJFK 091251Z 36006KT 10SM FEW034 SCT140 BKN250 18/09 A2977 RMK AO2 SLP080 T01780094=
202306091151 METAR KJFK 091151Z 02004KT 10SM FEW065 SCT150 BKN250 17/09 A2976 RMK AO2 SLP078 T01670094 10172 20144 51012=
202306091051 METAR KJFK 091051Z 34007KT 10SM FEW065 BKN150 BKN250 16/09 A2975 RMK AO2 SLP075 T01560094=
202306090951 METAR KJFK 090951Z 32007KT 10SM FEW080 BKN150 15/09 A2975 RMK AO2 SLP072 T01500089=
202306090851 METAR KJFK 090851Z 34006KT 10SM SCT070 OVC150 15/09 A2972 RMK AO2 SLP065 T01500089 55003=
202306090751 METAR KJFK 090751Z 32007KT 10SM SCT070 OVC150 16/08 A2972 RMK AO2 SLP065 T01560083=
202306090651 METAR KJFK 090651Z 33007KT 10SM SCT080 OVC140 16/08 A2973 RMK AO2 SLP066 T01610083=
202306090551 METAR KJFK 090551Z 34005KT 10SM FEW080 OVC140 16/08 A2973 RMK AO2 SLP068 T01610083 10178 20139 58005=
202306090451 METAR KJFK 090451Z 34005KT 6SM FU HZ FEW060 OVC140 16/09 A2974 RMK AO2 SLP070 T01610094 402170106=
202306090351 METAR KJFK 090351Z 00000KT 5SM FU HZ FEW055 BKN140 14/12 A2975 RMK AO2 SLP074 T01440117=
202306090251 METAR KJFK 090251Z 11003KT 5SM FU HZ FEW043 BKN160 16/10 A2975 RMK AO2 SLP073 T01610100 51009=
202306090151 METAR KJFK 090151Z 17004KT 6SM FU HZ FEW041 BKN110 17/11 A2975 RMK AO2 SLP073 T01670106=
202306090051 METAR KJFK 090051Z 00000KT 6SM FU HZ SCT043 BKN100 BKN210 17/10 A2973 RMK AO2 SLP066 T01720100=
202306082351 METAR KJFK 082351Z 16003KT 5SM FU HZ FEW000 FEW055 SCT070 BKN100 BKN180 18/11 A2972 RMK AO2 SLP064 FU HZ FEW000 T01780111 10217 20178 53003=
202306082251 METAR KJFK 082251Z 20005KT 5SM FU HZ FEW000 SCT075 BKN100 BKN210 18/11 A2971 RMK AO2 SLP060 FU HZ FEW000 T01830111=
202306082151 METAR KJFK 082151Z 18009KT 5SM FU HZ FEW000 FEW055 BKN075 BKN100 BKN250 18/12 A2971 RMK AO2 SLP060 FU HZ FEW000 T01830122=
202306082051 METAR KJFK 082051Z 22009KT 5SM FU HZ FEW000 FEW038 BKN070 BKN100 18/12 A2971 RMK AO2 SLP061 FU HZ FEW000 T01830117 53009=
202306081951 METAR KJFK 081951Z 19011KT 5SM FU HZ FEW000 SCT060 BKN090 20/09 A2969 RMK AO2 SLP055 FU HZ FEW000 T02000094=
202306081851 METAR KJFK 081851Z 20009KT 5SM FU HZ FEW000 SCT060 SCT085 21/08 A2969 RMK AO2 SLP055 FU HZ FEW000 T02060083=
202306081751 METAR KJFK 081751Z 21008KT 5SM FU HZ FEW000 SCT060 21/08 A2968 RMK AO2 SLP051 FU HZ FEW000 T02110083 10217 20161 58011=
202306081651 METAR KJFK 081651Z 20011KT 4SM FU HZ SCT000 SCT039 SCT250 21/08 A2970 RMK AO2 SLP057 FU HZ SCT000 T02060083=
202306081551 METAR KJFK 081551Z 20010KT 4SM FU HZ SCT000 SCT036 20/08 A2971 RMK AO2 SLP062 FU HZ SCT000 T02000083=
202306081451 METAR KJFK 081451Z 28006KT 4SM FU HZ SCT000 SCT036 21/07 A2972 RMK AO2 SLP062 FU HZ SCT000 T02060067 58003=
202306081351 METAR KJFK 081351Z 31005KT 3SM FU HZ SCT000 SCT029 19/08 A2973 RMK AO2 SLP066 FU HZ SCT000 T01940078=
202306081343 SPECI KJFK 081343Z 29004KT 3SM FU HZ SCT000 SCT029 18/07 A2973 RMK AO2 SFC VIS 3 T01830072=
202306081251 METAR KJFK 081251Z 35006KT 2 1/2SM FU HZ BKN000 BKN029 17/08 A2973 RMK AO2 SLP068 FU HZ BKN000 T01720083=
202306081151 METAR KJFK 081151Z 35004KT 2 1/2SM FU HZ BKN000 BKN031 16/08 A2973 RMK AO2 SLP066 FU HZ BKN000 T01610083 10161 20106 51018 $=
202306081051 METAR KJFK 081051Z 00000KT 3SM FU HZ SCT000 SCT031 12/09 A2972 RMK AO2 SLP063 FU HZ SCT000 T01220094 $=
202306080951 METAR KJFK 080951Z 00000KT 3SM FU HZ SCT000 SCT033 12/09 A2969 RMK AO2 SLP055 FU HZ SCT000 T01170089 $=
202306080916 SPECI KJFK 080916Z 00000KT 3SM FU HZ SCT000 SCT033 11/08 A2968 RMK AO2 SFC VIS 4 FU HZ SCT000 T01110078 $=
202306080851 METAR KJFK 080851Z 00000KT 1 1/2SM FU HZ BKN000 BKN033 12/08 A2967 RMK AO2 SFC VIS 4 SLP048 FU HZ BKN000 T01170078 57003 $=
202306080751 METAR KJFK 080751Z 34003KT 1 1/2SM FU HZ BKN000 BKN035 12/08 A2967 RMK AO2 SFC VIS 4 SLP048 FU HZ BKN000 T01220078=
202306080651 METAR KJFK 080651Z 36004KT 1 1/2SM FU HZ BKN000 BKN037 13/08 A2968 RMK AO2 SFC VIS 4 SLP050 FU HZ BKN000 T01280078=
202306080551 METAR KJFK 080551Z 00000KT 1 1/2SM FU HZ BKN000 OVC035 13/07 A2968 RMK AO2 SFC VIS 3 SLP051 FU HZ BKN000 T01280067 10189 20128 50001=
202306080451 METAR KJFK 080451Z 01005KT 1 1/2SM FU HZ BKN000 OVC046 15/06 A2969 RMK AO2 SFC VIS 2 1/2 SLP053 FU HZ BKN000 T01500061 402220133=
202306080351 METAR KJFK 080351Z 34007KT 1 1/2SM FU HZ BKN000 OVC043 17/03 A2969 RMK AO2 SFC VIS 2 1/2 SLP053 FU HZ BKN000 T01670028=
202306080251 METAR KJFK 080251Z 30007KT 1 1/2SM FU HZ BKN000 OVC043 18/03 A2968 RMK AO2 SFC VIS 3 SLP050 FU HZ BKN000 T01780033 53009=
202306080151 METAR KJFK 080151Z 31006KT 1 1/2SM FU HZ BKN000 OVC043 17/04 A2967 RMK AO2 SFC VIS 3 SLP046 FU HZ BKN000 T01720044=
202306080051 METAR KJFK 080051Z 31009KT 1 1/2SM FU HZ BKN000 OVC038 18/05 A2967 RMK AO2 SFC VIS 2 1/2 SLP045 FU HZ BKN000 T01830050=
202306072351 METAR KJFK 072351Z 27012KT 1 1/2SM FU HZ BKN000 OVC034 19/05 A2966 RMK AO2 SFC VIS 2 1/2 SLP042 FU HZ BKN000 T01890050 10211 20189 53010=
202306072251 METAR KJFK 072251Z 28009KT 1 1/2SM FU HZ BKN000 OVC028 19/06 A2964 RMK AO2 SFC VIS 3 SLP037 FU HZ BKN000 T01940056=
202306072151 METAR KJFK 072151Z 31012KT 1 1/2SM FU HZ BKN000 OVC028 20/04 A2963 RMK AO2 SFC VIS 3 SLP034 FU HZ BKN000 T02000044=
202306072051 METAR KJFK 072051Z 32012KT 1 1/2SM FU HZ BKN000 OVC028 19/04 A2963 RMK AO2 SFC VIS 2 1/2 SLP032 FU HZ BKN000 T01940044 53007=
202306071951 METAR KJFK 071951Z 31011KT 1 1/2SM FU HZ BKN000 OVC028 19/03 A2962 RMK AO2 SLP028 FU HZ BKN000 T01940028=
202306071851 METAR KJFK 071851Z 31014KT 1 1/2SM FU HZ BKN000 OVC030 19/03 A2961 RMK AO2 SLP027 FU HZ BKN000 T01890028=
202306071751 METAR KJFK 071751Z 31017G23KT 1 1/2SM FU HZ BKN000 OVC026 21/04 A2961 RMK AO2 SLP025 FU HZ BKN000 T02060044 10222 20161 56012=
202306071705 SPECI KJFK 071705Z 31016G22KT 1 1/2SM FU HZ BKN000 OVC024 22/06 A2961 RMK AO2 FU HZ BKN000 T02170061=
202306071651 METAR KJFK 071651Z 31016G24KT 2SM FU HZ BKN026 OVC200 22/06 A2961 RMK AO2 SLP028 FU OVC200 T02170061=
202306071634 SPECI KJFK 071634Z 28015G18KT 2 1/2SM FU HZ BKN029 OVC200 22/05 A2961 RMK AO2 FU OVC200 T02170050=
202306071551 METAR KJFK 071551Z 27010G16KT 4SM FU HZ FEW038 OVC220 22/07 A2962 RMK AO2 SLP030 FU OVC220 T02220067=
202306071451 METAR KJFK 071451Z 33009KT 6SM FU HZ BKN220 21/07 A2964 RMK AO2 SLP037 FU BKN220 T02110072 54000=
202306071351 METAR KJFK 071351Z 32014KT 5SM FU HZ OVC300 19/08 A2964 RMK AO2 SLP037 FU OVC300 T01890078=
202306071251 METAR KJFK 071251Z 33014KT 5SM FU HZ OVC300 17/07 A2964 RMK AO2 SLP037 FU OVC300 T01720072=
202306071151 METAR KJFK 071151Z 32011KT 6SM FU HZ BKN300 16/07 A2964 RMK AO2 SLP037 FU BKN300 70003 T01610067 10167 20133 52003=
202306071051 METAR KJFK 071051Z 32009KT 6SM FU HZ BKN300 14/06 A2964 RMK AO2 SLP037 FU BKN300 T01440061=
202306070951 METAR KJFK 070951Z 32007KT 5SM FU HZ BKN300 13/06 A2963 RMK AO2 SLP034 FU BKN300 T01330061=
202306070851 METAR KJFK 070851Z 32011KT 6SM FU HZ FEW050 BKN300 14/06 A2963 RMK AO2 SLP034 FU BKN300 T01440056 52000=
202306070751 METAR KJFK 070751Z 30011KT 6SM FU HZ FEW050 BKN300 16/06 A2964 RMK AO2 SLP035 FU BKN300 T01560056=
202306070651 METAR KJFK 070651Z 31012KT 5SM FU HZ FEW048 OVC300 16/06 A2963 RMK AO2 SLP033 FU OVC300 T01610061=
202306070551 METAR KJFK 070551Z 32011KT 5SM FU HZ SCT048 OVC300 16/07 A2963 RMK AO2 SLP034 FU OVC300 T01610067 10200 20150 58006=
202306070451 METAR KJFK 070451Z 34010KT 4SM FU HZ BKN047 16/08 A2964 RMK AO2 SLP035 T01610078 402500150=
202306070351 METAR KJFK 070351Z 01007KT 4SM FU HZ OVC041 17/08 A2965 RMK AO2 SLP040 T01670083=
202306070251 METAR KJFK 070251Z 35011KT 5SM FU HZ OVC041 18/08 A2965 RMK AO2 SLP040 T01830083 51015=
202306070151 METAR KJFK 070151Z 34018G25KT 5SM FU HZ FEW035 OVC050 19/08 A2964 RMK AO2 SLP038 T01940083=
202306070051 METAR KJFK 070051Z 32012KT 6SM FU HZ OVC060 20/08 A2963 RMK AO2 SLP032 T02000078=
202306062351 METAR KJFK 062351Z 19006KT 7SM BKN044 OVC300 18/12 A2960 RMK AO2 RAB10E20 SLP025 FU OVC300 P0000 60003 T01830122 10250 20183 51010=
202306062251 METAR KJFK 062251Z 10003KT 7SM BKN039 BKN050 OVC300 18/13 A2960 RMK AO2 SLP022 FU OVC300 T01830133=
202306062151 METAR KJFK 062151Z 10005KT 7SM FEW039 SCT095 OVC300 19/13 A2959 RMK AO2 LTG DSNT S SLP021 RAB14E37 FU OVC300 P0002 T01890133=
202306062051 METAR KJFK 062051Z 09009KT 7SM SCT050 SCT090 BKN300 22/11 A2957 RMK AO2 LTG DSNT E SLP014 FU BKN300 60001 T02170111 56011=
202306061951 METAR KJFK 061951Z 15011KT 8SM SCT050 BKN100 BKN300 21/15 A2958 RMK AO2 LTG DSNT NE-SE RAB17E39 SLP017 FU BKN300 P0001 T02060150=
202306061851 METAR KJFK 061851Z 16011KT 8SM SCT060 BKN090 BKN120 BKN300 22/12 A2958 RMK AO2 LTG DSNT N SLP016 FU BKN300 CB DSNT NW T02220117=
202306061751 METAR KJFK 061751Z 19009KT 7SM SCT060 SCT085 BKN300 23/11 A2961 RMK AO2 SLP026 FU BKN300 60000 T02280106 10250 20172 58027=
202306061651 METAR KJFK 061651Z 24010KT 6SM FU HZ FEW055 OVC300 24/10 A2964 RMK AO2 SLP037 FU OVC300 T02440100=
202306061551 METAR KJFK 061551Z 25008KT 6SM FU HZ BKN300 23/09 A2967 RMK AO2 SLP046 FU BKN300 T02280089=
202306061451 METAR KJFK 061451Z 32008KT 7SM FEW110 BKN300 21/08 A2969 RMK AO2 RAB1352E05 SLP052 FU BKN300 P0000 60000 T02110078 58016=
202306061351 METAR KJFK 061351Z 31012KT 8SM FEW046 BKN110 OVC300 17/08 A2972 RMK AO2 RAB39E48 SLP063 FU OVC300 P0000 T01720078=
202306061251 METAR KJFK 061251Z 25011KT 7SM FEW050 SCT110 BKN300 19/08 A2972 RMK AO2 SLP064 FU BKN300 T01890078=
202306061151 METAR KJFK 061151Z 26007KT 6SM FU HZ FEW050 OVC300 18/07 A2973 RMK AO2 SLP068 FU OVC300 T01830067 10183 20156 58006=
202306061051 METAR KJFK 061051Z 31005KT 6SM FU HZ BKN300 17/05 A2974 RMK AO2 SLP071 FU BKN300 T01720050=
202306060951 METAR KJFK 060951Z 31007KT 6SM FU HZ BKN300 16/05 A2975 RMK AO2 SLP075 FU BKN300 T01610050=
202306060851 METAR KJFK 060851Z 31006KT 7SM BKN300 16/05 A2975 RMK AO2 SLP074 FU BKN300 T01560050 56005=
202306060751 METAR KJFK 060751Z 32007KT 7SM BKN300 17/05 A2975 RMK AO2 SLP074 FU BKN300 T01670050=
202306060651 METAR KJFK 060651Z 33010KT 7SM BKN300 17/06 A2975 RMK AO2 SLP075 FU BKN300 T01720056=
202306060551 METAR KJFK 060551Z 33010KT 8SM BKN300 18/05 A2977 RMK AO2 SLP080 FU BKN300 T01780050 10206 20178 56007=
202306060451 METAR KJFK 060451Z 33011KT 8SM FEW210 OVC300 19/05 A2977 RMK AO2 SLP081 FU OVC300 T01890050 402500100=
202306060351 METAR KJFK 060351Z 33011KT 9SM FEW090 SCT210 OVC300 19/06 A2978 RMK AO2 SLP084 FU OVC300 T01940056=
202306060251 METAR KJFK 060251Z 33011KT 10SM SCT090 OVC300 20/07 A2979 RMK AO2 SLP087 FU OVC300 T02000072 58003=
202306060151 METAR KJFK 060151Z 21005KT 10SM FEW080 SCT095 BKN190 BKN300 18/14 A2980 RMK AO2 SLP090 FU BKN300 T01780139=
202306060051 METAR KJFK 060051Z 21011KT 10SM BKN075 BKN100 BKN250 OVC300 18/12 A2980 RMK AO2 SLP090 FU OVC300 T01830122=
202306052351 METAR KJFK 052351Z 18006KT 10SM FEW075 BKN095 BKN250 BKN300 18/12 A2980 RMK AO2 SLP090 FU BKN300 T01830122 10250 20183 55001=
202306052251 METAR KJFK 052251Z 17007KT 10SM FEW075 BKN100 OVC250 19/13 A2980 RMK AO2 SLP090 T01890133=
202306052231 SPECI KJFK 052231Z 19011KT 10SM FEW075 BKN100 BKN250 19/13 A2980 RMK AO2 T01890133=
202306052151 METAR KJFK 052151Z 03006KT 10SM SCT070 BKN100 BKN250 23/08 A2980 RMK AO2 SLP089 T02280078=
202306052051 METAR KJFK 052051Z 03011KT 10SM SCT065 BKN090 BKN250 23/08 A2980 RMK AO2 SLP091 T02330078 56009=
202306051951 METAR KJFK 051951Z 02015G19KT 10SM BKN065 BKN250 23/08 A2980 RMK AO2 SLP092 T02330078=
202306051851 METAR KJFK 051851Z 36017G22KT 10SM SCT065 BKN250 23/07 A2981 RMK AO2 PK WND 36030/1807 SLP095 T02280072=
202306051751 METAR KJFK 051751Z 02014G19KT 10SM SCT060 SCT250 24/08 A2983 RMK AO2 PK WND 32027/1656 SLP100 T02390078 10239 20161 57021=
202306051651 METAR KJFK 051651Z 01019G27KT 10SM SCT055 SCT095 SCT250 22/08 A2985 RMK AO2 PK WND 01027/1651 SLP108 T02220078=
202306051551 METAR KJFK 051551Z 33016G22KT 10SM SCT049 SCT095 SCT250 21/08 A2987 RMK AO2 SLP113 T02110078=
202306051451 METAR KJFK 051451Z 33014KT 10SM FEW044 SCT095 SCT250 21/08 A2989 RMK AO2 SLP122 T02060083 58014=
202306051351 METAR KJFK 051351Z 34013KT 10SM FEW041 FEW060 SCT095 SCT250 19/08 A2991 RMK AO2 SLP129 T01890083=
202306051251 METAR KJFK 051251Z 34007G15KT 10SM FEW041 SCT060 SCT250 18/08 A2993 RMK AO2 SLP135 T01780078=
202306051151 METAR KJFK 051151Z 32005KT 10SM FEW060 FEW250 16/08 A2993 RMK AO2 SLP136 T01610078 10161 20100 58003=
202306051051 METAR KJFK 051051Z 00000KT 10SM FEW060 FEW250 14/08 A2994 RMK AO2 SLP138 T01390083=
202306050951 METAR KJFK 050951Z 00000KT 10SM FEW060 10/07 A2994 RMK AO2 SLP140 T01000067=
202306050851 METAR KJFK 050851Z 04004KT 10SM CLR 11/07 A2994 RMK AO2 SLP139 T01060067 56008=
202306050751 METAR KJFK 050751Z 36005KT 10SM FEW060 12/07 A2994 RMK AO2 SLP140 T01170072=
202306050651 METAR KJFK 050651Z 02006KT 10SM FEW060 12/07 A2995 RMK AO2 SLP142 T01220072=
202306050551 METAR KJFK 050551Z 04006KT 10SM SCT055 13/08 A2997 RMK AO2 SLP147 T01280078 10161 20128 58012=
202306050451 METAR KJFK 050451Z 03004KT 10SM SCT048 13/07 A2998 RMK AO2 SLP151 T01330072 402110094=
202306050351 METAR KJFK 050351Z 04008KT 10SM BKN048 14/07 A3000 RMK AO2 SLP158 T01440072=
202306050251 METAR KJFK 050251Z 03007KT 10SM OVC060 15/07 A3000 RMK AO2 SLP159 T01500072 50007=
202306050151 METAR KJFK 050151Z 04008KT 10SM BKN065 OVC080 15/07 A3001 RMK AO2 SLP160 T01500072=
202306050051 METAR KJFK 050051Z 05009KT 10SM BKN070 BKN085 16/07 A2999 RMK AO2 SLP155 T01560072=
202306042351 METAR KJFK 042351Z 09007KT 10SM FEW045 BKN065 BKN075 16/07 A2998 RMK AO2 SLP152 T01610072 10211 20161 53008=
202306042251 METAR KJFK 042251Z 03008KT 10SM FEW045 BKN065 BKN075 17/07 A2997 RMK AO2 SLP149 T01720067=
202306042151 METAR KJFK 042151Z 05012KT 10SM FEW045 BKN065 BKN080 18/07 A2996 RMK AO2 SLP145 T01830067=
202306042051 METAR KJFK 042051Z 02015G20KT 10SM FEW045 BKN075 19/06 A2996 RMK AO2 SLP144 T01890056 55006=
202306041951 METAR KJFK 041951Z 01013G22KT 10SM FEW045 BKN065 20/06 A2995 RMK AO2 SLP141 T02000061=
202306041851 METAR KJFK 041851Z 03013KT 10SM FEW045 BKN070 19/06 A2997 RMK AO2 SLP147 T01890061=
202306041751 METAR KJFK 041751Z 35010G18KT 10SM FEW045 BKN065 18/06 A2998 RMK AO2 SLP151 T01830061 10194 20117 56017=
202306041651 METAR KJFK 041651Z 04013G19KT 10SM FEW030 FEW045 BKN060 18/07 A2999 RMK AO2 SLP154 T01780067=
202306041551 METAR KJFK 041551Z 35010G19KT 10SM FEW030 FEW045 BKN055 18/07 A3001 RMK AO2 SLP160 T01830067=
202306041451 METAR KJFK 041451Z 35010G16KT 10SM FEW030 FEW043 BKN060 18/06 A3003 RMK AO2 SLP167 T01780061 58013=
202306041351 METAR KJFK 041351Z 02006KT 10SM FEW030 SCT048 BKN065 16/06 A3005 RMK AO2 SLP174 T01560061=
202306041251 METAR KJFK 041251Z 02011KT 10SM FEW030 FEW049 BKN060 15/06 A3005 RMK AO2 SLP176 T01500056=
202306041151 METAR KJFK 041151Z 36009KT 10SM BKN047 BKN075 12/06 A3006 RMK AO2 SLP180 T01170061 10117 20094 53001=
202306041051 METAR KJFK 041051Z 01005KT 10SM FEW030 FEW080 11/07 A3006 RMK AO2 SLP177 T01060067=
202306040951 METAR KJFK 040951Z 01006KT 10SM FEW030 FEW075 FEW100 09/06 A3007 RMK AO2 SLP180 T00940061=
202306040851 METAR KJFK 040851Z 01009KT 10SM FEW040 FEW100 09/06 A3006 RMK AO2 SLP179 T00940061 58010=
202306040751 METAR KJFK 040751Z 02008KT 10SM FEW040 10/06 A3007 RMK AO2 SLP183 T01000056=
202306040651 METAR KJFK 040651Z 04009KT 10SM BKN027 BKN032 11/06 A3009 RMK AO2 SLP188 T01060061=
202306040551 METAR KJFK 040551Z 05009KT 10SM OVC029 12/07 A3009 RMK AO2 SLP189 T01170067 10156 20117 58006=
202306040451 METAR KJFK 040451Z 06011KT 10SM OVC028 12/07 A3010 RMK AO2 SLP193 T01220067 402110122=
202306040351 METAR KJFK 040351Z 07008KT 10SM BKN026 12/07 A3010 RMK AO2 SLP194 T01220072=
202306040251 METAR KJFK 040251Z 06012KT 10SM OVC027 13/07 A3011 RMK AO2 SLP196 T01280072 51012=
202306040211 SPECI KJFK 040211Z 06013KT 10SM BKN027 13/08 A3011 RMK AO2 T01330078=
202306040151 METAR KJFK 040151Z 04010KT 10SM SCT025 BKN060 13/08 A3010 RMK AO2 SLP194 T01330083=
202306040051 METAR KJFK 040051Z 06013KT 10SM FEW029 BKN035 BKN050 14/09 A3008 RMK AO2 SLP187 T01440089=
202306032351 METAR KJFK 032351Z 08013KT 10SM SCT029 BKN039 OVC055 16/09 A3007 RMK AO2 SLP184 T01560094 10194 20156 53019=
202306032251 METAR KJFK 032251Z 07013KT 10SM BKN033 OVC055 17/10 A3005 RMK AO2 SLP175 T01670100=
202306032151 METAR KJFK 032151Z 05011KT 10SM FEW020 BKN033 OVC055 18/11 A3003 RMK AO2 WSHFT 2111 SLP169 T01780111=
202306032131 SPECI KJFK 032131Z 06013KT 10SM FEW020 BKN031 OVC050 18/11 A3002 RMK AO2 WSHFT 2111 T01780111=
202306032051 METAR KJFK 032051Z 09007KT 10SM FEW018 BKN031 OVC050 18/12 A3002 RMK AO2 SLP164 T01830117 53000=
202306031951 METAR KJFK 031951Z 05011KT 10SM BKN030 OVC060 19/12 A3001 RMK AO2 SLP160 T01890117=
202306031944 SPECI KJFK 031944Z 05010KT 10SM BKN030 OVC060 19/12 A3001 RMK AO2 T01890117=
202306031851 METAR KJFK 031851Z 08009KT 10SM BKN028 OVC060 19/12 A3002 RMK AO2 SLP165 T01890122=
202306031751 METAR KJFK 031751Z 04010KT 10SM BKN024 BKN060 19/12 A3002 RMK AO2 SLP164 T01890122 10211 20172 50010=
202306031651 METAR KJFK 031651Z 05012KT 10SM OVC021 17/12 A3002 RMK AO2 SLP165 T01720122=
202306031551 METAR KJFK 031551Z 05016KT 10SM BKN018 OVC060 18/13 A3000 RMK AO2 SLP160 T01830128=
202306031451 METAR KJFK 031451Z 05011KT 10SM OVC019 20/14 A2999 RMK AO2 SLP153 T02000139 51013=
202306031351 METAR KJFK 031351Z 05011KT 10SM OVC018 19/14 A2997 RMK AO2 SLP150 T01890144=
202306031251 METAR KJFK 031251Z 06015KT 10SM FEW019 SCT050 BKN130 20/16 A2996 RMK AO2 SLP145 T02000156=
202306031151 METAR KJFK 031151Z 06013G22KT 10SM SCT018 SCT050 BKN130 19/16 A2995 RMK AO2 SLP140 70002 T01890156 10200 20167 53021=
202306031051 METAR KJFK 031051Z 06008KT 10SM SCT012 BKN130 19/16 A2992 RMK AO2 SLP132 T01940161=
202306030951 METAR KJFK 030951Z 07008KT 10SM FEW060 BKN100 18/16 A2990 RMK AO2 SLP125 T01780156=
202306030858 SPECI KJFK 030858Z 04003KT 10SM FEW014 SCT100 BKN200 17/16 A2988 RMK AO2 T01720156=
202306030851 METAR KJFK 030851Z 04003KT 10SM BKN020 BKN150 17/16 A2988 RMK AO2 SLP119 T01720156 55003=
202306030751 METAR KJFK 030751Z 00000KT 10SM FEW150 SCT200 18/16 A2987 RMK AO2 SLP115 T01780161=
202306030651 METAR KJFK 030651Z 00000KT 10SM FEW170 FEW200 17/16 A2988 RMK AO2 SLP118 T01670156=
202306030551 METAR KJFK 030551Z 10003KT 10SM FEW170 SCT200 18/16 A2989 RMK AO2 SLP122 60002 T01780161 10211 20178 55000=
202306030451 METAR KJFK 030451Z 07005KT 10SM SCT080 OVC100 19/16 A2990 RMK AO2 SLP125 T01890161 402610156=
202306030351 METAR KJFK 030351Z 15004KT 10SM BKN110 OVC200 19/16 A2988 RMK AO2 SLP117 T01890156=
202306030251 METAR KJFK 030251Z 06004KT 10SM FEW120 BKN200 19/14 A2989 RMK AO2 SLP122 60002 T01940139 53013=
202306030151 METAR KJFK 030151Z 00000KT 10SM FEW055 FEW150 BKN230 19/14 A2988 RMK AO2 SLP118 T01940139=
202306030051 METAR KJFK 030051Z 13004KT 10SM FEW055 FEW100 BKN170 BKN230 20/14 A2987 RMK AO2 RAE32 SLP114 P0002 T02000144=
202306022351 METAR KJFK 022351Z 19007KT 10SM -RA SCT050 SCT100 BKN120 BKN150 BKN190 BKN250 21/14 A2986 RMK AO2 LTG DSNT SW RAB32 TSE32 SLP110 CB DSNT SW P0000 60000 T02110144 10261 20211 50001=
202306022334 SPECI KJFK 022334Z 17005KT 10SM -RA SCT050CB SCT095 BKN120 BKN150 BKN190 BKN250 22/12 A2986 RMK AO2 LTG DSNT SW RAB32 TSE32 CB SW MOV S P0000 T02220117=
202306022251 METAR KJFK 022251Z 22004KT 10SM TS SCT050CB SCT100 BKN250 23/08 A2988 RMK AO2 LTG DSNT NW TSB43 SLP118 OCNL LTGICCG NW TS NW MOV S VCSH NW T02280078=
202306022244 SPECI KJFK 022244Z 29009KT 10SM TS SCT050CB SCT100 BKN250 22/10 A2990 RMK AO2 LTG DSNT N AND NW TSB43 OCNL LTGICCG NW TS NW MOV S VCSH NW T02220100=
202306022151 METAR KJFK 022151Z 15008KT 10SM FEW050 FEW090 SCT250 23/12 A2985 RMK AO2 LTG DSNT W-N SLP108 CB DSNT NW T02330117=
202306022051 METAR KJFK 022051Z 18009KT 10SM FEW050 FEW090 SCT250 24/11 A2985 RMK AO2 SLP109 CB DSNT NW T02390106 56018=
202306021951 METAR KJFK 021951Z 19010KT 10SM FEW050 SCT250 24/13 A2987 RMK AO2 SLP114 CB DSNT NW-N T02390133=
202306021851 METAR KJFK 021851Z 20008KT 10SM FEW050 FEW090 FEW250 25/14 A2989 RMK AO2 SLP120 T02500144=
202306021751 METAR KJFK 021751Z 17007KT 10SM FEW050 FEW095 FEW250 26/15 A2991 RMK AO2 SLP127 T02560150 10261 20194 58008=
202306021651 METAR KJFK 021651Z 18008KT 10SM FEW045 FEW095 24/16 A2992 RMK AO2 SLP132 T02440156=
202306021551 METAR KJFK 021551Z 19009KT 10SM FEW045 26/16 A2992 RMK AO2 SLP133 T02560161=
202306021451 METAR KJFK 021451Z 19006KT 10SM CLR 24/16 A2993 RMK AO2 SLP135 T02440161 58002=
202306021351 METAR KJFK 021351Z 17004KT 10SM CLR 23/16 A2993 RMK AO2 SLP136 T02330156=
202306021251 METAR KJFK 021251Z 17004KT 10SM CLR 21/16 A2994 RMK AO2 SLP138 T02110156=
202306021151 METAR KJFK 021151Z 19003KT 10SM FEW250 19/16 A2994 RMK AO2 SLP137 T01890161 10194 20156 56004=
202306021051 METAR KJFK 021051Z 22004KT 10SM FEW250 17/17 A2994 RMK AO2 SLP139 T01720167=
202306020951 METAR KJFK 020951Z 20006KT 10SM CLR 16/16 A2994 RMK AO2 SLP138 T01610156=
202306020851 METAR KJFK 020851Z 18004KT 10SM CLR 16/16 A2995 RMK AO2 SLP141 T01560156 56015=
202306020751 METAR KJFK 020751Z 23003KT 10SM CLR 16/16 A2996 RMK AO2 SLP144 T01610156=
202306020651 METAR KJFK 020651Z 21004KT 10SM CLR 16/15 A2998 RMK AO2 SLP150 T01610150=
202306020551 METAR KJFK 020551Z 22004KT 10SM CLR 16/15 A2999 RMK AO2 SLP156 T01560150 10194 20156 58016=
202306020451 METAR KJFK 020451Z 22003KT 10SM CLR 17/16 A3001 RMK AO2 SLP163 T01670156 402440139=
202306020351 METAR KJFK 020351Z 18003KT 10SM CLR 17/16 A3002 RMK AO2 SLP167 T01670156=
202306020251 METAR KJFK 020251Z 20005KT 10SM FEW250 17/16 A3004 RMK AO2 SLP172 T01670156 50005=
202306020151 METAR KJFK 020151Z 19004KT 10SM FEW250 17/16 A3004 RMK AO2 SLP172 T01670156=
202306020051 METAR KJFK 020051Z 14003KT 10SM FEW250 18/16 A3003 RMK AO2 SLP170 T01780161=
202306012351 METAR KJFK 012351Z 16007KT 10SM FEW250 19/15 A3002 RMK AO2 SLP167 T01940150 10244 20194 55007=
202306012251 METAR KJFK 012251Z 18006KT 10SM CLR 21/16 A3002 RMK AO2 SLP166 T02060161=
202306012151 METAR KJFK 012151Z 19005KT 10SM CLR 22/16 A3002 RMK AO2 SLP166 T02220156=
202306012051 METAR KJFK 012051Z 18009KT 10SM CLR 22/16 A3004 RMK AO2 SLP174 T02220156 56014=
202306011951 METAR KJFK 011951Z 18009KT 10SM CLR 23/15 A3006 RMK AO2 SLP178 T02330150=
202306011851 METAR KJFK 011851Z 19009KT 10SM CLR 23/15 A3007 RMK AO2 SLP183 T02330150=
202306011751 METAR KJFK 011751Z 22008KT 10SM CLR 24/14 A3008 RMK AO2 SLP187 T02390144 10244 20189 58013=
202306011651 METAR KJFK 011651Z 19007KT 10SM CLR 23/15 A3010 RMK AO2 SLP192 T02330150=
202306011551 METAR KJFK 011551Z 21008KT 10SM FEW300 23/14 A3012 RMK AO2 SLP197 FU FEW300 T02280144=
202306011451 METAR KJFK 011451Z 21008KT 10SM FEW250 22/15 A3012 RMK AO2 SLP200 T02220150 58005=
202306011351 METAR KJFK 011351Z 21005KT 10SM FEW250 22/14 A3013 RMK AO2 SLP202 T02170144=
202306011251 METAR KJFK 011251Z 00000KT 10SM FEW250 FEW300 21/14 A3014 RMK AO2 SLP205 FU FEW300 T02110144=
202306011151 METAR KJFK 011151Z 00000KT 10SM FEW300 19/14 A3014 RMK AO2 SLP204 FU FEW300 T01890139 10189 20139 53006=
202306011051 METAR KJFK 011051Z 04003KT 10SM FEW300 17/13 A3013 RMK AO2 SLP202 FU FEW300 T01670133=
202306010951 METAR KJFK 010951Z 00000KT 10SM FEW300 14/12 A3013 RMK AO2 SLP201 FU FEW300 T01440122=
202306010851 METAR KJFK 010851Z 01004KT 10SM FEW300 14/12 A3012 RMK AO2 SLP199 FU FEW300 T01440122 56010=
202306010751 METAR KJFK 010751Z 03003KT 10SM FEW300 14/12 A3012 RMK AO2 SLP199 FU FEW300 T01440122=
202306010651 METAR KJFK 010651Z 01004KT 10SM FEW300 15/12 A3014 RMK AO2 SLP206 FU FEW300 T01500122=
202306010551 METAR KJFK 010551Z 00000KT 10SM FEW300 15/12 A3015 RMK AO2 SLP209 FU FEW300 T01500122 10167 20144 58002=
202306010451 METAR KJFK 010451Z 03003KT 10SM FEW300 16/13 A3015 RMK AO2 SLP210 FU FEW300 T01560128 402110089=
202306010351 METAR KJFK 010351Z 00000KT 10SM FEW300 16/13 A3016 RMK AO2 SLP213 FU FEW300 T01560128=
202306010251 METAR KJFK 010251Z 00000KT 10SM FEW300 15/12 A3016 RMK AO2 SLP211 FU FEW300 T01500122 58001=
202306010151 METAR KJFK 010151Z 07003KT 10SM FEW250 FEW300 16/13 A3016 RMK AO2 SLP212 FU FEW300 T01560128=
202306010051 METAR KJFK 010051Z 13004KT 10SM FEW250 FEW300 16/13 A3016 RMK AO2 SLP213 FU FEW300 T01560128=
202305312351 METAR KJFK 312351Z 13005KT 10SM FEW250 FEW300 17/13 A3016 RMK AO2 SLP212 FU FEW300 T01670128 10211 20167 56004=
202305312251 METAR KJFK 312251Z 13008KT 10SM FEW250 SCT300 18/13 A3016 RMK AO2 SLP213 FU SCT300 T01830133=
202305312151 METAR KJFK 312151Z 15009KT 10SM FEW250 SCT300 19/14 A3017 RMK AO2 SLP214 FU SCT300 T01940139=
202305312051 METAR KJFK 312051Z 15010KT 10SM FEW250 SCT300 19/14 A3017 RMK AO2 SLP216 FU SCT300 T01890139 56013=
202305311951 METAR KJFK 311951Z 17005KT 10SM FEW250 SCT300 20/14 A3018 RMK AO2 SLP219 FU SCT300 T02000139=
202305311851 METAR KJFK 311851Z 18009KT 10SM FEW250 FEW300 21/14 A3020 RMK AO2 SLP226 FU FEW300 T02060139=
202305311751 METAR KJFK 311751Z 19007KT 10SM FEW250 FEW300 20/14 A3021 RMK AO2 SLP229 FU FEW300 T02000139 10206 20117 58005=
202305311651 METAR KJFK 311651Z 18008KT 10SM FEW250 SCT300 19/13 A3022 RMK AO2 SLP231 FU SCT300 T01940133=
202305311551 METAR KJFK 311551Z 18009KT 10SM FEW250 19/13 A3022 RMK AO2 SLP234 T01940128=
202305311451 METAR KJFK 311451Z 00000KT 9SM FEW250 19/10 A3023 RMK AO2 SLP235 T01890100 58004=
202305311351 METAR KJFK 311351Z 00000KT 10SM FEW018 FEW250 17/09 A3024 RMK AO2 SLP240 T01720089=
202305311251 METAR KJFK 311251Z 01003KT 10SM FEW012 SCT250 14/08 A3024 RMK AO2 SLP241 T01440083=
202305311151 METAR KJFK 311151Z 06003KT 8SM FEW006 SCT250 12/09 A3024 RMK AO2 SLP240 T01170089 10117 20089 50015=
202305311137 SPECI KJFK 311137Z 00000KT 7SM SCT006 SCT250 11/09 A3024 RMK AO2 T01060089=
202305311051 METAR KJFK 311051Z 00000KT 6SM BR BKN006 10/09 A3024 RMK AO2 SLP240 T01000094=
202305311040 SPECI KJFK 311040Z 09004KT 5SM BR BKN006 10/09 A3023 RMK AO2 T01000094=
202305310951 METAR KJFK 310951Z 05005KT 2 1/2SM OVC006 10/09 A3022 RMK AO2 SFC VIS 7 SLP233 T01000094=
202305310942 SPECI KJFK 310942Z 05005KT 2 1/2SM BR BKN006 10/09 A3021 RMK AO2 SFC VIS 6 T01000094=
202305310938 SPECI KJFK 310938Z 05004KT 7SM BKN006 10/09 A3021 RMK AO2 T01000094=
202305310851 METAR KJFK 310851Z 05004KT 10SM FEW009 FEW300 09/08 A3020 RMK AO2 SLP225 FU FEW300 T00890078 56005=
202305310751 METAR KJFK 310751Z 06004KT 10SM FEW009 FEW300 10/09 A3020 RMK AO2 SLP226 FU FEW300 T01000089=
202305310654 SPECI KJFK 310654Z 04006KT 10SM BKN009 10/08 A3020 RMK AO2 T01000083=
202305310651 METAR KJFK 310651Z 04005KT 10SM FEW300 10/08 A3020 RMK AO2 SLP227 FU FEW300 T01000083=
202305310551 METAR KJFK 310551Z 06003KT 10SM FEW300 11/09 A3021 RMK AO2 SLP230 FU FEW300 T01060089 10150 20106 58004=
202305310451 METAR KJFK 310451Z 05004KT 10SM FEW300 11/09 A3022 RMK AO2 SLP231 FU FEW300 T01110089 401890100=
202305310351 METAR KJFK 310351Z 05004KT 10SM FEW300 11/09 A3022 RMK AO2 SLP234 FU FEW300 T01110094=
202305310251 METAR KJFK 310251Z 11007KT 10SM FEW300 12/10 A3022 RMK AO2 SLP234 FU FEW300 T01220100 53009=
202305310151 METAR KJFK 310151Z 10008KT 10SM FEW300 13/09 A3021 RMK AO2 SLP231 FU FEW300 T01280094=
202305310051 METAR KJFK 310051Z 11010KT 10SM FEW300 13/09 A3020 RMK AO2 SLP226 FU FEW300 T01330089=
202305302351 METAR KJFK 302351Z 11012KT 10SM FEW300 15/07 A3020 RMK AO2 SLP225 FU FEW300 T01500072 10189 20150 53003=
202305302251 METAR KJFK 302251Z 11010KT 10SM SCT300 16/09 A3019 RMK AO2 SLP223 FU SCT300 T01560089=
202305302151 METAR KJFK 302151Z 13011KT 10SM FEW250 SCT300 17/09 A3019 RMK AO2 SLP222 FU SCT300 T01670094=
202305302051 METAR KJFK 302051Z 12011KT 10SM FEW250 BKN300 18/10 A3019 RMK AO2 SLP222 FU BKN300 T01830100 56017=
202305301951 METAR KJFK 301951Z 12008KT 9SM FEW250 BKN300 18/09 A3020 RMK AO2 SLP227 FU BKN300 T01780089=
202305301851 METAR KJFK 301851Z 11011KT 9SM FEW250 BKN300 18/07 A3022 RMK AO2 SLP234 FU BKN300 T01830072=
202305301751 METAR KJFK 301751Z 14014KT 9SM FEW250 BKN300 18/07 A3024 RMK AO2 SLP239 FU BKN300 T01780067 10189 20144 55000=
202305301651 METAR KJFK 301651Z 13011KT 10SM FEW047 FEW250 BKN300 18/06 A3024 RMK AO2 SLP238 FU BKN300 T01830061=
202305301551 METAR KJFK 301551Z 14012KT 10SM FEW250 BKN300 18/08 A3024 RMK AO2 SLP239 FU BKN300 T01780078=
202305301451 METAR KJFK 301451Z 14008KT 10SM FEW045 FEW250 SCT300 18/08 A3024 RMK AO2 SLP239 FU SCT300 T01780083 51013=
202305301351 METAR KJFK 301351Z 09009KT 060V130 10SM FEW040 FEW250 SCT300 17/07 A3023 RMK AO2 SLP236 FU SCT300 T01670067=
202305301251 METAR KJFK 301251Z 05012KT 10SM FEW040 FEW250 SCT300 16/07 A3021 RMK AO2 SLP229 FU SCT300 T01610072=
202305301151 METAR KJFK 301151Z 06014KT 10SM FEW034 FEW250 14/07 A3020 RMK AO2 SLP226 T01440072 10144 20100 53002=
202305301051 METAR KJFK 301051Z 05007KT 10SM FEW027 FEW250 12/08 A3019 RMK AO2 SLP224 T01220078=
202305300951 METAR KJFK 300951Z 04008KT 10SM FEW250 11/07 A3019 RMK AO2 SLP222 T01060072=
202305300851 METAR KJFK 300851Z 04009KT 10SM CLR 11/07 A3019 RMK AO2 SLP224 T01060072 55000=
202305300751 METAR KJFK 300751Z 03007KT 10SM CLR 11/08 A3019 RMK AO2 SLP223 T01110078=
202305300651 METAR KJFK 300651Z 05007KT 10SM CLR 11/08 A3020 RMK AO2 SLP225 T01110078=
202305300551 METAR KJFK 300551Z 05007KT 10SM CLR 12/09 A3019 RMK AO2 SLP224 T01220089 10167 20122 53004=
202305300451 METAR KJFK 300451Z 06007KT 10SM CLR 13/09 A3019 RMK AO2 SLP221 T01330089 402390133=
202305300351 METAR KJFK 300351Z 09009KT 10SM FEW250 14/09 A3018 RMK AO2 SLP220 T01390094=
202305300251 METAR KJFK 300251Z 10009KT 10SM FEW250 14/09 A3018 RMK AO2 SLP220 T01440094 51025=
202305300151 METAR KJFK 300151Z 08014G21KT 10SM FEW250 15/09 A3017 RMK AO2 SLP214 T01500089=
202305300051 METAR KJFK 300051Z 09013KT 10SM SCT250 16/09 A3014 RMK AO2 PK WND 10029/0029 SLP204 T01560094=
202305292351 METAR KJFK 292351Z 11019G26KT 10SM SCT250 17/09 A3011 RMK AO2 PK WND 12028/2314 SLP194 T01670089 10228 20167 53016=
202305292251 METAR KJFK 292251Z 11017G24KT 10SM SCT250 18/08 A3008 RMK AO2 PK WND 11027/2159 SLP187 T01830083=
202305292151 METAR KJFK 292151Z 12016G25KT 10SM SCT250 19/08 A3007 RMK AO2 PK WND 11026/2053 SLP181 T01940083=
202305292051 METAR KJFK 292051Z 11021G26KT 10SM SCT250 21/07 A3006 RMK AO2 PK WND 10027/2004 SLP178 T02110072 50000=
202305291951 METAR KJFK 291951Z 11021G26KT 10SM SCT250 22/09 A3006 RMK AO2 PK WND 10026/1920 SLP179 T02170089=
202305291851 METAR KJFK 291851Z 10016G22KT 10SM SCT250 22/09 A3006 RMK AO2 PK WND 11027/1834 SLP178 T02220089=
202305291751 METAR KJFK 291751Z 11018KT 10SM FEW250 22/09 A3006 RMK AO2 PK WND 11027/1701 SLP179 T02220089 10239 20183 53006=
202305291651 METAR KJFK 291651Z 11018G24KT 10SM SCT250 23/09 A3005 RMK AO2 PK WND 11027/1600 SLP175 T02280094=
202305291551 METAR KJFK 291551Z 12021G25KT 10SM SCT250 23/08 A3004 RMK AO2 PK WND 10026/1457 SLP173 T02330078=
202305291451 METAR KJFK 291451Z 09014G22KT 10SM SCT250 23/12 A3004 RMK AO2 SLP172 T02280122 51017=
202305291351 METAR KJFK 291351Z 07012KT 10SM FEW200 SCT250 23/11 A3003 RMK AO2 SLP167 T02280111=
202305291251 METAR KJFK 291251Z 03010KT 10SM FEW160 FEW200 BKN250 22/12 A3001 RMK AO2 SLP161 T02170117=
202305291151 METAR KJFK 291151Z 27003KT 10SM FEW160 FEW200 BKN250 18/13 A2999 RMK AO2 SLP155 T01830133 10189 20139 53013=
202305291051 METAR KJFK 291051Z 26003KT 10SM FEW200 BKN250 18/13 A2998 RMK AO2 SLP151 T01780128=
202305290951 METAR KJFK 290951Z 26003KT 10SM SCT250 15/12 A2997 RMK AO2 SLP147 T01500117=
202305290851 METAR KJFK 290851Z 20005KT 10SM FEW250 14/12 A2995 RMK AO2 SLP143 T01440117 56008=
202305290751 METAR KJFK 290751Z 20008KT 10SM FEW250 14/12 A2996 RMK AO2 SLP143 T01440122=
202305290651 METAR KJFK 290651Z 23005KT 10SM FEW250 16/11 A2996 RMK AO2 SLP146 T01560111=
202305290551 METAR KJFK 290551Z 23004KT 10SM FEW250 15/12 A2998 RMK AO2 SLP151 T01500117 10167 20144 58016=
202305290451 METAR KJFK 290451Z 23006KT 10SM SCT250 14/11 A3000 RMK AO2 SLP159 T01440111 402170128=
202305290351 METAR KJFK 290351Z 23006KT 10SM SCT250 15/12 A3000 RMK AO2 SLP160 T01500117=
202305290251 METAR KJFK 290251Z 22007KT 10SM FEW180 SCT250 16/13 A3003 RMK AO2 SLP167 T01560128 50003=
202305290151 METAR KJFK 290151Z 20009KT 10SM FEW180 BKN250 16/12 A3003 RMK AO2 SLP168 T01610122=
202305290051 METAR KJFK 290051Z 19008KT 10SM FEW150 FEW200 BKN250 16/12 A3002 RMK AO2 SLP166 T01610122=
202305282351 METAR KJFK 282351Z 19008KT 10SM FEW150 FEW200 BKN250 17/12 A3002 RMK AO2 SLP164 T01670122 10217 20167 56014=
202305282251 METAR KJFK 282251Z 18009KT 10SM FEW150 FEW200 BKN250 17/12 A3003 RMK AO2 SLP168 T01720122=
202305282151 METAR KJFK 282151Z 17011KT 10SM FEW070 FEW150 SCT200 BKN250 19/11 A3004 RMK AO2 SLP171 T01940106=
202305282051 METAR KJFK 282051Z 17011KT 10SM FEW070 FEW150 SCT200 BKN250 21/09 A3006 RMK AO2 SLP179 T02060094 58023=
202305281951 METAR KJFK 281951Z 17012KT 10SM FEW070 FEW150 FEW200 BKN250 21/07 A3008 RMK AO2 SLP187 T02110067=
202305281851 METAR KJFK 281851Z 19009KT 10SM FEW070 FEW150 FEW200 BKN250 21/04 A3011 RMK AO2 SLP195 T02110039=
202305281751 METAR KJFK 281751Z 21008KT 10SM FEW200 BKN250 21/07 A3013 RMK AO2 SLP202 T02110067 10217 20178 58017=
202305281651 METAR KJFK 281651Z 19006KT 10SM FEW200 BKN250 21/07 A3015 RMK AO2 SLP209 T02110067=
202305281551 METAR KJFK 281551Z 19009KT 10SM FEW200 BKN250 20/10 A3017 RMK AO2 SLP216 T02000100=
202305281451 METAR KJFK 281451Z 19008KT 10SM FEW200 BKN250 19/08 A3018 RMK AO2 SLP219 T01940083 58011=
202305281351 METAR KJFK 281351Z 20005KT 10SM FEW200 BKN250 19/06 A3019 RMK AO2 SLP223 T01890061=
202305281251 METAR KJFK 281251Z 20007KT 10SM FEW200 BKN250 18/07 A3021 RMK AO2 SLP228 T01830067=
202305281151 METAR KJFK 281151Z 24004KT 10SM FEW200 BKN250 18/08 A3021 RMK AO2 SLP230 T01780083 10178 20128 57001=
202305281051 METAR KJFK 281051Z 23005KT 10SM FEW200 BKN250 16/08 A3022 RMK AO2 SLP231 T01560083=
202305280951 METAR KJFK 280951Z 22003KT 10SM SCT250 13/09 A3021 RMK AO2 SLP231 T01330089=
202305280851 METAR KJFK 280851Z 21004KT 10SM SCT250 14/09 A3022 RMK AO2 SLP231 T01390094 58008=
202305280751 METAR KJFK 280751Z 22004KT 10SM FEW250 13/08 A3022 RMK AO2 SLP234 T01330078=
202305280651 METAR KJFK 280651Z 23004KT 10SM SCT250 14/07 A3023 RMK AO2 SLP237 T01390067=
202305280551 METAR KJFK 280551Z 24005KT 10SM OVC250 14/06 A3024 RMK AO2 SLP239 T01440061 10161 20133 58014=
202305280451 METAR KJFK 280451Z 25006KT 10SM BKN250 14/06 A3026 RMK AO2 SLP245 T01390061 402280100=
202305280351 METAR KJFK 280351Z 23006KT 10SM BKN250 14/08 A3027 RMK AO2 SLP250 T01390083=
202305280251 METAR KJFK 280251Z 20007KT 10SM SCT250 14/09 A3028 RMK AO2 SLP253 T01440089 50002=
202305280151 METAR KJFK 280151Z 19007KT 10SM BKN250 15/07 A3029 RMK AO2 SLP255 T01500072=
202305280051 SPECI KJFK 280051Z 18007KT 10SM BKN250 16/09 A3028 RMK AO2 SLP252 T01560089=
202305280051 METAR KJFK 280051Z 18007KT 10SM BKN250 16/09 A3028 RMK AO2 SLP252 T01560089=
202305272351 METAR KJFK 272351Z 18009KT 10SM BKN250 16/12 A3027 RMK AO2 SLP251 T01610117 10228 20161 55002=
202305272251 METAR KJFK 272251Z 18010KT 10SM BKN250 18/10 A3027 RMK AO2 SLP249 T01780100=
202305272151 METAR KJFK 272151Z 17012KT 10SM BKN250 19/10 A3027 RMK AO2 SLP251 T01940100=
202305272051 METAR KJFK 272051Z 15011KT 10SM BKN250 21/06 A3028 RMK AO2 SLP253 T02110061 56007=
202305271951 METAR KJFK 271951Z 18010KT 10SM BKN250 21/08 A3029 RMK AO2 SLP255 T02110078=
202305271851 METAR KJFK 271851Z 19010KT 10SM BKN250 22/08 A3029 RMK AO2 SLP257 T02220078=
202305271751 METAR KJFK 271751Z 17009KT 10SM SCT250 22/06 A3030 RMK AO2 SLP260 T02220061 10228 20178 57010=
202305271651 METAR KJFK 271651Z 17007KT 10SM BKN250 22/07 A3031 RMK AO2 SLP263 T02220072=
202305271551 METAR KJFK 271551Z 18007KT 10SM BKN250 22/08 A3032 RMK AO2 SLP267 T02220078=
202305271451 METAR KJFK 271451Z VRB03KT 10SM SCT250 22/06 A3033 RMK AO2 SLP270 T02220056 57001=
202305271351 METAR KJFK 271351Z 07005KT 10SM BKN250 21/05 A3033 RMK AO2 SLP270 T02110050=
202305271251 METAR KJFK 271251Z 09005KT 10SM SCT250 20/06 A3034 RMK AO2 SLP272 T02000061=
202305271151 METAR KJFK 271151Z 02005KT 10SM SCT250 18/07 A3033 RMK AO2 SLP271 T01780067 10178 20100 51016=
202305271051 METAR KJFK 271051Z 00000KT 10SM FEW250 15/09 A3032 RMK AO2 SLP268 T01500094=
202305270951 METAR KJFK 270951Z 00000KT 10SM FEW250 12/07 A3031 RMK AO2 SLP263 T01220072=
202305270851 METAR KJFK 270851Z 21003KT 10SM FEW250 12/07 A3029 RMK AO2 SLP255 T01220067 56002=
202305270751 METAR KJFK 270751Z 31007KT 10SM FEW250 14/04 A3029 RMK AO2 SLP256 T01390044=
202305270651 METAR KJFK 270651Z 29007KT 10SM FEW250 14/04 A3029 RMK AO2 SLP257 T01390039=
202305270551 METAR KJFK 270551Z 27007KT 10SM FEW250 14/05 A3029 RMK AO2 SLP258 T01390050 10161 20133 51004=
202305270451 METAR KJFK 270451Z 25008KT 10SM FEW250 14/06 A3029 RMK AO2 SLP257 T01440061 402280106=
202305270351 METAR KJFK 270351Z 25008KT 10SM CLR 14/07 A3029 RMK AO2 SLP258 T01440067=
202305270251 METAR KJFK 270251Z 23007KT 10SM CLR 14/06 A3028 RMK AO2 SLP254 T01390061 51010=
202305270151 METAR KJFK 270151Z 20007KT 10SM FEW250 14/09 A3028 RMK AO2 SLP253 T01440089=
202305270051 METAR KJFK 270051Z 19008KT 10SM FEW250 16/09 A3026 RMK AO2 SLP248 T01560089=
202305262351 METAR KJFK 262351Z 19008KT 10SM SCT250 16/11 A3025 RMK AO2 SLP244 T01610106 10228 20161 51008=
202305262251 METAR KJFK 262251Z 18008KT 10SM FEW250 18/07 A3024 RMK AO2 SLP241 T01830072=
202305262151 METAR KJFK 262151Z 20009KT 10SM FEW075 SCT250 19/07 A3024 RMK AO2 SLP240 T01940072=
202305262051 METAR KJFK 262051Z 03011G16KT 340V050 10SM FEW075 FEW250 22/02 A3023 RMK AO2 SLP236 T02220022 58009=
202305261951 METAR KJFK 261951Z 02009G18KT 10SM FEW075 FEW250 22/01 A3025 RMK AO2 SLP242 T02170011=
202305261851 METAR KJFK 261851Z 03007G19KT 10SM FEW075 FEW250 22/02 A3025 RMK AO2 SLP243 T02170017=