202307261851 METAR KJFK 261851Z 20013KT 10SM FEW050 FEW250 28/21 A3009 RMK AO2 SLP188 T02780206 $=
202307261751 METAR KJFK 261751Z 19011KT 10SM FEW050 FEW250 29/19 A3009 RMK AO2 SLP190 T02890189 10289 20233 58010 $=
202307261651 SPECI KJFK 261651Z 21011KT 10SM FEW050 FEW250 28/20 A3010 RMK AO2 SLP193 T02830200 $=
202307261651 METAR KJFK 261651Z 21011KT 10SM FEW050 FEW250 28/20 A3010 RMK AO2 SLP193 T02830200 $=
202307261551 METAR KJFK 261551Z 22006KT 10SM FEW047 FEW250 28/19 A3012 RMK AO2 SLP199 T02830194 $=
202307261451 METAR KJFK 261451Z 23006KT 10SM FEW250 27/19 A3012 RMK AO2 SLP200 T02720194 50003 $=
202307261351 METAR KJFK 261351Z 33004KT 10SM FEW250 27/19 A3012 RMK AO2 SLP201 T02670194 $=
202307261251 METAR KJFK 261251Z 26007KT 10SM SCT250 24/20 A3014 RMK AO2 SLP204 T02390200 $=
202307261151 METAR KJFK 261151Z 26004KT 10SM FEW250 23/19 A3012 RMK AO2 SLP198 70024 T02330194 10233 20200 53009 $=
202307261051 METAR KJFK 261051Z 28006KT 9SM FEW023 FEW160 SCT250 21/19 A3010 RMK AO2 SLP193 T02110189 $=
202307260951 METAR KJFK 260951Z 27004KT 10SM FEW020 SCT250 20/19 A3009 RMK AO2 SLP190 T02000189 $=
202307260851 METAR KJFK 260851Z 28005KT 10SM SCT250 21/19 A3009 RMK AO2 SLP189 T02060189 53003 $=
202307260751 METAR KJFK 260751Z 00000KT 10SM FEW013 SCT250 21/19 A3007 RMK AO2 SLP181 T02060189 $=
202307260651 METAR KJFK 260651Z 00000KT 7SM FEW025 BKN250 20/19 A3007 RMK AO2 SLP183 T02000194 $=
202307260551 METAR KJFK 260551Z 01005KT 8SM FEW015 FEW120 SCT250 21/20 A3008 RMK AO2 SLP186 T02060200 10217 20206 50002 $=
202307260509 SPECI KJFK 260509Z 36005KT 10SM FEW014 FEW110 BKN250 21/19 A3009 RMK AO2 T02110194 $=
202307260451 METAR KJFK 260451Z 33004KT 10SM BKN013 BKN250 22/19 A3008 RMK AO2 SLP187 T02170194 402890206 $=
202307260351 METAR KJFK 260351Z 25006KT 10SM SCT015 SCT130 BKN250 21/19 A3008 RMK AO2 SLP184 T02110194 $=
202307260251 METAR KJFK 260251Z 00000KT 10SM FEW025 FEW120 BKN250 21/19 A3008 RMK AO2 SLP186 T02110194 51006 $=
202307260151 METAR KJFK 260151Z 24004KT 10SM FEW014 FEW100 BKN250 21/20 A3008 RMK AO2 SLP185 T02110200 $=
202307260051 METAR KJFK 260051Z 29005KT 10SM FEW014 FEW055 SCT100 BKN250 22/20 A3008 RMK AO2 SLP184 T02170200 $=
202307252351 METAR KJFK 252351Z 27006KT 10SM FEW025 FEW055 FEW150 BKN250 22/19 A3007 RMK AO2 RAB02E13 SLP181 P0000 60024 T02170189 10283 20206 56010 $=
202307252251 METAR KJFK 252251Z 00000KT 10SM FEW011 FEW025 SCT055 BKN150 BKN250 22/19 A3007 RMK AO2 RAE16 SLP182 P0001 T02170194 $=
202307252151 METAR KJFK 252151Z 00000KT 10SM -RA FEW013 SCT055 OVC120 21/20 A3008 RMK AO2 TSE22 SLP186 P0006 T02110200 $=
202307252122 SPECI KJFK 252122Z 14004KT 10SM -RA FEW013 SCT055 OVC110 21/20 A3008 RMK AO2 TSE22 P0005 T02060200 $=
202307252051 METAR KJFK 252051Z 00000KT 5SM -TSRA BR FEW013 SCT040CB OVC060 21/20 A3010 RMK AO2 PK WND 23031/1953 WSHFT 1943 RAB01 SLP191 OCNL LTGICCG NE-SW TS NE-SW MOV NE P0017 60017 T02060200 50018 $=
202307252048 SPECI KJFK 252048Z 34003KT 5SM -TSRA BR FEW013 SCT040CB OVC060 21/19 A3010 RMK AO2 PK WND 23031/1953 WSHFT 1943 RAB01 OCNL LTGICCG NE-SW TS NE-SW MOV NE P0016 $=
202307252001 SPECI KJFK 252001Z 27018G31KT 7SM -TSRA FEW015 BKN024CB OVC090 22/19 A3007 RMK AO2 PK WND 23031/1953 WSHFT 1943 RAB01 FRQ LTGICCG SW-NN TS SW-NE MOV NE P0000 T02220189=
202307251951 METAR KJFK 251951Z 23022G31KT 10SM TS SCT015 BKN050CB BKN100 BKN160 BKN250 25/22 A3007 RMK AO2 PK WND 24031/1951 TSB32 SLP182 FRQ LTGICCG SW-N TS SW-N MOV NE VCSH SW-N T02500217=
202307251932 SPECI KJFK 251932Z 18015KT 10SM TS FEW017 SCT050CB SCT100 BKN250 26/21 A3003 RMK AO2 TSB32 PRESFR FRQ LTGICCG SW-NW TS SW-NW MOV NE T02560211=
202307251851 METAR KJFK 251851Z 18016KT 10SM SCT050 BKN250 27/22 A3005 RMK AO2 SLP174 CB DSNT W-NW T02670217=
202307251751 METAR KJFK 251751Z 17014KT 10SM FEW050 FEW250 28/21 A3004 RMK AO2 SLP172 TCU DSNT NE T02780206 10289 20239 58019=
202307251651 METAR KJFK 251651Z 19011KT 10SM FEW048 FEW250 28/22 A3008 RMK AO2 SLP185 CB AND TCU DSNT NE T02780217=
202307251551 METAR KJFK 251551Z 19007KT 10SM FEW045 FEW250 28/21 A3010 RMK AO2 SLP192 TCU DSNT NE T02780211=
202307251451 METAR KJFK 251451Z 19008KT 10SM FEW042 FEW250 26/21 A3010 RMK AO2 SLP191 T02610206 51003=
202307251351 METAR KJFK 251351Z 21005KT 10SM FEW037 FEW120 SCT250 27/21 A3009 RMK AO2 SLP189 T02670206=
202307251251 METAR KJFK 251251Z VRB03KT 10SM SCT120 SCT250 26/20 A3009 RMK AO2 SLP190 T02560200=
202307251151 METAR KJFK 251151Z 22005KT 10SM FEW140 FEW250 24/21 A3009 RMK AO2 SLP188 T02390206 10239 20217 53006=
202307251051 METAR KJFK 251051Z 22005KT 10SM FEW140 FEW250 23/21 A3008 RMK AO2 SLP186 T02280206=
202307250951 METAR KJFK 250951Z 20005KT 10SM FEW250 22/20 A3007 RMK AO2 SLP181 T02170200=
202307250851 METAR KJFK 250851Z 22006KT 10SM SCT250 22/20 A3007 RMK AO2 SLP182 T02170200 58008=
202307250751 METAR KJFK 250751Z 23006KT 10SM FEW250 22/19 A3008 RMK AO2 SLP185 T02220194=
202307250651 METAR KJFK 250651Z 23008KT 10SM FEW250 23/19 A3009 RMK AO2 SLP188 T02330194=
202307250551 METAR KJFK 250551Z 23007KT 10SM SCT250 23/22 A3009 RMK AO2 SLP190 T02330217 10244 20233 55001=
202307250451 METAR KJFK 250451Z 21009KT 10SM FEW045 SCT250 24/21 A3009 RMK AO2 SLP189 T02390211 402830217=
202307250351 METAR KJFK 250351Z 20010KT 10SM FEW045 FEW140 FEW250 24/23 A3010 RMK AO2 SLP191 T02390228=
202307250251 METAR KJFK 250251Z 18010KT 10SM FEW050 FEW150 SCT250 24/23 A3010 RMK AO2 SLP191 T02390228 52005=
202307250151 METAR KJFK 250151Z 18012KT 10SM FEW040 FEW130 FEW250 24/22 A3009 RMK AO2 SLP188 T02440222=
202307250051 METAR KJFK 250051Z 16009KT 10SM FEW050 FEW100 FEW250 24/22 A3009 RMK AO2 SLP188 T02440217=
202307242351 METAR KJFK 242351Z 17010KT 10SM FEW025 FEW050 FEW100 SCT250 24/21 A3008 RMK AO2 SLP185 T02440211 10283 20244 58001=
202307242251 METAR KJFK 242251Z 15014KT 10SM FEW045 FEW100 FEW250 26/21 A3008 RMK AO2 SLP186 T02560206=
202307242151 METAR KJFK 242151Z 15014KT 10SM FEW045 FEW100 FEW250 27/20 A3008 RMK AO2 SLP187 T02670200=
202307242051 METAR KJFK 242051Z 17012KT 10SM FEW045 FEW100 FEW150 SCT250 27/20 A3008 RMK AO2 SLP187 T02720200 56015=
202307241951 METAR KJFK 241951Z 17013KT 10SM FEW025 FEW043 SCT150 SCT250 27/21 A3010 RMK AO2 SLP191 T02720211=
202307241851 METAR KJFK 241851Z 17012KT 10SM FEW025 FEW043 BKN150 BKN250 28/21 A3010 RMK AO2 SLP194 T02780206=
202307241751 METAR KJFK 241751Z 19013KT 10SM FEW043 BKN150 BKN250 28/21 A3013 RMK AO2 SLP201 T02780206 10278 20239 58001=
202307241651 METAR KJFK 241651Z 19008KT 10SM FEW043 SCT170 BKN250 27/21 A3013 RMK AO2 SLP203 T02670206=
202307241551 METAR KJFK 241551Z 19007KT 9SM FEW040 SCT170 BKN250 26/18 A3013 RMK AO2 SLP203 T02610183=
202307241451 METAR KJFK 241451Z 20006KT 10SM FEW130 BKN170 BKN250 26/19 A3013 RMK AO2 SLP203 T02560189 53007=
202307241351 METAR KJFK 241351Z 20004KT 10SM FEW140 BKN190 OVC250 24/18 A3012 RMK AO2 SLP199 T02440183=
202307241251 METAR KJFK 241251Z 18004KT 10SM FEW150 SCT210 OVC250 24/19 A3011 RMK AO2 SLP197 T02440194=
202307241151 METAR KJFK 241151Z 20006KT 10SM FEW150 FEW200 BKN250 24/19 A3011 RMK AO2 SLP195 T02390194 10239 20217 53007=
202307241051 METAR KJFK 241051Z 23005KT 10SM FEW200 BKN250 23/19 A3010 RMK AO2 SLP192 T02280189=
202307240951 METAR KJFK 240951Z 23007KT 10SM FEW200 SCT250 22/18 A3009 RMK AO2 SLP188 T02220178=
202307240851 METAR KJFK 240851Z 24006KT 10SM SCT250 22/18 A3009 RMK AO2 SLP188 T02170183 53006=
202307240751 METAR KJFK 240751Z 24006KT 10SM FEW250 22/18 A3007 RMK AO2 SLP184 T02170178=
202307240651 METAR KJFK 240651Z 22006KT 10SM FEW250 22/17 A3007 RMK AO2 SLP181 T02220167=
202307240551 METAR KJFK 240551Z 22009KT 10SM SCT250 23/16 A3007 RMK AO2 SLP182 T02330161 10250 20233 51005=
202307240451 METAR KJFK 240451Z 23009KT 10SM FEW070 SCT250 24/16 A3006 RMK AO2 SLP180 T02390161 403000200=
202307240351 METAR KJFK 240351Z 21010KT 10SM SCT075 24/18 A3006 RMK AO2 SLP179 T02440178=
202307240251 METAR KJFK 240251Z 20012KT 10SM SCT075 25/18 A3005 RMK AO2 SLP177 T02500178 51019=
202307240151 METAR KJFK 240151Z 19008KT 10SM SCT070 24/19 A3005 RMK AO2 SLP174 T02440194=
202307240051 METAR KJFK 240051Z 19010KT 10SM FEW070 SCT095 24/21 A3001 RMK AO2 SLP163 T02440211=
202307232351 METAR KJFK 232351Z 19013KT 10SM SCT070 SCT090 25/19 A3000 RMK AO2 SLP157 T02500194 10300 20250 53011=
202307232251 METAR KJFK 232251Z 19011KT 10SM SCT070 BKN090 26/18 A2998 RMK AO2 SLP152 T02560178=
202307232151 METAR KJFK 232151Z 20016KT 10SM SCT075 SCT095 27/19 A2997 RMK AO2 SLP150 T02670189=
202307232051 METAR KJFK 232051Z 18011KT 10SM SCT070 28/17 A2996 RMK AO2 SLP146 T02780172 55002=
202307231951 METAR KJFK 231951Z 18010KT 10SM FEW070 29/17 A2996 RMK AO2 SLP144 T02890172=
202307231851 METAR KJFK 231851Z 21010KT 10SM SCT070 29/17 A2996 RMK AO2 SLP147 T02940172=
202307231751 METAR KJFK 231751Z 21011KT 10SM SCT070 29/16 A2997 RMK AO2 SLP148 T02940161 10300 20244 58004=
202307231651 METAR KJFK 231651Z 22005KT 10SM SCT065 29/15 A2998 RMK AO2 SLP151 T02890150=
202307231551 METAR KJFK 231551Z VRB06KT 10SM FEW060 FEW180 29/15 A2998 RMK AO2 SLP151 T02940150=
202307231451 METAR KJFK 231451Z 36008KT 10SM FEW060 FEW200 FEW250 28/14 A2998 RMK AO2 SLP152 T02830139 51012=
202307231351 METAR KJFK 231351Z 01007KT 10SM FEW200 FEW250 27/14 A2998 RMK AO2 SLP152 T02720144=
202307231251 METAR KJFK 231251Z 02008KT 10SM FEW250 26/14 A2997 RMK AO2 SLP148 T02610144=
202307231151 METAR KJFK 231151Z 02008KT 10SM FEW250 24/15 A2995 RMK AO2 SLP141 T02440150 10244 20200 52016=
202307231051 METAR KJFK 231051Z 01005KT 10SM FEW250 22/17 A2993 RMK AO2 SLP136 T02170167=
202307230951 METAR KJFK 230951Z 36006KT 10SM CLR 20/17 A2991 RMK AO2 SLP129 T02000172=
202307230851 METAR KJFK 230851Z 36004KT 10SM FEW150 21/18 A2990 RMK AO2 SLP124 T02060178 53008=
202307230751 METAR KJFK 230751Z 01004KT 10SM CLR 21/17 A2988 RMK AO2 SLP117 T02060167=
202307230651 METAR KJFK 230651Z 05003KT 10SM CLR 21/16 A2987 RMK AO2 SLP116 T02110156=
202307230551 METAR KJFK 230551Z 02004KT 10SM FEW150 SCT250 22/16 A2988 RMK AO2 SLP116 T02170161 10272 20211 53010=
202307230451 METAR KJFK 230451Z 18003KT 10SM FEW150 SCT250 22/17 A2987 RMK AO2 SLP113 T02220167 403000211=
202307230351 METAR KJFK 230351Z 13003KT 10SM FEW150 SCT250 22/17 A2985 RMK AO2 SLP108 T02220167=
202307230251 METAR KJFK 230251Z 00000KT 10SM FEW150 SCT250 23/13 A2984 RMK AO2 SLP106 T02330133 51008=
202307230151 METAR KJFK 230151Z 00000KT 10SM SCT250 25/13 A2984 RMK AO2 SLP105 T02500133=
202307230051 METAR KJFK 230051Z 01005KT 10SM BKN250 26/13 A2983 RMK AO2 SLP100 T02610128=
202307222351 METAR KJFK 222351Z 04005KT 10SM BKN250 27/12 A2982 RMK AO2 SLP097 T02720122 10300 20272 53005=
202307222251 METAR KJFK 222251Z 33007KT 10SM BKN250 28/12 A2980 RMK AO2 SLP092 T02780117=
202307222151 METAR KJFK 222151Z 34010KT 10SM SCT075 BKN250 29/13 A2979 RMK AO2 SLP089 T02940128=
202307222051 METAR KJFK 222051Z 33012G16KT 10SM BKN065 BKN250 29/13 A2980 RMK AO2 SLP092 T02890133 53001=
202307221951 METAR KJFK 221951Z 35007KT 10SM BKN065 BKN250 28/14 A2980 RMK AO2 SLP090 T02780144=
202307221851 METAR KJFK 221851Z 10SM SCT060 BKN250 28/14 A2980 RMK AO2 SLP091 T02830144=
202307221751 METAR KJFK 221751Z VRB05KT 10SM SCT050 BKN250 27/16 A2980 RMK AO2 SLP091 T02670156 10278 20222 58004=
202307221651 METAR KJFK 221651Z 34008KT 10SM SCT047 BKN250 27/16 A2981 RMK AO2 SLP093 T02670156=
202307221551 METAR KJFK 221551Z 35009KT 10SM SCT045 SCT250 27/16 A2981 RMK AO2 SLP095 T02670161=
202307221451 METAR KJFK 221451Z 02011KT 10SM FEW044 SCT250 26/16 A2981 RMK AO2 SLP095 T02610161 51005=
202307221351 METAR KJFK 221351Z 01010KT 10SM FEW042 SCT250 25/16 A2981 RMK AO2 SLP094 T02500156=
202307221251 METAR KJFK 221251Z 33011KT 10SM FEW037 SCT250 24/16 A2980 RMK AO2 SLP092 T02390161=
202307221151 METAR KJFK 221151Z 34011KT 10SM BKN250 22/16 A2980 RMK AO2 SLP090 70001 T02220156 10233 20211 53014=
202307221051 METAR KJFK 221051Z 34012KT 10SM SCT250 22/16 A2978 RMK AO2 SLP084 T02170156=
202307220951 METAR KJFK 220951Z 34008KT 10SM FEW150 SCT250 21/16 A2977 RMK AO2 SLP080 T02110156=
202307220851 METAR KJFK 220851Z 34010KT 10SM FEW150 22/16 A2976 RMK AO2 SLP076 T02170161 55001=
202307220751 METAR KJFK 220751Z 34012KT 10SM FEW150 22/16 A2975 RMK AO2 SLP074 T02220156=
202307220651 METAR KJFK 220651Z 34009KT 10SM FEW150 23/16 A2975 RMK AO2 SLP075 T02280156=
202307220551 METAR KJFK 220551Z 33010KT 10SM FEW150 23/16 A2976 RMK AO2 SLP077 T02330161 10272 20233 53004=
202307220451 METAR KJFK 220451Z 33011KT 10SM FEW150 24/16 A2975 RMK AO2 SLP074 T02390161 402830228=
202307220351 METAR KJFK 220351Z 33013KT 10SM CLR 25/16 A2974 RMK AO2 SLP072 T02500156=
202307220251 METAR KJFK 220251Z 35010KT 10SM FEW040 26/18 A2975 RMK AO2 SLP073 T02610178 51010=
202307220151 METAR KJFK 220151Z 30009KT 10SM FEW050 FEW080 FEW250 26/18 A2974 RMK AO2 SLP070 T02610178=
202307220051 METAR KJFK 220051Z 27013KT 10SM FEW055 FEW080 FEW250 27/18 A2973 RMK AO2 SLP068 T02670178=
202307212351 METAR KJFK 212351Z 24013KT 10SM FEW055 FEW080 FEW250 27/20 A2972 RMK AO2 SLP063 T02670200 10283 20261 55002=
202307212251 METAR KJFK 212251Z 20011KT 10SM FEW055 FEW100 FEW250 27/22 A2971 RMK AO2 SLP061 T02670222=
202307212151 METAR KJFK 212151Z 20013KT 10SM SCT055 SCT100 SCT250 27/23 A2972 RMK AO2 SLP063 T02720228=
202307212051 METAR KJFK 212051Z 19012KT 10SM SCT045TCU SCT110 SCT250 28/22 A2972 RMK AO2 SLP064 TCU OHD T02780222 56010=
202307211951 METAR KJFK 211951Z 18013KT 10SM SCT045 SCT110 SCT250 28/22 A2973 RMK AO2 SLP067 T02830222=
202307211851 METAR KJFK 211851Z 19008KT 10SM FEW023 SCT042 SCT110 28/22 A2973 RMK AO2 LTG DSNT E SLP068 CB DSNT NE-E T02780222=
202307211751 METAR KJFK 211751Z 21009KT 10SM FEW023 SCT042 BKN110 27/23 A2975 RMK AO2 SLP074 CB DSNT E-SE MOV NE 60001 T02720228 10278 20233 58004=
202307211651 METAR KJFK 211651Z 21007KT 10SM FEW020 FEW037CB BKN100 BKN140 27/22 A2977 RMK AO2 SLP080 CB SE-S MOV NE T02670222=
202307211551 METAR KJFK 211551Z 23009KT 10SM FEW019 FEW035 BKN110 BKN170 26/22 A2978 RMK AO2 SLP083 T02610222=
202307211451 METAR KJFK 211451Z 19005KT 10SM FEW015 FEW035 SCT120 SCT170 26/23 A2976 RMK AO2 SLP078 60001 T02560228 56010=
202307211351 METAR KJFK 211351Z 24005KT 10SM FEW012 FEW032 BKN110 BKN230 24/22 A2977 RMK AO2 RAE21 SLP079 P0001 T02440222=
202307211251 METAR KJFK 211251Z 20010KT 10SM -RA FEW016 FEW027 BKN110 OVC200 24/22 A2979 RMK AO2 RAB45 SLP086 P0000 T02390217=
202307211151 METAR KJFK 211151Z 18012KT 10SM FEW012 SCT022 BKN100 OVC200 24/23 A2979 RMK AO2 RAE37 SLP089 SCT V BKN P0000 60003 70003 T02390228 10239 20228 56011 $=
202307211051 METAR KJFK 211051Z 16010KT 9SM -RA FEW012 SCT039 BKN070 OVC200 23/23 A2979 RMK AO2 LTG DSNT N-E TSB0958E42 SLP089 CB DSNT NE-SE MOV E P0003 T02330228 $=
202307211043 SPECI KJFK 211043Z 15008KT 8SM -RA FEW019 SCT037 BKN070 OVC200 23/23 A2978 RMK AO2 LTG DSNT N-E TSB0958E42 CB DSNT NE-SE MOV E P0003 T02330228 $=
202307211031 SPECI KJFK 211031Z 18007KT 7SM -TSRA FEW022 BKN037CB BKN070 OVC200 23/23 A2980 RMK AO2 LTG DSNT N TSB0958 PRESFR OCNL LTGICCG NE-SE TS NE-SE MOV E P0003 T02330228 $=
202307211000 SPECI KJFK 211000Z 20007KT 4SM +TSRA BR SCT016 BKN026CB OVC037 23/22 A2981 RMK AO2 LTG DSNT W-N TSB0958 OCNL LTGICCG SW-NW TS SW-NW MOV E P0000 T02330222 $=
202307210951 METAR KJFK 210951Z 20008KT 10SM +RA BKN037CB BKN080 OVC090 23/22 A2982 RMK AO2 VIS 2 1/2 W LTG DSNT W-N RAB49 SLP097 CB OHD-W-NW MOV E P0000 T02330222 $=
202307210851 METAR KJFK 210851Z 18005KT 10SM SCT017 BKN043 BKN250 23/22 A2983 RMK AO2 SLP100 T02330222 56010 $=
202307210751 METAR KJFK 210751Z 18006KT 10SM SCT018 SCT250 23/22 A2983 RMK AO2 SLP100 T02280222 $=
202307210658 SPECI KJFK 210658Z 19006KT 10SM FEW016 23/22 A2984 RMK AO2 T02330222 $=
202307210651 METAR KJFK 210651Z 19007KT 10SM BKN016 BKN220 23/22 A2984 RMK AO2 SLP104 T02330222 $=
202307210627 SPECI KJFK 210627Z 19006KT 10SM BKN015 BKN220 23/22 A2984 RMK AO2 T02330222 $=
202307210551 METAR KJFK 210551Z 18006KT 10SM SCT027 SCT250 23/22 A2986 RMK AO2 SLP110 T02280217 10244 20228 56015 $=
202307210451 METAR KJFK 210451Z 16005KT 9SM SCT021 SCT250 23/22 A2987 RMK AO2 SLP114 T02280217 402890211=
202307210351 METAR KJFK 210351Z 18005KT 7SM FEW012 SCT250 23/22 A2989 RMK AO2 SLP120 T02280222=
202307210251 METAR KJFK 210251Z 20007KT 8SM FEW190 SCT250 23/22 A2990 RMK AO2 SLP125 T02330222 58006=
202307210151 METAR KJFK 210151Z 19006KT 9SM FEW250 23/22 A2991 RMK AO2 SLP127 T02330217=
202307210051 METAR KJFK 210051Z 18008KT 9SM FEW095 SCT250 24/22 A2992 RMK AO2 SLP130 T02390217=
202307202351 METAR KJFK 202351Z 19009KT 10SM FEW095 BKN100 24/21 A2992 RMK AO2 SLP131 T02440211 10283 20244 55013=
202307202251 METAR KJFK 202251Z 16006KT 10SM FEW095 BKN250 26/18 A2992 RMK AO2 SLP131 T02560178=
202307202151 METAR KJFK 202151Z 15006KT 10SM FEW095 BKN250 27/17 A2993 RMK AO2 SLP134 T02670172=
202307202051 SPECI KJFK 202051Z 16007KT 10SM FEW055 SCT095 BKN250 27/17 A2996 RMK AO2 SLP144 T02670172 58006=
202307202051 METAR KJFK 202051Z 16007KT 10SM FEW055 SCT095 BKN250 27/17 A2996 RMK AO2 SLP144 T02670172 58006=
202307201951 METAR KJFK 201951Z 18008KT 10SM FEW055 SCT100 BKN250 28/17 A2997 RMK AO2 SLP149 T02780172=
202307201851 METAR KJFK 201851Z 17009KT 10SM FEW055 SCT100 SCT230 28/19 A2997 RMK AO2 SLP149 T02780194=
202307201751 METAR KJFK 201751Z 15011KT 10SM SCT055 SCT100 BKN250 28/18 A2998 RMK AO2 SLP151 T02830178 10289 20239 58008=
202307201651 METAR KJFK 201651Z 19011KT 10SM FEW055 FEW100 BKN250 28/19 A2999 RMK AO2 SLP154 T02780194=
202307201551 METAR KJFK 201551Z 17010KT 10SM FEW050 SCT095 SCT250 27/21 A3000 RMK AO2 SLP159 T02670206=
202307201451 METAR KJFK 201451Z 08007KT 10SM FEW050 SCT100 SCT250 28/17 A3000 RMK AO2 SLP158 T02780172 58005=
202307201351 METAR KJFK 201351Z 03005KT 10SM SCT100 SCT250 27/17 A3001 RMK AO2 SLP161 T02670172=
202307201251 METAR KJFK 201251Z 05007KT 10SM SCT085 SCT250 26/18 A3001 RMK AO2 SLP163 T02560178=
202307201151 METAR KJFK 201151Z 02007KT 6SM HZ FEW015 SCT250 24/21 A3001 RMK AO2 SLP163 70012 T02390206 10239 20211 53008 $=
202307201135 SPECI KJFK 201135Z 03006KT 4SM BR FEW013 SCT250 23/21 A3001 RMK AO2 T02330211 $=
202307201051 METAR KJFK 201051Z 36004KT 2 1/2SM BR FEW012 SCT250 22/22 A3000 RMK AO2 SLP158 T02220217 $=
202307200956 SPECI KJFK 200956Z 36005KT 2SM BR FEW012 SCT250 22/21 A3000 RMK AO2 T02170211 $=
202307200951 METAR KJFK 200951Z 36005KT 3SM BR FEW012 SCT250 21/21 A2999 RMK AO2 SLP157 T02110211 $=
202307200851 METAR KJFK 200851Z 01004KT 5SM BR FEW021 SCT250 21/21 A2999 RMK AO2 SLP155 T02110206 58006 $=
202307200751 METAR KJFK 200751Z 00000KT 5SM BR FEW020 SCT250 22/21 A3000 RMK AO2 SLP157 T02220211 $=
202307200651 METAR KJFK 200651Z 33005KT 5SM BR FEW022 SCT250 22/21 A3001 RMK AO2 SLP161 T02170211 $=
202307200551 METAR KJFK 200551Z 00000KT 7SM FEW025 SCT250 22/21 A3001 RMK AO2 SLP161 T02170211 10233 20217 56007 $=
202307200451 METAR KJFK 200451Z 23004KT 8SM BKN250 22/21 A3002 RMK AO2 SLP164 T02170211 402560211 $=
202307200351 METAR KJFK 200351Z 19003KT 8SM FEW020 FEW050 SCT250 22/21 A3002 RMK AO2 SLP164 T02220211 $=
202307200251 METAR KJFK 200251Z 22003KT 8SM FEW055 SCT100 SCT250 23/21 A3003 RMK AO2 SLP168 T02280211 50005 $=
202307200151 METAR KJFK 200151Z 00000KT 9SM FEW050 FEW090 SCT250 23/21 A3003 RMK AO2 SLP170 T02280211 $=
202307200051 METAR KJFK 200051Z 17006KT 9SM FEW050 SCT090 23/21 A3002 RMK AO2 SLP164 T02330211 $=
202307192351 METAR KJFK 192351Z 18006KT 10SM FEW030 SCT070 SCT250 23/21 A3001 RMK AO2 SLP163 60000 T02330211 10256 20222 53003=
202307192251 METAR KJFK 192251Z 18007KT 10SM FEW030 FEW050 SCT250 24/21 A3000 RMK AO2 SLP158 T02440211 $=
202307192151 METAR KJFK 192151Z 19007KT 10SM SCT030 SCT230 24/21 A3000 RMK AO2 SLP158 T02440211 $=
202307192051 METAR KJFK 192051Z 22005KT 10SM SCT020 SCT039 SCT090 26/21 A3000 RMK AO2 SLP160 60000 T02560206 56014 $=
202307191951 METAR KJFK 191951Z 21007KT 10SM FEW014 SCT039 SCT090 BKN130 25/21 A3002 RMK AO2 SLP164 T02500211 $=
202307191851 METAR KJFK 191851Z 16004KT 9SM SCT011 BKN035 BKN046 BKN130 23/21 A3003 RMK AO2 RAE1756 SLP168 P0000 T02330211 $=
202307191844 SPECI KJFK 191844Z 16004KT 9SM SCT011 BKN035 BKN046 BKN130 23/21 A3003 RMK AO2 RAE1756 P0000 T02280211 $=
202307191751 METAR KJFK 191751Z 15003KT 6SM -RA BR FEW006 BKN023 BKN041 OVC130 22/21 A3004 RMK AO2 SLP174 P0011 60012 T02220211 10250 20211 50003 $=
202307191726 SPECI KJFK 191726Z 00000KT 4SM -RA BR FEW006 SCT025 BKN044 OVC130 22/21 A3005 RMK AO2 P0008 T02170211 $=
202307191651 METAR KJFK 191651Z 19007KT 4SM R04R/6000VP6000FT RA BR FEW014 SCT027 BKN055 OVC130 22/21 A3006 RMK AO2 RAB43 SLP179 VIS S-SW 2 1/2 P0001 T02170206 $=
202307191551 METAR KJFK 191551Z 13005KT 7SM BKN055CB BKN130 OVC190 24/19 A3005 RMK AO2 LTG DSNT SE AND S SLP175 CB S MOV E VCSH SE-SW T02440194 $=
202307191451 METAR KJFK 191451Z 06005KT 7SM FEW060 BKN130 BKN190 OVC250 25/19 A3004 RMK AO2 SLP171 60000 T02500194 50002 $=
202307191351 METAR KJFK 191351Z 19004KT 6SM HZ FEW060 SCT110 OVC220 24/20 A3004 RMK AO2 RAB1257E07 SLP172 P0000 T02390200 $=
202307191251 METAR KJFK 191251Z 16004KT 6SM HZ FEW065 OVC085 23/21 A3004 RMK AO2 SLP172 T02330206 $=
202307191151 METAR KJFK 191151Z 00000KT 6SM HZ FEW060 BKN100 OVC250 23/19 A3003 RMK AO2 SLP169 70139 T02330194 10244 20217 53014 $=
202307191051 METAR KJFK 191051Z 00000KT 6SM HZ FEW055 SCT090 SCT140 BKN250 23/20 A3001 RMK AO2 SLP162 T02280200 $=
202307190951 METAR KJFK 190951Z 29003KT 6SM BR SCT250 22/20 A2999 RMK AO2 SLP156 T02220200 $=
202307190851 METAR KJFK 190851Z 26008KT 7SM FEW250 22/20 A2999 RMK AO2 SLP155 T02220200 53007 $=
202307190751 METAR KJFK 190751Z 27006KT 8SM FEW250 22/19 A2998 RMK AO2 SLP151 T02220189 $=
202307190651 METAR KJFK 190651Z 27005KT 8SM FEW250 23/19 A2997 RMK AO2 SLP147 T02330189 $=
202307190551 METAR KJFK 190551Z 28008KT 8SM FEW250 24/19 A2997 RMK AO2 SLP147 T02440194 10244 20228 50002=
202307190451 METAR KJFK 190451Z 28008KT 9SM FEW250 24/21 A2997 RMK AO2 SLP150 T02440206 402830211=
202307190351 METAR KJFK 190351Z 25008KT 10SM FEW250 24/23 A2998 RMK AO2 SLP151 T02390228=
202307190251 METAR KJFK 190251Z 24007KT 10SM R04R/2400VP6000FT FEW045 SCT250 23/22 A2996 RMK AO2 SLP145 T02330222 53013=
202307190151 METAR KJFK 190151Z 22005KT 10SM R04R/0800VP6000FT FEW035 FEW250 23/22 A2995 RMK AO2 SLP141 T02330217=
202307190051 METAR KJFK 190051Z 00000KT 10SM FEW035 FEW250 24/22 A2993 RMK AO2 SLP134 TCU DSNT E-SE T02390217=
202307182351 METAR KJFK 182351Z 19006KT 9SM FEW035 FEW075 SCT100 SCT250 24/21 A2992 RMK AO2 SLP132 TCU DSNT S 60017 T02390211 10256 20217 55006=
202307182251 METAR KJFK 182251Z 17012KT 10SM FEW033 SCT095 SCT170 SCT250 25/22 A2992 RMK AO2 RAE2155 SLP131 P0000 T02500217=
202307182151 METAR KJFK 182151Z 16014KT 10SM -RA FEW017 SCT033 BKN120 BKN170 BKN250 26/24 A2991 RMK AO2 RAE17B36 SLP128 P0000 T02560239=
202307182051 METAR KJFK 182051Z 18012KT 10SM -RA SCT033CB SCT060 BKN100 BKN250 25/23 A2994 RMK AO2 VIS 2 1/2 W LTG DSNT S AND NW RAE03B29 SLP138 CB SW MOV NE CB DSNT NW P0000 60017 T02500228 55010=
202307181951 METAR KJFK 181951Z 15012KT 8SM -RA FEW021 SCT033 BKN100 OVC140 23/23 A2994 RMK AO2 LTG DSNT SW RAB04 SLP137 CB DSNT E-SE P0006 T02330228=
202307181851 METAR KJFK 181851Z 16007KT 9SM FEW016 SCT033 BKN090 BKN140 BKN250 23/22 A2996 RMK AO2 LTG DSNT ALQDS RAE50 TSE13 SLP145 CB DSNT E P0011 T02330222=
202307181814 SPECI KJFK 181814Z 19011KT 4SM -RA BR SCT033 BKN090 BKN110 BKN250 22/22 A2997 RMK AO2 LTG DSNT NE AND SW TSE13 P0004 T02220217=
202307181751 METAR KJFK 181751Z 17007KT 2SM -TSRA BR SCT011 BKN022CB OVC050 21/21 A2997 RMK AO2 WSHFT 1659 LTG DSNT ALQDS RAB1658 SLP148 OCNL LTGICCG E TS E MOV E P0122 60122 T02110211 10283 20211 55005=
202307181747 SPECI KJFK 181747Z 16008KT 2SM -TSRA BR SCT011 BKN022CB OVC050 21/21 A2997 RMK AO2 WSHFT 1659 LTG DSNT ALQDS RAB1658 OCNL LTGICCG E TS E MOV E P0122=
202307181715 SPECI KJFK 181715Z 25011G22KT 1/2SM R04R/2800VP6000FT TSRA BR BKN009 BKN020CB OVC038 22/21 A2998 RMK AO2 WSHFT 1659 SFC VIS 1 LTG DSNT ALQDS RAB1658 PRESRR OCNL LTGICCG OHD TS OHD MOV E P0004 T02220211=
202307181651 METAR KJFK 181651Z 18011KT 7SM TS BKN009 BKN020CB BKN040 BKN250 27/24 A2997 RMK AO2 LTG DSNT SW-N TSB44 SLP147 OCNL LTGICCG W TS W MOV E T02670239=
202307181644 SPECI KJFK 181644Z 18013KT 7SM TS BKN009 BKN020CB BKN045 BKN250 28/24 A2997 RMK AO2 LTG DSNT SW-N TSB44 OCNL LTGICCG W TS W MOV E T02780244=
202307181551 METAR KJFK 181551Z 17013KT 10SM SCT009 SCT038 BKN180 BKN250 28/24 A2998 RMK AO2 LTG DSNT W AND NW SLP150 T02780244=
202307181451 METAR KJFK 181451Z 19012KT 10SM SCT007 BKN040 BKN180 BKN250 27/24 A2998 RMK AO2 SLP153 T02670244 51006=
202307181351 METAR KJFK 181351Z 17009KT 10SM BKN008 BKN180 BKN250 26/24 A2998 RMK AO2 SLP151 T02610244=
202307181251 METAR KJFK 181251Z 18007KT 10SM SCT009 BKN180 BKN250 26/24 A2997 RMK AO2 SLP149 T02610239=
202307181151 METAR KJFK 181151Z 18005KT 10SM SCT180 BKN250 25/24 A2997 RMK AO2 SLP147 T02500239 10256 20233 51007=
202307181051 METAR KJFK 181051Z 18005KT 10SM SCT180 BKN250 24/23 A2996 RMK AO2 SLP145 T02440233=
202307180951 METAR KJFK 180951Z 19006KT 10SM SCT120 BKN250 23/23 A2995 RMK AO2 SLP142 T02330228=
202307180851 METAR KJFK 180851Z 22004KT 10SM SCT065 BKN250 23/23 A2994 RMK AO2 SLP140 T02330228 56008=
202307180751 METAR KJFK 180751Z 24005KT 10SM SCT110 BKN250 24/23 A2995 RMK AO2 SLP141 T02390228=
202307180651 METAR KJFK 180651Z 22005KT 10SM FEW047 BKN250 24/22 A2996 RMK AO2 SLP145 T02390222=
202307180551 METAR KJFK 180551Z 21005KT 10SM BKN250 24/21 A2997 RMK AO2 SLP148 T02390206 10256 20239 50001=
202307180451 METAR KJFK 180451Z 21010KT 10SM BKN250 25/21 A2998 RMK AO2 SLP153 T02500206 403110233=
202307180351 METAR KJFK 180351Z 20006KT 10SM BKN250 24/23 A2997 RMK AO2 SLP150 T02440228=
202307180251 METAR KJFK 180251Z 21007KT 10SM FEW065 BKN250 25/22 A2997 RMK AO2 SLP147 T02500222 51012=
202307180151 METAR KJFK 180151Z 19012KT 10SM FEW060 BKN250 25/22 A2996 RMK AO2 SLP145 T02500217=
202307180051 METAR KJFK 180051Z 19014KT 10SM BKN250 26/22 A2995 RMK AO2 SLP141 T02560222=
202307172351 METAR KJFK 172351Z 18012KT 10SM FEW009 BKN250 26/23 A2993 RMK AO2 SLP136 T02560233 10294 20256 52004=
202307172251 METAR KJFK 172251Z 18015KT 10SM FEW009 FEW050 BKN250 26/24 A2993 RMK AO2 SLP134 T02560239=
202307172229 SPECI KJFK 172229Z 17013KT 10SM SCT009 SCT050 BKN250 26/24 A2993 RMK AO2 T02610244=
202307172151 METAR KJFK 172151Z 18013KT 10SM FEW050 BKN250 27/24 A2992 RMK AO2 SLP133 T02670239=
202307172051 METAR KJFK 172051Z 18009KT 10SM FEW060 BKN250 28/23 A2992 RMK AO2 SLP131 T02830233 58010=
202307171951 METAR KJFK 171951Z 17010KT 10SM FEW060 SCT250 29/23 A2994 RMK AO2 SLP137 T02890228=
202307171851 METAR KJFK 171851Z 17010KT 10SM FEW060 SCT250 29/23 A2995 RMK AO2 SLP140 T02890233=
202307171751 METAR KJFK 171751Z 20011KT 10SM FEW080 FEW250 29/23 A2995 RMK AO2 SLP142 T02890233 10311 20250 50005=
202307171651 METAR KJFK 171651Z 21011KT 10SM SCT015 29/23 A2996 RMK AO2 SLP143 T02940233=
202307171551 METAR KJFK 171551Z VRB04KT 10SM FEW080 SCT150 30/19 A2995 RMK AO2 SLP142 T03000194=
202307171451 METAR KJFK 171451Z 01006KT 10SM FEW040 FEW065 FEW200 29/20 A2994 RMK AO2 SLP137 T02940200 53006=
202307171351 METAR KJFK 171351Z 01004KT 10SM FEW055 28/23 A2993 RMK AO2 SLP135 T02780228=
202307171251 METAR KJFK 171251Z 34006KT 10SM FEW014 26/23 A2992 RMK AO2 SLP131 T02610228=
202307171151 METAR KJFK 171151Z 32004KT 10SM BKN013 BKN020 25/23 A2992 RMK AO2 SLP131 70011 T02500233 10250 20233 53019=
202307171126 SPECI KJFK 171126Z 31006KT 10SM BKN013 BKN020 24/23 A2991 RMK AO2 T02440233=
202307171051 METAR KJFK 171051Z 26004KT 8SM OVC009 24/23 A2990 RMK AO2 SLP124 T02390233=
202307170951 METAR KJFK 170951Z 27004KT 5SM BR BKN007 OVC010 23/23 A2988 RMK AO2 SLP117 T02330233=
202307170851 METAR KJFK 170851Z 24007KT 10SM BKN007 BKN250 23/23 A2986 RMK AO2 SLP112 T02330233 53007=
202307170751 METAR KJFK 170751Z 25008KT 10SM BKN009 BKN250 24/24 A2984 RMK AO2 SLP106 T02390239=
202307170651 METAR KJFK 170651Z 22006KT 10SM BKN008 BKN250 24/23 A2985 RMK AO2 SLP107 T02390233=
202307170551 METAR KJFK 170551Z 25004KT 10SM SCT008 BKN055 BKN250 24/23 A2984 RMK AO2 SLP105 T02390233 10244 20233 51006=
202307170451 METAR KJFK 170451Z 25005KT 10SM SCT009 BKN050 24/24 A2984 RMK AO2 SLP104 T02440239 402720233=
202307170351 METAR KJFK 170351Z 24003KT 10SM SCT025 SCT120 SCT250 24/23 A2983 RMK AO2 SLP101 T02390233=
202307170251 METAR KJFK 170251Z 21003KT 10SM FEW028 FEW080 FEW110 SCT250 24/24 A2982 RMK AO2 SLP099 T02390239 50012=
202307170151 METAR KJFK 170151Z 20004KT 10SM FEW022 FEW080 SCT110 24/24 A2983 RMK AO2 SLP100 T02390239=
202307170138 SPECI KJFK 170138Z 19005KT 10SM FEW007 SCT022 BKN100 24/24 A2983 RMK AO2 T02390239=
202307170051 METAR KJFK 170051Z 20007KT 10SM FEW007 BKN028 OVC110 24/24 A2981 RMK AO2 SLP095 T02440239=
202307170037 SPECI KJFK 170037Z 24006KT 10SM FEW007 SCT010 BKN110 24/24 A2981 RMK AO2 T02440239=
202307162351 METAR KJFK 162351Z 00000KT 10SM SCT005 BKN010 OVC140 24/24 A2979 RMK AO2 SLP088 60003 T02390239 10272 20239 58001=
202307162336 SPECI KJFK 162336Z 18004KT 10SM SCT005 BKN010 OVC140 24/24 A2980 RMK AO2 T02390239=
202307162251 METAR KJFK 162251Z 15003KT 10SM FEW005 SCT017 BKN039 OVC180 24/24 A2979 RMK AO2 RAE42 SLP088 P0000 T02440239=
202307162151 METAR KJFK 162151Z 18006KT 10SM -RA BKN018 OVC110 24/24 A2979 RMK AO2 SLP089 P0003 T02440239=
202307162051 METAR KJFK 162051Z 20006KT 10SM -RA FEW037 BKN050 OVC120 25/24 A2979 RMK AO2 RAB02 SLP088 P0000 60000 T02500239 56005=
202307161951 METAR KJFK 161951Z 18005KT 10SM FEW014 BKN060 OVC250 26/24 A2979 RMK AO2 SLP088 T02560239=
202307161851 METAR KJFK 161851Z 25006KT 10SM FEW014 SCT075 BKN160 BKN250 27/24 A2981 RMK AO2 RAB1757E07 SLP093 P0000 T02720239=
202307161751 METAR KJFK 161751Z 20006KT 10SM FEW015 BKN037 BKN055 BKN140 BKN170 BKN250 26/24 A2981 RMK AO2 RAE49 SLP094 P0002 60008 T02610244 10261 20244 58010=
202307161651 METAR KJFK 161651Z 19009KT 3SM -RA BR FEW015 SCT021 OVC095 25/24 A2983 RMK AO2 SFC VIS 6 RAB37 SLP103 P0000 T02500239=
202307161551 METAR KJFK 161551Z 18010KT 3SM BR FEW010 SCT026 BKN055 BKN180 BKN250 26/24 A2984 RMK AO2 SFC VIS 6 CIG 023 W SLP104 T02610244=
202307161451 METAR KJFK 161451Z 19008KT 3SM BR FEW004 BKN012 BKN024 BKN200 BKN250 25/25 A2984 RMK AO2 SFC VIS 6 RAE12 SLP104 P0000 60006 T02500250 51003=
202307161424 SPECI KJFK 161424Z 19009KT 3SM BR BKN004 BKN009 OVC022 24/24 A2983 RMK AO2 SFC VIS 6 RAE12 P0000 T02440244=
202307161351 METAR KJFK 161351Z 22010KT 2 1/2SM -RA BR BKN008 BKN012 OVC041 24/24 A2983 RMK AO2 SFC VIS 5 RAB1259 SLP102 P0006 T02440244=
202307161320 SPECI KJFK 161320Z 22011KT 2 1/2SM -RA BR BKN006 BKN016 OVC041 24/24 A2984 RMK AO2 SFC VIS 4 RAB1259 P0004 T02440244=
202307161311 SPECI KJFK 161311Z 21010KT 6SM -RA BR SCT004 BKN013 OVC041 24/24 A2984 RMK AO2 RAB1259 P0000 T02440244=
202307161251 METAR KJFK 161251Z 21013KT 9SM BKN005 BKN012 OVC060 24/24 A2984 RMK AO2 RAB09E19 SLP103 P0000 T02440244=
202307161227 SPECI KJFK 161227Z 21014KT 10SM BKN009 BKN024 OVC033 25/24 A2983 RMK AO2 RAB09E19 P0000 T02500244=
202307161224 SPECI KJFK 161224Z 21016G20KT 10SM SCT009 SCT024 BKN034 25/24 A2983 RMK AO2 RAB09E19 CIG 028 W P0000 T02500244=
202307161151 METAR KJFK 161151Z 19009KT 10SM FEW042 OVC070 24/23 A2983 RMK AO2 RAE12 CIG 035 W SLP101 P0005 60034 70034 T02440233 10256 20239 55001=
202307161119 SPECI KJFK 161119Z 18013G22KT 10SM SCT011 SCT023 BKN070 24/24 A2983 RMK AO2 RAE12 CIG 018 W P0005 T02440239=
202307161113 SPECI KJFK 161113Z 17016KT 10SM SCT011 BKN017 BKN070 24/24 A2983 RMK AO2 RAE12 CIG 006 W P0005 T02440239=
202307161105 SPECI KJFK 161105Z 17015KT 10SM VCTS -RA BKN011 BKN017 OVC024 24/24 A2983 RMK AO2 LTG DSNT E-S P0005 T02440239=
202307161100 SPECI KJFK 161100Z 17013KT 9SM -RA SCT009 BKN015 OVC024 24/24 A2982 RMK AO2 P0005 T02390239=
202307161051 METAR KJFK 161051Z 17016G23KT 1 3/4SM R04R/3500VP6000FT RA BR SCT007 BKN016 OVC024 24/23 A2982 RMK AO2 SFC VIS 2 SLP098 CB DSNT SE P0029 T02390233=
202307161039 SPECI KJFK 161039Z 18017G20KT 1 1/2SM R04R/2400VP6000FT +RA BR SCT006 BKN011 OVC018 24/24 A2982 RMK AO2 TWR VIS 1 3/4 VIS 1/2V5 LTG DSNT SE AND S AND NW CIG 006 W CB DSNT SE P0007 T02440244=
202307160951 METAR KJFK 160951Z 17015KT 10SM -RA BKN007 BKN013 OVC250 25/25 A2983 RMK AO2 LTG DSNT SW RAB44 SLP100 CB DSNT SW P0000 T02500250=
202307160851 METAR KJFK 160851Z 16013G20KT 10SM SCT006 OVC016 25/25 A2983 RMK AO2 CIG 006 W SLP102 T02500250 57020=
202307160751 METAR KJFK 160751Z 17016G21KT 10SM BKN006 BKN010 OVC250 25/25 A2985 RMK AO2 SLP109 T02500250=
202307160651 METAR KJFK 160651Z 17014G21KT 10SM BKN006 BKN015 OVC250 26/25 A2987 RMK AO2 SLP115 T02560250=
202307160551 METAR KJFK 160551Z 17011KT 10SM OVC006 26/25 A2989 RMK AO2 SLP122 T02560250 10256 20250 58008=
202307160451 METAR KJFK 160451Z 17009KT 10SM OVC009 26/24 A2991 RMK AO2 SLP127 T02560244 403000222=
202307160351 METAR KJFK 160351Z 16011KT 10SM OVC009 26/25 A2991 RMK AO2 SLP129 T02560250=
202307160251 METAR KJFK 160251Z 17012KT 10SM BKN007 BKN017 OVC250 26/25 A2991 RMK AO2 SLP130 T02560250 58002=
202307160151 METAR KJFK 160151Z 17012KT 10SM BKN007 OVC250 26/25 A2992 RMK AO2 SLP132 T02560250=
202307160051 METAR KJFK 160051Z 17010KT 10SM OVC006 26/25 A2992 RMK AO2 SLP131 T02560250=
202307152351 METAR KJFK 152351Z 18014KT 10SM BKN007 BKN250 26/25 A2992 RMK AO2 SLP131 T02560250 10294 20256 50001=
202307152251 METAR KJFK 152251Z 16013KT 10SM BKN008 BKN050 OVC250 26/24 A2992 RMK AO2 LTG DSNT SW AND W SLP132 CB DSNT SW-W T02560244=
202307152151 METAR KJFK 152151Z 17014KT 10SM BKN006 BKN050 BKN250 26/24 A2993 RMK AO2 LTG DSNT SW AND W SLP133 CB DSNT SW-W T02610244=
202307152144 SPECI KJFK 152144Z 17013KT 10SM SCT006 BKN050 BKN250 26/24 A2992 RMK AO2 LTG DSNT SW AND W CB DSNT SW-W T02610244=
202307152128 SPECI KJFK 152128Z 16012G22KT 10SM BKN007 OVC250 26/24 A2992 RMK AO2 LTG DSNT SW AND W CB DSNT SW-W T02610244=
202307152113 SPECI KJFK 152113Z 17012G21KT 10SM SCT007 BKN050 OVC250 26/24 A2992 RMK AO2 LTG DSNT SW AND W CB DSNT SW-W T02610244=
202307152051 METAR KJFK 152051Z 16011KT 10SM FEW035 SCT050 BKN250 27/24 A2992 RMK AO2 LTG DSNT SW AND W SLP131 CB DSNT SW-W T02720244 58010=
202307151951 METAR KJFK 151951Z 17013KT 10SM FEW050 BKN250 28/23 A2994 RMK AO2 SLP137 TCU DSNT N T02830228=
202307151851 METAR KJFK 151851Z 17014KT 10SM FEW050 BKN250 28/24 A2996 RMK AO2 SLP144 TCU DSNT N T02830239=
202307151751 METAR KJFK 151751Z 17010KT 10SM FEW024 SCT050 BKN250 29/24 A2995 RMK AO2 SLP141 T02940239 10300 20244 58008=
202307151651 METAR KJFK 151651Z 18007KT 10SM FEW016 SCT026 BKN250 29/24 A2996 RMK AO2 SLP146 T02940239=
202307151551 METAR KJFK 151551Z VRB06KT 10SM FEW016 SCT025 SCT250 29/24 A2996 RMK AO2 SLP146 T02890239=
202307151451 METAR KJFK 151451Z 18007KT 10SM FEW016 SCT025 BKN250 28/24 A2997 RMK AO2 SLP149 T02780239 51007=
202307151428 SPECI KJFK 151428Z 00000KT 10SM FEW015 SCT250 27/23 A2997 RMK AO2 T02720233=
202307151351 METAR KJFK 151351Z 24004KT 10SM BKN015 BKN250 27/23 A2997 RMK AO2 SLP148 T02670233=
202307151251 METAR KJFK 151251Z 20004KT 10SM SCT008 BKN016 26/24 A2996 RMK AO2 SLP146 T02560239=
202307151151 METAR KJFK 151151Z 00000KT 10SM FEW006 SCT014 BKN047 BKN250 24/23 A2995 RMK AO2 SLP143 T02440233 10244 20222 53015=
202307151125 SPECI KJFK 151125Z 00000KT 10SM SCT009 SCT047 BKN250 24/22 A2995 RMK AO2 T02390222=
202307151051 METAR KJFK 151051Z 03003KT 10SM FEW047 SCT250 23/22 A2994 RMK AO2 SLP138 T02330222=
202307150951 METAR KJFK 150951Z 04003KT 10SM FEW010 SCT047 BKN250 23/22 A2992 RMK AO2 SLP131 T02280217=
202307150851 METAR KJFK 150851Z 00000KT 10SM FEW200 SCT250 22/21 A2991 RMK AO2 SLP128 T02220211 58008=
202307150751 METAR KJFK 150751Z 00000KT 10SM SCT250 22/21 A2992 RMK AO2 SLP131 T02220211=
202307150651 METAR KJFK 150651Z 23003KT 10SM FEW080 SCT250 22/21 A2993 RMK AO2 SLP134 T02220206=
202307150551 METAR KJFK 150551Z 00000KT 10SM BKN200 23/21 A2994 RMK AO2 SLP137 60000 T02280211 10261 20228 55002=
202307150451 METAR KJFK 150451Z 10004KT 10SM SCT200 23/20 A2993 RMK AO2 SLP135 T02330200 402890217=
202307150359 SPECI KJFK 150359Z 33006KT 10SM FEW035 BKN045 BKN250 24/21 A2994 RMK AO2 LTG DSNT SE AND S CB DSNT SE AND S T02440206=
202307150351 METAR KJFK 150351Z 34008KT 10SM VCTS SCT035 BKN045 BKN250 24/21 A2994 RMK AO2 WSHFT 0326 LTG DSNT ALQDS RAE0257 TSB04E24 SLP138 CB DSNT N AND NW P0000 T02440211=
202307150346 SPECI KJFK 150346Z 33008KT 10SM VCTS SCT035 24/21 A2994 RMK AO2 WSHFT 0326 LTG DSNT N AND NW RAE0257 TSB04E24 P0000=
202307150330 SPECI KJFK 150330Z 29017G23KT 10SM VCTS FEW024 BKN039 OVC110 25/21 A2995 RMK AO2 LTG DSNT NW RAE0257 TSB04E24 CIG 032 W P0000 T02500211=
202307150310 SPECI KJFK 150310Z 00000KT 10SM TS SCT032 BKN040CB OVC110 26/23 A2994 RMK AO2 LTG DSNT W-N RAE0257 TSB04 OCNL LTGICCC W-N TS W-N MOV NE P0000 T02560228=
202307150251 METAR KJFK 150251Z 00000KT 10SM VCTS -RA SCT030 BKN043 OVC100 26/22 A2993 RMK AO2 LTG DSNT W-N RAB45 TSE46 SLP133 CB DSNT W-N MOV NE P0000 60000 T02610222 53006=
202307150151 METAR KJFK 150151Z 24006KT 10SM BKN041 BKN250 24/23 A2991 RMK AO2 SLP129 OCNL LTGIC DSNT NW-N CB DSNT NW-N MOV NE T02440228=
202307150051 METAR KJFK 150051Z 19011KT 10SM FEW044 BKN140 BKN250 24/22 A2990 RMK AO2 SLP126 OCNL LTGIC DSNT NW CB DSNT NW-N MOV NE T02390222=
202307142351 METAR KJFK 142351Z 18014KT 10SM FEW042 BKN120 BKN250 24/23 A2991 RMK AO2 SLP127 OCNL LTGIC DSNT NW CB DSNT NW MOV NE T02440228 10289 20244 53002=
202307142251 METAR KJFK 142251Z 18014KT 10SM FEW041 BKN120 BKN250 25/23 A2990 RMK AO2 SLP125 T02500228=
202307142151 METAR KJFK 142151Z 14007KT 10SM FEW040 BKN120 BKN170 BKN250 26/23 A2990 RMK AO2 SLP124 CB DSNT W AND NW MOV NE T02610228=
202307142051 METAR KJFK 142051Z 13011KT 10SM FEW035 BKN160 27/23 A2990 RMK AO2 SLP125 CB DSNT NW MOV NE T02720228 55006=
202307141951 METAR KJFK 141951Z 14009KT 10SM FEW016 SCT035 SCT130 29/23 A2990 RMK AO2 SLP123 T02890233=
202307141851 METAR KJFK 141851Z 11012KT 10SM FEW015 FEW033 BKN130 29/23 A2990 RMK AO2 SLP125 TCU DSNT SW AND W T02890233=
202307141833 SPECI KJFK 141833Z 11014KT 10SM FEW015 FEW030 BKN130 28/23 A2990 RMK AO2 TCU DSNT SW AND NW T02780228=
202307141751 METAR KJFK 141751Z 09011G17KT 10SM BKN013 BKN030 OVC110 26/22 A2992 RMK AO2 SLP131 T02610217 10278 20228 51006=
202307141725 SPECI KJFK 141725Z 10014KT 10SM BKN013 BKN027 OVC110 25/22 A2992 RMK AO2 T02500217=
202307141651 METAR KJFK 141651Z 11015KT 10SM BKN015 BKN041 BKN100 26/22 A2992 RMK AO2 SLP130 CIG 013V017 T02610222=
202307141551 METAR KJFK 141551Z 10013KT 10SM BKN015 BKN110 26/23 A2991 RMK AO2 SLP128 CIG 012V018 T02610228 $=
202307141451 METAR KJFK 141451Z 06009KT 10SM BKN017 BKN110 BKN250 26/22 A2990 RMK AO2 SLP126 T02610217 51012 $=
202307141351 METAR KJFK 141351Z 10007KT 10SM FEW014 BKN028 BKN060 BKN250 26/22 A2990 RMK AO2 LTG DSNT NE AND E SLP126 T02560217 $=
202307141251 METAR KJFK 141251Z 02009KT 10SM SCT012 BKN020 BKN095 BKN250 24/22 A2991 RMK AO2 LTG DSNT N AND NE TSE10 SLP127 T02390217 $=
202307141211 SPECI KJFK 141211Z 10006KT 10SM SCT022 BKN027CB BKN095 BKN250 23/22 A2988 RMK AO2 TSE10 CB NW-N MOV NE TCU DSNT S VCSH NW-N T02330217 $=
202307141151 METAR KJFK 141151Z 10006KT 10SM TS FEW013 BKN025CB BKN085 BKN250 23/22 A2987 RMK AO2 TSB30 SLP114 OCNL LTGICCG W-NW TS W-NW MOV NE CB DSNT SW MOV NE TCU SE-S VCSH W-NW 60012 70012 T02280217 10244 20217 53002 $=
202307141130 SPECI KJFK 141130Z 05003KT 10SM TS SCT029CB BKN080 BKN250 23/22 A2987 RMK AO2 TSB30 OCNL LTGIC W TS W MOV NE TCU S-SW VCSH W T02280217 $=
202307141051 METAR KJFK 141051Z 10010KT 10SM FEW037 BKN090 BKN120 OVC250 23/21 A2986 RMK AO2 RAE19 TSE16 SLP112 P0012 T02280211=
202307141016 SPECI KJFK 141016Z 10008KT 9SM -RA SCT038CB BKN095 BKN120 BKN250 22/19 A2985 RMK AO2 TSE16 CB E-SE MOV NE P0012 T02220189=
202307140951 METAR KJFK 140951Z 11006KT 10SM -TSRA SCT028CB BKN040 BKN110 24/18 A2986 RMK AO2 RAB44 TSB35 SLP111 OCNL LTGICCC S TS S MOV NE P0000 T02390183=
202307140935 SPECI KJFK 140935Z 13008KT 10SM TS SCT022 BKN027CB BKN040 24/18 A2986 RMK AO2 TSB35 OCNL LTGICCC S TS S MOV NE T02390178 $=
202307140851 METAR KJFK 140851Z 07010KT 10SM BKN024 BKN040 24/18 A2986 RMK AO2 LTG DSNT SE TSB33E48 SLP112 T02440178 51005 $=
202307140838 SPECI KJFK 140838Z 05012KT 10SM TS BKN021CB OVC024 24/18 A2987 RMK AO2 TSB33 OCNL LTGICCC NW TS NW MOV NE T02440178 $=
202307140818 SPECI KJFK 140818Z 04009KT 10SM VCTS OVC019 24/18 A2987 RMK AO2 LTG DSNT N T02440178 $=
202307140751 METAR KJFK 140751Z 04011KT 10SM BKN007 BKN075 BKN250 24/18 A2986 RMK AO2 LTG DSNT N SLP112 T02390183 $=
202307140651 METAR KJFK 140651Z 21003KT 10SM BKN007 BKN050 BKN250 24/24 A2985 RMK AO2 LTG DSNT N AND NE SLP108 T02390239 $=
202307140625 SPECI KJFK 140625Z 24007KT 10SM FEW007 BKN055 BKN250 24/24 A2987 RMK AO2 LTG DSNT N T02390239 $=
202307140551 METAR KJFK 140551Z 20011KT 10SM FEW055 BKN250 24/24 A2985 RMK AO2 SLP106 FRQ LTGIC DSNT N-NE CB DSNT N-NE T02440239 10256 20244 53004 $=
202307140451 METAR KJFK 140451Z 18013KT 10SM SCT060 BKN250 24/24 A2983 RMK AO2 SLP100 FRQ LTGICCC DSNT N CB DSNT N T02440239 402940222 $=
202307140351 METAR KJFK 140351Z 19014KT 10SM SCT055 SCT250 24/24 A2984 RMK AO2 SLP103 FRQ LTGIC DSNT N CB DSNT N T02440239 $=
202307140251 METAR KJFK 140251Z 18015KT 10SM FEW055 SCT250 24/24 A2983 RMK AO2 SLP103 CB DSNT NW-N T02440239 51008 $=
202307140151 METAR KJFK 140151Z 19015KT 10SM FEW045 FEW250 25/24 A2983 RMK AO2 SLP101 OCNL LTGIC DSNT NW CB DSNT NW T02500239 $=
202307140051 METAR KJFK 140051Z 19018KT 10SM FEW045 SCT250 25/24 A2981 RMK AO2 PK WND 19026/2358 SLP096 T02500239 $=
202307132351 METAR KJFK 132351Z 18019G24KT 10SM FEW045 FEW250 26/24 A2981 RMK AO2 PK WND 19028/2322 SLP094 T02560239 10294 20256 55002 $=
202307132251 METAR KJFK 132251Z 19021G28KT 10SM FEW045 FEW100 FEW250 27/24 A2980 RMK AO2 PK WND 18030/2152 SLP090 TCU DSNT NW T02670239 $=
202307132151 METAR KJFK 132151Z 19022G28KT 10SM FEW045 FEW080 FEW250 28/24 A2980 RMK AO2 PK WND 19030/2135 SLP092 TCU DSNT NW T02780239 $=
202307132051 METAR KJFK 132051Z 18020G31KT 10SM FEW045 FEW080 FEW160 SCT250 28/24 A2982 RMK AO2 PK WND 17031/2047 SLP097 T02830244 56014=
202307131951 METAR KJFK 131951Z 18018G26KT 10SM FEW010 FEW043 SCT160 SCT200 BKN250 29/25 A2983 RMK AO2 PK WND 17029/1935 SLP102 T02890250=
202307131851 METAR KJFK 131851Z 17019G25KT 10SM FEW011 SCT043 SCT160 BKN190 BKN250 28/24 A2984 RMK AO2 LTG DSNT S AND SW SLP104 TCU DSNT W T02830244=
202307131751 METAR KJFK 131751Z 16014KT 10SM FEW043 FEW070 BKN160 BKN250 29/24 A2986 RMK AO2 SLP110 T02940244 10294 20250 58015=
202307131651 METAR KJFK 131651Z 17016G21KT 10SM FEW040 FEW070 BKN190 BKN250 28/24 A2987 RMK AO2 SLP116 T02780239=
202307131551 METAR KJFK 131551Z 17013KT 10SM FEW037 FEW070 BKN250 29/24 A2989 RMK AO2 SLP120 T02890239=
202307131451 METAR KJFK 131451Z 18012KT 10SM FEW033 FEW075 BKN250 28/23 A2990 RMK AO2 SLP125 T02830233 58005=
202307131351 METAR KJFK 131351Z 18008KT 10SM FEW075 BKN250 27/22 A2991 RMK AO2 SLP128 T02670217=
202307131251 METAR KJFK 131251Z 18008KT 10SM FEW075 BKN250 26/22 A2992 RMK AO2 SLP131 T02610217=
202307131151 METAR KJFK 131151Z 19007KT 10SM SCT070 BKN250 25/21 A2992 RMK AO2 SLP130 T02500211 10256 20222 50002=
202307131051 METAR KJFK 131051Z 21005KT 10SM FEW065 SCT250 24/22 A2992 RMK AO2 SLP131 T02440217 $=
202307130951 METAR KJFK 130951Z 20004KT 10SM FEW065 SCT180 SCT250 23/21 A2991 RMK AO2 SLP129 T02280206 $=
202307130851 METAR KJFK 130851Z 22005KT 10SM FEW065 SCT250 23/21 A2991 RMK AO2 SLP128 T02280206 53002 $=
202307130751 METAR KJFK 130751Z 21006KT 10SM SCT250 23/21 A2990 RMK AO2 SLP125 T02280206 $=
202307130651 METAR KJFK 130651Z 19005KT 10SM SCT250 23/20 A2989 RMK AO2 SLP121 T02330200 $=
202307130551 METAR KJFK 130551Z 23006KT 10SM SCT250 24/21 A2990 RMK AO2 SLP126 T02440206 10261 20244 58006 $=
202307130451 METAR KJFK 130451Z 23009KT 10SM FEW200 SCT250 25/20 A2991 RMK AO2 SLP128 T02500200 403220222 $=
202307130351 METAR KJFK 130351Z 20005KT 10SM FEW075 SCT200 BKN250 24/21 A2992 RMK AO2 SLP131 T02440211 $=
202307130251 METAR KJFK 130251Z 00000KT 10SM FEW065 BKN250 25/22 A2992 RMK AO2 SLP132 T02500222 50002 $=
202307130151 METAR KJFK 130151Z 17003KT 10SM FEW190 BKN250 26/22 A2992 RMK AO2 SLP133 T02560222 $=
202307130051 METAR KJFK 130051Z 19007KT 10SM FEW060 BKN190 BKN250 26/22 A2992 RMK AO2 SLP131 T02560222 $=
202307122351 METAR KJFK 122351Z 19009KT 10SM FEW060 BKN240 26/22 A2992 RMK AO2 SLP131 T02610222 10322 20261 53002 $=
202307122251 METAR KJFK 122251Z 18016KT 10SM FEW060 BKN220 27/21 A2991 RMK AO2 SLP129 T02720206 $=
202307122151 METAR KJFK 122151Z 18016KT 10SM FEW060 BKN230 28/20 A2991 RMK AO2 SLP127 T02830200 $=
202307122051 METAR KJFK 122051Z 19015KT 10SM FEW060 SCT250 29/19 A2991 RMK AO2 SLP128 T02940194 55000 $=
202307121951 METAR KJFK 121951Z 19015KT 10SM FEW060 SCT250 32/19 A2991 RMK AO2 SLP127 T03170194 $=
202307121851 METAR KJFK 121851Z 19012KT 10SM FEW060 BKN250 31/19 A2991 RMK AO2 SLP128 T03110194 $=
202307121751 METAR KJFK 121751Z 22013KT 10SM FEW060 SCT250 32/17 A2991 RMK AO2 SLP129 T03220172 10322 20261 58010 $=
202307121651 METAR KJFK 121651Z 21011KT 10SM FEW060 SCT250 32/18 A2993 RMK AO2 SLP136 T03170183 $=
202307121551 METAR KJFK 121551Z 22010KT 10SM FEW060 SCT250 31/18 A2994 RMK AO2 SLP139 T03110183 $=
202307121451 METAR KJFK 121451Z 22008KT 10SM FEW055 FEW250 31/18 A2994 RMK AO2 SLP139 T03060183 58001 $=
202307121351 METAR KJFK 121351Z 24009KT 10SM FEW250 29/19 A2994 RMK AO2 SLP139 T02940189 $=
202307121251 METAR KJFK 121251Z 25007KT 10SM FEW160 FEW250 28/18 A2995 RMK AO2 SLP142 T02780183 $=
202307121151 METAR KJFK 121151Z 26007KT 10SM FEW250 26/18 A2995 RMK AO2 SLP140 T02610183 10261 20222 53010 $=
202307121051 METAR KJFK 121051Z 24005KT 10SM FEW160 FEW250 24/19 A2993 RMK AO2 SLP135 T02390189 $=
202307120951 METAR KJFK 120951Z 21004KT 10SM FEW250 22/19 A2992 RMK AO2 SLP132 T02220189 $=
202307120851 METAR KJFK 120851Z 25005KT 10SM CLR 23/18 A2992 RMK AO2 SLP131 T02280178 53005 $=
202307120751 METAR KJFK 120751Z 25006KT 10SM CLR 23/19 A2991 RMK AO2 SLP127 T02330189 $=
202307120651 METAR KJFK 120651Z 24007KT 10SM FEW250 23/21 A2991 RMK AO2 SLP127 T02330206 $=
202307120551 METAR KJFK 120551Z 22005KT 10SM FEW250 23/21 A2990 RMK AO2 SLP126 T02330206 10267 20233 58002 $=
202307120451 METAR KJFK 120451Z 22006KT 10SM FEW250 24/20 A2991 RMK AO2 SLP129 T02440200 403000211 $=
202307120351 METAR KJFK 120351Z 21006KT 10SM FEW250 24/20 A2991 RMK AO2 SLP127 T02440200 $=
202307120251 METAR KJFK 120251Z 25006KT 10SM FEW250 26/19 A2991 RMK AO2 SLP128 T02560189 53009 $=
202307120151 METAR KJFK 120151Z 24006KT 10SM FEW250 26/19 A2990 RMK AO2 SLP125 T02610189 $=
202307120051 METAR KJFK 120051Z 22007KT 10SM FEW060 FEW250 26/21 A2989 RMK AO2 SLP121 T02560206 $=
202307112351 METAR KJFK 112351Z 20011KT 10SM FEW060 FEW250 26/19 A2988 RMK AO2 SLP119 T02610194 10300 20261 53004=
202307112251 METAR KJFK 112251Z 20013KT 10SM FEW060 27/18 A2988 RMK AO2 SLP116 T02720183=
202307112151 METAR KJFK 112151Z 21014KT 10SM FEW060 28/19 A2987 RMK AO2 SLP116 T02830189=
202307112051 METAR KJFK 112051Z 19014KT 10SM FEW055 28/18 A2987 RMK AO2 SLP115 T02830183 58004=
202307111951 METAR KJFK 111951Z 19012KT 10SM FEW055 FEW250 29/18 A2988 RMK AO2 SLP117 T02890183=
202307111851 METAR KJFK 111851Z 21012KT 10SM FEW055 FEW250 30/18 A2988 RMK AO2 SLP119 T03000178=
202307111751 METAR KJFK 111751Z 20011KT 10SM FEW055 FEW250 29/17 A2988 RMK AO2 SLP119 T02940172 10300 20244 58004=
202307111651 METAR KJFK 111651Z 21012KT 10SM FEW050 FEW250 29/18 A2989 RMK AO2 SLP120 T02940183=
202307111551 METAR KJFK 111551Z 22010KT 10SM FEW047 FEW250 29/17 A2989 RMK AO2 SLP121 T02940172=
202307111451 METAR KJFK 111451Z 23008KT 10SM FEW250 28/16 A2989 RMK AO2 SLP122 T02830161 58005=
202307111351 METAR KJFK 111351Z 31007KT 10SM FEW250 27/16 A2990 RMK AO2 SLP124 T02720156=
202307111251 METAR KJFK 111251Z 33010KT 10SM FEW250 26/14 A2991 RMK AO2 SLP128 T02560139=
202307111151 METAR KJFK 111151Z 27005KT 10SM SCT250 24/14 A2991 RMK AO2 SLP127 T02440139 10244 20211 53017 $=
202307111051 METAR KJFK 111051Z 27005KT 10SM SCT250 23/13 A2989 RMK AO2 SLP121 T02280133 $=
202307110951 METAR KJFK 110951Z 30009KT 10SM SCT250 22/13 A2987 RMK AO2 SLP115 T02170128 $=
202307110851 METAR KJFK 110851Z 30010KT 10SM FEW250 22/13 A2986 RMK AO2 SLP111 T02170128 53004 $=
202307110751 METAR KJFK 110751Z 31007KT 10SM FEW250 22/12 A2985 RMK AO2 SLP109 T02170122 $=
202307110651 METAR KJFK 110651Z 31013KT 10SM FEW250 23/14 A2985 RMK AO2 SLP108 T02280139 $=
202307110551 METAR KJFK 110551Z 28008KT 10SM FEW250 23/13 A2985 RMK AO2 SLP107 T02330133 10272 20228 58001 $=
202307110451 METAR KJFK 110451Z 31009KT 10SM FEW250 24/13 A2986 RMK AO2 SLP110 T02390133 403060217 $=
202307110351 METAR KJFK 110351Z 32008KT 10SM FEW200 FEW250 24/14 A2986 RMK AO2 SLP111 T02440139 $=
202307110251 METAR KJFK 110251Z 34009KT 10SM FEW065 FEW200 SCT250 25/13 A2985 RMK AO2 SLP108 T02500133 51016 $=
202307110151 METAR KJFK 110151Z 34009KT 10SM FEW055 FEW100 FEW250 26/16 A2984 RMK AO2 SLP103 T02610156 $=
202307110051 METAR KJFK 110051Z 36006KT 10SM FEW055 FEW100 SCT250 26/18 A2982 RMK AO2 SLP099 T02610183 $=
202307102351 METAR KJFK 102351Z 36013KT 10SM SCT055 SCT100 SCT250 27/18 A2980 RMK AO2 SLP092 T02720183 10306 20267 53015 $=
202307102251 METAR KJFK 102251Z 36013KT 10SM SCT055 SCT100 BKN250 28/19 A2978 RMK AO2 SLP084 T02830189 $=
202307102151 METAR KJFK 102151Z 29012KT 10SM SCT050 BKN250 31/19 A2977 RMK AO2 SLP079 T03060189 $=
202307102051 METAR KJFK 102051Z 33009KT 10SM SCT047 SCT210 BKN250 30/19 A2976 RMK AO2 SLP078 T03000189 50000 $=
202307101951 METAR KJFK 101951Z 35008KT 10SM SCT042 SCT210 BKN250 29/19 A2976 RMK AO2 SLP078 T02890189 $=
202307101851 METAR KJFK 101851Z 34011KT 10SM SCT037 SCT050 SCT200 BKN250 28/19 A2977 RMK AO2 SLP081 T02780189 $=
202307101751 METAR KJFK 101751Z 35010KT 10SM SCT036 BKN180 BKN250 27/19 A2976 RMK AO2 SLP077 T02720189 10283 20239 58001 $=
202307101651 METAR KJFK 101651Z 35014KT 10SM SCT028 SCT046 BKN180 BKN250 28/20 A2976 RMK AO2 SLP078 T02780200 $=
202307101551 METAR KJFK 101551Z 34011KT 10SM BKN027 BKN170 BKN250 28/21 A2977 RMK AO2 SLP080 T02780206 $=
202307101451 METAR KJFK 101451Z 34010KT 10SM SCT022 BKN028 BKN170 BKN250 26/20 A2976 RMK AO2 SLP079 T02560200 53006 $=
202307101351 METAR KJFK 101351Z 33008KT 10SM SCT018 BKN160 BKN230 25/21 A2975 RMK AO2 SLP075 T02500206 $=
202307101251 METAR KJFK 101251Z 35007KT 10SM SCT025 SCT160 BKN230 24/21 A2975 RMK AO2 SLP075 T02440211 $=
202307101151 METAR KJFK 101151Z 35007KT 10SM FEW010 FEW025 BKN160 BKN230 24/22 A2975 RMK AO2 SLP073 60000 70053 T02390217 10239 20217 51012 $=
202307101118 SPECI KJFK 101118Z 35006KT 10SM FEW010 SCT023 BKN160 BKN250 23/22 A2974 RMK AO2 T02280217 $=
202307101051 METAR KJFK 101051Z 33006KT 10SM FEW012 BKN024 BKN130 BKN220 23/22 A2974 RMK AO2 SLP071 T02280217 $=
202307101034 SPECI KJFK 101034Z 32005KT 10SM FEW011 BKN024 BKN130 BKN220 22/22 A2973 RMK AO2 T02220217 $=
202307100951 METAR KJFK 100951Z 29006KT 10SM SCT035 SCT130 BKN220 22/21 A2972 RMK AO2 SLP065 T02220211 $=
202307100851 METAR KJFK 100851Z 28005KT 10SM FEW013 SCT021 BKN150 22/21 A2971 RMK AO2 SLP061 60000 T02220211 56010 $=
202307100751 METAR KJFK 100751Z 27008KT 10SM SCT011 BKN017 BKN035 23/22 A2972 RMK AO2 RAE0654 SLP063 P0000 T02280217 $=
202307100651 METAR KJFK 100651Z 00000KT 10SM -RA SCT009 BKN029 BKN039 23/23 A2972 RMK AO2 RAE0558B43 SLP063 P0000 T02330228 $=
202307100551 METAR KJFK 100551Z 13007KT 10SM -RA FEW010 BKN034 OVC055 23/22 A2974 RMK AO2 VIS 2 1/2 W RAB48 SLP072 P0000 60016 T02330222 10244 20233 56005 $=
202307100510 SPECI KJFK 100510Z 12010KT 10SM BKN010 OVC036 24/23 A2974 RMK AO2 T02390233 $=
202307100451 METAR KJFK 100451Z 12010KT 10SM FEW010 BKN047 OVC055 24/23 A2974 RMK AO2 SLP072 T02390233 402720233 $=
202307100351 METAR KJFK 100351Z 11011KT 10SM SCT010 SCT016 BKN080 24/23 A2974 RMK AO2 RAE04 SLP069 P0000 T02390233 $=
202307100251 METAR KJFK 100251Z 11011KT 10SM -RA FEW014 BKN090 OVC110 24/23 A2976 RMK AO2 LTG DSNT SE SLP077 P0016 60016 T02390233 56012 $=
202307100151 METAR KJFK 100151Z 13012KT 10SM -RA FEW012 SCT021 OVC140 24/23 A2978 RMK AO2 RAE0057B31 SLP083 P0000 T02390233 $=
202307100144 SPECI KJFK 100144Z 14012KT 10SM -RA FEW014 SCT021 OVC140 24/23 A2978 RMK AO2 RAE0057B31 P0000 T02440233 $=
202307100051 METAR KJFK 100051Z 13009KT 10SM -RA FEW012 BKN026 BKN060 OVC150 24/23 A2977 RMK AO2 RAB37 SLP082 P0000 T02440233 $=
202307092351 METAR KJFK 092351Z 14012KT 10SM SCT015 BKN023 BKN060 OVC130 24/23 A2979 RMK AO2 RAE2253 SLP089 P0000 60037 T02440233 10272 20233 56006 $=
202307092324 SPECI KJFK 092324Z 14011KT 10SM SCT013 SCT025 BKN070 BKN130 OVC250 24/24 A2979 RMK AO2 RAE2253 CB DSNT N P0000 T02440239 $=
202307092251 METAR KJFK 092251Z 17003KT 6SM -RA BR SCT016 BKN029 OVC070 23/23 A2980 RMK AO2 SLP089 P0028 T02330233 $=
202307092236 SPECI KJFK 092236Z 17008KT 3/4SM R04R/2200VP6000FT +RA BR SCT013 BKN027 OVC075 24/23 A2980 RMK AO2 SFC VIS 1 1/2 P0002 T02440233 $=
202307092151 METAR KJFK 092151Z 11009KT 8SM -RA SCT013 BKN026 BKN055 OVC250 25/24 A2979 RMK AO2 RAB42 SLP088 P0001 T02500239 $=
202307092051 METAR KJFK 092051Z 14011KT 10SM SCT013 BKN022 BKN055 OVC250 25/24 A2981 RMK AO2 RAB00E27 SLP095 CB DSNT NE P0008 60008 T02500239 56002 $=
202307092044 SPECI KJFK 092044Z 15011KT 10SM SCT013 SCT031CB BKN055 OVC250 25/24 A2981 RMK AO2 RAB00E27 CB NE MOV N P0008 T02500239 $=
202307091951 METAR KJFK 091951Z 17008KT 10SM BKN018 BKN026 OVC250 26/22 A2981 RMK AO2 SLP095 VCSH SE T02610222 $=
202307091851 METAR KJFK 091851Z 16013KT 10SM BKN015 BKN022 BKN250 27/23 A2981 RMK AO2 SLP094 T02670228 $=
202307091751 METAR KJFK 091751Z 15012KT 10SM SCT016 BKN022 BKN028 BKN250 27/23 A2982 RMK AO2 CIG 015 W SLP097 T02670228 10272 20244 56014 $=
202307091651 METAR KJFK 091651Z 16014KT 10SM BKN014 BKN022 BKN050 BKN160 26/23 A2982 RMK AO2 SLP099 T02610228 $=
202307091551 METAR KJFK 091551Z 16011KT 10SM BKN016 BKN038 BKN047 26/22 A2983 RMK AO2 LTG DSNT N AND NW SLP102 T02610222 $=
202307091451 METAR KJFK 091451Z 17008KT 10SM BKN018 BKN027 BKN041 OVC160 26/22 A2986 RMK AO2 SLP111 T02610222 58001 $=
202307091351 METAR KJFK 091351Z 18006KT 10SM SCT013 BKN020 OVC160 26/23 A2986 RMK AO2 SLP110 T02610233 $=
202307091251 METAR KJFK 091251Z 20006KT 10SM SCT011 BKN021 BKN200 BKN250 26/23 A2986 RMK AO2 SLP112 T02560228 $=
202307091151 METAR KJFK 091151Z 17007KT 10SM FEW008 BKN013 OVC019 24/23 A2986 RMK AO2 SLP112 T02440233 10244 20233 53004 $=
202307091126 SPECI KJFK 091126Z 19005KT 10SM FEW008 SCT015 BKN021 OVC200 24/23 A2986 RMK AO2 T02440233 $=
202307091051 METAR KJFK 091051Z 18003KT 10SM FEW007 SCT015 BKN200 BKN250 24/23 A2985 RMK AO2 SLP107 T02390233 $=
202307090951 METAR KJFK 090951Z 17004KT 10SM SCT007 BKN018 BKN065 OVC250 24/23 A2985 RMK AO2 SLP107 T02390233 $=
202307090945 SPECI KJFK 090945Z 16004KT 10SM SCT007 BKN018 BKN065 OVC250 24/23 A2985 RMK AO2 $=
202307090851 METAR KJFK 090851Z 20006KT 10SM SCT010 BKN065 23/23 A2984 RMK AO2 SLP105 T02330233 55003 $=
202307090751 METAR KJFK 090751Z 20007KT 10SM BKN019 24/23 A2984 RMK AO2 SLP104 T02390233 $=
202307090654 SPECI KJFK 090654Z 20008KT 10SM BKN019 24/23 A2985 RMK AO2 T02390233 $=
202307090651 METAR KJFK 090651Z 20008KT 10SM BKN019 24/23 A2985 RMK AO2 SLP107 T02390233 $=
202307090551 METAR KJFK 090551Z 18007KT 10SM FEW013 SCT020 24/23 A2985 RMK AO2 SLP108 T02390233 10250 20239 51002 $=
202307090451 METAR KJFK 090451Z 18005KT 10SM SCT016 SCT060 24/23 A2985 RMK AO2 SLP108 T02390233 402890228 $=
202307090351 METAR KJFK 090351Z 18006KT 10SM FEW016 SCT060 24/23 A2985 RMK AO2 SLP109 T02440233 $=
202307090251 METAR KJFK 090251Z 16007KT 10SM FEW012 SCT070 24/23 A2984 RMK AO2 SLP106 T02440228 51003 $=
202307090151 METAR KJFK 090151Z 16006KT 10SM SCT012 SCT070 BKN250 24/23 A2984 RMK AO2 SLP105 T02440228 $=
202307090051 METAR KJFK 090051Z 18008KT 10SM FEW013 FEW025 SCT070 BKN220 24/23 A2984 RMK AO2 SLP105 T02440228 $=
202307090023 SPECI KJFK 090023Z 19008KT 10SM FEW014 SCT020 BKN070 BKN200 BKN250 24/23 A2984 RMK AO2 TCU DSNT W T02440228 $=
202307082351 METAR KJFK 082351Z 21009KT 10SM BKN014 BKN070 BKN200 BKN250 25/23 A2984 RMK AO2 SLP103 T02500228 10289 20250 56002 $=
202307082316 SPECI KJFK 082316Z 15008KT 10SM SCT014 SCT070 BKN200 BKN250 25/22 A2983 RMK AO2 T02500222 $=
202307082251 METAR KJFK 082251Z 18007KT 10SM BKN014 BKN070 OVC230 25/23 A2984 RMK AO2 SLP103 T02500228 $=
202307082151 METAR KJFK 082151Z 17008KT 10SM FEW014 FEW030 SCT060 OVC230 26/23 A2984 RMK AO2 SLP104 T02560228 $=
202307082051 METAR KJFK 082051Z 17007KT 10SM FEW025 SCT055 BKN220 26/22 A2984 RMK AO2 SLP105 T02560222 58003 $=
202307081951 METAR KJFK 081951Z 16011KT 10SM FEW018 FEW030 SCT055 BKN220 26/22 A2984 RMK AO2 LTG DSNT N SLP106 CB DSNT N T02610222 $=
202307081851 METAR KJFK 081851Z 17009KT 10SM FEW015 FEW030 SCT055 BKN250 27/22 A2985 RMK AO2 LTG DSNT SW-N SLP108 CB DSNT NW T02720222 $=
202307081751 METAR KJFK 081751Z 15009KT 10SM FEW015 SCT030 SCT250 28/23 A2985 RMK AO2 SLP108 T02830228 10289 20250 58006 $=
202307081651 METAR KJFK 081651Z 18010KT 10SM FEW023 SCT030 BKN250 28/23 A2987 RMK AO2 SLP113 T02830233 $=
202307081551 METAR KJFK 081551Z 15008KT 10SM FEW023 SCT042 BKN250 28/22 A2987 RMK AO2 SLP114 T02780222 $=
202307081451 METAR KJFK 081451Z 16009KT 10SM FEW019 SCT026 BKN055 28/23 A2987 RMK AO2 SLP114 T02780228 58001 $=
202307081417 SPECI KJFK 081417Z 19007KT 10SM SCT019 BKN026 BKN041 27/23 A2987 RMK AO2 T02670233 $=
202307081351 METAR KJFK 081351Z 18005KT 10SM FEW010 SCT017 BKN250 27/23 A2987 RMK AO2 SLP114 T02670228 $=
202307081330 SPECI KJFK 081330Z VRB03KT 10SM FEW010 SCT017 BKN250 27/23 A2987 RMK AO2 T02670228 $=
202307081251 METAR KJFK 081251Z 00000KT 10SM FEW010 BKN017 BKN250 27/23 A2988 RMK AO2 SLP117 T02670228 $=
202307081151 METAR KJFK 081151Z 00000KT 10SM FEW010 BKN014 OVC250 25/23 A2987 RMK AO2 SLP116 T02500228 10250 20228 51007 $=
202307081051 METAR KJFK 081051Z 14003KT 10SM FEW010 BKN016 OVC030 24/23 A2987 RMK AO2 SLP115 T02440233 $=
202307081010 SPECI KJFK 081010Z 12004KT 10SM FEW010 OVC016 24/23 A2986 RMK AO2 T02390233 $=
202307080951 METAR KJFK 080951Z 08003KT 10SM BKN014 BKN250 24/23 A2986 RMK AO2 SLP111 T02390233 $=
202307080851 METAR KJFK 080851Z 00000KT 10SM BKN013 BKN017 24/23 A2985 RMK AO2 SLP109 T02390233 56003 $=
202307080751 METAR KJFK 080751Z 16003KT 10SM BKN010 BKN017 23/23 A2986 RMK AO2 SLP110 T02330228 $=
202307080744 SPECI KJFK 080744Z 14003KT 10SM BKN010 BKN017 23/23 A2986 RMK AO2 T02330228 $=
202307080651 METAR KJFK 080651Z 18004KT 10SM SCT008 SCT012 23/23 A2986 RMK AO2 SLP110 T02330228 $=
202307080631 SPECI KJFK 080631Z 20005KT 10SM FEW008 23/23 A2986 RMK AO2 T02330228 $=
202307080551 METAR KJFK 080551Z 21005KT 10SM SCT010 23/23 A2986 RMK AO2 SLP112 T02330228 10250 20233 53004 $=
202307080451 METAR KJFK 080451Z 19003KT 10SM SCT011 23/23 A2986 RMK AO2 SLP110 T02330228 402890233 $=
202307080351 METAR KJFK 080351Z 18005KT 10SM FEW010 SCT014 24/23 A2985 RMK AO2 SLP108 T02390228 $=
202307080251 METAR KJFK 080251Z 14004KT 10SM FEW018 FEW210 24/23 A2985 RMK AO2 SLP108 T02390228 50000 $=
202307080151 METAR KJFK 080151Z 14007KT 10SM SCT018 BKN210 BKN250 24/23 A2986 RMK AO2 SLP110 T02440228 $=
202307080051 METAR KJFK 080051Z 15006KT 10SM SCT015 BKN230 24/22 A2986 RMK AO2 SLP111 T02440222 $=
202307072351 METAR KJFK 072351Z 15005KT 10SM SCT014 BKN230 25/22 A2985 RMK AO2 SLP108 T02500222 10289 20250 53002 $=
202307072251 METAR KJFK 072251Z 15008KT 10SM SCT013 BKN250 25/22 A2985 RMK AO2 SLP107 T02500222=
202307072151 METAR KJFK 072151Z 14009KT 10SM SCT013 BKN250 26/22 A2984 RMK AO2 SLP103 T02560222=
202307072051 METAR KJFK 072051Z 15009KT 10SM SCT017 BKN250 27/23 A2985 RMK AO2 SLP106 T02670228 58006 $=
202307071951 METAR KJFK 071951Z 15010KT 10SM SCT019 SCT032 BKN250 28/23 A2985 RMK AO2 SLP109 T02780228 $=
202307071851 METAR KJFK 071851Z 15011KT 10SM SCT017 SCT029 BKN250 27/22 A2986 RMK AO2 SLP112 T02720222 $=
202307071751 METAR KJFK 071751Z 16010KT 10SM SCT022 SCT040 SCT170 BKN250 28/23 A2986 RMK AO2 SLP113 T02830228 10283 20250 56009 $=
202307071651 METAR KJFK 071651Z 16010KT 10SM FEW021 FEW040 SCT250 28/22 A2986 RMK AO2 SLP113 T02830222 $=
202307071551 METAR KJFK 071551Z 16009KT 10SM FEW020 FEW037 SCT250 28/22 A2988 RMK AO2 SLP119 T02830222 $=
202307071451 METAR KJFK 071451Z 17008KT 10SM SCT025 SCT250 28/22 A2989 RMK AO2 SLP121 T02780222 56003 $=
202307071351 METAR KJFK 071351Z 13007KT 10SM SCT025 SCT250 27/22 A2989 RMK AO2 SLP122 T02670217 $=
202307071251 METAR KJFK 071251Z 00000KT 10SM FEW013 SCT021 SCT180 SCT250 26/22 A2990 RMK AO2 SLP123 T02610217 $=
202307071230 SPECI KJFK 071230Z 18004KT 10SM SCT021 SCT250 26/22 A2990 RMK AO2 T02610217 $=
202307071151 METAR KJFK 071151Z 25003KT 10SM BKN021 BKN250 25/21 A2990 RMK AO2 SLP124 T02500211 10256 20233 53007 $=
202307071111 SPECI KJFK 071111Z 12003KT 10SM BKN016 BKN250 25/22 A2989 RMK AO2 T02500222 $=
202307071051 METAR KJFK 071051Z 00000KT 10SM SCT018 SCT250 24/22 A2988 RMK AO2 SLP119 T02440222 $=
202307070951 METAR KJFK 070951Z 00000KT 10SM SCT018 BKN250 23/22 A2987 RMK AO2 SLP115 T02330217 $=
202307070859 SPECI KJFK 070859Z 00000KT 10SM SCT019 BKN250 24/21 A2988 RMK AO2 T02390211 $=
202307070851 METAR KJFK 070851Z 00000KT 10SM BKN019 BKN250 23/22 A2988 RMK AO2 SLP117 T02330222 55004 $=
202307070751 METAR KJFK 070751Z 20003KT 10SM BKN016 BKN250 24/23 A2987 RMK AO2 SLP116 T02390228 $=
202307070651 METAR KJFK 070651Z 20005KT 10SM BKN013 BKN019 OVC250 24/22 A2988 RMK AO2 SLP118 T02390222 $=
202307070551 METAR KJFK 070551Z 19004KT 10SM BKN013 BKN130 BKN250 23/23 A2989 RMK AO2 SLP120 T02330228 10244 20228 58007 $=
202307070451 METAR KJFK 070451Z 20005KT 10SM BKN007 BKN120 BKN250 23/23 A2990 RMK AO2 SLP124 T02330228 402890217 $=
202307070351 METAR KJFK 070351Z 17005KT 10SM FEW010 FEW150 SCT250 23/23 A2990 RMK AO2 SLP126 T02330228 $=
202307070251 METAR KJFK 070251Z 19005KT 10SM FEW009 FEW100 FEW250 23/23 A2991 RMK AO2 SLP128 T02330228 50003 $=
202307070151 METAR KJFK 070151Z 16007KT 10SM FEW008 FEW055 FEW250 24/22 A2991 RMK AO2 SLP128 T02390222=
202307070129 SPECI KJFK 070129Z 17009KT 10SM FEW008 FEW055 FEW250 24/22 A2991 RMK AO2 T02390222=
202307070051 METAR KJFK 070051Z 16009KT 10SM BKN008 BKN140 BKN250 24/23 A2990 RMK AO2 SLP126 T02390228=
202307070038 SPECI KJFK 070038Z 16009KT 10SM BKN008 BKN140 BKN250 24/23 A2990 RMK AO2 T02390228=
202307062351 METAR KJFK 062351Z 16008KT 10SM FEW008 FEW050 SCT250 24/23 A2990 RMK AO2 SLP125 T02440233 10283 20244 55002=
202307062251 METAR KJFK 062251Z 15010KT 10SM FEW008 FEW045 SCT250 26/23 A2990 RMK AO2 SLP123 T02560228=
202307062151 METAR KJFK 062151Z 16010KT 10SM FEW008 FEW045 FEW250 27/23 A2989 RMK AO2 SLP122 T02670228=
202307062146 SPECI KJFK 062146Z 16010KT 10SM FEW008 FEW045 FEW250 27/23 A2990 RMK AO2=
202307062051 METAR KJFK 062051Z 17009KT 10SM FEW045 FEW250 28/23 A2991 RMK AO2 SLP127 CB DSNT NW T02780228 56015 $=
202307061951 METAR KJFK 061951Z 17009KT 10SM FEW045 FEW250 28/22 A2991 RMK AO2 SLP130 CB DSNT NW T02830222 $=
202307061851 METAR KJFK 061851Z 18009KT 10SM FEW008 FEW045 FEW250 27/23 A2993 RMK AO2 SLP136 CB DSNT W AND DSNT NW T02720228 $=
202307061751 METAR KJFK 061751Z 19010KT 10SM FEW008 FEW045 FEW250 28/22 A2995 RMK AO2 SLP142 T02830222 10289 20250 56008 $=
202307061651 METAR KJFK 061651Z 18010KT 10SM FEW043 FEW250 29/22 A2996 RMK AO2 SLP144 T02890222 $=
202307061551 METAR KJFK 061551Z 19009KT 10SM FEW040 FEW250 28/22 A2997 RMK AO2 SLP148 T02780222 $=
202307061451 METAR KJFK 061451Z 18006KT 10SM FEW007 FEW035 FEW250 26/23 A2998 RMK AO2 SLP150 T02610228 50003 $=
202307061351 METAR KJFK 061351Z 18009KT 10SM VCFG FEW006 FEW035 FEW250 27/23 A2998 RMK AO2 SLP151 VCFG S T02670228 $=
202307061251 METAR KJFK 061251Z 19006KT 10SM FEW032 FEW250 26/23 A2997 RMK AO2 SLP149 T02560228 $=
202307061151 METAR KJFK 061151Z 13003KT 9SM FEW250 26/23 A2997 RMK AO2 SLP148 T02560228 10256 20217 53002 $=
202307061051 METAR KJFK 061051Z 00000KT 10SM FEW250 24/22 A2995 RMK AO2 SLP142 T02390222 $=
202307060951 METAR KJFK 060951Z 19003KT 10SM FEW250 22/22 A2996 RMK AO2 SLP143 T02220222 $=
202307060851 METAR KJFK 060851Z 19006KT 10SM FEW250 22/22 A2996 RMK AO2 SLP146 T02220217 58006 $=
202307060751 METAR KJFK 060751Z 17004KT 10SM FEW250 22/22 A2996 RMK AO2 SLP147 T02220217 $=
202307060651 METAR KJFK 060651Z 18003KT 10SM FEW250 22/22 A2998 RMK AO2 SLP151 T02220217 $=
202307060551 METAR KJFK 060551Z 20004KT 10SM FEW250 23/22 A2998 RMK AO2 SLP152 T02330222 10250 20228 57001 $=
202307060451 METAR KJFK 060451Z 19005KT 10SM FEW250 23/22 A2998 RMK AO2 SLP153 T02280222 403110211 $=
202307060351 METAR KJFK 060351Z 19004KT 10SM FEW250 23/22 A2998 RMK AO2 SLP151 T02330222 $=
202307060251 METAR KJFK 060251Z 20004KT 10SM FEW055 FEW250 23/22 A2998 RMK AO2 SLP152 T02330217 53008 $=
202307060151 METAR KJFK 060151Z 19007KT 10SM FEW250 24/22 A2998 RMK AO2 SLP151 T02390217 $=
202307060051 METAR KJFK 060051Z 21007KT 10SM FEW055 SCT250 24/21 A2996 RMK AO2 SLP144 T02440211 $=
202307052351 METAR KJFK 052351Z 20009KT 10SM FEW050 SCT250 25/21 A2996 RMK AO2 SLP144 T02500211 10311 20250 55003 $=
202307052251 METAR KJFK 052251Z 19010KT 10SM FEW050 SCT250 26/22 A2995 RMK AO2 SLP142 T02610217 $=
202307052151 METAR KJFK 052151Z 19012KT 10SM FEW050 SCT250 27/22 A2995 RMK AO2 SLP141 T02720217=
202307052051 METAR KJFK 052051Z 18012KT 10SM FEW050 FEW250 28/22 A2997 RMK AO2 SLP147 T02830217 56008=
202307051951 METAR KJFK 051951Z 18010KT 10SM FEW050 FEW250 29/22 A2997 RMK AO2 SLP148 T02940217=
202307051851 METAR KJFK 051851Z 20009KT 10SM FEW050 FEW250 30/20 A2998 RMK AO2 SLP151 CB DSNT SW T03000200=
202307051751 METAR KJFK 051751Z 20010KT 9SM FEW050 FEW250 29/21 A2999 RMK AO2 SLP155 CB DSNT SW T02940211 10300 20256 56003=
202307051651 METAR KJFK 051651Z 20010KT 9SM FEW050 FEW250 28/22 A2999 RMK AO2 SLP155 T02830217=
202307051551 METAR KJFK 051551Z 20007KT 9SM FEW047 FEW250 30/21 A2999 RMK AO2 SLP155 T03000211=
202307051451 METAR KJFK 051451Z 21007KT 7SM FEW250 28/22 A3000 RMK AO2 SLP157 T02780217 51003=
202307051351 METAR KJFK 051351Z 06004KT 9SM FEW250 29/19 A3000 RMK AO2 SLP157 T02890194=
202307051251 METAR KJFK 051251Z 05008KT 8SM FEW250 27/19 A3000 RMK AO2 SLP159 T02720194=
202307051151 METAR KJFK 051151Z 36004KT 5SM HZ FEW250 26/21 A2999 RMK AO2 SLP154 70014 T02560206 10256 20211 53010 $=
202307051051 METAR KJFK 051051Z 00000KT 5SM BR FEW250 23/21 A2997 RMK AO2 SLP149 T02330211 $=
202307050951 METAR KJFK 050951Z 00000KT 3SM BR FEW250 21/21 A2996 RMK AO2 SLP145 T02110206 $=
202307050851 METAR KJFK 050851Z 06003KT 4SM BR FEW011 FEW110 FEW250 21/21 A2996 RMK AO2 SLP144 T02110206 55002 $=
202307050751 METAR KJFK 050751Z 05003KT 2SM BR FEW017 FEW120 FEW250 22/21 A2995 RMK AO2 SLP143 T02170211 $=
202307050651 METAR KJFK 050651Z 05005KT 2SM BR FEW110 FEW250 22/22 A2996 RMK AO2 SLP146 T02220217 $=
202307050551 METAR KJFK 050551Z 22005KT 2SM BR FEW120 SCT250 23/22 A2996 RMK AO2 SLP146 T02280217 10250 20222 53002 $=
202307050524 SPECI KJFK 050524Z 00000KT 2 1/2SM BR BKN120 BKN250 23/22 A2996 RMK AO2 T02330222 $=
202307050451 METAR KJFK 050451Z 22004KT 5SM BR FU FEW120 SCT250 23/22 A2996 RMK AO2 VIS 2 1/2 W SLP144 T02280222 402780222 $=
202307050351 METAR KJFK 050351Z 00000KT 4SM BR FU SCT120 SCT250 23/22 A2994 RMK AO2 SLP140 T02280222 $=
202307050251 METAR KJFK 050251Z 00000KT 3SM BR FEW035 SCT120 SCT250 24/22 A2996 RMK AO2 SLP144 T02390222 53015 $=
202307050151 METAR KJFK 050151Z 00000KT 10SM FEW004 FEW032 FEW060 SCT250 24/22 A2994 RMK AO2 SLP137 FU FEW004 T02390222 $=
202307050148 SPECI KJFK 050148Z 00000KT 10SM FEW004 FEW032 FEW060 SCT250 23/22 A2993 RMK AO2 FU FEW004 $=
202307050051 METAR KJFK 050051Z 21005KT 10SM FEW032 FEW060 FEW080 SCT250 23/22 A2992 RMK AO2 SLP130 T02330222 $=
202307042351 METAR KJFK 042351Z 19004KT 10SM FEW032 SCT080 BKN250 25/23 A2991 RMK AO2 SLP128 TCU DSNT W T02500228 10261 20233 53005 $=
202307042251 METAR KJFK 042251Z 09004KT 10SM FEW020 FEW032 SCT080 BKN250 26/23 A2990 RMK AO2 SLP126 TCU DSNT W AND DSNT NW T02610228 $=
202307042151 METAR KJFK 042151Z 13003KT 10SM FEW020 SCT032 SCT080 SCT210 BKN250 26/23 A2989 RMK AO2 SLP120 CB DSNT SW TCU DSNT SW-DSNT NW T02560228 $=
202307042051 METAR KJFK 042051Z 20006KT 10SM FEW020 SCT032CB SCT090 BKN250 24/22 A2990 RMK AO2 SLP123 CBMAM OHD-SW MOV SE CB DSNT NW TCU DSNT NW-N T02390222 51004 $=
202307041951 METAR KJFK 041951Z 21005KT 10SM FEW011 SCT032CB SCT090 BKN200 BKN250 24/22 A2989 RMK AO2 TSE38 SLP122 CBMAM OHD MOV SE CB DSNT W-NW TCU DSNT W VCSH W T02440217 $=
202307041938 SPECI KJFK 041938Z 25006KT 10SM FEW011 SCT032CB SCT090 BKN200 BKN250 25/21 A2989 RMK AO2 TSE38 CBMAM OHD-N CB DSNT SW-NW TCU DSNT S-NW T02500211 $=
202307041851 METAR KJFK 041851Z 22007KT 10SM TS FEW013 SCT035CB SCT100 BKN200 BKN250 25/22 A2989 RMK AO2 TSB46 SLP121 OCNL LTGCG NW TS NW MOV SE TCU DSNT N T02500217 $=
202307041846 SPECI KJFK 041846Z 22006KT 10SM TS FEW013 SCT035CB SCT100 BKN200 BKN250 25/22 A2989 RMK AO2 TSB46 OCNL LTGCG NW TS NW MOV SE TCU DSNT N $=
202307041751 METAR KJFK 041751Z 00000KT 10SM FEW013 SCT032 BKN095 BKN250 25/22 A2988 RMK AO2 RAE38 TSE20 SLP119 CB DSNT SW-NW MOV SE P0005 60014 T02500222 10278 20228 58006 $=
202307041720 SPECI KJFK 041720Z 25005KT 7SM -RA FEW008 SCT032CB BKN090 BKN250 23/22 A2989 RMK AO2 TSE20 OCNL LTGICCG SE CB SE MOV E CB DSNT NW MOV SE P0004 T02280222 $=
202307041651 METAR KJFK 041651Z 28008KT 5SM R04R/4000VP6000FT TSRA BR FEW008 SCT024CB BKN090 BKN220 24/23 A2992 RMK AO2 RAB12 SLP130 VIS SE-S 2 1/2 FRQ LTGICCG OHD AND SE-SW TS OHD AND SE-SW MOV E P0009 T02390233 $=
202307041643 SPECI KJFK 041643Z 25010KT 4SM R04R/4000VP6000FT TSRA BR FEW008 BKN024CB BKN095 OVC220 24/23 A2991 RMK AO2 RAB12 VIS SE-SW 2 1/2 FRQ LTGICCG OHD AND SE-W TS OHD AND SE-W MOV E P0004 T02440233 $=
202307041613 SPECI KJFK 041613Z 22008KT 8SM -TSRA BKN026CB BKN110 BKN250 26/22 A2991 RMK AO2 RAB12 FRQ LTGICCG OHD AND SW-N TS OHD AND SW-N MOV E P0000 T02610222 $=
202307041551 METAR KJFK 041551Z 22004KT 10SM TS SCT024CB BKN095 BKN140 BKN250 28/22 A2991 RMK AO2 TSB35 SLP127 FRQ LTGICCG W-NW TS W-NW MOV E VCSH W-NW T02780222 $=
202307041535 SPECI KJFK 041535Z 22006KT 10SM TS SCT022CB SCT110 BKN140 BKN250 27/22 A2991 RMK AO2 TSB35 OCNL LTGICCG W-NW TS W-NW MOV E T02720222 $=
202307041451 METAR KJFK 041451Z 24006KT 10SM FEW028 SCT100 BKN160 BKN250 27/22 A2990 RMK AO2 LTG DSNT W AND NW SLP125 CB DSNT W-NW MOV E T02670222 58002 $=
202307041351 METAR KJFK 041351Z 21011KT 10SM FEW027 SCT095 SCT160 SCT250 25/22 A2992 RMK AO2 SLP133 T02500217 $=
202307041251 METAR KJFK 041251Z 19012KT 10SM FEW025 SCT050 BKN085 BKN160 24/21 A2992 RMK AO2 SLP130 T02390211 $=
202307041151 METAR KJFK 041151Z 21013KT 10SM BKN065 BKN110 BKN250 23/22 A2991 RMK AO2 SLP127 70018 T02280217 10239 20228 53015 $=
202307041051 METAR KJFK 041051Z 19008KT 10SM SCT050 BKN065 BKN110 BKN250 23/22 A2989 RMK AO2 SLP121 T02330217 $=
202307040951 METAR KJFK 040951Z 21005KT 10SM SCT060 BKN110 BKN250 23/22 A2988 RMK AO2 SLP117 T02280217 $=
202307040851 METAR KJFK 040851Z 21006KT 10SM SCT080 SCT120 BKN220 23/22 A2986 RMK AO2 SLP112 T02330217 50001 $=
202307040751 METAR KJFK 040751Z 20004KT 10SM FEW055 FEW090 BKN250 23/23 A2986 RMK AO2 SLP113 T02280228 $=
202307040651 METAR KJFK 040651Z 00000KT 10SM FEW045 SCT085 BKN220 23/23 A2986 RMK AO2 SLP111 T02330228 $=
202307040551 METAR KJFK 040551Z 09003KT 10SM FEW050 SCT065 BKN250 23/23 A2986 RMK AO2 LTG DSNT NE RAE01 TSE06 SLP111 P0000 60018 T02330228 10278 20233 50003 $=
202307040506 SPECI KJFK 040506Z 03007KT 10SM FEW043 BKN060 BKN095 24/23 A2986 RMK AO2 LTG DSNT NW-NE RAE01 TSE06 FRQ LTGIC DSNT N-NE CB DSNT N-NE MOV NE P0000 T02390228 $=
202307040451 METAR KJFK 040451Z 05004KT 7SM -TSRA FEW030 BKN048CB OVC090 24/22 A2987 RMK AO2 LTG DSNT NW RAB25 TSE20B26 SLP116 OCNL LTGICCC NW-N TS NW-N MOV NE P0003 T02390222 403060228 $=
202307040426 SPECI KJFK 040426Z 18004KT 4SM -TSRA BR BKN048CB BKN070 24/23 A2987 RMK AO2 LTG DSNT SW AND W RAB25 TSE20B26 OCNL LTGICCC W TS W MOV NE P0000 T02390228=
202307040421 SPECI KJFK 040421Z 15003KT 10SM VCTS BKN048 BKN070 24/23 A2987 RMK AO2 LTG DSNT SW AND W TSE20 T02390228=
202307040351 METAR KJFK 040351Z 06008KT 10SM FEW031 BKN050 BKN080 BKN250 24/23 A2985 RMK AO2 RAB13E27 SLP108 P0015 T02390228=
202307040251 METAR KJFK 040251Z 35008KT 10SM BKN050 BKN065 BKN120 BKN250 27/22 A2985 RMK AO2 LTG DSNT NE SLP108 T02670217 53011=
202307040151 METAR KJFK 040151Z 21008KT 10SM FEW050 BKN120 BKN250 26/21 A2985 RMK AO2 SLP107 T02610211=
202307040051 METAR KJFK 040051Z 19008KT 10SM SCT045 SCT140 BKN250 24/21 A2982 RMK AO2 LTG DSNT N SLP097 CB DSNT NW VCSH NW T02440211=
202307032351 METAR KJFK 032351Z 18007KT 10SM SCT045 SCT140 SCT250 25/22 A2982 RMK AO2 SLP098 T02500217 10300 20250 53001=
202307032251 METAR KJFK 032251Z 17010KT 10SM FEW045 SCT140 SCT250 27/22 A2980 RMK AO2 SLP092 T02670222=
202307032151 METAR KJFK 032151Z 16010KT 10SM FEW045 FEW160 SCT250 28/23 A2980 RMK AO2 SLP092 CB DSNT N T02830228=
202307032051 METAR KJFK 032051Z 18013KT 10SM FEW045 SCT160 BKN250 28/23 A2982 RMK AO2 SLP096 CB DSNT NW T02830228 58009=
202307031951 METAR KJFK 031951Z 16012KT 10SM FEW043 FEW140 SCT200 BKN250 29/21 A2983 RMK AO2 SLP100 T02940211=
202307031851 METAR KJFK 031851Z 17012KT 10SM FEW043 SCT190 BKN250 29/22 A2984 RMK AO2 SLP104 T02940217=
202307031751 METAR KJFK 031751Z 20011KT 10SM FEW043 FEW140 BKN200 BKN250 30/22 A2984 RMK AO2 SLP106 T03000217 10306 20244 56006=
202307031651 METAR KJFK 031651Z 22009KT 10SM FEW040 SCT140 BKN210 BKN250 30/22 A2984 RMK AO2 SLP106 T03000217=
202307031551 METAR KJFK 031551Z 19009KT 10SM BKN140 BKN210 BKN250 28/22 A2986 RMK AO2 SLP110 T02780217=
202307031451 METAR KJFK 031451Z 22009KT 10SM FEW080 SCT140 BKN200 BKN250 27/22 A2986 RMK AO2 SLP112 T02720217 52007=
202307031351 METAR KJFK 031351Z 18008KT 10SM FEW065 SCT110 SCT250 27/22 A2985 RMK AO2 SLP108 T02720217=
202307031251 METAR KJFK 031251Z 19005KT 10SM FEW048 SCT070 BKN110 BKN250 25/22 A2985 RMK AO2 SLP108 T02500217=
202307031151 METAR KJFK 031151Z 31004KT 10SM FEW050 BKN110 BKN250 26/21 A2984 RMK AO2 SLP105 70042 T02610211 10261 20228 53009=
202307031051 METAR KJFK 031051Z 27005KT 10SM FEW075 SCT110 BKN250 24/22 A2982 RMK AO2 SLP097 T02440217=
202307030951 METAR KJFK 030951Z 30007KT 10SM SCT110 SCT250 24/21 A2981 RMK AO2 SLP096 T02390211 $=
202307030851 METAR KJFK 030851Z 27006KT 10SM FEW055 SCT250 23/22 A2982 RMK AO2 SLP096 T02330217 55001 $=
202307030751 METAR KJFK 030751Z 25008KT 10SM SCT030 BKN259 23/22 A2981 RMK AO2 SLP096 T02330217 $=
202307030651 METAR KJFK 030651Z 23007KT 10SM SCT080 BKN220 23/22 A2981 RMK AO2 SLP095 T02330217 $=
202307030551 METAR KJFK 030551Z 23006KT 10SM FEW035 SCT100 SCT250 23/22 A2982 RMK AO2 RAE0458 SLP097 P0000 60000 T02330222 10250 20228 53002 $=
202307030451 METAR KJFK 030451Z 29004KT 10SM -RA FEW027 SCT055 BKN110 24/22 A2981 RMK AO2 RAB48 SLP095 OCNL LTGIC DSNT N CB DSNT N MOV E P0000 T02440222 402890206 $=
202307030351 METAR KJFK 030351Z 18005KT 7SM SCT038 BKN070 BKN220 23/22 A2980 RMK AO2 LTG DSNT W AND NW SLP091 FRQ LTGICCC DSNT W CB DSNT W MOV E T02280222 $=
202307030251 METAR KJFK 030251Z 18007KT 8SM FEW070 BKN120 OVC220 23/22 A2981 RMK AO2 LTG DSNT N AND NW RAB24E48 SLP096 P0000 60000 T02280222 53001 $=
202307030151 METAR KJFK 030151Z 18009KT 8SM FEW030 SCT060 BKN160 OVC200 23/22 A2981 RMK AO2 SLP094 T02280222 $=
202307030051 METAR KJFK 030051Z 18012G18KT 8SM FEW030 SCT060 SCT100 BKN250 23/22 A2980 RMK AO2 SLP092 T02280222 $=
202307022351 METAR KJFK 022351Z 17010KT 7SM FEW045 SCT080 SCT120 BKN180 BKN250 24/22 A2981 RMK AO2 SLP095 60042 T02390222 10289 20233 58005 $=
202307022251 METAR KJFK 022251Z 16006KT 7SM FEW030 SCT055 BKN250 25/23 A2981 RMK AO2 TSE24 SLP094 T02500228 $=
202307022226 SPECI KJFK 022226Z 19003KT 7SM FEW015 SCT050 SCT075 BKN250 25/23 A2982 RMK AO2 TSE24 T02500228 $=
202307022151 METAR KJFK 022151Z 18008KT 6SM TS BR FEW028 SCT055CB BKN085 BKN250 24/23 A2984 RMK AO2 RAB07E41 TSB02 SLP104 OCNL LTGIC N TS N MOV E P0042 T02440233 $=
202307022142 SPECI KJFK 022142Z 17009KT 5SM TS BR SCT030 BKN045CB BKN060 BKN250 24/23 A2983 RMK AO2 RAB07E41 TSB02 OCNL LTGIC N-E TS N-E MOV E P0042 T02390233 $=
202307022117 SPECI KJFK 022117Z 20010KT 1SM R04R/4500VP6000FT +TSRA BR BKN040 BKN055CB OVC070 24/23 A2983 RMK AO2 TWR VIS 1 1/2 RAB07 TSB02 OCNL LTGIC OHD TS OHD MOV NE P0003 T02390228 $=
202307022105 SPECI KJFK 022105Z 18012KT 6SM TS HZ SCT040 BKN055CB BKN110 BKN200 OVC250 25/22 A2983 RMK AO2 TSB02 OCNL LTGIC SW TS SW MOV NE T02500222 $=
202307022051 METAR KJFK 022051Z 18013KT 6SM HZ BKN055TCU BKN110 BKN200 BKN250 26/22 A2983 RMK AO2 SLP100 TCU SW VCSH SW T02560222 57013 $=
202307021951 METAR KJFK 021951Z 18011KT 6SM HZ FEW045 SCT110 BKN140 BKN200 BKN250 26/22 A2984 RMK AO2 SLP105 T02610222 $=
202307021851 METAR KJFK 021851Z 17011KT 6SM HZ FEW045 SCT110 BKN160 BKN250 26/22 A2985 RMK AO2 SLP108 T02560222 $=
202307021751 METAR KJFK 021751Z 17011KT 8SM FEW020 SCT050 BKN200 BKN250 29/23 A2987 RMK AO2 SLP113 T02890228 10289 20222 58008 $=
202307021651 METAR KJFK 021651Z 18007KT 8SM SCT020 SCT050 BKN150 BKN250 28/22 A2988 RMK AO2 SLP118 T02780222 $=
202307021634 SPECI KJFK 021634Z 21009KT 8SM SCT020 SCT050 BKN150 BKN250 28/22 A2989 RMK AO2 T02780222 $=
202307021551 METAR KJFK 021551Z 23008KT 8SM BKN022 BKN050 BKN250 27/22 A2989 RMK AO2 SLP120 T02720217 $=
202307021451 METAR KJFK 021451Z 21008KT 6SM HZ FEW015 BKN026 BKN050 BKN140 BKN250 24/21 A2989 RMK AO2 SLP121 T02390211 55004 $=
202307021351 METAR KJFK 021351Z 19014KT 8SM BKN022 BKN045 BKN060 BKN140 BKN250 24/21 A2989 RMK AO2 SLP121 T02440211 $=
202307021318 SPECI KJFK 021318Z 19014KT 10SM BKN022 BKN045 BKN060 BKN140 BKN250 24/21 A2989 RMK AO2 T02390211 $=
202307021251 METAR KJFK 021251Z 18012KT 10SM FEW025 SCT043 BKN060 BKN140 BKN210 23/22 A2989 RMK AO2 SLP121 T02330217 $=
202307021151 METAR KJFK 021151Z 17010KT 10SM FEW010 FEW027 BKN034 BKN140 OVC210 22/21 A2990 RMK AO2 RAB15E24 SLP125 P0000 60005 70005 T02220211 10222 20206 58001 $=
202307021102 SPECI KJFK 021102Z 15005KT 10SM FEW010 BKN029 OVC050 22/21 A2991 RMK AO2 T02170211 $=
202307021051 METAR KJFK 021051Z 16005KT 10SM FEW010 BKN031 OVC050 22/21 A2991 RMK AO2 SLP128 T02170206 $=
202307020951 METAR KJFK 020951Z 14007KT 10SM FEW010 OVC036 22/22 A2990 RMK AO2 RAB17E28 SLP126 P0000 T02170217 $=
202307020851 METAR KJFK 020851Z 11004KT 10SM BKN030 BKN035 OVC042 21/20 A2991 RMK AO2 RAB15E49 SLP126 P0000 60005 T02060200 56017 $=
202307020817 SPECI KJFK 020817Z 12005KT 8SM RA FEW029 BKN043 OVC055 21/20 A2990 RMK AO2 VIS 2 1/2 W RAB15 P0000 T02110200 $=
202307020751 METAR KJFK 020751Z 14009KT 10SM SCT008 BKN014 OVC047 22/21 A2991 RMK AO2 RAB0656E45 SLP128 P0005 T02170211 $=
202307020651 METAR KJFK 020651Z 14006KT 10SM SCT008 BKN014 OVC055 22/21 A2993 RMK AO2 SLP136 T02170206 $=
202307020643 SPECI KJFK 020643Z 13007KT 10SM SCT008 BKN014 OVC055 22/21 A2994 RMK AO2 T02170206 $=
202307020551 METAR KJFK 020551Z 15005KT 10SM FEW008 BKN047 OVC065 22/21 A2996 RMK AO2 SLP143 T02170206 10222 20217 58008 $=
202307020451 METAR KJFK 020451Z 16006KT 10SM SCT009 OVC055 22/21 A2997 RMK AO2 CIG 009 W SLP148 T02170206 402670183 $=
202307020406 SPECI KJFK 020406Z 15005KT 10SM BKN011 BKN046 OVC250 22/20 A2997 RMK AO2 T02170200 $=
202307020351 METAR KJFK 020351Z 15008KT 10SM SCT011 BKN050 BKN060 OVC250 22/20 A2997 RMK AO2 SLP150 T02170200 $=
202307020251 METAR KJFK 020251Z 17007KT 10SM BKN046 BKN055 OVC250 22/19 A2998 RMK AO2 SLP152 T02170194 56006 $=
202307020151 METAR KJFK 020151Z 15008KT 10SM BKN049 OVC200 22/19 A2999 RMK AO2 SLP155 T02170194 $=
202307020051 METAR KJFK 020051Z 16008KT 10SM SCT100 BKN250 22/18 A2999 RMK AO2 SLP154 T02170183 $=
202307012351 METAR KJFK 012351Z 16009KT 10SM FEW070 FEW100 BKN250 22/19 A3000 RMK AO2 SLP157 T02220189 10261 20222 55008 $=
202307012251 METAR KJFK 012251Z 17009KT 9SM FEW100 BKN250 23/18 A2999 RMK AO2 SLP155 T02280183 $=
202307012151 METAR KJFK 012151Z 18009KT 9SM BKN250 24/18 A3000 RMK AO2 SLP160 T02440178 $=
202307012051 METAR KJFK 012051Z 15010KT 9SM FEW075 BKN250 25/18 A3002 RMK AO2 SLP166 T02500178 56015 $=
202307011951 METAR KJFK 011951Z 17011KT 8SM FEW075 BKN250 25/17 A3003 RMK AO2 SLP168 T02500172 $=
202307011851 METAR KJFK 011851Z 18012KT 10SM FEW075 BKN250 26/17 A3004 RMK AO2 SLP173 T02560172 $=
202307011751 METAR KJFK 011751Z 17012KT 10SM BKN250 26/18 A3007 RMK AO2 SLP181 T02610183 10267 20217 56007 $=
202307011651 METAR KJFK 011651Z 16012KT 10SM FEW030 BKN250 25/19 A3007 RMK AO2 SLP181 T02500189 $=
202307011551 METAR KJFK 011551Z 18008KT 10SM BKN250 26/18 A3008 RMK AO2 SLP186 T02560183 $=
202307011451 METAR KJFK 011451Z 17008KT 10SM SCT080 BKN250 24/18 A3009 RMK AO2 SLP188 T02440183 51006 $=
202307011351 METAR KJFK 011351Z 20007KT 10SM BKN070 BKN250 24/18 A3008 RMK AO2 SLP186 T02390178 $=
202307011251 METAR KJFK 011251Z 21006KT 10SM SCT250 23/18 A3009 RMK AO2 SLP188 T02330183 $=
202307011151 METAR KJFK 011151Z 16005KT 9SM SCT250 22/18 A3007 RMK AO2 SLP183 T02220178 10222 20183 51006 $=
202307011051 METAR KJFK 011051Z 18003KT 7SM SCT250 21/18 A3007 RMK AO2 SLP181 T02060183 $=
202307010951 METAR KJFK 010951Z 23004KT 6SM BR FEW250 19/17 A3006 RMK AO2 SLP180 T01890172 $=
202307010851 METAR KJFK 010851Z 22003KT 8SM FEW250 19/17 A3005 RMK AO2 SLP177 T01890172 55001 $=
202307010751 METAR KJFK 010751Z 21004KT 9SM FEW250 19/17 A3005 RMK AO2 SLP176 T01890167 $=
202307010651 METAR KJFK 010651Z 19004KT 9SM FEW250 19/16 A3005 RMK AO2 SLP176 T01940161 $=
202307010551 METAR KJFK 010551Z 21006KT 9SM FEW250 19/17 A3006 RMK AO2 SLP178 T01940172 10222 20194 56005 $=
202307010451 METAR KJFK 010451Z 18007KT 9SM FEW250 20/19 A3006 RMK AO2 SLP179 T02000189 402830194 $=
202307010351 METAR KJFK 010351Z 19006KT 9SM FEW250 21/19 A3007 RMK AO2 SLP181 T02060189 $=
202307010251 METAR KJFK 010251Z 21007KT 10SM FEW250 21/18 A3007 RMK AO2 SLP183 T02060178 53007 $=
202307010151 METAR KJFK 010151Z 19008KT 7SM FEW250 21/18 A3007 RMK AO2 SLP181 T02110178=
202307010051 METAR KJFK 010051Z 18010KT 7SM FEW250 22/18 A3005 RMK AO2 SLP176 T02170178=
202306302351 METAR KJFK 302351Z 16009KT 7SM BKN250 22/18 A3005 RMK AO2 SLP176 T02220178 10278 20222 55000=
202306302251 METAR KJFK 302251Z 18010KT 7SM BKN250 24/18 A3005 RMK AO2 SLP175 T02390183=
202306302151 METAR KJFK 302151Z 18010KT 7SM BKN250 25/19 A3005 RMK AO2 SLP174 T02500189=
202306302051 METAR KJFK 302051Z 17012KT 6SM HZ FU FEW180 BKN250 26/19 A3005 RMK AO2 SLP176 T02560189 55004=
202306301951 METAR KJFK 301951Z 19012KT 6SM HZ FU FEW055 BKN250 25/19 A3005 RMK AO2 SLP175 T02500189 $=
202306301851 METAR KJFK 301851Z 18010KT 5SM HZ FU FEW055 BKN250 26/19 A3006 RMK AO2 SLP178 T02560194 $=
202306301751 METAR KJFK 301751Z 21011KT 4SM HZ FU FEW055 BKN250 28/18 A3006 RMK AO2 SLP180 T02780183 10283 20217 58005 $=
202306301651 METAR KJFK 301651Z 21009KT 4SM HZ FU FEW055 BKN250 28/16 A3007 RMK AO2 SLP182 T02830161 $=
202306301551 METAR KJFK 301551Z 21008KT 3SM HZ FU FEW055 BKN250 27/16 A3008 RMK AO2 SLP184 T02720161=
202306301451 METAR KJFK 301451Z 21006KT 3SM HZ FU SCT055 BKN250 27/17 A3008 RMK AO2 SLP184 T02670172 51005=
202306301351 METAR KJFK 301351Z 21005KT 3SM HZ FU SCT250 24/19 A3007 RMK AO2 SLP182 T02440189=
202306301251 METAR KJFK 301251Z VRB04KT 3SM HZ FU SCT250 23/19 A3007 RMK AO2 SLP182 T02330189=
202306301151 METAR KJFK 301151Z 21005KT 3SM BR FU SCT250 22/19 A3006 RMK AO2 SLP179 T02170194 10217 20194 53006 $=
202306301051 METAR KJFK 301051Z 16004KT 4SM BR FU SCT075 SCT250 20/19 A3005 RMK AO2 SLP175 T02000189 $=
202306300951 METAR KJFK 300951Z 23006KT 4SM BR FU BKN075 BKN250 20/19 A3005 RMK AO2 SLP175 T02000189 $=
202306300851 METAR KJFK 300851Z 21004KT 5SM BR FU SCT075 19/19 A3004 RMK AO2 SLP173 T01940189 53003 $=
202306300751 METAR KJFK 300751Z 20006KT 6SM BR FU FEW007 19/19 A3004 RMK AO2 SLP171 T01940189 $=
202306300651 METAR KJFK 300651Z 13003KT 6SM BR FU FEW007 19/19 A3004 RMK AO2 SLP170 T01940194 $=
202306300642 SPECI KJFK 300642Z 17004KT 6SM BR FU FEW006 19/19 A3004 RMK AO2 T01940194 $=
202306300551 METAR KJFK 300551Z 17004KT 6SM BR FU CLR 20/19 A3004 RMK AO2 SLP170 T02000194 10222 20200 56004 $=
202306300451 METAR KJFK 300451Z 17004KT 6SM BR FU CLR 20/19 A3004 RMK AO2 SLP172 T02000194 402780183 $=
202306300351 METAR KJFK 300351Z 14005KT 6SM BR CLR 21/19 A3004 RMK AO2 SLP172 T02060194 $=
202306300251 METAR KJFK 300251Z 14005KT 7SM FEW060 21/19 A3005 RMK AO2 SLP174 T02060189 50006 $=
202306300151 METAR KJFK 300151Z 17005KT 7SM FEW065 FEW250 21/19 A3005 RMK AO2 SLP175 T02110189=
202306300051 METAR KJFK 300051Z 15007KT 7SM FEW065 FEW250 21/19 A3003 RMK AO2 SLP170 T02110189=
202306292351 METAR KJFK 292351Z 18009KT 7SM SCT060 SCT250 22/18 A3003 RMK AO2 SLP168 T02220183 10278 20222 53011=
202306292251 METAR KJFK 292251Z 19011KT 7SM FEW055 SCT070 SCT250 23/19 A3001 RMK AO2 SLP162 T02280189=
202306292151 METAR KJFK 292151Z 19011KT 7SM SCT055 BKN070 BKN250 24/19 A3001 RMK AO2 SLP161 T02390189=
202306292051 METAR KJFK 292051Z 19012KT 8SM SCT060 BKN075 BKN250 25/19 A3000 RMK AO2 SLP158 T02500189 58002=
202306291951 METAR KJFK 291951Z 19013KT 9SM SCT055 BKN070 BKN250 26/18 A3000 RMK AO2 SLP159 T02610183=
202306291851 METAR KJFK 291851Z 21011KT 10SM BKN065 BKN080 BKN250 26/17 A3000 RMK AO2 SLP159 T02610167=
202306291751 METAR KJFK 291751Z 18005KT 10SM BKN049 BKN085 BKN250 27/16 A3000 RMK AO2 SLP159 T02670161 10272 20211 58008=
202306291651 METAR KJFK 291651Z 22007KT 190V260 10SM BKN047 BKN250 26/17 A3001 RMK AO2 SLP163 T02610167=
202306291551 METAR KJFK 291551Z 23009KT 10SM SCT046 BKN250 24/16 A3002 RMK AO2 SLP166 SCT V BKN T02440161=
202306291451 METAR KJFK 291451Z 34007KT 310V020 10SM SCT038 SCT060 BKN250 26/16 A3003 RMK AO2 SLP168 T02560156 50004=
202306291351 METAR KJFK 291351Z 35004KT 9SM SCT035 SCT060 BKN250 24/16 A3003 RMK AO2 SLP169 T02390156=
202306291251 METAR KJFK 291251Z 36005KT 10SM SCT035 BKN060 BKN250 22/15 A3003 RMK AO2 SLP168 T02220150=
202306291151 METAR KJFK 291151Z 34006KT 9SM SCT032 BKN065 BKN250 21/16 A3001 RMK AO2 SLP163 70017 T02110156 10211 20183 51020=
202306291051 METAR KJFK 291051Z 33007KT 9SM FEW035 SCT065 20/15 A3000 RMK AO2 SLP159 T02000150=
202306290951 METAR KJFK 290951Z 31007KT 10SM FEW065 19/15 A2998 RMK AO2 SLP152 T01890150=
202306290851 METAR KJFK 290851Z 31009KT 10SM FEW060 19/14 A2996 RMK AO2 SLP143 T01890144 53005=
202306290751 METAR KJFK 290751Z 30008KT 10SM FEW060 19/14 A2994 RMK AO2 SLP139 T01890144=
202306290651 METAR KJFK 290651Z 31009KT 10SM SCT055 20/14 A2994 RMK AO2 SLP139 T02000139=
202306290551 METAR KJFK 290551Z 31010KT 10SM SCT049 21/14 A2994 RMK AO2 SLP138 60000 T02060144 10244 20206 53008=
202306290451 METAR KJFK 290451Z 32010KT 10SM SCT044 BKN085 22/15 A2993 RMK AO2 SLP135 T02170150 402830194=
202306290351 METAR KJFK 290351Z 34010KT 10SM FEW045 OVC090 22/16 A2992 RMK AO2 SLP132 T02220161=
202306290251 METAR KJFK 290251Z 34007KT 10SM OVC045 23/17 A2992 RMK AO2 WSHFT 0210 RAB08E18 SLP130 P0000 60000 T02330172 51024=
202306290151 METAR KJFK 290151Z VRB03KT 10SM BKN045 OVC065 23/21 A2990 RMK AO2 SLP124 T02280206=
202306290051 METAR KJFK 290051Z 32005KT 10SM SCT055 BKN070 BKN250 24/19 A2987 RMK AO2 SLP115 T02390194=
202306282351 METAR KJFK 282351Z 29005KT 10SM BKN045 BKN065 BKN250 24/19 A2984 RMK AO2 WSHFT 2308 RAB2252E36 SLP105 P0006 60017 T02390194 10278 20228 53014=
202306282328 SPECI KJFK 282328Z 35006KT 10SM -RA BKN040TCU BKN075 BKN250 23/19 A2983 RMK AO2 WSHFT 2308 RAB2252 TCU NE P0006 T02280194=
202306282251 METAR KJFK 282251Z 23006KT 10SM BKN046TCU BKN065 BKN250 23/21 A2983 RMK AO2 RAE11 SLP099 TCU NW P0000 T02330206=
202306282151 METAR KJFK 282151Z 00000KT 10SM -RA BKN038 OVC060 23/19 A2981 RMK AO2 RAB07 SLP095 P0011 T02330194=
202306282051 METAR KJFK 282051Z 20005KT 10SM BKN041 BKN060 BKN100 BKN250 24/20 A2980 RMK AO2 RAB31E46 SLP092 VCSH NE AND W P0000 60000 T02440200 50001=
202306281951 METAR KJFK 281951Z 21011KT 10SM SCT040 SCT100 SCT250 26/19 A2980 RMK AO2 SLP092 TCU DSNT W VCSH NW T02560189=
202306281851 METAR KJFK 281851Z 19012KT 10SM SCT040 SCT065 SCT130 SCT250 27/19 A2980 RMK AO2 SLP092 T02670194=
202306281751 METAR KJFK 281751Z 20012KT 10SM SCT038 SCT095 SCT250 27/19 A2980 RMK AO2 SLP091 T02720194 10283 20217 55004=
202306281651 METAR KJFK 281651Z 20010KT 10SM SCT034 SCT250 27/19 A2980 RMK AO2 SLP091 T02720189=
202306281551 METAR KJFK 281551Z 20011KT 10SM FEW028 BKN250 27/19 A2981 RMK AO2 SLP095 T02670194=
202306281451 METAR KJFK 281451Z 22006KT 10SM FEW027 FEW150 BKN250 26/18 A2981 RMK AO2 SLP095 T02560183 51007=
202306281351 METAR KJFK 281351Z 22005KT 10SM FEW022 FEW150 BKN250 23/18 A2981 RMK AO2 SLP093 T02280183=
202306281251 METAR KJFK 281251Z 30006KT 9SM SCT018 BKN160 BKN250 22/18 A2981 RMK AO2 SLP092 T02220183=
202306281151 METAR KJFK 281151Z 32005KT 8SM FEW011 SCT170 BKN230 22/19 A2979 RMK AO2 SLP088 T02170189 10217 20194 53013 $=
202306281051 METAR KJFK 281051Z 36003KT 8SM FEW008 SCT150 OVC250 20/19 A2978 RMK AO2 SLP084 T02000189 $=
202306280951 METAR KJFK 280951Z 00000KT 10SM FEW170 BKN250 19/18 A2977 RMK AO2 SLP079 T01940183 $=
202306280851 METAR KJFK 280851Z 34004KT 10SM FEW130 BKN250 20/18 A2976 RMK AO2 SLP076 T02000183 55002 $=
202306280751 METAR KJFK 280751Z 34005KT 10SM FEW007 BKN130 BKN250 20/19 A2976 RMK AO2 SLP076 T02000194 $=
202306280651 METAR KJFK 280651Z 00000KT 10SM SCT006 BKN130 20/19 A2975 RMK AO2 SLP074 T02000194 $=
202306280551 METAR KJFK 280551Z 20006KT 10SM SCT006 BKN130 20/20 A2976 RMK AO2 SLP079 60000 T02000200 10211 20194 56001 $=
202306280451 METAR KJFK 280451Z 18004KT 9SM SCT005 BKN120 21/20 A2977 RMK AO2 SLP080 T02060200 402560189 $=
202306280351 METAR KJFK 280351Z 21003KT 10SM FEW005 FEW060 BKN180 19/19 A2976 RMK AO2 SLP077 T01940194 $=
202306280251 METAR KJFK 280251Z 18007KT 10SM FEW005 SCT065 OVC170 21/20 A2977 RMK AO2 RAE0156 SLP080 P0000 60000 T02060200 50003 $=
202306280151 METAR KJFK 280151Z 17007KT 10SM -RA FEW010 SCT075 BKN110 OVC140 21/20 A2977 RMK AO2 RAB23 SLP081 P0000 T02060200 $=
202306280051 METAR KJFK 280051Z 19008KT 10SM FEW013 FEW035 SCT070 BKN140 OVC250 21/19 A2977 RMK AO2 SLP082 T02110189 $=
202306272351 METAR KJFK 272351Z 17013KT 10SM FEW013 BKN070 BKN250 21/19 A2976 RMK AO2 LTG DSNT NW SLP077 T02110194 10256 20211 51019 $=
202306272251 METAR KJFK 272251Z 16008KT 10SM FEW013 FEW040 BKN085 BKN250 22/19 A2975 RMK AO2 LTG DSNT W AND NW SLP072 T02170194 $=
202306272151 METAR KJFK 272151Z 17012KT 10SM FEW019 FEW040 SCT090 BKN250 24/19 A2973 RMK AO2 SLP067 T02440194 $=
202306272051 METAR KJFK 272051Z 17010KT 10SM SCT019 SCT040 SCT110 BKN250 24/19 A2970 RMK AO2 SLP058 T02440194 50000 $=
202306271951 METAR KJFK 271951Z 19011KT 10SM SCT021 SCT040 BKN110 BKN250 24/19 A2971 RMK AO2 SLP059 T02440194 $=
202306271851 METAR KJFK 271851Z 20012KT 10SM SCT017 SCT040 BKN250 24/19 A2971 RMK AO2 SLP060 SCT017 V BKN T02440194 $=
202306271751 METAR KJFK 271751Z 18011KT 10SM SCT015 BKN250 24/20 A2970 RMK AO2 SLP058 60000 T02390200 10244 20211 58008 $=
202306271651 METAR KJFK 271651Z 19012KT 10SM FEW027 FEW120 BKN250 23/19 A2972 RMK AO2 SLP064 T02280194 $=
202306271551 METAR KJFK 271551Z 18018KT 10SM FEW012 BKN090 BKN250 22/19 A2973 RMK AO2 SLP067 T02170189 $=
202306271458 SPECI KJFK 271458Z 19018KT 10SM SCT010 BKN030 BKN090 OVC250 21/19 A2973 RMK AO2 T02110189 $=
202306271451 METAR KJFK 271451Z 19016KT 10SM SCT010 BKN013 BKN090 OVC250 21/19 A2973 RMK AO2 SLP067 60000 T02110189 51019 $=
202306271444 SPECI KJFK 271444Z 18018G23KT 10SM SCT010 BKN013 OVC090 21/19 A2973 RMK AO2 T02110194 $=
202306271430 SPECI KJFK 271430Z 16014G21KT 10SM OVC009 21/19 A2973 RMK AO2 T02110194 $=
202306271351 METAR KJFK 271351Z 14012KT 10SM BKN012 BKN018 BKN110 OVC250 22/19 A2972 RMK AO2 RAB18E44 SLP062 P0000 T02170194 $=
202306271337 SPECI KJFK 271337Z 14007KT 10SM -RA BKN013 OVC110 22/19 A2971 RMK AO2 RAB18 P0000 T02170194 $=
202306271309 SPECI KJFK 271309Z 09004KT 10SM FEW014 SCT021 BKN120 OVC250 22/19 A2970 RMK AO2 CIG 021 W T02170194 $=
202306271251 METAR KJFK 271251Z 09004KT 10SM FEW013 BKN020 OVC250 22/19 A2970 RMK AO2 RAB1158E26 SLP056 P0000 T02170194 $=
202306271240 SPECI KJFK 271240Z 11005KT 10SM BKN022 BKN040 BKN120 22/19 A2969 RMK AO2 RAB1158E26 P0000 T02170194 $=
202306271230 SPECI KJFK 271230Z 00000KT 10SM SCT029 SCT075 BKN100 OVC250 22/19 A2969 RMK AO2 RAB1158E26 CIG 012 W P0000 T02170189 $=
202306271223 SPECI KJFK 271223Z 00000KT 10SM -RA BKN027 BKN043 BKN110 OVC250 21/19 A2969 RMK AO2 RAB1158 CIG 012 W P0000 T02110189 $=
202306271151 METAR KJFK 271151Z 00000KT 10SM SCT019 BKN130 OVC250 21/19 A2967 RMK AO2 SLP048 60000 70002 T02110194 10211 20189 50009 $=
202306271051 METAR KJFK 271051Z 12005KT 9SM FEW010 BKN130 BKN250 21/20 A2968 RMK AO2 SLP050 T02060200 $=
202306270951 METAR KJFK 270951Z 19003KT 10SM BKN130 BKN250 20/20 A2968 RMK AO2 SLP051 T02000200 $=
202306270851 METAR KJFK 270851Z 28007KT 10SM BKN250 20/19 A2965 RMK AO2 SLP038 60000 T02000189 58014 $=
202306270751 METAR KJFK 270751Z 15007KT 10SM FEW050 SCT100 BKN170 21/20 A2966 RMK AO2 SLP044 OCNL LTGICCC DSNT E-SE CB DSNT E-SE MOV NE T02060200 $=
202306270651 METAR KJFK 270651Z 22007KT 10SM FEW050 SCT100 19/18 A2968 RMK AO2 RAE0557 TSE10 SLP051 FRQ LTGIC DSNT SE-S CB DSNT SE-S MOV NE P0000 T01940183 $=
202306270611 SPECI KJFK 270611Z 22003KT 10SM FEW050 BKN100 19/18 A2968 RMK AO2 RAE0557 TSE10 FRQ LTGICCA DSNT S CB DSNT S MOV NE P0000 T01940183 $=
202306270551 METAR KJFK 270551Z 25006KT 10SM -TSRA SCT050CB BKN100 20/18 A2969 RMK AO2 PK WND 25026/0500 WSHFT 0456 RAB0455 TSB16 SLP052 FRQ LTGICCA SE-S TS SE-S MOV NE P0002 60002 T02000183 10228 20200 58006 $=
202306270516 SPECI KJFK 270516Z 27006KT 10SM -TSRA FEW004 SCT048CB BKN120 21/19 A2969 RMK AO2 PK WND 25026/0500 WSHFT 0456 RAB0455 TSB16 OCNL LTGIC S TS S MOV NE P0000 T02110189 $=
202306270451 METAR KJFK 270451Z 22016KT 1SM R04R/P6000FT BR OVC003 21/21 A2971 RMK AO2 SFC VIS 2 1/2 LTG DSNT S-W SLP061 T02110211 402720200 $=
202306270423 SPECI KJFK 270423Z 20010KT 1SM R04R/P6000FT BR OVC003 21/21 A2971 RMK AO2 SFC VIS 3 T02110211 $=
202306270351 METAR KJFK 270351Z 18013KT 6SM BR OVC005 22/21 A2971 RMK AO2 SLP059 T02170211 $=
202306270251 METAR KJFK 270251Z 14011KT 7SM OVC007 22/21 A2971 RMK AO2 SLP059 T02170206 58012 $=
202306270243 SPECI KJFK 270243Z 13009KT 7SM OVC007 22/21 A2971 RMK AO2 T02170206 $=
202306270151 METAR KJFK 270151Z 14005KT 10SM OVC010 22/21 A2974 RMK AO2 SLP072 T02220206 $=
202306270051 METAR KJFK 270051Z VRB05KT 10SM OVC011 23/21 A2973 RMK AO2 SLP068 T02280206 $=
202306270039 SPECI KJFK 270039Z VRB04KT 10SM OVC011 23/21 A2974 RMK AO2 T02280206 $=
202306262351 METAR KJFK 262351Z 20004KT 10SM BKN009 BKN016 OVC065 23/21 A2974 RMK AO2 SLP071 T02280206 10272 20222 51009 $=
202306262251 METAR KJFK 262251Z 18009KT 10SM BKN009 BKN040 OVC085 23/21 A2974 RMK AO2 LTG DSNT W-N SLP069 T02280206 $=
202306262151 METAR KJFK 262151Z 16012G19KT 10SM FEW009 FEW045 BKN120 BKN160 OVC250 23/21 A2972 RMK AO2 LTG DSNT W AND NW SLP064 T02280206 $=
202306262051 METAR KJFK 262051Z 15013KT 10SM FEW009 BKN160 BKN250 23/21 A2971 RMK AO2 LTG DSNT NW SLP062 T02330206 56015 $=
202306262047 SPECI KJFK 262047Z 16013KT 10SM FEW009 BKN160 BKN250 23/21 A2971 RMK AO2 LTG DSNT NW $=
202306261951 METAR KJFK 261951Z 16012KT 10SM FEW010 FEW047 SCT140 BKN180 BKN250 24/21 A2974 RMK AO2 LTG DSNT W-N SLP069 T02440206 $=
202306261851 METAR KJFK 261851Z 14012KT 10SM FEW011 FEW047 SCT065 BKN250 25/21 A2974 RMK AO2 LTG DSNT N SLP069 T02500206 $=